{
  "fetchedAt": "2025-12-10T07:48:23.325Z",
  "prefectureId": "yamaguchi",
  "prefectureName": "山口県",
  "stats": {
    "station": 153,
    "airport": 5,
    "ferry_terminal": 34,
    "bus_terminal": 3,
    "total": 195
  },
  "data": [
    {
      "id": "yamaguchi_station_265927614",
      "osmId": 265927614,
      "osmType": "node",
      "prefectureId": "yamaguchi",
      "type": "station",
      "subtype": "private",
      "name": "福川",
      "nameKana": null,
      "nameEn": "Fukugawa",
      "operator": null,
      "network": null,
      "ref": null,
      "latitude": 34.0720605,
      "longitude": 131.7384699,
      "countryCode": "jp",
      "rawTags": {
        "KSJ2:LIN": "山陽線",
        "KSJ2:STN": "福川",
        "name": "福川",
        "name:de": "Fukugawa",
        "name:en": "Fukugawa",
        "name:ja": "福川",
        "name:ko": "후쿠가와",
        "note": "National-Land Numerical Information (Railway) 2007, MLIT Japan",
        "note:ja": "国土数値情報（鉄道データ）平成19年　国土交通省",
        "railway": "station",
        "source": "KSJ2",
        "source_ref": "http://nlftp.mlit.go.jp/ksj/jpgis/datalist/KsjTmplt-N02-v1_1.html",
        "wikidata": "Q5357925",
        "wikipedia": "ja:福川駅"
      }
    },
    {
      "id": "yamaguchi_station_265928476",
      "osmId": 265928476,
      "osmType": "node",
      "prefectureId": "yamaguchi",
      "type": "station",
      "subtype": "jr",
      "name": "由宇",
      "nameKana": null,
      "nameEn": "Yū",
      "operator": "JR西日本",
      "network": "山陽本線",
      "ref": null,
      "latitude": 34.043332,
      "longitude": 132.2137215,
      "countryCode": "jp",
      "rawTags": {
        "KSJ2:LIN": "山陽線",
        "KSJ2:STN": "由宇",
        "name": "由宇",
        "name:de": "Yū",
        "name:en": "Yū",
        "name:ja": "由宇",
        "name:ko": "유우",
        "network": "山陽本線",
        "note": "National-Land Numerical Information (Railway) 2007, MLIT Japan",
        "note:ja": "国土数値情報（鉄道データ）平成19年　国土交通省",
        "operator": "JR西日本",
        "public_transport": "station",
        "railway": "station",
        "source": "KSJ2",
        "source_ref": "http://nlftp.mlit.go.jp/ksj/jpgis/datalist/KsjTmplt-N02-v1_1.html",
        "train": "yes",
        "wikidata": "Q5357881",
        "wikipedia": "ja:由宇駅"
      }
    },
    {
      "id": "yamaguchi_station_265936876",
      "osmId": 265936876,
      "osmType": "node",
      "prefectureId": "yamaguchi",
      "type": "station",
      "subtype": "private",
      "name": "長府",
      "nameKana": null,
      "nameEn": "Chofu",
      "operator": null,
      "network": null,
      "ref": null,
      "latitude": 34.0196968,
      "longitude": 130.9997459,
      "countryCode": "jp",
      "rawTags": {
        "name": "長府",
        "name:de": "Chofu",
        "name:en": "Chofu",
        "name:ja": "長府",
        "name:ko": "조후",
        "railway": "station",
        "source": "KSJ2",
        "wikidata": "Q5118987",
        "wikipedia": "ja:長府駅"
      }
    },
    {
      "id": "yamaguchi_station_266029164",
      "osmId": 266029164,
      "osmType": "node",
      "prefectureId": "yamaguchi",
      "type": "station",
      "subtype": "private",
      "name": "三見",
      "nameKana": null,
      "nameEn": "Sammi",
      "operator": null,
      "network": null,
      "ref": null,
      "latitude": 34.397333,
      "longitude": 131.3301857,
      "countryCode": "jp",
      "rawTags": {
        "KSJ2:LIN": "山陰線",
        "KSJ2:STN": "三見",
        "name": "三見",
        "name:en": "Sammi",
        "name:ja": "三見",
        "name:ko": "산미",
        "note": "National-Land Numerical Information (Railway) 2007, MLIT Japan",
        "note:ja": "国土数値情報（鉄道データ）平成19年　国土交通省",
        "public_transport": "station",
        "railway": "station",
        "source": "KSJ2",
        "source_ref": "http://nlftp.mlit.go.jp/ksj/jpgis/datalist/KsjTmplt-N02-v1_1.html",
        "wikidata": "Q7409676",
        "wikipedia": "ja:三見駅"
      }
    },
    {
      "id": "yamaguchi_station_266029589",
      "osmId": 266029589,
      "osmType": "node",
      "prefectureId": "yamaguchi",
      "type": "station",
      "subtype": "private",
      "name": "玉江",
      "nameKana": null,
      "nameEn": "Tamae",
      "operator": null,
      "network": null,
      "ref": null,
      "latitude": 34.4054441,
      "longitude": 131.3795987,
      "countryCode": "jp",
      "rawTags": {
        "KSJ2:LIN": "山陰線",
        "KSJ2:STN": "玉江",
        "name": "玉江",
        "name:en": "Tamae",
        "name:ja": "玉江",
        "name:ko": "다마에",
        "note": "National-Land Numerical Information (Railway) 2007, MLIT Japan",
        "note:ja": "国土数値情報（鉄道データ）平成19年　国土交通省",
        "railway": "station",
        "source": "KSJ2",
        "source_ref": "http://nlftp.mlit.go.jp/ksj/jpgis/datalist/KsjTmplt-N02-v1_1.html",
        "wikidata": "Q7680527",
        "wikipedia": "ja:玉江駅"
      }
    },
    {
      "id": "yamaguchi_station_266031106",
      "osmId": 266031106,
      "osmType": "node",
      "prefectureId": "yamaguchi",
      "type": "station",
      "subtype": "private",
      "name": "宇田郷",
      "nameKana": null,
      "nameEn": "Utagō",
      "operator": null,
      "network": null,
      "ref": null,
      "latitude": 34.5720788,
      "longitude": 131.5489583,
      "countryCode": "jp",
      "rawTags": {
        "KSJ2:LIN": "山陰線",
        "KSJ2:STN": "宇田郷",
        "name": "宇田郷",
        "name:en": "Utagō",
        "name:ja": "宇田郷",
        "name:ko": "우타고",
        "note": "National-Land Numerical Information (Railway) 2007, MLIT Japan",
        "note:ja": "国土数値情報（鉄道データ）平成19年　国土交通省",
        "public_transport": "station",
        "railway": "station",
        "source": "KSJ2",
        "source_ref": "http://nlftp.mlit.go.jp/ksj/jpgis/datalist/KsjTmplt-N02-v1_1.html",
        "wikidata": "Q7902300",
        "wikipedia": "ja:宇田郷駅"
      }
    },
    {
      "id": "yamaguchi_station_266031200",
      "osmId": 266031200,
      "osmType": "node",
      "prefectureId": "yamaguchi",
      "type": "station",
      "subtype": "private",
      "name": "木与",
      "nameKana": null,
      "nameEn": "Kiyo",
      "operator": null,
      "network": null,
      "ref": null,
      "latitude": 34.5326328,
      "longitude": 131.5030678,
      "countryCode": "jp",
      "rawTags": {
        "KSJ2:LIN": "山陰線",
        "KSJ2:STN": "木与",
        "name": "木与",
        "name:en": "Kiyo",
        "name:ja": "木与",
        "name:ko": "기요",
        "note": "National-Land Numerical Information (Railway) 2007, MLIT Japan",
        "note:ja": "国土数値情報（鉄道データ）平成19年　国土交通省",
        "public_transport": "station",
        "railway": "station",
        "source": "KSJ2",
        "source_ref": "http://nlftp.mlit.go.jp/ksj/jpgis/datalist/KsjTmplt-N02-v1_1.html",
        "wikidata": "Q6418975",
        "wikipedia": "ja:木与駅"
      }
    },
    {
      "id": "yamaguchi_station_266031791",
      "osmId": 266031791,
      "osmType": "node",
      "prefectureId": "yamaguchi",
      "type": "station",
      "subtype": "private",
      "name": "奈古",
      "nameKana": "なご",
      "nameEn": "Nago",
      "operator": null,
      "network": null,
      "ref": null,
      "latitude": 34.5028228,
      "longitude": 131.4724664,
      "countryCode": "jp",
      "rawTags": {
        "KSJ2:LIN": "山陰線",
        "KSJ2:STN": "奈古",
        "name": "奈古",
        "name:en": "Nago",
        "name:ja": "奈古",
        "name:ja_kana": "なご",
        "name:ja_rm": "Nago",
        "name:ko": "나고",
        "note": "National-Land Numerical Information (Railway) 2007, MLIT Japan",
        "note:ja": "国土数値情報（鉄道データ）平成19年　国土交通省",
        "public_transport": "station",
        "railway": "station",
        "source": "KSJ2",
        "source_ref": "http://nlftp.mlit.go.jp/ksj/jpgis/datalist/KsjTmplt-N02-v1_1.html",
        "wikidata": "Q3701395",
        "wikipedia": "ja:奈古駅"
      }
    },
    {
      "id": "yamaguchi_station_266031885",
      "osmId": 266031885,
      "osmType": "node",
      "prefectureId": "yamaguchi",
      "type": "station",
      "subtype": "private",
      "name": "越ヶ浜",
      "nameKana": "こしがはま",
      "nameEn": "Koshigahama",
      "operator": null,
      "network": null,
      "ref": null,
      "latitude": 34.438941,
      "longitude": 131.422519,
      "countryCode": "jp",
      "rawTags": {
        "KSJ2:LIN": "山陰線",
        "KSJ2:STN": "越ヶ浜",
        "name": "越ヶ浜",
        "name:en": "Koshigahama",
        "name:ja": "越ヶ浜",
        "name:ja-Hira": "こしがはま",
        "name:ko": "고시가하마",
        "note": "National-Land Numerical Information (Railway) 2007, MLIT Japan",
        "note:ja": "国土数値情報（鉄道データ）平成19年　国土交通省",
        "public_transport": "station",
        "railway": "station",
        "source": "KSJ2",
        "source_ref": "http://nlftp.mlit.go.jp/ksj/jpgis/datalist/KsjTmplt-N02-v1_1.html",
        "wikidata": "Q6433118",
        "wikipedia": "ja:越ケ浜駅"
      }
    },
    {
      "id": "yamaguchi_station_266031887",
      "osmId": 266031887,
      "osmType": "node",
      "prefectureId": "yamaguchi",
      "type": "station",
      "subtype": "private",
      "name": "須佐",
      "nameKana": null,
      "nameEn": "Susa",
      "operator": null,
      "network": null,
      "ref": null,
      "latitude": 34.6218519,
      "longitude": 131.6054511,
      "countryCode": "jp",
      "rawTags": {
        "KSJ2:LIN": "山陰線",
        "KSJ2:STN": "須佐",
        "name": "須佐",
        "name:en": "Susa",
        "name:ja": "須佐",
        "name:ko": "스사",
        "note": "National-Land Numerical Information (Railway) 2007, MLIT Japan",
        "note:ja": "国土数値情報（鉄道データ）平成19年　国土交通省",
        "public_transport": "station",
        "railway": "station",
        "source": "KSJ2",
        "source_ref": "http://nlftp.mlit.go.jp/ksj/jpgis/datalist/KsjTmplt-N02-v1_1.html",
        "wikidata": "Q278876",
        "wikipedia": "ja:須佐駅"
      }
    },
    {
      "id": "yamaguchi_station_266032222",
      "osmId": 266032222,
      "osmType": "node",
      "prefectureId": "yamaguchi",
      "type": "station",
      "subtype": "private",
      "name": "東萩",
      "nameKana": null,
      "nameEn": "Higashi-Hagi",
      "operator": null,
      "network": null,
      "ref": null,
      "latitude": 34.4169951,
      "longitude": 131.4105197,
      "countryCode": "jp",
      "rawTags": {
        "KSJ2:LIN": "山陰線",
        "KSJ2:STN": "東萩",
        "name": "東萩",
        "name:en": "Higashi-Hagi",
        "name:ja": "東萩",
        "name:ko": "히가시하기",
        "note": "National-Land Numerical Information (Railway) 2007, MLIT Japan",
        "note:ja": "国土数値情報（鉄道データ）平成19年　国土交通省",
        "public_transport": "station",
        "railway": "station",
        "source": "KSJ2",
        "source_ref": "http://nlftp.mlit.go.jp/ksj/jpgis/datalist/KsjTmplt-N02-v1_1.html",
        "wikidata": "Q5753531",
        "wikipedia": "ja:東萩駅"
      }
    },
    {
      "id": "yamaguchi_station_266032224",
      "osmId": 266032224,
      "osmType": "node",
      "prefectureId": "yamaguchi",
      "type": "station",
      "subtype": "private",
      "name": "飯井",
      "nameKana": null,
      "nameEn": "Ii",
      "operator": null,
      "network": null,
      "ref": null,
      "latitude": 34.3791578,
      "longitude": 131.2950367,
      "countryCode": "jp",
      "rawTags": {
        "KSJ2:LIN": "山陰線",
        "KSJ2:STN": "飯井",
        "name": "飯井",
        "name:en": "Ii",
        "name:ja": "飯井",
        "name:ko": "이",
        "note": "National-Land Numerical Information (Railway) 2007, MLIT Japan",
        "note:ja": "国土数値情報（鉄道データ）平成19年　国土交通省",
        "railway": "station",
        "source": "KSJ2",
        "source_ref": "http://nlftp.mlit.go.jp/ksj/jpgis/datalist/KsjTmplt-N02-v1_1.html",
        "wikidata": "Q11666111",
        "wikipedia": "ja:飯井駅"
      }
    },
    {
      "id": "yamaguchi_station_266032415",
      "osmId": 266032415,
      "osmType": "node",
      "prefectureId": "yamaguchi",
      "type": "station",
      "subtype": "private",
      "name": "長門大井",
      "nameKana": null,
      "nameEn": "Nagato-Ōi",
      "operator": null,
      "network": null,
      "ref": null,
      "latitude": 34.4712655,
      "longitude": 131.4498012,
      "countryCode": "jp",
      "rawTags": {
        "KSJ2:LIN": "山陰線",
        "KSJ2:STN": "長門大井",
        "name": "長門大井",
        "name:en": "Nagato-Ōi",
        "name:ja": "長門大井",
        "name:ko": "나가토오이",
        "note": "National-Land Numerical Information (Railway) 2007, MLIT Japan",
        "note:ja": "国土数値情報（鉄道データ）平成19年　国土交通省",
        "public_transport": "station",
        "railway": "station",
        "source": "KSJ2",
        "source_ref": "http://nlftp.mlit.go.jp/ksj/jpgis/datalist/KsjTmplt-N02-v1_1.html",
        "wikidata": "Q6958688",
        "wikipedia": "ja:長門大井駅"
      }
    },
    {
      "id": "yamaguchi_station_266032710",
      "osmId": 266032710,
      "osmType": "node",
      "prefectureId": "yamaguchi",
      "type": "station",
      "subtype": "private",
      "name": "長門三隅",
      "nameKana": null,
      "nameEn": "Nagato-Misumi",
      "operator": null,
      "network": null,
      "ref": null,
      "latitude": 34.366219,
      "longitude": 131.2364119,
      "countryCode": "jp",
      "rawTags": {
        "KSJ2:LIN": "山陰線",
        "KSJ2:STN": "長門三隅",
        "name": "長門三隅",
        "name:en": "Nagato-Misumi",
        "name:ja": "長門三隅",
        "name:ko": "나가토미스미",
        "note": "National-Land Numerical Information (Railway) 2007, MLIT Japan",
        "note:ja": "国土数値情報（鉄道データ）平成19年　国土交通省",
        "railway": "station",
        "source": "KSJ2",
        "source_ref": "http://nlftp.mlit.go.jp/ksj/jpgis/datalist/KsjTmplt-N02-v1_1.html",
        "wikidata": "Q3701388",
        "wikipedia": "ja:長門三隅駅"
      }
    },
    {
      "id": "yamaguchi_station_266032712",
      "osmId": 266032712,
      "osmType": "node",
      "prefectureId": "yamaguchi",
      "type": "station",
      "subtype": "private",
      "name": "萩",
      "nameKana": null,
      "nameEn": "Hagi",
      "operator": null,
      "network": null,
      "ref": null,
      "latitude": 34.3938041,
      "longitude": 131.4010475,
      "countryCode": "jp",
      "rawTags": {
        "KSJ2:LIN": "山陰線",
        "KSJ2:STN": "萩",
        "name": "萩",
        "name:en": "Hagi",
        "name:ja": "萩",
        "name:ja_rm": "Hagi",
        "name:ko": "하기",
        "note": "National-Land Numerical Information (Railway) 2007, MLIT Japan",
        "note:ja": "国土数値情報（鉄道データ）平成19年　国土交通省",
        "public_transport": "station",
        "railway": "station",
        "source": "KSJ2",
        "source_ref": "http://nlftp.mlit.go.jp/ksj/jpgis/datalist/KsjTmplt-N02-v1_1.html",
        "wikidata": "Q5638728",
        "wikipedia": "ja:萩駅"
      }
    },
    {
      "id": "yamaguchi_station_266032796",
      "osmId": 266032796,
      "osmType": "node",
      "prefectureId": "yamaguchi",
      "type": "station",
      "subtype": "private",
      "name": "江崎",
      "nameKana": null,
      "nameEn": "Esaki",
      "operator": null,
      "network": null,
      "ref": null,
      "latitude": 34.6380909,
      "longitude": 131.6619984,
      "countryCode": "jp",
      "rawTags": {
        "KSJ2:LIN": "山陰線",
        "KSJ2:STN": "江崎",
        "name": "江崎",
        "name:en": "Esaki",
        "name:ja": "江崎",
        "name:ko": "에사키",
        "note": "National-Land Numerical Information (Railway) 2007, MLIT Japan",
        "note:ja": "国土数値情報（鉄道データ）平成19年　国土交通省",
        "public_transport": "station",
        "railway": "station",
        "source": "KSJ2",
        "source_ref": "http://nlftp.mlit.go.jp/ksj/jpgis/datalist/KsjTmplt-N02-v1_1.html",
        "wikidata": "Q5396697",
        "wikipedia": "ja:江崎駅"
      }
    },
    {
      "id": "yamaguchi_station_266033094",
      "osmId": 266033094,
      "osmType": "node",
      "prefectureId": "yamaguchi",
      "type": "station",
      "subtype": "private",
      "name": "安岡",
      "nameKana": null,
      "nameEn": "Yasuoka",
      "operator": null,
      "network": null,
      "ref": null,
      "latitude": 34.0249018,
      "longitude": 130.916698,
      "countryCode": "jp",
      "rawTags": {
        "KSJ2:LIN": "山陰線",
        "KSJ2:STN": "安岡",
        "name": "安岡",
        "name:en": "Yasuoka",
        "name:ja": "安岡",
        "name:ko": "야스오카",
        "note": "National-Land Numerical Information (Railway) 2007, MLIT Japan",
        "note:ja": "国土数値情報（鉄道データ）平成19年　国土交通省",
        "public_transport": "station",
        "railway": "station",
        "source": "KSJ2",
        "source_ref": "http://nlftp.mlit.go.jp/ksj/jpgis/datalist/KsjTmplt-N02-v1_1.html",
        "wikidata": "Q8050084",
        "wikipedia": "ja:安岡駅"
      }
    },
    {
      "id": "yamaguchi_station_266033095",
      "osmId": 266033095,
      "osmType": "node",
      "prefectureId": "yamaguchi",
      "type": "station",
      "subtype": "private",
      "name": "梅ヶ峠",
      "nameKana": null,
      "nameEn": "Umegatō",
      "operator": null,
      "network": null,
      "ref": null,
      "latitude": 34.101511,
      "longitude": 130.9002362,
      "countryCode": "jp",
      "rawTags": {
        "KSJ2:LIN": "山陰線",
        "KSJ2:STN": "梅ヶ峠",
        "addr:city": "下関市豊浦町大字厚母郷字梅ヶ峠２番",
        "addr:street": "国道１９１号",
        "name": "梅ヶ峠",
        "name:en": "Umegatō",
        "name:ja": "梅ヶ峠",
        "name:ko": "우메가토",
        "note": "National-Land Numerical Information (Railway) 2007, MLIT Japan",
        "note:ja": "国土数値情報（鉄道データ）平成19年　国土交通省",
        "railway": "station",
        "source": "KSJ2",
        "source_ref": "http://nlftp.mlit.go.jp/ksj/jpgis/datalist/KsjTmplt-N02-v1_1.html",
        "website": "https://www.jr-odekake.net/eki/top.php?id=0800716",
        "wikidata": "Q7881475",
        "wikipedia": "ja:梅ケ峠駅"
      }
    },
    {
      "id": "yamaguchi_station_266033109",
      "osmId": 266033109,
      "osmType": "node",
      "prefectureId": "yamaguchi",
      "type": "station",
      "subtype": "private",
      "name": "黄波戸",
      "nameKana": null,
      "nameEn": "Kiwado",
      "operator": null,
      "network": null,
      "ref": null,
      "latitude": 34.3851713,
      "longitude": 131.1398057,
      "countryCode": "jp",
      "rawTags": {
        "KSJ2:LIN": "山陰線",
        "KSJ2:STN": "黄波戸",
        "name": "黄波戸",
        "name:en": "Kiwado",
        "name:ja": "黄波戸",
        "name:ko": "기와도",
        "note": "National-Land Numerical Information (Railway) 2007, MLIT Japan",
        "note:ja": "国土数値情報（鉄道データ）平成19年　国土交通省",
        "railway": "station",
        "source": "KSJ2",
        "source_ref": "http://nlftp.mlit.go.jp/ksj/jpgis/datalist/KsjTmplt-N02-v1_1.html",
        "wikidata": "Q6418844",
        "wikipedia": "ja:黄波戸駅"
      }
    },
    {
      "id": "yamaguchi_station_266033169",
      "osmId": 266033169,
      "osmType": "node",
      "prefectureId": "yamaguchi",
      "type": "station",
      "subtype": "private",
      "name": "長門古市",
      "nameKana": null,
      "nameEn": "Nagato-Furuichi",
      "operator": null,
      "network": null,
      "ref": null,
      "latitude": 34.3886611,
      "longitude": 131.102361,
      "countryCode": "jp",
      "rawTags": {
        "KSJ2:LIN": "山陰線",
        "KSJ2:STN": "長門古市",
        "name": "長門古市",
        "name:en": "Nagato-Furuichi",
        "name:ja": "長門古市",
        "name:ko": "나가토후루이치",
        "note": "National-Land Numerical Information (Railway) 2007, MLIT Japan",
        "note:ja": "国土数値情報（鉄道データ）平成19年　国土交通省",
        "railway": "station",
        "source": "KSJ2",
        "source_ref": "http://nlftp.mlit.go.jp/ksj/jpgis/datalist/KsjTmplt-N02-v1_1.html",
        "wikidata": "Q6958681",
        "wikipedia": "ja:長門古市駅"
      }
    },
    {
      "id": "yamaguchi_station_266033170",
      "osmId": 266033170,
      "osmType": "node",
      "prefectureId": "yamaguchi",
      "type": "station",
      "subtype": "private",
      "name": "黒井村",
      "nameKana": null,
      "nameEn": "Kuroimura",
      "operator": null,
      "network": null,
      "ref": null,
      "latitude": 34.1277232,
      "longitude": 130.9121029,
      "countryCode": "jp",
      "rawTags": {
        "KSJ2:LIN": "山陰線",
        "KSJ2:STN": "黒井村",
        "name": "黒井村",
        "name:en": "Kuroimura",
        "name:ja": "黒井村",
        "name:ko": "구로이무라",
        "note": "National-Land Numerical Information (Railway) 2007, MLIT Japan",
        "note:ja": "国土数値情報（鉄道データ）平成19年　国土交通省",
        "public_transport": "station",
        "railway": "station",
        "source": "KSJ2",
        "source_ref": "http://nlftp.mlit.go.jp/ksj/jpgis/datalist/KsjTmplt-N02-v1_1.html",
        "wikidata": "Q11678008",
        "wikipedia": "ja:黒井村駅"
      }
    },
    {
      "id": "yamaguchi_station_266033178",
      "osmId": 266033178,
      "osmType": "node",
      "prefectureId": "yamaguchi",
      "type": "station",
      "subtype": "private",
      "name": "吉見",
      "nameKana": "よしみ",
      "nameEn": "Yoshimi",
      "operator": null,
      "network": null,
      "ref": null,
      "latitude": 34.0702037,
      "longitude": 130.9034869,
      "countryCode": "jp",
      "rawTags": {
        "KSJ2:LIN": "山陰線",
        "KSJ2:STN": "吉見",
        "addr:city": "山口県下関市吉見本町１丁目１番",
        "addr:postcode": "759-6531",
        "name": "吉見",
        "name:en": "Yoshimi",
        "name:ja": "吉見",
        "name:ja_kana": "よしみ",
        "name:ko": "요시미",
        "note": "National-Land Numerical Information (Railway) 2007, MLIT Japan",
        "note:ja": "国土数値情報（鉄道データ）平成19年　国土交通省",
        "railway": "station",
        "source": "KSJ2",
        "source_ref": "http://nlftp.mlit.go.jp/ksj/jpgis/datalist/KsjTmplt-N02-v1_1.html",
        "wikidata": "Q3701400",
        "wikipedia": "ja:吉見駅"
      }
    },
    {
      "id": "yamaguchi_station_266034495",
      "osmId": 266034495,
      "osmType": "node",
      "prefectureId": "yamaguchi",
      "type": "station",
      "subtype": "private",
      "name": "綾羅木",
      "nameKana": null,
      "nameEn": "Ayaragi",
      "operator": null,
      "network": null,
      "ref": null,
      "latitude": 34.0039194,
      "longitude": 130.926721,
      "countryCode": "jp",
      "rawTags": {
        "name": "綾羅木",
        "name:en": "Ayaragi",
        "name:ja": "綾羅木",
        "name:ko": "아야라기",
        "note": "National-Land Numerical Information (Railway) 2007, MLIT Japan",
        "public_transport": "station",
        "railway": "station",
        "source": "KSJ2",
        "source_ref": "http://nlftp.mlit.go.jp/ksj/jpgis/datalist/KsjTmplt-N02-v1_1.html",
        "wikidata": "Q4830964",
        "wikipedia": "ja:綾羅木駅"
      }
    },
    {
      "id": "yamaguchi_station_266034496",
      "osmId": 266034496,
      "osmType": "node",
      "prefectureId": "yamaguchi",
      "type": "station",
      "subtype": "private",
      "name": "伊上",
      "nameKana": null,
      "nameEn": "Igami",
      "operator": null,
      "network": null,
      "ref": null,
      "latitude": 34.3704236,
      "longitude": 131.0113316,
      "countryCode": "jp",
      "rawTags": {
        "KSJ2:LIN": "山陰線",
        "KSJ2:STN": "伊上",
        "name": "伊上",
        "name:en": "Igami",
        "name:ja": "伊上",
        "name:ko": "이가미",
        "note": "National-Land Numerical Information (Railway) 2007, MLIT Japan",
        "note:ja": "国土数値情報（鉄道データ）平成19年　国土交通省",
        "railway": "station",
        "source": "KSJ2",
        "source_ref": "http://nlftp.mlit.go.jp/ksj/jpgis/datalist/KsjTmplt-N02-v1_1.html",
        "wikidata": "Q5991457",
        "wikipedia": "ja:伊上駅"
      }
    },
    {
      "id": "yamaguchi_station_266034506",
      "osmId": 266034506,
      "osmType": "node",
      "prefectureId": "yamaguchi",
      "type": "station",
      "subtype": "jr",
      "name": "阿川",
      "nameKana": null,
      "nameEn": "Agawa",
      "operator": "JR 西日本旅客鉄道",
      "network": "JR 山陰本線",
      "ref": null,
      "latitude": 34.3360822,
      "longitude": 130.9260582,
      "countryCode": "jp",
      "rawTags": {
        "KSJ2:LIN": "山陰線",
        "KSJ2:STN": "阿川",
        "name": "阿川",
        "name:en": "Agawa",
        "name:ja": "阿川",
        "name:ko": "아가와",
        "network": "JR 山陰本線",
        "note": "National-Land Numerical Information (Railway) 2007, MLIT Japan",
        "note:ja": "国土数値情報（鉄道データ）平成19年　国土交通省",
        "operator": "JR 西日本旅客鉄道",
        "public_transport": "station",
        "railway": "station",
        "source": "KSJ2",
        "source_ref": "http://nlftp.mlit.go.jp/ksj/jpgis/datalist/KsjTmplt-N02-v1_1.html",
        "wikidata": "Q4691631",
        "wikipedia": "ja:阿川駅"
      }
    },
    {
      "id": "yamaguchi_station_266034671",
      "osmId": 266034671,
      "osmType": "node",
      "prefectureId": "yamaguchi",
      "type": "station",
      "subtype": "private",
      "name": "小串",
      "nameKana": null,
      "nameEn": "Kogushi",
      "operator": null,
      "network": null,
      "ref": null,
      "latitude": 34.1697783,
      "longitude": 130.9280746,
      "countryCode": "jp",
      "rawTags": {
        "KSJ2:LIN": "山陰線",
        "KSJ2:STN": "小串",
        "name": "小串",
        "name:en": "Kogushi",
        "name:ja": "小串",
        "name:ko": "고구시",
        "note": "National-Land Numerical Information (Railway) 2007, MLIT Japan",
        "note:ja": "国土数値情報（鉄道データ）平成19年　国土交通省",
        "public_transport": "station",
        "railway": "station",
        "source": "KSJ2",
        "source_ref": "http://nlftp.mlit.go.jp/ksj/jpgis/datalist/KsjTmplt-N02-v1_1.html",
        "wikidata": "Q6425830",
        "wikipedia": "ja:小串駅"
      }
    },
    {
      "id": "yamaguchi_station_266034800",
      "osmId": 266034800,
      "osmType": "node",
      "prefectureId": "yamaguchi",
      "type": "station",
      "subtype": "private",
      "name": "川棚温泉",
      "nameKana": null,
      "nameEn": "Kawatana-Onsen",
      "operator": null,
      "network": null,
      "ref": null,
      "latitude": 34.1464995,
      "longitude": 130.9223059,
      "countryCode": "jp",
      "rawTags": {
        "KSJ2:LIN": "山陰線",
        "KSJ2:STN": "川棚温泉",
        "alt_name:ko": "가와타나온센",
        "name": "川棚温泉",
        "name:en": "Kawatana-Onsen",
        "name:ja": "川棚温泉",
        "name:ko": "가와타나온천",
        "note": "National-Land Numerical Information (Railway) 2007, MLIT Japan",
        "note:ja": "国土数値情報（鉄道データ）平成19年　国土交通省",
        "public_transport": "station",
        "railway": "station",
        "source": "KSJ2",
        "source_ref": "http://nlftp.mlit.go.jp/ksj/jpgis/datalist/KsjTmplt-N02-v1_1.html",
        "wikidata": "Q3661666",
        "wikipedia": "ja:川棚温泉駅"
      }
    },
    {
      "id": "yamaguchi_station_266034801",
      "osmId": 266034801,
      "osmType": "node",
      "prefectureId": "yamaguchi",
      "type": "station",
      "subtype": "private",
      "name": "滝部",
      "nameKana": "たきべ",
      "nameEn": "Takibe",
      "operator": null,
      "network": null,
      "ref": null,
      "latitude": 34.283354,
      "longitude": 130.946211,
      "countryCode": "jp",
      "rawTags": {
        "KSJ2:LIN": "山陰線",
        "KSJ2:STN": "滝部",
        "name": "滝部",
        "name:en": "Takibe",
        "name:ja": "滝部",
        "name:ja_kana": "たきべ",
        "name:ja_rm": "Takibe",
        "name:ko": "다키베",
        "note": "National-Land Numerical Information (Railway) 2007, MLIT Japan",
        "note:ja": "国土数値情報（鉄道データ）平成19年　国土交通省",
        "railway": "station",
        "source": "KSJ2",
        "source_ref": "http://nlftp.mlit.go.jp/ksj/jpgis/datalist/KsjTmplt-N02-v1_1.html",
        "wikidata": "Q7678288",
        "wikipedia": "ja:滝部駅"
      }
    },
    {
      "id": "yamaguchi_station_266034803",
      "osmId": 266034803,
      "osmType": "node",
      "prefectureId": "yamaguchi",
      "type": "station",
      "subtype": "private",
      "name": "仙崎",
      "nameKana": "せんざき",
      "nameEn": "Senzaki",
      "operator": null,
      "network": null,
      "ref": null,
      "latitude": 34.3878876,
      "longitude": 131.1989521,
      "countryCode": "jp",
      "rawTags": {
        "KSJ2:LIN": "山陰線",
        "KSJ2:STN": "仙崎",
        "name": "仙崎",
        "name:en": "Senzaki",
        "name:ja": "仙崎",
        "name:ja_kana": "せんざき",
        "name:ja_rm": "Senzaki",
        "name:ko": "센자키",
        "note": "National-Land Numerical Information (Railway) 2007, MLIT Japan",
        "note:ja": "国土数値情報（鉄道データ）平成19年　国土交通省",
        "public_transport": "station",
        "railway": "station",
        "source": "KSJ2",
        "source_ref": "http://nlftp.mlit.go.jp/ksj/jpgis/datalist/KsjTmplt-N02-v1_1.html",
        "wikidata": "Q7451433",
        "wikipedia": "ja:仙崎駅"
      }
    },
    {
      "id": "yamaguchi_station_266035331",
      "osmId": 266035331,
      "osmType": "node",
      "prefectureId": "yamaguchi",
      "type": "station",
      "subtype": "private",
      "name": "湯玉",
      "nameKana": "ゆたま",
      "nameEn": "Yutama",
      "operator": null,
      "network": null,
      "ref": null,
      "latitude": 34.2091084,
      "longitude": 130.9326946,
      "countryCode": "jp",
      "rawTags": {
        "KSJ2:LIN": "山陰線",
        "KSJ2:STN": "湯玉",
        "name": "湯玉",
        "name:en": "Yutama",
        "name:ja": "湯玉",
        "name:ja-Hira": "ゆたま",
        "name:ko": "유타마",
        "note": "National-Land Numerical Information (Railway) 2007, MLIT Japan",
        "note:ja": "国土数値情報（鉄道データ）平成19年　国土交通省",
        "public_transport": "station",
        "railway": "station",
        "source": "KSJ2",
        "source_ref": "http://nlftp.mlit.go.jp/ksj/jpgis/datalist/KsjTmplt-N02-v1_1.html",
        "wikidata": "Q8062099",
        "wikipedia": "ja:湯玉駅"
      }
    },
    {
      "id": "yamaguchi_station_266035335",
      "osmId": 266035335,
      "osmType": "node",
      "prefectureId": "yamaguchi",
      "type": "station",
      "subtype": "private",
      "name": "宇賀本郷",
      "nameKana": null,
      "nameEn": "Ukahongō",
      "operator": null,
      "network": null,
      "ref": null,
      "latitude": 34.227629,
      "longitude": 130.927371,
      "countryCode": "jp",
      "rawTags": {
        "KSJ2:LIN": "山陰線",
        "KSJ2:STN": "宇賀本郷",
        "name": "宇賀本郷",
        "name:en": "Ukahongō",
        "name:ja": "宇賀本郷",
        "name:ko": "우카혼고",
        "note": "National-Land Numerical Information (Railway) 2007, MLIT Japan",
        "note:ja": "国土数値情報（鉄道データ）平成19年　国土交通省",
        "public_transport": "station",
        "railway": "station",
        "source": "KSJ2",
        "source_ref": "http://nlftp.mlit.go.jp/ksj/jpgis/datalist/KsjTmplt-N02-v1_1.html",
        "wikidata": "Q7878257",
        "wikipedia": "ja:宇賀本郷駅"
      }
    },
    {
      "id": "yamaguchi_station_266035376",
      "osmId": 266035376,
      "osmType": "node",
      "prefectureId": "yamaguchi",
      "type": "station",
      "subtype": "private",
      "name": "長門粟野",
      "nameKana": null,
      "nameEn": "Nagato-Awano",
      "operator": null,
      "network": null,
      "ref": null,
      "latitude": 34.3578837,
      "longitude": 130.9708825,
      "countryCode": "jp",
      "rawTags": {
        "KSJ2:LIN": "山陰線",
        "KSJ2:STN": "長門粟野",
        "name": "長門粟野",
        "name:en": "Nagato-Awano",
        "name:ja": "長門粟野",
        "name:ko": "나가토아와노",
        "note": "National-Land Numerical Information (Railway) 2007, MLIT Japan",
        "note:ja": "国土数値情報（鉄道データ）平成19年　国土交通省",
        "railway": "station",
        "source": "KSJ2",
        "source_ref": "http://nlftp.mlit.go.jp/ksj/jpgis/datalist/KsjTmplt-N02-v1_1.html",
        "wikidata": "Q6958679",
        "wikipedia": "ja:長門粟野駅"
      }
    },
    {
      "id": "yamaguchi_station_266035378",
      "osmId": 266035378,
      "osmType": "node",
      "prefectureId": "yamaguchi",
      "type": "station",
      "subtype": "private",
      "name": "福江",
      "nameKana": null,
      "nameEn": "Fukue",
      "operator": null,
      "network": null,
      "ref": null,
      "latitude": 34.0471135,
      "longitude": 130.9156608,
      "countryCode": "jp",
      "rawTags": {
        "KSJ2:LIN": "山陰線",
        "KSJ2:STN": "福江",
        "name": "福江",
        "name:en": "Fukue",
        "name:ja": "福江",
        "name:ko": "후쿠에",
        "note": "National-Land Numerical Information (Railway) 2007, MLIT Japan",
        "note:ja": "国土数値情報（鉄道データ）平成19年　国土交通省",
        "public_transport": "station",
        "railway": "station",
        "source": "KSJ2",
        "source_ref": "http://nlftp.mlit.go.jp/ksj/jpgis/datalist/KsjTmplt-N02-v1_1.html",
        "wikidata": "Q5507630",
        "wikipedia": "ja:福江駅"
      }
    },
    {
      "id": "yamaguchi_station_266035582",
      "osmId": 266035582,
      "osmType": "node",
      "prefectureId": "yamaguchi",
      "type": "station",
      "subtype": "private",
      "name": "特牛",
      "nameKana": null,
      "nameEn": "Kottoi",
      "operator": null,
      "network": null,
      "ref": null,
      "latitude": 34.3059947,
      "longitude": 130.9186967,
      "countryCode": "jp",
      "rawTags": {
        "KSJ2:LIN": "山陰線",
        "KSJ2:STN": "特牛",
        "name": "特牛",
        "name:en": "Kottoi",
        "name:ja": "特牛",
        "name:ko": "곳토이",
        "note": "National-Land Numerical Information (Railway) 2007, MLIT Japan",
        "note:ja": "国土数値情報（鉄道データ）平成19年　国土交通省",
        "railway": "station",
        "source": "KSJ2",
        "source_ref": "http://nlftp.mlit.go.jp/ksj/jpgis/datalist/KsjTmplt-N02-v1_1.html",
        "wikidata": "Q6434348",
        "wikipedia": "ja:特牛駅"
      }
    },
    {
      "id": "yamaguchi_station_266035583",
      "osmId": 266035583,
      "osmType": "node",
      "prefectureId": "yamaguchi",
      "type": "station",
      "subtype": "private",
      "name": "人丸",
      "nameKana": null,
      "nameEn": "Hitomaru",
      "operator": null,
      "network": null,
      "ref": null,
      "latitude": 34.3743933,
      "longitude": 131.0579649,
      "countryCode": "jp",
      "rawTags": {
        "KSJ2:LIN": "山陰線",
        "KSJ2:STN": "人丸",
        "name": "人丸",
        "name:en": "Hitomaru",
        "name:ja": "人丸",
        "name:ko": "히토마루",
        "note": "National-Land Numerical Information (Railway) 2007, MLIT Japan",
        "note:ja": "国土数値情報（鉄道データ）平成19年　国土交通省",
        "railway": "station",
        "source": "KSJ2",
        "source_ref": "http://nlftp.mlit.go.jp/ksj/jpgis/datalist/KsjTmplt-N02-v1_1.html",
        "wikidata": "Q11375901",
        "wikipedia": "ja:人丸駅"
      }
    },
    {
      "id": "yamaguchi_station_266036189",
      "osmId": 266036189,
      "osmType": "node",
      "prefectureId": "yamaguchi",
      "type": "station",
      "subtype": "private",
      "name": "長門二見",
      "nameKana": null,
      "nameEn": "Nagato Futami",
      "operator": null,
      "network": null,
      "ref": null,
      "latitude": 34.2521518,
      "longitude": 130.9155325,
      "countryCode": "jp",
      "rawTags": {
        "KSJ2:LIN": "山陰線",
        "KSJ2:STN": "長門二見",
        "name": "長門二見",
        "name:en": "Nagato Futami",
        "name:ja": "長門二見",
        "name:ko": "나가토후타미",
        "note": "National-Land Numerical Information (Railway) 2007, MLIT Japan",
        "note:ja": "国土数値情報（鉄道データ）平成19年　国土交通省",
        "public_transport": "station",
        "railway": "station",
        "source": "KSJ2",
        "source_ref": "http://nlftp.mlit.go.jp/ksj/jpgis/datalist/KsjTmplt-N02-v1_1.html",
        "wikidata": "Q6958682",
        "wikipedia": "ja:長門二見駅"
      }
    },
    {
      "id": "yamaguchi_station_266053978",
      "osmId": 266053978,
      "osmType": "node",
      "prefectureId": "yamaguchi",
      "type": "station",
      "subtype": "private",
      "name": "川西",
      "nameKana": null,
      "nameEn": "Kawanishi",
      "operator": null,
      "network": null,
      "ref": null,
      "latitude": 34.1566233,
      "longitude": 132.1773925,
      "countryCode": "jp",
      "rawTags": {
        "KSJ2:LIN": "岩徳線;錦川清流線",
        "KSJ2:RAS": "eb03_990",
        "KSJ2:STN": "川西",
        "KSJ2:segment": "eb02_1918",
        "name": "川西",
        "name:en": "Kawanishi",
        "name:ja": "川西",
        "name:ko": "가와니시",
        "note": "National-Land Numerical Information (Railway) 2007, MLIT Japan",
        "note:ja": "国土数値情報（鉄道データ）平成19年　国土交通省",
        "public_transport": "station",
        "railway": "station",
        "source": "KSJ2",
        "source_ref": "http://nlftp.mlit.go.jp/ksj/jpgis/datalist/KsjTmplt-N02-v1_1.html",
        "wikidata": "Q8192994",
        "wikipedia": "ja:川西駅 (山口県)"
      }
    },
    {
      "id": "yamaguchi_station_266054144",
      "osmId": 266054144,
      "osmType": "node",
      "prefectureId": "yamaguchi",
      "type": "station",
      "subtype": "private",
      "name": "欽明路",
      "nameKana": null,
      "nameEn": "Kimmeiji",
      "operator": null,
      "network": null,
      "ref": null,
      "latitude": 34.1041452,
      "longitude": 132.1015094,
      "countryCode": "jp",
      "rawTags": {
        "KSJ2:LIN": "岩徳線",
        "KSJ2:STN": "欽明路",
        "name": "欽明路",
        "name:en": "Kimmeiji",
        "name:ja": "欽明路",
        "name:ko": "긴메이지",
        "note": "National-Land Numerical Information (Railway) 2007, MLIT Japan",
        "note:ja": "国土数値情報（鉄道データ）平成19年　国土交通省",
        "railway": "station",
        "source": "KSJ2",
        "source_ref": "http://nlftp.mlit.go.jp/ksj/jpgis/datalist/KsjTmplt-N02-v1_1.html",
        "wikidata": "Q6410169",
        "wikipedia": "ja:欽明路駅"
      }
    },
    {
      "id": "yamaguchi_station_266054261",
      "osmId": 266054261,
      "osmType": "node",
      "prefectureId": "yamaguchi",
      "type": "station",
      "subtype": "private",
      "name": "周防高森",
      "nameKana": null,
      "nameEn": "Suō-Takamori",
      "operator": null,
      "network": null,
      "ref": null,
      "latitude": 34.0908097,
      "longitude": 132.0465956,
      "countryCode": "jp",
      "rawTags": {
        "KSJ2:LIN": "岩徳線",
        "KSJ2:STN": "周防高森",
        "name": "周防高森",
        "name:en": "Suō-Takamori",
        "name:ja": "周防高森",
        "name:ko": "스오타카모리",
        "note": "National-Land Numerical Information (Railway) 2007, MLIT Japan",
        "note:ja": "国土数値情報（鉄道データ）平成19年　国土交通省",
        "public_transport": "station",
        "railway": "station",
        "source": "KSJ2",
        "source_ref": "http://nlftp.mlit.go.jp/ksj/jpgis/datalist/KsjTmplt-N02-v1_1.html",
        "wikidata": "Q7651563",
        "wikipedia": "ja:周防高森駅"
      }
    },
    {
      "id": "yamaguchi_station_266054410",
      "osmId": 266054410,
      "osmType": "node",
      "prefectureId": "yamaguchi",
      "type": "station",
      "subtype": "private",
      "name": "柱野",
      "nameKana": null,
      "nameEn": "Hashirano",
      "operator": null,
      "network": null,
      "ref": null,
      "latitude": 34.1433559,
      "longitude": 132.1543895,
      "countryCode": "jp",
      "rawTags": {
        "KSJ2:LIN": "岩徳線",
        "KSJ2:STN": "柱野",
        "name": "柱野",
        "name:en": "Hashirano",
        "name:ja": "柱野",
        "name:ko": "하시라노",
        "note": "National-Land Numerical Information (Railway) 2007, MLIT Japan",
        "note:ja": "国土数値情報（鉄道データ）平成19年　国土交通省",
        "railway": "station",
        "source": "KSJ2",
        "source_ref": "http://nlftp.mlit.go.jp/ksj/jpgis/datalist/KsjTmplt-N02-v1_1.html",
        "wikidata": "Q5679043",
        "wikipedia": "ja:柱野駅"
      }
    },
    {
      "id": "yamaguchi_station_266054429",
      "osmId": 266054429,
      "osmType": "node",
      "prefectureId": "yamaguchi",
      "type": "station",
      "subtype": "private",
      "name": "玖珂",
      "nameKana": null,
      "nameEn": "Kuga",
      "operator": null,
      "network": null,
      "ref": null,
      "latitude": 34.0971923,
      "longitude": 132.0823683,
      "countryCode": "jp",
      "rawTags": {
        "KSJ2:LIN": "岩徳線",
        "KSJ2:STN": "玖珂",
        "name": "玖珂",
        "name:en": "Kuga",
        "name:ja": "玖珂",
        "name:ko": "구가",
        "note": "National-Land Numerical Information (Railway) 2007, MLIT Japan",
        "note:ja": "国土数値情報（鉄道データ）平成19年　国土交通省",
        "railway": "station",
        "source": "KSJ2",
        "source_ref": "http://nlftp.mlit.go.jp/ksj/jpgis/datalist/KsjTmplt-N02-v1_1.html",
        "wikidata": "Q6441933",
        "wikipedia": "ja:玖珂駅"
      }
    },
    {
      "id": "yamaguchi_station_266054849",
      "osmId": 266054849,
      "osmType": "node",
      "prefectureId": "yamaguchi",
      "type": "station",
      "subtype": "private",
      "name": "高水",
      "nameKana": null,
      "nameEn": "Takamizu",
      "operator": null,
      "network": null,
      "ref": null,
      "latitude": 34.0554116,
      "longitude": 131.9729105,
      "countryCode": "jp",
      "rawTags": {
        "KSJ2:LIN": "岩徳線",
        "KSJ2:STN": "高水",
        "name": "高水",
        "name:en": "Takamizu",
        "name:ja": "高水",
        "name:ko": "다카미즈",
        "note": "National-Land Numerical Information (Railway) 2007, MLIT Japan",
        "note:ja": "国土数値情報（鉄道データ）平成19年　国土交通省",
        "railway": "station",
        "source": "KSJ2",
        "source_ref": "http://nlftp.mlit.go.jp/ksj/jpgis/datalist/KsjTmplt-N02-v1_1.html",
        "wikidata": "Q7677151",
        "wikipedia": "ja:高水駅"
      }
    },
    {
      "id": "yamaguchi_station_266054851",
      "osmId": 266054851,
      "osmType": "node",
      "prefectureId": "yamaguchi",
      "type": "station",
      "subtype": "private",
      "name": "大河内",
      "nameKana": null,
      "nameEn": "Ōkawachi",
      "operator": null,
      "network": null,
      "ref": null,
      "latitude": 34.0310485,
      "longitude": 131.9342773,
      "countryCode": "jp",
      "rawTags": {
        "KSJ2:LIN": "岩徳線",
        "KSJ2:STN": "大河内",
        "name": "大河内",
        "name:en": "Ōkawachi",
        "name:ja": "大河内",
        "name:ko": "오카와치",
        "note": "National-Land Numerical Information (Railway) 2007, MLIT Japan",
        "note:ja": "国土数値情報（鉄道データ）平成19年　国土交通省",
        "railway": "station",
        "source": "KSJ2",
        "source_ref": "http://nlftp.mlit.go.jp/ksj/jpgis/datalist/KsjTmplt-N02-v1_1.html",
        "wikidata": "Q8081555",
        "wikipedia": "ja:大河内駅"
      }
    },
    {
      "id": "yamaguchi_station_266055062",
      "osmId": 266055062,
      "osmType": "node",
      "prefectureId": "yamaguchi",
      "type": "station",
      "subtype": "private",
      "name": "米川",
      "nameKana": null,
      "nameEn": "Yonekawa",
      "operator": null,
      "network": null,
      "ref": null,
      "latitude": 34.0745031,
      "longitude": 132.0144021,
      "countryCode": "jp",
      "rawTags": {
        "KSJ2:LIN": "岩徳線",
        "KSJ2:STN": "米川",
        "name": "米川",
        "name:en": "Yonekawa",
        "name:ja": "米川",
        "name:ko": "요네카와",
        "note": "National-Land Numerical Information (Railway) 2007, MLIT Japan",
        "note:ja": "国土数値情報（鉄道データ）平成19年　国土交通省",
        "railway": "station",
        "source": "KSJ2",
        "source_ref": "http://nlftp.mlit.go.jp/ksj/jpgis/datalist/KsjTmplt-N02-v1_1.html",
        "wikidata": "Q8054925",
        "wikipedia": "ja:米川駅"
      }
    },
    {
      "id": "yamaguchi_station_266055125",
      "osmId": 266055125,
      "osmType": "node",
      "prefectureId": "yamaguchi",
      "type": "station",
      "subtype": "private",
      "name": "勝間",
      "nameKana": null,
      "nameEn": "Katsuma",
      "operator": null,
      "network": null,
      "ref": null,
      "latitude": 34.0419935,
      "longitude": 131.9540907,
      "countryCode": "jp",
      "rawTags": {
        "KSJ2:LIN": "岩徳線",
        "KSJ2:STN": "勝間",
        "name": "勝間",
        "name:en": "Katsuma",
        "name:ja": "勝間",
        "name:ko": "가쓰마",
        "note": "National-Land Numerical Information (Railway) 2007, MLIT Japan",
        "note:ja": "国土数値情報（鉄道データ）平成19年　国土交通省",
        "railway": "station",
        "source": "KSJ2",
        "source_ref": "http://nlftp.mlit.go.jp/ksj/jpgis/datalist/KsjTmplt-N02-v1_1.html",
        "wikidata": "Q6378126",
        "wikipedia": "ja:勝間駅"
      }
    },
    {
      "id": "yamaguchi_station_266055127",
      "osmId": 266055127,
      "osmType": "node",
      "prefectureId": "yamaguchi",
      "type": "station",
      "subtype": "private",
      "name": "周防久保",
      "nameKana": null,
      "nameEn": "Suō-Kubo",
      "operator": null,
      "network": null,
      "ref": null,
      "latitude": 34.0290793,
      "longitude": 131.919179,
      "countryCode": "jp",
      "rawTags": {
        "KSJ2:LIN": "岩徳線",
        "KSJ2:STN": "周防久保",
        "name": "周防久保",
        "name:en": "Suō-Kubo",
        "name:ja": "周防久保",
        "name:ko": "스오쿠보",
        "note": "National-Land Numerical Information (Railway) 2007, MLIT Japan",
        "note:ja": "国土数値情報（鉄道データ）平成19年　国土交通省",
        "railway": "station",
        "source": "KSJ2",
        "source_ref": "http://nlftp.mlit.go.jp/ksj/jpgis/datalist/KsjTmplt-N02-v1_1.html",
        "wikidata": "Q7651558",
        "wikipedia": "ja:周防久保駅"
      }
    },
    {
      "id": "yamaguchi_station_266055686",
      "osmId": 266055686,
      "osmType": "node",
      "prefectureId": "yamaguchi",
      "type": "station",
      "subtype": "private",
      "name": "生野屋",
      "nameKana": null,
      "nameEn": "Ikunoya",
      "operator": null,
      "network": null,
      "ref": null,
      "latitude": 34.0354265,
      "longitude": 131.8871446,
      "countryCode": "jp",
      "rawTags": {
        "KSJ2:LIN": "岩徳線",
        "KSJ2:STN": "生野屋",
        "name": "生野屋",
        "name:en": "Ikunoya",
        "name:ja": "生野屋",
        "name:ko": "이쿠노야",
        "note": "National-Land Numerical Information (Railway) 2007, MLIT Japan",
        "note:ja": "国土数値情報（鉄道データ）平成19年　国土交通省",
        "railway": "station",
        "source": "KSJ2",
        "source_ref": "http://nlftp.mlit.go.jp/ksj/jpgis/datalist/KsjTmplt-N02-v1_1.html",
        "wikidata": "Q5996344",
        "wikipedia": "ja:生野屋駅"
      }
    },
    {
      "id": "yamaguchi_station_266055841",
      "osmId": 266055841,
      "osmType": "node",
      "prefectureId": "yamaguchi",
      "type": "station",
      "subtype": "private",
      "name": "周防花岡",
      "nameKana": null,
      "nameEn": "Suō-Hanaoka",
      "operator": null,
      "network": null,
      "ref": null,
      "latitude": 34.0359125,
      "longitude": 131.8680045,
      "countryCode": "jp",
      "rawTags": {
        "KSJ2:LIN": "岩徳線",
        "KSJ2:STN": "周防花岡",
        "name": "周防花岡",
        "name:en": "Suō-Hanaoka",
        "name:ja": "周防花岡",
        "name:ko": "스오하나오카",
        "note": "National-Land Numerical Information (Railway) 2007, MLIT Japan",
        "note:ja": "国土数値情報（鉄道データ）平成19年　国土交通省",
        "railway": "station",
        "source": "KSJ2",
        "source_ref": "http://nlftp.mlit.go.jp/ksj/jpgis/datalist/KsjTmplt-N02-v1_1.html",
        "wikidata": "Q7651556",
        "wikipedia": "ja:周防花岡駅"
      }
    },
    {
      "id": "yamaguchi_station_266058263",
      "osmId": 266058263,
      "osmType": "node",
      "prefectureId": "yamaguchi",
      "type": "station",
      "subtype": "private",
      "name": "四郎ヶ原",
      "nameKana": "しろうがはら",
      "nameEn": "Shirōgahara",
      "operator": null,
      "network": null,
      "ref": null,
      "latitude": 34.1377521,
      "longitude": 131.161171,
      "countryCode": "jp",
      "rawTags": {
        "name": "四郎ヶ原",
        "name:en": "Shirōgahara",
        "name:ja": "四郎ヶ原",
        "name:ja-Hira": "しろうがはら",
        "name:ko": "시로가하라",
        "public_transport": "station",
        "railway": "station",
        "source": "KSJ2",
        "wikidata": "Q11420157",
        "wikipedia": "ja:四郎ケ原駅"
      }
    },
    {
      "id": "yamaguchi_station_266058270",
      "osmId": 266058270,
      "osmType": "node",
      "prefectureId": "yamaguchi",
      "type": "station",
      "subtype": "private",
      "name": "重安",
      "nameKana": null,
      "nameEn": "Shigeyasu",
      "operator": null,
      "network": null,
      "ref": null,
      "latitude": 34.1939059,
      "longitude": 131.2086944,
      "countryCode": "jp",
      "rawTags": {
        "KSJ2:LIN": "美祢線",
        "KSJ2:STN": "重安",
        "name": "重安",
        "name:en": "Shigeyasu",
        "name:ja": "重安",
        "name:ko": "시게야스",
        "note": "National-Land Numerical Information (Railway) 2007, MLIT Japan",
        "note:ja": "国土数値情報（鉄道データ）平成19年　国土交通省",
        "public_transport": "station",
        "railway": "station",
        "source": "KSJ2",
        "source_ref": "http://nlftp.mlit.go.jp/ksj/jpgis/datalist/KsjTmplt-N02-v1_1.html",
        "wikidata": "Q7496414",
        "wikipedia": "ja:重安駅"
      }
    },
    {
      "id": "yamaguchi_station_266058274",
      "osmId": 266058274,
      "osmType": "node",
      "prefectureId": "yamaguchi",
      "type": "station",
      "subtype": "private",
      "name": "南大嶺",
      "nameKana": null,
      "nameEn": "Minami-Ōmine",
      "operator": null,
      "network": null,
      "ref": null,
      "latitude": 34.1616441,
      "longitude": 131.1850823,
      "countryCode": "jp",
      "rawTags": {
        "name": "南大嶺",
        "name:en": "Minami-Ōmine",
        "name:ja": "南大嶺",
        "name:ko": "미나미오미네",
        "public_transport": "station",
        "railway": "station",
        "source": "KSJ2",
        "wikidata": "Q11407672",
        "wikipedia": "ja:南大嶺駅"
      }
    },
    {
      "id": "yamaguchi_station_266058280",
      "osmId": 266058280,
      "osmType": "node",
      "prefectureId": "yamaguchi",
      "type": "station",
      "subtype": "private",
      "name": "美祢",
      "nameKana": null,
      "nameEn": "Mine",
      "operator": null,
      "network": null,
      "ref": null,
      "latitude": 34.1692082,
      "longitude": 131.2042663,
      "countryCode": "jp",
      "rawTags": {
        "name": "美祢",
        "name:en": "Mine",
        "name:ja": "美祢",
        "name:ko": "미네",
        "railway": "station",
        "source": "KSJ2",
        "wikidata": "Q11609314",
        "wikipedia": "ja:美祢駅"
      }
    },
    {
      "id": "yamaguchi_station_266058410",
      "osmId": 266058410,
      "osmType": "node",
      "prefectureId": "yamaguchi",
      "type": "station",
      "subtype": "private",
      "name": "厚保",
      "nameKana": null,
      "nameEn": "Atsu",
      "operator": null,
      "network": null,
      "ref": null,
      "latitude": 34.1141295,
      "longitude": 131.1546903,
      "countryCode": "jp",
      "rawTags": {
        "KSJ2:LIN": "美祢線",
        "KSJ2:STN": "厚保",
        "name": "厚保",
        "name:en": "Atsu",
        "name:ja": "厚保",
        "name:ko": "아쓰",
        "note": "National-Land Numerical Information (Railway) 2007, MLIT Japan",
        "note:ja": "国土数値情報（鉄道データ）平成19年　国土交通省",
        "public_transport": "station",
        "railway": "station",
        "source": "KSJ2",
        "source_ref": "http://nlftp.mlit.go.jp/ksj/jpgis/datalist/KsjTmplt-N02-v1_1.html",
        "wikidata": "Q4817754",
        "wikipedia": "ja:厚保駅"
      }
    },
    {
      "id": "yamaguchi_station_266058412",
      "osmId": 266058412,
      "osmType": "node",
      "prefectureId": "yamaguchi",
      "type": "station",
      "subtype": "jr",
      "name": "厚狭",
      "nameKana": null,
      "nameEn": "Asa",
      "operator": "西日本旅客鉄道",
      "network": null,
      "ref": null,
      "latitude": 34.0537909,
      "longitude": 131.1599628,
      "countryCode": "jp",
      "rawTags": {
        "KSJ2:LIN": "山陽線",
        "KSJ2:STN": "厚狭",
        "name": "厚狭",
        "name:de": "Asa",
        "name:en": "Asa",
        "name:ja": "厚狭",
        "name:ko": "아사",
        "note": "National-Land Numerical Information (Railway) 2007, MLIT Japan",
        "note:ja": "国土数値情報（鉄道データ）平成19年　国土交通省",
        "operator": "西日本旅客鉄道",
        "operator:en": "West Japan Railway Company",
        "railway": "station",
        "source": "KSJ2",
        "source_ref": "http://nlftp.mlit.go.jp/ksj/jpgis/datalist/KsjTmplt-N02-v1_1.html",
        "wikidata": "Q1136582",
        "wikipedia": "ja:厚狭駅"
      }
    },
    {
      "id": "yamaguchi_station_266058698",
      "osmId": 266058698,
      "osmType": "node",
      "prefectureId": "yamaguchi",
      "type": "station",
      "subtype": "private",
      "name": "於福",
      "nameKana": null,
      "nameEn": "Ofuku",
      "operator": null,
      "network": null,
      "ref": null,
      "latitude": 34.2362568,
      "longitude": 131.2079669,
      "countryCode": "jp",
      "rawTags": {
        "KSJ2:LIN": "美祢線",
        "KSJ2:STN": "於福",
        "name": "於福",
        "name:en": "Ofuku",
        "name:ja": "於福",
        "name:ko": "오후쿠",
        "note": "National-Land Numerical Information (Railway) 2007, MLIT Japan",
        "note:ja": "国土数値情報（鉄道データ）平成19年　国土交通省",
        "public_transport": "station",
        "railway": "station",
        "source": "KSJ2",
        "source_ref": "http://nlftp.mlit.go.jp/ksj/jpgis/datalist/KsjTmplt-N02-v1_1.html",
        "wikidata": "Q11504403",
        "wikipedia": "ja:於福駅"
      }
    },
    {
      "id": "yamaguchi_station_266058700",
      "osmId": 266058700,
      "osmType": "node",
      "prefectureId": "yamaguchi",
      "type": "station",
      "subtype": "private",
      "name": "湯ノ峠",
      "nameKana": null,
      "nameEn": "Yunotō",
      "operator": null,
      "network": null,
      "ref": null,
      "latitude": 34.0856267,
      "longitude": 131.1727406,
      "countryCode": "jp",
      "rawTags": {
        "KSJ2:LIN": "美祢線",
        "KSJ2:STN": "湯ノ峠",
        "name": "湯ノ峠",
        "name:en": "Yunotō",
        "name:ja": "湯ノ峠",
        "name:ko": "유노토",
        "note": "National-Land Numerical Information (Railway) 2007, MLIT Japan",
        "note:ja": "国土数値情報（鉄道データ）平成19年　国土交通省",
        "public_transport": "station",
        "railway": "station",
        "source": "KSJ2",
        "source_ref": "http://nlftp.mlit.go.jp/ksj/jpgis/datalist/KsjTmplt-N02-v1_1.html",
        "wikidata": "Q8061375",
        "wikipedia": "ja:湯ノ峠駅"
      }
    },
    {
      "id": "yamaguchi_station_266058799",
      "osmId": 266058799,
      "osmType": "node",
      "prefectureId": "yamaguchi",
      "type": "station",
      "subtype": "private",
      "name": "長門市",
      "nameKana": "ながとし",
      "nameEn": "Nagatoshi",
      "operator": null,
      "network": null,
      "ref": null,
      "latitude": 34.375332,
      "longitude": 131.1850803,
      "countryCode": "jp",
      "rawTags": {
        "KSJ2:LIN": "山陰線",
        "KSJ2:STN": "長門市",
        "name": "長門市",
        "name:en": "Nagatoshi",
        "name:ja": "長門市",
        "name:ja_kana": "ながとし",
        "name:ja_rm": "Nagatoshi",
        "name:ko": "나가토시",
        "note": "National-Land Numerical Information (Railway) 2007, MLIT Japan",
        "note:ja": "国土数値情報（鉄道データ）平成19年　国土交通省",
        "public_transport": "station",
        "railway": "station",
        "source": "KSJ2",
        "source_ref": "http://nlftp.mlit.go.jp/ksj/jpgis/datalist/KsjTmplt-N02-v1_1.html",
        "wikidata": "Q6958700",
        "wikipedia": "ja:長門市駅"
      }
    },
    {
      "id": "yamaguchi_station_266058801",
      "osmId": 266058801,
      "osmType": "node",
      "prefectureId": "yamaguchi",
      "type": "station",
      "subtype": "private",
      "name": "長門湯本",
      "nameKana": null,
      "nameEn": "Nagato-Yumoto",
      "operator": null,
      "network": null,
      "ref": null,
      "latitude": 34.3344883,
      "longitude": 131.1725893,
      "countryCode": "jp",
      "rawTags": {
        "KSJ2:LIN": "美祢線",
        "KSJ2:STN": "長門湯本",
        "name": "長門湯本",
        "name:en": "Nagato-Yumoto",
        "name:ja": "長門湯本",
        "name:ko": "나가토유모토",
        "note": "National-Land Numerical Information (Railway) 2007, MLIT Japan",
        "note:ja": "国土数値情報（鉄道データ）平成19年　国土交通省",
        "public_transport": "station",
        "railway": "station",
        "source": "KSJ2",
        "source_ref": "http://nlftp.mlit.go.jp/ksj/jpgis/datalist/KsjTmplt-N02-v1_1.html",
        "wikidata": "Q11654892",
        "wikipedia": "ja:長門湯本駅"
      }
    },
    {
      "id": "yamaguchi_station_266058803",
      "osmId": 266058803,
      "osmType": "node",
      "prefectureId": "yamaguchi",
      "type": "station",
      "subtype": "private",
      "name": "板持",
      "nameKana": null,
      "nameEn": "Itamochi",
      "operator": null,
      "network": null,
      "ref": null,
      "latitude": 34.3535933,
      "longitude": 131.1765834,
      "countryCode": "jp",
      "rawTags": {
        "KSJ2:LIN": "美祢線",
        "KSJ2:STN": "板持",
        "name": "板持",
        "name:en": "Itamochi",
        "name:ja": "板持",
        "name:ko": "이타모치",
        "note": "National-Land Numerical Information (Railway) 2007, MLIT Japan",
        "note:ja": "国土数値情報（鉄道データ）平成19年　国土交通省",
        "public_transport": "station",
        "railway": "station",
        "source": "KSJ2",
        "source_ref": "http://nlftp.mlit.go.jp/ksj/jpgis/datalist/KsjTmplt-N02-v1_1.html",
        "wikidata": "Q6093959",
        "wikipedia": "ja:板持駅"
      }
    },
    {
      "id": "yamaguchi_station_266059108",
      "osmId": 266059108,
      "osmType": "node",
      "prefectureId": "yamaguchi",
      "type": "station",
      "subtype": "private",
      "name": "渋木",
      "nameKana": null,
      "nameEn": "Shibuki",
      "operator": null,
      "network": null,
      "ref": null,
      "latitude": 34.3116906,
      "longitude": 131.1964891,
      "countryCode": "jp",
      "rawTags": {
        "KSJ2:LIN": "美祢線",
        "KSJ2:STN": "渋木",
        "name": "渋木",
        "name:en": "Shibuki",
        "name:ja": "渋木",
        "name:ko": "시부키",
        "note": "National-Land Numerical Information (Railway) 2007, MLIT Japan",
        "note:ja": "国土数値情報（鉄道データ）平成19年　国土交通省",
        "public_transport": "station",
        "railway": "station",
        "source": "KSJ2",
        "source_ref": "http://nlftp.mlit.go.jp/ksj/jpgis/datalist/KsjTmplt-N02-v1_1.html",
        "wikidata": "Q7496084",
        "wikipedia": "ja:渋木駅"
      }
    },
    {
      "id": "yamaguchi_station_266061995",
      "osmId": 266061995,
      "osmType": "node",
      "prefectureId": "yamaguchi",
      "type": "station",
      "subtype": "private",
      "name": "妻崎",
      "nameKana": null,
      "nameEn": "Tsumazaki",
      "operator": null,
      "network": null,
      "ref": null,
      "latitude": 33.9703797,
      "longitude": 131.2025712,
      "countryCode": "jp",
      "rawTags": {
        "KSJ2:LIN": "小野田線",
        "name": "妻崎",
        "name:en": "Tsumazaki",
        "name:ja": "妻崎",
        "name:ko": "쓰마자키",
        "note": "National-Land Numerical Information (Railway) 2007, MLIT Japan",
        "note:ja": "国土数値情報（鉄道データ）平成19年　国土交通省",
        "public_transport": "station",
        "railway": "station",
        "source": "KSJ2",
        "source_ref": "http://nlftp.mlit.go.jp/ksj/jpgis/datalist/KsjTmplt-N02-v1_1.html",
        "wikidata": "Q7850124",
        "wikipedia": "ja:妻崎駅"
      }
    },
    {
      "id": "yamaguchi_station_266061999",
      "osmId": 266061999,
      "osmType": "node",
      "prefectureId": "yamaguchi",
      "type": "station",
      "subtype": "private",
      "name": "浜河内",
      "nameKana": null,
      "nameEn": "Hamagōchi",
      "operator": null,
      "network": null,
      "ref": null,
      "latitude": 33.9503115,
      "longitude": 131.1793807,
      "countryCode": "jp",
      "rawTags": {
        "KSJ2:LIN": "小野田線",
        "name": "浜河内",
        "name:en": "Hamagōchi",
        "name:ja": "浜河内",
        "name:ko": "하마고치",
        "note": "National-Land Numerical Information (Railway) 2007, MLIT Japan",
        "note:ja": "国土数値情報（鉄道データ）平成19年　国土交通省",
        "public_transport": "station",
        "railway": "station",
        "source": "KSJ2",
        "source_ref": "http://nlftp.mlit.go.jp/ksj/jpgis/datalist/KsjTmplt-N02-v1_1.html",
        "wikidata": "Q5643995",
        "wikipedia": "ja:浜河内駅"
      }
    },
    {
      "id": "yamaguchi_station_266062023",
      "osmId": 266062023,
      "osmType": "node",
      "prefectureId": "yamaguchi",
      "type": "station",
      "subtype": "private",
      "name": "小野田港",
      "nameKana": null,
      "nameEn": "Onodakō",
      "operator": null,
      "network": null,
      "ref": null,
      "latitude": 33.9720219,
      "longitude": 131.1749764,
      "countryCode": "jp",
      "rawTags": {
        "KSJ2:LIN": "小野田線",
        "name": "小野田港",
        "name:en": "Onodakō",
        "name:ja": "小野田港",
        "name:ko": "오노다코",
        "note": "National-Land Numerical Information (Railway) 2007, MLIT Japan",
        "note:ja": "国土数値情報（鉄道データ）平成19年　国土交通省",
        "public_transport": "station",
        "railway": "station",
        "source": "KSJ2",
        "source_ref": "http://nlftp.mlit.go.jp/ksj/jpgis/datalist/KsjTmplt-N02-v1_1.html",
        "wikidata": "Q7094443",
        "wikipedia": "ja:小野田港駅"
      }
    },
    {
      "id": "yamaguchi_station_266062065",
      "osmId": 266062065,
      "osmType": "node",
      "prefectureId": "yamaguchi",
      "type": "station",
      "subtype": "jr",
      "name": "雀田",
      "nameKana": null,
      "nameEn": "Suzumeda",
      "operator": "西日本旅客鉄道",
      "network": null,
      "ref": null,
      "latitude": 33.9604319,
      "longitude": 131.1866721,
      "countryCode": "jp",
      "rawTags": {
        "KSJ2:LIN": "小野田線",
        "name": "雀田",
        "name:en": "Suzumeda",
        "name:ja": "雀田",
        "name:ko": "스즈메다",
        "note": "National-Land Numerical Information (Railway) 2007, MLIT Japan",
        "note:ja": "国土数値情報（鉄道データ）平成19年　国土交通省",
        "operator": "西日本旅客鉄道",
        "operator:en": "West Japan Railway Company",
        "public_transport": "station",
        "railway": "station",
        "source": "KSJ2",
        "source_ref": "http://nlftp.mlit.go.jp/ksj/jpgis/datalist/KsjTmplt-N02-v1_1.html",
        "wikidata": "Q7651388",
        "wikipedia": "ja:雀田駅"
      }
    },
    {
      "id": "yamaguchi_station_266062073",
      "osmId": 266062073,
      "osmType": "node",
      "prefectureId": "yamaguchi",
      "type": "station",
      "subtype": "private",
      "name": "南中川",
      "nameKana": null,
      "nameEn": "Minami-Nakagawa",
      "operator": null,
      "network": null,
      "ref": null,
      "latitude": 33.9868871,
      "longitude": 131.1783088,
      "countryCode": "jp",
      "rawTags": {
        "KSJ2:LIN": "小野田線",
        "name": "南中川",
        "name:en": "Minami-Nakagawa",
        "name:ja": "南中川",
        "name:ko": "미나미나카가와",
        "note": "National-Land Numerical Information (Railway) 2007, MLIT Japan",
        "note:ja": "国土数値情報（鉄道データ）平成19年　国土交通省",
        "public_transport": "station",
        "railway": "station",
        "source": "KSJ2",
        "source_ref": "http://nlftp.mlit.go.jp/ksj/jpgis/datalist/KsjTmplt-N02-v1_1.html",
        "wikidata": "Q6862954",
        "wikipedia": "ja:南中川駅"
      }
    },
    {
      "id": "yamaguchi_station_266062149",
      "osmId": 266062149,
      "osmType": "node",
      "prefectureId": "yamaguchi",
      "type": "station",
      "subtype": "jr",
      "name": "目出",
      "nameKana": null,
      "nameEn": "Mede",
      "operator": "西日本旅客鉄道",
      "network": "JR小野田線",
      "ref": null,
      "latitude": 33.9970051,
      "longitude": 131.1837215,
      "countryCode": "jp",
      "rawTags": {
        "KSJ2:LIN": "小野田線",
        "name": "目出",
        "name:en": "Mede",
        "name:ja": "目出",
        "name:ko": "메데",
        "network": "JR小野田線",
        "note": "National-Land Numerical Information (Railway) 2007, MLIT Japan",
        "note:ja": "国土数値情報（鉄道データ）平成19年　国土交通省",
        "operator": "西日本旅客鉄道",
        "public_transport": "station",
        "railway": "station",
        "source": "KSJ2",
        "source_ref": "http://nlftp.mlit.go.jp/ksj/jpgis/datalist/KsjTmplt-N02-v1_1.html",
        "wikidata": "Q6805205",
        "wikipedia": "ja:目出駅"
      }
    },
    {
      "id": "yamaguchi_station_266062172",
      "osmId": 266062172,
      "osmType": "node",
      "prefectureId": "yamaguchi",
      "type": "station",
      "subtype": "private",
      "name": "南小野田",
      "nameKana": null,
      "nameEn": "Minami-Onoda",
      "operator": null,
      "network": null,
      "ref": null,
      "latitude": 33.9774072,
      "longitude": 131.174967,
      "countryCode": "jp",
      "rawTags": {
        "KSJ2:LIN": "小野田線",
        "name": "南小野田",
        "name:en": "Minami-Onoda",
        "name:ja": "南小野田",
        "name:ko": "미나미오노다",
        "note": "National-Land Numerical Information (Railway) 2007, MLIT Japan",
        "note:ja": "国土数値情報（鉄道データ）平成19年　国土交通省",
        "public_transport": "station",
        "railway": "station",
        "source": "KSJ2",
        "source_ref": "http://nlftp.mlit.go.jp/ksj/jpgis/datalist/KsjTmplt-N02-v1_1.html",
        "wikidata": "Q6862955",
        "wikipedia": "ja:南小野田駅"
      }
    },
    {
      "id": "yamaguchi_station_266062183",
      "osmId": 266062183,
      "osmType": "node",
      "prefectureId": "yamaguchi",
      "type": "station",
      "subtype": "private",
      "name": "長門本山",
      "nameKana": null,
      "nameEn": "Nagato-Motoyama",
      "operator": null,
      "network": null,
      "ref": null,
      "latitude": 33.9428192,
      "longitude": 131.1732676,
      "countryCode": "jp",
      "rawTags": {
        "KSJ2:LIN": "小野田線",
        "name": "長門本山",
        "name:en": "Nagato-Motoyama",
        "name:ja": "長門本山",
        "name:ko": "나가토모토야마",
        "note": "National-Land Numerical Information (Railway) 2007, MLIT Japan",
        "note:ja": "国土数値情報（鉄道データ）平成19年　国土交通省",
        "public_transport": "station",
        "railway": "station",
        "source": "KSJ2",
        "source_ref": "http://nlftp.mlit.go.jp/ksj/jpgis/datalist/KsjTmplt-N02-v1_1.html",
        "wikidata": "Q6958683",
        "wikipedia": "ja:長門本山駅"
      }
    },
    {
      "id": "yamaguchi_station_266062275",
      "osmId": 266062275,
      "osmType": "node",
      "prefectureId": "yamaguchi",
      "type": "station",
      "subtype": "private",
      "name": "長門長沢",
      "nameKana": null,
      "nameEn": "Nagato-Nagasawa",
      "operator": null,
      "network": null,
      "ref": null,
      "latitude": 33.9666536,
      "longitude": 131.1967917,
      "countryCode": "jp",
      "rawTags": {
        "KSJ2:LIN": "小野田線",
        "name": "長門長沢",
        "name:en": "Nagato-Nagasawa",
        "name:ja": "長門長沢",
        "name:ko": "나가토나가사와",
        "note": "National-Land Numerical Information (Railway) 2007, MLIT Japan",
        "note:ja": "国土数値情報（鉄道データ）平成19年　国土交通省",
        "public_transport": "station",
        "railway": "station",
        "source": "KSJ2",
        "source_ref": "http://nlftp.mlit.go.jp/ksj/jpgis/datalist/KsjTmplt-N02-v1_1.html",
        "wikidata": "Q6958686",
        "wikipedia": "ja:長門長沢駅"
      }
    },
    {
      "id": "yamaguchi_station_266063805",
      "osmId": 266063805,
      "osmType": "node",
      "prefectureId": "yamaguchi",
      "type": "station",
      "subtype": "private",
      "name": "船平山",
      "nameKana": null,
      "nameEn": "Funahirayama",
      "operator": null,
      "network": null,
      "ref": null,
      "latitude": 34.421205,
      "longitude": 131.7341482,
      "countryCode": "jp",
      "rawTags": {
        "KSJ2:LIN": "山口線",
        "KSJ2:STN": "船平山",
        "name": "船平山",
        "name:en": "Funahirayama",
        "name:ja": "船平山",
        "name:ko": "후나히라야마",
        "note": "National-Land Numerical Information (Railway) 2007, MLIT Japan",
        "note:ja": "国土数値情報（鉄道データ）平成19年　国土交通省",
        "railway": "station",
        "source": "KSJ2",
        "source_ref": "http://nlftp.mlit.go.jp/ksj/jpgis/datalist/KsjTmplt-N02-v1_1.html",
        "wikidata": "Q5508716",
        "wikipedia": "ja:船平山駅"
      }
    },
    {
      "id": "yamaguchi_station_266065189",
      "osmId": 266065189,
      "osmType": "node",
      "prefectureId": "yamaguchi",
      "type": "station",
      "subtype": "private",
      "name": "名草",
      "nameKana": null,
      "nameEn": "Nagusa",
      "operator": null,
      "network": null,
      "ref": null,
      "latitude": 34.353824,
      "longitude": 131.651555,
      "countryCode": "jp",
      "rawTags": {
        "KSJ2:LIN": "山口線",
        "KSJ2:STN": "名草",
        "name": "名草",
        "name:en": "Nagusa",
        "name:ja": "名草",
        "name:ko": "나구사",
        "note": "National-Land Numerical Information (Railway) 2007, MLIT Japan",
        "note:ja": "国土数値情報（鉄道データ）平成19年　国土交通省",
        "railway": "station",
        "source": "KSJ2",
        "source_ref": "http://nlftp.mlit.go.jp/ksj/jpgis/datalist/KsjTmplt-N02-v1_1.html",
        "wikidata": "Q6959087",
        "wikipedia": "ja:名草駅"
      }
    },
    {
      "id": "yamaguchi_station_266065263",
      "osmId": 266065263,
      "osmType": "node",
      "prefectureId": "yamaguchi",
      "type": "station",
      "subtype": "private",
      "name": "仁保",
      "nameKana": null,
      "nameEn": "Niho",
      "operator": null,
      "network": null,
      "ref": null,
      "latitude": 34.2165357,
      "longitude": 131.5362585,
      "countryCode": "jp",
      "rawTags": {
        "KSJ2:LIN": "山口線",
        "KSJ2:STN": "仁保",
        "name": "仁保",
        "name:en": "Niho",
        "name:ja": "仁保",
        "name:ko": "니호",
        "note": "National-Land Numerical Information (Railway) 2007, MLIT Japan",
        "note:ja": "国土数値情報（鉄道データ）平成19年　国土交通省",
        "railway": "station",
        "source": "KSJ2",
        "source_ref": "http://nlftp.mlit.go.jp/ksj/jpgis/datalist/KsjTmplt-N02-v1_1.html",
        "wikidata": "Q7034269",
        "wikipedia": "ja:仁保駅"
      }
    },
    {
      "id": "yamaguchi_station_266065288",
      "osmId": 266065288,
      "osmType": "node",
      "prefectureId": "yamaguchi",
      "type": "station",
      "subtype": "private",
      "name": "篠目",
      "nameKana": null,
      "nameEn": "Shinome",
      "operator": null,
      "network": null,
      "ref": null,
      "latitude": 34.2787128,
      "longitude": 131.5620367,
      "countryCode": "jp",
      "rawTags": {
        "KSJ2:LIN": "山口線",
        "KSJ2:STN": "篠目",
        "name": "篠目",
        "name:en": "Shinome",
        "name:ja": "篠目",
        "name:ko": "시노메",
        "note": "National-Land Numerical Information (Railway) 2007, MLIT Japan",
        "note:ja": "国土数値情報（鉄道データ）平成19年　国土交通省",
        "railway": "station",
        "source": "KSJ2",
        "source_ref": "http://nlftp.mlit.go.jp/ksj/jpgis/datalist/KsjTmplt-N02-v1_1.html",
        "wikidata": "Q7497729",
        "wikipedia": "ja:篠目駅"
      }
    },
    {
      "id": "yamaguchi_station_266065308",
      "osmId": 266065308,
      "osmType": "node",
      "prefectureId": "yamaguchi",
      "type": "station",
      "subtype": "private",
      "name": "上山口",
      "nameKana": null,
      "nameEn": "Kami-Yamaguchi",
      "operator": null,
      "network": null,
      "ref": null,
      "latitude": 34.1825922,
      "longitude": 131.48498,
      "countryCode": "jp",
      "rawTags": {
        "KSJ2:LIN": "山口線",
        "KSJ2:STN": "上山口",
        "name": "上山口",
        "name:en": "Kami-Yamaguchi",
        "name:ja": "上山口",
        "name:ko": "가미야마구치",
        "note": "National-Land Numerical Information (Railway) 2007, MLIT Japan",
        "note:ja": "国土数値情報（鉄道データ）平成19年　国土交通省",
        "railway": "station",
        "source": "KSJ2",
        "source_ref": "http://nlftp.mlit.go.jp/ksj/jpgis/datalist/KsjTmplt-N02-v1_1.html",
        "wikidata": "Q858463",
        "wikipedia": "ja:上山口駅"
      }
    },
    {
      "id": "yamaguchi_station_266065358",
      "osmId": 266065358,
      "osmType": "node",
      "prefectureId": "yamaguchi",
      "type": "station",
      "subtype": "private",
      "name": "長門峡",
      "nameKana": null,
      "nameEn": "Chōmonkyō",
      "operator": null,
      "network": null,
      "ref": null,
      "latitude": 34.304478,
      "longitude": 131.5787966,
      "countryCode": "jp",
      "rawTags": {
        "KSJ2:LIN": "山口線",
        "KSJ2:STN": "長門峡",
        "name": "長門峡",
        "name:en": "Chōmonkyō",
        "name:ja": "長門峡",
        "name:ko": "조몬쿄",
        "note": "National-Land Numerical Information (Railway) 2007, MLIT Japan",
        "note:ja": "国土数値情報（鉄道データ）平成19年　国土交通省",
        "railway": "station",
        "source": "KSJ2",
        "source_ref": "http://nlftp.mlit.go.jp/ksj/jpgis/datalist/KsjTmplt-N02-v1_1.html",
        "wikidata": "Q5118997",
        "wikipedia": "ja:長門峡駅"
      }
    },
    {
      "id": "yamaguchi_station_266065495",
      "osmId": 266065495,
      "osmType": "node",
      "prefectureId": "yamaguchi",
      "type": "station",
      "subtype": "private",
      "name": "宮野",
      "nameKana": null,
      "nameEn": "Miyano",
      "operator": null,
      "network": null,
      "ref": null,
      "latitude": 34.1912927,
      "longitude": 131.4985459,
      "countryCode": "jp",
      "rawTags": {
        "KSJ2:LIN": "山口線",
        "KSJ2:STN": "宮野",
        "name": "宮野",
        "name:en": "Miyano",
        "name:ja": "宮野",
        "name:ko": "미야노",
        "note": "National-Land Numerical Information (Railway) 2007, MLIT Japan",
        "note:ja": "国土数値情報（鉄道データ）平成19年　国土交通省",
        "railway": "station",
        "source": "KSJ2",
        "source_ref": "http://nlftp.mlit.go.jp/ksj/jpgis/datalist/KsjTmplt-N02-v1_1.html",
        "wikidata": "Q6884378",
        "wikipedia": "ja:宮野駅"
      }
    },
    {
      "id": "yamaguchi_station_266065765",
      "osmId": 266065765,
      "osmType": "node",
      "prefectureId": "yamaguchi",
      "type": "station",
      "subtype": "private",
      "name": "渡川",
      "nameKana": null,
      "nameEn": "Watarigawa",
      "operator": null,
      "network": null,
      "ref": null,
      "latitude": 34.3227616,
      "longitude": 131.6037854,
      "countryCode": "jp",
      "rawTags": {
        "KSJ2:LIN": "山口線",
        "KSJ2:STN": "渡川",
        "name": "渡川",
        "name:en": "Watarigawa",
        "name:ja": "渡川",
        "name:ko": "와타리가와",
        "note": "National-Land Numerical Information (Railway) 2007, MLIT Japan",
        "note:ja": "国土数値情報（鉄道データ）平成19年　国土交通省",
        "railway": "station",
        "source": "KSJ2",
        "source_ref": "http://nlftp.mlit.go.jp/ksj/jpgis/datalist/KsjTmplt-N02-v1_1.html",
        "wikidata": "Q7973003",
        "wikipedia": "ja:渡川駅"
      }
    },
    {
      "id": "yamaguchi_station_266066856",
      "osmId": 266066856,
      "osmType": "node",
      "prefectureId": "yamaguchi",
      "type": "station",
      "subtype": "private",
      "name": "鍋倉",
      "nameKana": null,
      "nameEn": "Nabekura",
      "operator": null,
      "network": null,
      "ref": null,
      "latitude": 34.3783919,
      "longitude": 131.6945218,
      "countryCode": "jp",
      "rawTags": {
        "KSJ2:LIN": "山口線",
        "KSJ2:STN": "鍋倉",
        "name": "鍋倉",
        "name:en": "Nabekura",
        "name:ja": "鍋倉",
        "name:ko": "나베쿠라",
        "note": "National-Land Numerical Information (Railway) 2007, MLIT Japan",
        "note:ja": "国土数値情報（鉄道データ）平成19年　国土交通省",
        "railway": "station",
        "source": "KSJ2",
        "source_ref": "http://nlftp.mlit.go.jp/ksj/jpgis/datalist/KsjTmplt-N02-v1_1.html",
        "wikidata": "Q6956814",
        "wikipedia": "ja:鍋倉駅"
      }
    },
    {
      "id": "yamaguchi_station_266067240",
      "osmId": 266067240,
      "osmType": "node",
      "prefectureId": "yamaguchi",
      "type": "station",
      "subtype": "private",
      "name": "地福",
      "nameKana": null,
      "nameEn": "Jifuku",
      "operator": null,
      "network": null,
      "ref": null,
      "latitude": 34.3631422,
      "longitude": 131.6748348,
      "countryCode": "jp",
      "rawTags": {
        "KSJ2:LIN": "山口線",
        "KSJ2:STN": "地福",
        "name": "地福",
        "name:en": "Jifuku",
        "name:ja": "地福",
        "name:ko": "지후쿠",
        "note": "National-Land Numerical Information (Railway) 2007, MLIT Japan",
        "note:ja": "国土数値情報（鉄道データ）平成19年　国土交通省",
        "railway": "station",
        "source": "KSJ2",
        "source_ref": "http://nlftp.mlit.go.jp/ksj/jpgis/datalist/KsjTmplt-N02-v1_1.html",
        "wikidata": "Q6192262",
        "wikipedia": "ja:地福駅"
      }
    },
    {
      "id": "yamaguchi_station_401444816",
      "osmId": 401444816,
      "osmType": "node",
      "prefectureId": "yamaguchi",
      "type": "station",
      "subtype": "private",
      "name": "西岩国",
      "nameKana": null,
      "nameEn": "Nishi Iwakuni",
      "operator": null,
      "network": null,
      "ref": null,
      "latitude": 34.1627087,
      "longitude": 132.1952113,
      "countryCode": "jp",
      "rawTags": {
        "name": "西岩国",
        "name:en": "Nishi Iwakuni",
        "name:ja": "西岩国",
        "name:ko": "니시이와쿠니",
        "public_transport": "station",
        "railway": "station",
        "wikidata": "Q7040351",
        "wikipedia": "ja:西岩国駅"
      }
    },
    {
      "id": "yamaguchi_station_448124397",
      "osmId": 448124397,
      "osmType": "node",
      "prefectureId": "yamaguchi",
      "type": "station",
      "subtype": "private",
      "name": "柳瀬",
      "nameKana": null,
      "nameEn": "Yanaze",
      "operator": null,
      "network": null,
      "ref": null,
      "latitude": 34.2573829,
      "longitude": 131.976842,
      "countryCode": "jp",
      "rawTags": {
        "KSJ2:LIN": "錦川清流線",
        "KSJ2:RAS": "eb03_987",
        "KSJ2:STN": "柳瀬",
        "KSJ2:segment": "eb02_1900",
        "name": "柳瀬",
        "name:en": "Yanaze",
        "name:ja": "柳瀬",
        "name:ko": "야나제",
        "note": "National-Land Numerical Information (Railway) 2007, MLIT Japan",
        "note:ja": "国土数値情報（鉄道データ）平成19年　国土交通省",
        "public_transport": "station",
        "railway": "station",
        "source": "KSJ2",
        "source_ref": "http://nlftp.mlit.go.jp/ksj/jpgis/datalist/KsjTmplt-N02-v1_1.html",
        "wikidata": "Q8048272",
        "wikipedia": "ja:柳瀬駅"
      }
    },
    {
      "id": "yamaguchi_station_448124399",
      "osmId": 448124399,
      "osmType": "node",
      "prefectureId": "yamaguchi",
      "type": "station",
      "subtype": "private",
      "name": "根笠",
      "nameKana": null,
      "nameEn": "Nekasa",
      "operator": null,
      "network": null,
      "ref": null,
      "latitude": 34.2102879,
      "longitude": 131.9982816,
      "countryCode": "jp",
      "rawTags": {
        "KSJ2:LIN": "錦川清流線",
        "KSJ2:RAS": "eb03_988",
        "KSJ2:STN": "根笠",
        "KSJ2:segment": "eb02_1905",
        "name": "根笠",
        "name:en": "Nekasa",
        "name:ja": "根笠",
        "name:ko": "네카사",
        "note": "National-Land Numerical Information (Railway) 2007, MLIT Japan",
        "note:ja": "国土数値情報（鉄道データ）平成19年　国土交通省",
        "public_transport": "station",
        "railway": "station",
        "source": "KSJ2",
        "source_ref": "http://nlftp.mlit.go.jp/ksj/jpgis/datalist/KsjTmplt-N02-v1_1.html",
        "wikidata": "Q6989804",
        "wikipedia": "ja:根笠駅"
      }
    },
    {
      "id": "yamaguchi_station_448125006",
      "osmId": 448125006,
      "osmType": "node",
      "prefectureId": "yamaguchi",
      "type": "station",
      "subtype": "private",
      "name": "椋野",
      "nameKana": null,
      "nameEn": "Mukuno",
      "operator": null,
      "network": null,
      "ref": null,
      "latitude": 34.1935832,
      "longitude": 132.0335988,
      "countryCode": "jp",
      "rawTags": {
        "KSJ2:LIN": "錦川清流線",
        "KSJ2:RAS": "eb03_991",
        "KSJ2:STN": "椋野",
        "KSJ2:segment": "eb02_1895",
        "name": "椋野",
        "name:en": "Mukuno",
        "name:ja": "椋野",
        "name:ko": "무쿠노",
        "note": "National-Land Numerical Information (Railway) 2007, MLIT Japan",
        "note:ja": "国土数値情報（鉄道データ）平成19年　国土交通省",
        "public_transport": "station",
        "railway": "station",
        "source": "KSJ2",
        "source_ref": "http://nlftp.mlit.go.jp/ksj/jpgis/datalist/KsjTmplt-N02-v1_1.html",
        "wikidata": "Q6933669",
        "wikipedia": "ja:椋野駅"
      }
    },
    {
      "id": "yamaguchi_station_448125008",
      "osmId": 448125008,
      "osmType": "node",
      "prefectureId": "yamaguchi",
      "type": "station",
      "subtype": "private",
      "name": "清流新岩国",
      "nameKana": null,
      "nameEn": "Seiryū-Shin-Iwakuni",
      "operator": null,
      "network": null,
      "ref": null,
      "latitude": 34.162301,
      "longitude": 132.1477616,
      "countryCode": "jp",
      "rawTags": {
        "KSJ2:LIN": "錦川清流線",
        "KSJ2:RAS": "eb03_996",
        "KSJ2:STN": "御庄",
        "KSJ2:segment": "eb02_1896",
        "name": "清流新岩国",
        "name:en": "Seiryū-Shin-Iwakuni",
        "name:ja": "清流新岩国",
        "name:ko": "세이류신이와쿠니",
        "note": "National-Land Numerical Information (Railway) 2007, MLIT Japan",
        "note:ja": "国土数値情報（鉄道データ）平成19年　国土交通省",
        "public_transport": "station",
        "railway": "station",
        "source": "KSJ2",
        "source_ref": "http://nlftp.mlit.go.jp/ksj/jpgis/datalist/KsjTmplt-N02-v1_1.html",
        "wikidata": "Q6875635",
        "wikipedia": "ja:御庄駅"
      }
    },
    {
      "id": "yamaguchi_station_448125013",
      "osmId": 448125013,
      "osmType": "node",
      "prefectureId": "yamaguchi",
      "type": "station",
      "subtype": "private",
      "name": "河山",
      "nameKana": null,
      "nameEn": "Kawayama",
      "operator": null,
      "network": null,
      "ref": null,
      "latitude": 34.2360708,
      "longitude": 131.9837001,
      "countryCode": "jp",
      "rawTags": {
        "KSJ2:LIN": "錦川清流線",
        "KSJ2:RAS": "eb03_986",
        "KSJ2:STN": "河山",
        "KSJ2:segment": "eb02_1898",
        "name": "河山",
        "name:en": "Kawayama",
        "name:ja": "河山",
        "name:ko": "가와야마",
        "note": "National-Land Numerical Information (Railway) 2007, MLIT Japan",
        "note:ja": "国土数値情報（鉄道データ）平成19年　国土交通省",
        "public_transport": "station",
        "railway": "station",
        "source": "KSJ2",
        "source_ref": "http://nlftp.mlit.go.jp/ksj/jpgis/datalist/KsjTmplt-N02-v1_1.html",
        "wikidata": "Q6379902",
        "wikipedia": "ja:河山駅"
      }
    },
    {
      "id": "yamaguchi_station_448125816",
      "osmId": 448125816,
      "osmType": "node",
      "prefectureId": "yamaguchi",
      "type": "station",
      "subtype": "private",
      "name": "南河内",
      "nameKana": null,
      "nameEn": "Minami-Gōchi",
      "operator": null,
      "network": null,
      "ref": null,
      "latitude": 34.1659692,
      "longitude": 132.1035238,
      "countryCode": "jp",
      "rawTags": {
        "KSJ2:LIN": "錦川清流線",
        "KSJ2:RAS": "eb03_992",
        "KSJ2:STN": "南河内",
        "KSJ2:segment": "eb02_1915",
        "name": "南河内",
        "name:en": "Minami-Gōchi",
        "name:ja": "南河内",
        "name:ko": "미나미고치",
        "note": "National-Land Numerical Information (Railway) 2007, MLIT Japan",
        "note:ja": "国土数値情報（鉄道データ）平成19年　国土交通省",
        "public_transport": "station",
        "railway": "station",
        "source": "KSJ2",
        "source_ref": "http://nlftp.mlit.go.jp/ksj/jpgis/datalist/KsjTmplt-N02-v1_1.html",
        "wikidata": "Q6862867",
        "wikipedia": "ja:南河内駅"
      }
    },
    {
      "id": "yamaguchi_station_448126192",
      "osmId": 448126192,
      "osmType": "node",
      "prefectureId": "yamaguchi",
      "type": "station",
      "subtype": "private",
      "name": "守内かさ神",
      "nameKana": null,
      "nameEn": "Shuuchi-Kasagami",
      "operator": null,
      "network": null,
      "ref": null,
      "latitude": 34.1702003,
      "longitude": 132.1355688,
      "countryCode": "jp",
      "rawTags": {
        "KSJ2:LIN": "錦川清流線",
        "KSJ2:RAS": "eb03_994",
        "KSJ2:STN": "守内かさ神",
        "KSJ2:segment": "eb02_1915",
        "name": "守内かさ神",
        "name:en": "Shuuchi-Kasagami",
        "name:ja": "守内かさ神",
        "name:ko": "슈우치카사가미",
        "note": "National-Land Numerical Information (Railway) 2007, MLIT Japan",
        "note:ja": "国土数値情報（鉄道データ）平成19年　国土交通省",
        "public_transport": "station",
        "railway": "station",
        "source": "KSJ2",
        "source_ref": "http://nlftp.mlit.go.jp/ksj/jpgis/datalist/KsjTmplt-N02-v1_1.html",
        "wikidata": "Q7505737",
        "wikipedia": "ja:守内かさ神駅"
      }
    },
    {
      "id": "yamaguchi_station_448126738",
      "osmId": 448126738,
      "osmType": "node",
      "prefectureId": "yamaguchi",
      "type": "station",
      "subtype": "private",
      "name": "行波",
      "nameKana": null,
      "nameEn": "Yukaba",
      "operator": null,
      "network": null,
      "ref": null,
      "latitude": 34.1632882,
      "longitude": 132.0871421,
      "countryCode": "jp",
      "rawTags": {
        "KSJ2:LIN": "錦川清流線",
        "KSJ2:RAS": "eb03_993",
        "KSJ2:STN": "行波",
        "KSJ2:segment": "eb02_1906",
        "name": "行波",
        "name:en": "Yukaba",
        "name:ja": "行波",
        "name:ko": "유카바",
        "note": "National-Land Numerical Information (Railway) 2007, MLIT Japan",
        "note:ja": "国土数値情報（鉄道データ）平成19年　国土交通省",
        "public_transport": "station",
        "railway": "station",
        "source": "KSJ2",
        "source_ref": "http://nlftp.mlit.go.jp/ksj/jpgis/datalist/KsjTmplt-N02-v1_1.html",
        "wikidata": "Q8060569",
        "wikipedia": "ja:行波駅"
      }
    },
    {
      "id": "yamaguchi_station_448128344",
      "osmId": 448128344,
      "osmType": "node",
      "prefectureId": "yamaguchi",
      "type": "station",
      "subtype": "private",
      "name": "北河内",
      "nameKana": null,
      "nameEn": "Kita-Gōchi",
      "operator": null,
      "network": null,
      "ref": null,
      "latitude": 34.1759474,
      "longitude": 132.0646403,
      "countryCode": "jp",
      "rawTags": {
        "KSJ2:LIN": "錦川清流線",
        "KSJ2:RAS": "eb03_995",
        "KSJ2:STN": "北河内",
        "KSJ2:segment": "eb02_1904",
        "name": "北河内",
        "name:en": "Kita-Gōchi",
        "name:ja": "北河内",
        "name:ko": "기타고치",
        "note": "National-Land Numerical Information (Railway) 2007, MLIT Japan",
        "note:ja": "国土数値情報（鉄道データ）平成19年　国土交通省",
        "public_transport": "station",
        "railway": "station",
        "source": "KSJ2",
        "source_ref": "http://nlftp.mlit.go.jp/ksj/jpgis/datalist/KsjTmplt-N02-v1_1.html",
        "wikidata": "Q6417532",
        "wikipedia": "ja:北河内駅 (山口県)"
      }
    },
    {
      "id": "yamaguchi_station_448128997",
      "osmId": 448128997,
      "osmType": "node",
      "prefectureId": "yamaguchi",
      "type": "station",
      "subtype": "private",
      "name": "南桑",
      "nameKana": null,
      "nameEn": "Naguwa",
      "operator": null,
      "network": null,
      "ref": null,
      "latitude": 34.209697,
      "longitude": 132.0206924,
      "countryCode": "jp",
      "rawTags": {
        "KSJ2:LIN": "錦川清流線",
        "KSJ2:RAS": "eb03_985",
        "KSJ2:STN": "南桑",
        "KSJ2:segment": "eb02_1917",
        "name": "南桑",
        "name:en": "Naguwa",
        "name:ja": "南桑",
        "name:ko": "나구와",
        "note": "National-Land Numerical Information (Railway) 2007, MLIT Japan",
        "note:ja": "国土数値情報（鉄道データ）平成19年　国土交通省",
        "public_transport": "station",
        "railway": "station",
        "source": "KSJ2",
        "source_ref": "http://nlftp.mlit.go.jp/ksj/jpgis/datalist/KsjTmplt-N02-v1_1.html",
        "wikidata": "Q6959092",
        "wikipedia": "ja:南桑駅"
      }
    },
    {
      "id": "yamaguchi_station_448129000",
      "osmId": 448129000,
      "osmType": "node",
      "prefectureId": "yamaguchi",
      "type": "station",
      "subtype": "private",
      "name": "錦町",
      "nameKana": null,
      "nameEn": "Nishikichō",
      "operator": null,
      "network": null,
      "ref": null,
      "latitude": 34.2648963,
      "longitude": 131.9629295,
      "countryCode": "jp",
      "rawTags": {
        "KSJ2:LIN": "錦川清流線",
        "KSJ2:RAS": "eb03_989",
        "KSJ2:STN": "錦町",
        "KSJ2:segment": "eb02_1903",
        "name": "錦町",
        "name:en": "Nishikichō",
        "name:ja": "錦町",
        "name:ko": "니시키초",
        "note": "National-Land Numerical Information (Railway) 2007, MLIT Japan",
        "note:ja": "国土数値情報（鉄道データ）平成19年　国土交通省",
        "public_transport": "station",
        "railway": "station",
        "source": "KSJ2",
        "source_ref": "http://nlftp.mlit.go.jp/ksj/jpgis/datalist/KsjTmplt-N02-v1_1.html",
        "wikidata": "Q7040595",
        "wikipedia": "ja:錦町駅"
      }
    },
    {
      "id": "yamaguchi_airport_1042055974",
      "osmId": 1042055974,
      "osmType": "node",
      "prefectureId": "yamaguchi",
      "type": "airport",
      "subtype": "military",
      "name": "防府北基地",
      "nameKana": null,
      "nameEn": "Hofu Airport",
      "operator": null,
      "network": null,
      "ref": "RJOF",
      "latitude": 34.0346985,
      "longitude": 131.548996,
      "countryCode": "jp",
      "rawTags": {
        "aeroway": "aerodrome",
        "icao": "RJOF",
        "landuse": "military",
        "military": "airfield",
        "name": "防府北基地",
        "name:en": "Hofu Airport",
        "source": "ourairports.com",
        "wikidata": "Q3274784",
        "wikipedia": "ja:防府北基地"
      }
    },
    {
      "id": "yamaguchi_airport_1042056004",
      "osmId": 1042056004,
      "osmType": "node",
      "prefectureId": "yamaguchi",
      "type": "airport",
      "subtype": "military",
      "name": "小月航空基地",
      "nameKana": null,
      "nameEn": "JMSDF Ozuki Air Base",
      "operator": null,
      "network": null,
      "ref": "RJOZ",
      "latitude": 34.0452995,
      "longitude": 131.052002,
      "countryCode": "jp",
      "rawTags": {
        "aeroway": "aerodrome",
        "icao": "RJOZ",
        "landuse": "military",
        "military": "airfield",
        "name": "小月航空基地",
        "name:alt": "Ozuki Airport",
        "name:en": "JMSDF Ozuki Air Base",
        "name:ja": "小月航空基地",
        "name:ru": "Симоносеки",
        "source": "ourairports.com",
        "wikidata": "Q7116694",
        "wikipedia": "ja:小月航空基地"
      }
    },
    {
      "id": "yamaguchi_bus_terminal_2426583080",
      "osmId": 2426583080,
      "osmType": "node",
      "prefectureId": "yamaguchi",
      "type": "bus_terminal",
      "subtype": null,
      "name": "下関駅",
      "nameKana": null,
      "nameEn": null,
      "operator": null,
      "network": null,
      "ref": null,
      "latitude": 33.9505246,
      "longitude": 130.9238068,
      "countryCode": "jp",
      "rawTags": {
        "amenity": "bus_station",
        "bus": "yes",
        "name": "下関駅",
        "public_transport": "station"
      }
    },
    {
      "id": "yamaguchi_ferry_terminal_2498989788",
      "osmId": 2498989788,
      "osmType": "node",
      "prefectureId": "yamaguchi",
      "type": "ferry_terminal",
      "subtype": null,
      "name": "下関港国際ターミナル",
      "nameKana": null,
      "nameEn": null,
      "operator": "下関市港湾局",
      "network": null,
      "ref": null,
      "latitude": 33.947731,
      "longitude": 130.9254417,
      "countryCode": "jp",
      "rawTags": {
        "amenity": "ferry_terminal",
        "ferry": "yes",
        "name": "下関港国際ターミナル",
        "operator": "下関市港湾局",
        "public_transport": "station",
        "source": "bing"
      }
    },
    {
      "id": "yamaguchi_station_3262423982",
      "osmId": 3262423982,
      "osmType": "node",
      "prefectureId": "yamaguchi",
      "type": "station",
      "subtype": "private",
      "name": "梶栗郷台地",
      "nameKana": "かじくりごうだいち",
      "nameEn": "Kajikuri-Gōdaichi",
      "operator": null,
      "network": null,
      "ref": null,
      "latitude": 34.0140352,
      "longitude": 130.9235652,
      "countryCode": "jp",
      "rawTags": {
        "addr:city": "山口県下関市綾羅木新町３丁目９５３－３",
        "addr:postcode": "751-0865",
        "name": "梶栗郷台地",
        "name:en": "Kajikuri-Gōdaichi",
        "name:ja-Hira": "かじくりごうだいち",
        "railway": "station",
        "source": "http://nlftp.mlit.go.jp/ksj/jpgis/datalist/KsjTmplt-N02-v1_1.html",
        "website": "https://www.jr-odekake.net/eki/top.php?id=0800721",
        "wikidata": "Q6348998",
        "wikipedia": "ja:梶栗郷台地駅"
      }
    },
    {
      "id": "yamaguchi_ferry_terminal_3314980387",
      "osmId": 3314980387,
      "osmType": "node",
      "prefectureId": "yamaguchi",
      "type": "ferry_terminal",
      "subtype": null,
      "name": "舟島(巌流島)",
      "nameKana": null,
      "nameEn": null,
      "operator": null,
      "network": null,
      "ref": null,
      "latitude": 33.935826,
      "longitude": 130.9284596,
      "countryCode": "jp",
      "rawTags": {
        "amenity": "ferry_terminal",
        "name": "舟島(巌流島)"
      }
    },
    {
      "id": "yamaguchi_ferry_terminal_3732686778",
      "osmId": 3732686778,
      "osmType": "node",
      "prefectureId": "yamaguchi",
      "type": "ferry_terminal",
      "subtype": null,
      "name": "下関港(唐戸桟橋)",
      "nameKana": null,
      "nameEn": null,
      "operator": null,
      "network": null,
      "ref": null,
      "latitude": 33.9557657,
      "longitude": 130.9430214,
      "countryCode": "jp",
      "rawTags": {
        "amenity": "ferry_terminal",
        "name": "下関港(唐戸桟橋)"
      }
    },
    {
      "id": "yamaguchi_ferry_terminal_3803549263",
      "osmId": 3803549263,
      "osmType": "node",
      "prefectureId": "yamaguchi",
      "type": "ferry_terminal",
      "subtype": null,
      "name": "徳山港",
      "nameKana": null,
      "nameEn": null,
      "operator": null,
      "network": null,
      "ref": null,
      "latitude": 34.049757,
      "longitude": 131.7989341,
      "countryCode": "jp",
      "rawTags": {
        "amenity": "ferry_terminal",
        "ferry": "yes",
        "name": "徳山港",
        "public_transport": "station"
      }
    },
    {
      "id": "yamaguchi_ferry_terminal_3804431898",
      "osmId": 3804431898,
      "osmType": "node",
      "prefectureId": "yamaguchi",
      "type": "ferry_terminal",
      "subtype": null,
      "name": "馬島港FT",
      "nameKana": null,
      "nameEn": null,
      "operator": null,
      "network": null,
      "ref": null,
      "latitude": 33.9903886,
      "longitude": 131.7209764,
      "countryCode": "jp",
      "rawTags": {
        "amenity": "ferry_terminal",
        "ferry": "yes",
        "name": "馬島港FT",
        "public_transport": "station"
      }
    },
    {
      "id": "yamaguchi_ferry_terminal_3804433058",
      "osmId": 3804433058,
      "osmType": "node",
      "prefectureId": "yamaguchi",
      "type": "ferry_terminal",
      "subtype": null,
      "name": "刈尾港FT",
      "nameKana": null,
      "nameEn": null,
      "operator": null,
      "network": null,
      "ref": null,
      "latitude": 34.0165741,
      "longitude": 131.7107265,
      "countryCode": "jp",
      "rawTags": {
        "amenity": "ferry_terminal",
        "ferry": "yes",
        "name": "刈尾港FT",
        "public_transport": "station"
      }
    },
    {
      "id": "yamaguchi_ferry_terminal_4199676089",
      "osmId": 4199676089,
      "osmType": "node",
      "prefectureId": "yamaguchi",
      "type": "ferry_terminal",
      "subtype": null,
      "name": "三田尻港乗り場",
      "nameKana": null,
      "nameEn": null,
      "operator": null,
      "network": null,
      "ref": null,
      "latitude": 34.0369148,
      "longitude": 131.584285,
      "countryCode": "jp",
      "rawTags": {
        "amenity": "ferry_terminal",
        "name": "三田尻港乗り場"
      }
    },
    {
      "id": "yamaguchi_ferry_terminal_4199682893",
      "osmId": 4199682893,
      "osmType": "node",
      "prefectureId": "yamaguchi",
      "type": "ferry_terminal",
      "subtype": null,
      "name": "野島港乗り場",
      "nameKana": null,
      "nameEn": null,
      "operator": null,
      "network": null,
      "ref": null,
      "latitude": 33.9431682,
      "longitude": 131.6943969,
      "countryCode": "jp",
      "rawTags": {
        "amenity": "ferry_terminal",
        "name": "野島港乗り場"
      }
    },
    {
      "id": "yamaguchi_bus_terminal_4243804336",
      "osmId": 4243804336,
      "osmType": "node",
      "prefectureId": "yamaguchi",
      "type": "bus_terminal",
      "subtype": null,
      "name": "防長バス萩バスターミナル",
      "nameKana": null,
      "nameEn": null,
      "operator": null,
      "network": null,
      "ref": null,
      "latitude": 34.4105289,
      "longitude": 131.4027299,
      "countryCode": "jp",
      "rawTags": {
        "amenity": "bus_station",
        "name": "防長バス萩バスターミナル"
      }
    },
    {
      "id": "yamaguchi_ferry_terminal_4362727895",
      "osmId": 4362727895,
      "osmType": "node",
      "prefectureId": "yamaguchi",
      "type": "ferry_terminal",
      "subtype": null,
      "name": "牛島港乗り場",
      "nameKana": null,
      "nameEn": null,
      "operator": null,
      "network": null,
      "ref": null,
      "latitude": 33.8593953,
      "longitude": 132.0069054,
      "countryCode": "jp",
      "rawTags": {
        "amenity": "ferry_terminal",
        "name": "牛島港乗り場"
      }
    },
    {
      "id": "yamaguchi_ferry_terminal_4362773189",
      "osmId": 4362773189,
      "osmType": "node",
      "prefectureId": "yamaguchi",
      "type": "ferry_terminal",
      "subtype": null,
      "name": "室積港発着場",
      "nameKana": null,
      "nameEn": null,
      "operator": null,
      "network": null,
      "ref": null,
      "latitude": 33.927499,
      "longitude": 131.9740632,
      "countryCode": "jp",
      "rawTags": {
        "amenity": "ferry_terminal",
        "name": "室積港発着場"
      }
    },
    {
      "id": "yamaguchi_ferry_terminal_4373631014",
      "osmId": 4373631014,
      "osmType": "node",
      "prefectureId": "yamaguchi",
      "type": "ferry_terminal",
      "subtype": null,
      "name": "佐合島港乗り場",
      "nameKana": null,
      "nameEn": null,
      "operator": null,
      "network": null,
      "ref": null,
      "latitude": 33.8751429,
      "longitude": 132.0667164,
      "countryCode": "jp",
      "rawTags": {
        "amenity": "ferry_terminal",
        "ferry": "yes",
        "name": "佐合島港乗り場",
        "public_transport": "station"
      }
    },
    {
      "id": "yamaguchi_ferry_terminal_4373731395",
      "osmId": 4373731395,
      "osmType": "node",
      "prefectureId": "yamaguchi",
      "type": "ferry_terminal",
      "subtype": null,
      "name": "佐賀港乗り場",
      "nameKana": null,
      "nameEn": null,
      "operator": null,
      "network": null,
      "ref": null,
      "latitude": 33.8925069,
      "longitude": 132.0796668,
      "countryCode": "jp",
      "rawTags": {
        "amenity": "ferry_terminal",
        "ferry": "yes",
        "name": "佐賀港乗り場",
        "public_transport": "station"
      }
    },
    {
      "id": "yamaguchi_ferry_terminal_4373741391",
      "osmId": 4373741391,
      "osmType": "node",
      "prefectureId": "yamaguchi",
      "type": "ferry_terminal",
      "subtype": null,
      "name": "馬島港乗り場",
      "nameKana": null,
      "nameEn": null,
      "operator": null,
      "network": null,
      "ref": null,
      "latitude": 33.8964613,
      "longitude": 132.0506562,
      "countryCode": "jp",
      "rawTags": {
        "amenity": "ferry_terminal",
        "name": "馬島港乗り場"
      }
    },
    {
      "id": "yamaguchi_ferry_terminal_4373823790",
      "osmId": 4373823790,
      "osmType": "node",
      "prefectureId": "yamaguchi",
      "type": "ferry_terminal",
      "subtype": null,
      "name": "渡船場",
      "nameKana": null,
      "nameEn": null,
      "operator": null,
      "network": null,
      "ref": null,
      "latitude": 33.9123459,
      "longitude": 132.0452096,
      "countryCode": "jp",
      "rawTags": {
        "amenity": "ferry_terminal",
        "name": "渡船場"
      }
    },
    {
      "id": "yamaguchi_ferry_terminal_4374955490",
      "osmId": 4374955490,
      "osmType": "node",
      "prefectureId": "yamaguchi",
      "type": "ferry_terminal",
      "subtype": null,
      "name": "蒲井港乗り場",
      "nameKana": null,
      "nameEn": null,
      "operator": null,
      "network": null,
      "ref": null,
      "latitude": 33.8140834,
      "longitude": 132.0759051,
      "countryCode": "jp",
      "rawTags": {
        "amenity": "ferry_terminal",
        "name": "蒲井港乗り場"
      }
    },
    {
      "id": "yamaguchi_ferry_terminal_4374955589",
      "osmId": 4374955589,
      "osmType": "node",
      "prefectureId": "yamaguchi",
      "type": "ferry_terminal",
      "subtype": null,
      "name": "四代乗り場",
      "nameKana": null,
      "nameEn": null,
      "operator": null,
      "network": null,
      "ref": null,
      "latitude": 33.7922493,
      "longitude": 132.0556826,
      "countryCode": "jp",
      "rawTags": {
        "amenity": "ferry_terminal",
        "name": "四代乗り場"
      }
    },
    {
      "id": "yamaguchi_ferry_terminal_4374955791",
      "osmId": 4374955791,
      "osmType": "node",
      "prefectureId": "yamaguchi",
      "type": "ferry_terminal",
      "subtype": null,
      "name": "祝島",
      "nameKana": null,
      "nameEn": null,
      "operator": null,
      "network": null,
      "ref": null,
      "latitude": 33.7875115,
      "longitude": 131.9884607,
      "countryCode": "jp",
      "rawTags": {
        "amenity": "ferry_terminal",
        "ferry": "yes",
        "name": "祝島",
        "public_transport": "station"
      }
    },
    {
      "id": "yamaguchi_ferry_terminal_4374970792",
      "osmId": 4374970792,
      "osmType": "node",
      "prefectureId": "yamaguchi",
      "type": "ferry_terminal",
      "subtype": null,
      "name": "平郡西港FT",
      "nameKana": null,
      "nameEn": null,
      "operator": null,
      "network": null,
      "ref": null,
      "latitude": 33.8018349,
      "longitude": 132.1994392,
      "countryCode": "jp",
      "rawTags": {
        "amenity": "ferry_terminal",
        "name": "平郡西港FT"
      }
    },
    {
      "id": "yamaguchi_ferry_terminal_4374973899",
      "osmId": 4374973899,
      "osmType": "node",
      "prefectureId": "yamaguchi",
      "type": "ferry_terminal",
      "subtype": null,
      "name": "平郡東浦港FT",
      "nameKana": null,
      "nameEn": null,
      "operator": null,
      "network": null,
      "ref": null,
      "latitude": 33.7790076,
      "longitude": 132.26317,
      "countryCode": "jp",
      "rawTags": {
        "amenity": "ferry_terminal",
        "name": "平郡東浦港FT"
      }
    },
    {
      "id": "yamaguchi_ferry_terminal_4375080889",
      "osmId": 4375080889,
      "osmType": "node",
      "prefectureId": "yamaguchi",
      "type": "ferry_terminal",
      "subtype": null,
      "name": "羽仁港FT",
      "nameKana": null,
      "nameEn": null,
      "operator": null,
      "network": null,
      "ref": null,
      "latitude": 33.7813167,
      "longitude": 132.2582295,
      "countryCode": "jp",
      "rawTags": {
        "amenity": "ferry_terminal",
        "name": "羽仁港FT"
      }
    },
    {
      "id": "yamaguchi_ferry_terminal_4375083490",
      "osmId": 4375083490,
      "osmType": "node",
      "prefectureId": "yamaguchi",
      "type": "ferry_terminal",
      "subtype": null,
      "name": "八島古浦港FT",
      "nameKana": null,
      "nameEn": null,
      "operator": null,
      "network": null,
      "ref": null,
      "latitude": 33.7538964,
      "longitude": 132.1438448,
      "countryCode": "jp",
      "rawTags": {
        "amenity": "ferry_terminal",
        "name": "八島古浦港FT"
      }
    },
    {
      "id": "yamaguchi_ferry_terminal_4375091092",
      "osmId": 4375091092,
      "osmType": "node",
      "prefectureId": "yamaguchi",
      "type": "ferry_terminal",
      "subtype": null,
      "name": "八島港乗り場",
      "nameKana": null,
      "nameEn": null,
      "operator": null,
      "network": null,
      "ref": null,
      "latitude": 33.7294059,
      "longitude": 132.1427878,
      "countryCode": "jp",
      "rawTags": {
        "amenity": "ferry_terminal",
        "name": "八島港乗り場"
      }
    },
    {
      "id": "yamaguchi_ferry_terminal_4375142897",
      "osmId": 4375142897,
      "osmType": "node",
      "prefectureId": "yamaguchi",
      "type": "ferry_terminal",
      "subtype": null,
      "name": "伊保田港",
      "nameKana": null,
      "nameEn": null,
      "operator": null,
      "network": null,
      "ref": null,
      "latitude": 33.9442177,
      "longitude": 132.4391337,
      "countryCode": "jp",
      "rawTags": {
        "amenity": "ferry_terminal",
        "ferry": "yes",
        "name": "伊保田港",
        "public_transport": "station",
        "wikidata": "Q17193533",
        "wikipedia": "ja:伊保田港"
      }
    },
    {
      "id": "yamaguchi_ferry_terminal_4375458796",
      "osmId": 4375458796,
      "osmType": "node",
      "prefectureId": "yamaguchi",
      "type": "ferry_terminal",
      "subtype": null,
      "name": "笠佐島港乗り場",
      "nameKana": null,
      "nameEn": null,
      "operator": null,
      "network": null,
      "ref": null,
      "latitude": 33.9461905,
      "longitude": 132.1673864,
      "countryCode": "jp",
      "rawTags": {
        "amenity": "ferry_terminal",
        "ferry": "yes",
        "name": "笠佐島港乗り場",
        "public_transport": "station"
      }
    },
    {
      "id": "yamaguchi_ferry_terminal_4375472492",
      "osmId": 4375472492,
      "osmType": "node",
      "prefectureId": "yamaguchi",
      "type": "ferry_terminal",
      "subtype": null,
      "name": "笠佐島航路発着場",
      "nameKana": null,
      "nameEn": null,
      "operator": null,
      "network": null,
      "ref": null,
      "latitude": 33.9427951,
      "longitude": 132.1875924,
      "countryCode": "jp",
      "rawTags": {
        "amenity": "ferry_terminal",
        "ferry": "yes",
        "name": "笠佐島航路発着場",
        "public_transport": "station"
      }
    },
    {
      "id": "yamaguchi_ferry_terminal_4663401638",
      "osmId": 4663401638,
      "osmType": "node",
      "prefectureId": "yamaguchi",
      "type": "ferry_terminal",
      "subtype": null,
      "name": "元山港FT",
      "nameKana": null,
      "nameEn": null,
      "operator": null,
      "network": null,
      "ref": null,
      "latitude": 34.3546396,
      "longitude": 130.871555,
      "countryCode": "jp",
      "rawTags": {
        "amenity": "ferry_terminal",
        "name": "元山港FT"
      }
    },
    {
      "id": "yamaguchi_ferry_terminal_5224551618",
      "osmId": 5224551618,
      "osmType": "node",
      "prefectureId": "yamaguchi",
      "type": "ferry_terminal",
      "subtype": null,
      "name": "瀬戸浜港乗り場",
      "nameKana": null,
      "nameEn": null,
      "operator": null,
      "network": null,
      "ref": null,
      "latitude": 34.028908,
      "longitude": 131.7137611,
      "countryCode": "jp",
      "rawTags": {
        "amenity": "ferry_terminal",
        "name": "瀬戸浜港乗り場"
      }
    },
    {
      "id": "yamaguchi_ferry_terminal_5224583523",
      "osmId": 5224583523,
      "osmType": "node",
      "prefectureId": "yamaguchi",
      "type": "ferry_terminal",
      "subtype": null,
      "name": "本浦港旅客船発着所",
      "nameKana": null,
      "nameEn": null,
      "operator": null,
      "network": null,
      "ref": null,
      "latitude": 34.0075991,
      "longitude": 131.7032928,
      "countryCode": "jp",
      "rawTags": {
        "amenity": "ferry_terminal",
        "ferry": "yes",
        "name": "本浦港旅客船発着所",
        "public_transport": "station"
      }
    },
    {
      "id": "yamaguchi_station_6054859873",
      "osmId": 6054859873,
      "osmType": "node",
      "prefectureId": "yamaguchi",
      "type": "station",
      "subtype": "jr",
      "name": "小月",
      "nameKana": null,
      "nameEn": "Ozuki",
      "operator": "西日本旅客鉄道",
      "network": null,
      "ref": null,
      "latitude": 34.0680428,
      "longitude": 131.0328781,
      "countryCode": "jp",
      "rawTags": {
        "name": "小月",
        "name:de": "Ozuki",
        "name:en": "Ozuki",
        "name:ja": "小月",
        "operator": "西日本旅客鉄道",
        "railway": "station",
        "wikidata": "Q3611296",
        "wikipedia": "ja:小月駅"
      }
    },
    {
      "id": "yamaguchi_bus_terminal_6282455345",
      "osmId": 6282455345,
      "osmType": "node",
      "prefectureId": "yamaguchi",
      "type": "bus_terminal",
      "subtype": null,
      "name": "バス案内所",
      "nameKana": null,
      "nameEn": null,
      "operator": null,
      "network": null,
      "ref": null,
      "latitude": 34.0942624,
      "longitude": 131.3958567,
      "countryCode": "jp",
      "rawTags": {
        "amenity": "bus_station",
        "name": "バス案内所",
        "source": "survey"
      }
    },
    {
      "id": "yamaguchi_ferry_terminal_6334563355",
      "osmId": 6334563355,
      "osmType": "node",
      "prefectureId": "yamaguchi",
      "type": "ferry_terminal",
      "subtype": null,
      "name": "青海島觀光汽船",
      "nameKana": null,
      "nameEn": null,
      "operator": null,
      "network": null,
      "ref": null,
      "latitude": 34.388788,
      "longitude": 131.2031219,
      "countryCode": "jp",
      "rawTags": {
        "amenity": "ferry_terminal",
        "ferry": "yes",
        "name": "青海島觀光汽船",
        "public_transport": "station"
      }
    },
    {
      "id": "yamaguchi_station_6872871854",
      "osmId": 6872871854,
      "osmType": "node",
      "prefectureId": "yamaguchi",
      "type": "station",
      "subtype": "private",
      "name": "下関",
      "nameKana": null,
      "nameEn": "Shimonoseki",
      "operator": null,
      "network": null,
      "ref": null,
      "latitude": 33.9493851,
      "longitude": 130.9217895,
      "countryCode": "jp",
      "rawTags": {
        "mapillary": "185175467536077",
        "name": "下関",
        "name:de": "Shimonoseki",
        "name:en": "Shimonoseki",
        "name:ja": "下関",
        "name:ko": "시모노세키",
        "public_transport": "station",
        "railway": "station",
        "source": "KSJ2",
        "wikidata": "Q1130253",
        "wikipedia": "ja:下関駅"
      }
    },
    {
      "id": "yamaguchi_station_7106287025",
      "osmId": 7106287025,
      "osmType": "node",
      "prefectureId": "yamaguchi",
      "type": "station",
      "subtype": "private",
      "name": "通津",
      "nameKana": null,
      "nameEn": "Tsuzu",
      "operator": null,
      "network": null,
      "ref": null,
      "latitude": 34.0681847,
      "longitude": 132.2049813,
      "countryCode": "jp",
      "rawTags": {
        "KSJ2:LIN": "山陽線",
        "KSJ2:STN": "通津",
        "name": "通津",
        "name:de": "Tsuzu",
        "name:en": "Tsuzu",
        "name:ja": "通津",
        "name:ko": "쓰즈",
        "railway": "station",
        "wikidata": "Q5358160",
        "wikipedia": "ja:通津駅"
      }
    },
    {
      "id": "yamaguchi_station_7238241815",
      "osmId": 7238241815,
      "osmType": "node",
      "prefectureId": "yamaguchi",
      "type": "station",
      "subtype": "jr",
      "name": "岩国",
      "nameKana": null,
      "nameEn": "Iwakuni",
      "operator": "西日本旅客鉄道",
      "network": null,
      "ref": "R16",
      "latitude": 34.1719658,
      "longitude": 132.2255418,
      "countryCode": "jp",
      "rawTags": {
        "KSJ2:LIN": "山陽線;岩徳線",
        "KSJ2:STN": "岩国",
        "contact:website": "https://www.jr-odekake.net/eki/top?id=0800622",
        "name": "岩国",
        "name:en": "Iwakuni",
        "name:ja": "岩国",
        "name:ko": "이와쿠니",
        "note": "National-Land Numerical Information (Railway) 2007, MLIT Japan",
        "note:ja": "国土数値情報（鉄道データ）平成19年　国土交通省",
        "operator": "西日本旅客鉄道",
        "operator:en": "West Japan Railway Company",
        "public_transport": "station",
        "railway": "station",
        "ref": "R16",
        "source": "KSJ2",
        "source_ref": "http://nlftp.mlit.go.jp/ksj/jpgis/datalist/KsjTmplt-N02-v1_1.html",
        "train": "yes",
        "wheelchair": "yes",
        "wikidata": "Q5358387",
        "wikipedia": "ja:岩国駅"
      }
    },
    {
      "id": "yamaguchi_ferry_terminal_7731950746",
      "osmId": 7731950746,
      "osmType": "node",
      "prefectureId": "yamaguchi",
      "type": "ferry_terminal",
      "subtype": null,
      "name": "見島港",
      "nameKana": null,
      "nameEn": null,
      "operator": null,
      "network": null,
      "ref": null,
      "latitude": 34.7627173,
      "longitude": 131.1525434,
      "countryCode": "jp",
      "rawTags": {
        "amenity": "ferry_terminal",
        "ferry": "yes",
        "name": "見島港",
        "public_transport": "station"
      }
    },
    {
      "id": "yamaguchi_station_8195950643",
      "osmId": 8195950643,
      "osmType": "node",
      "prefectureId": "yamaguchi",
      "type": "station",
      "subtype": "private",
      "name": "清流みはらし",
      "nameKana": "せいりゅうみはらし",
      "nameEn": "Seiryu-Miharashi",
      "operator": null,
      "network": null,
      "ref": null,
      "latitude": 34.2110339,
      "longitude": 132.0063554,
      "countryCode": "jp",
      "rawTags": {
        "addr:city": "岩国市",
        "addr:neighbourhood": "字イモヶ迫",
        "addr:postcode": "740-0505",
        "addr:province": "山口県",
        "addr:quarter": "美川町根笠",
        "name": "清流みはらし",
        "name:en": "Seiryu-Miharashi",
        "name:ja": "清流みはらし",
        "name:ja-Hira": "せいりゅうみはらし",
        "name:zh": "清流見晴",
        "note": "臨時駅。定期列車が全て通過し、イベント列車のみ停車する。",
        "railway": "station",
        "source": "GSImaps/std",
        "start_date": "2019-03-19",
        "train": "yes",
        "wikidata": "Q55541168",
        "wikipedia": "ja:清流みはらし駅"
      }
    },
    {
      "id": "yamaguchi_station_8557769911",
      "osmId": 8557769911,
      "osmType": "node",
      "prefectureId": "yamaguchi",
      "type": "station",
      "subtype": "private",
      "name": "南岩国",
      "nameKana": "みなみいわくに",
      "nameEn": "Minami-Iwakuni",
      "operator": null,
      "network": null,
      "ref": null,
      "latitude": 34.1361357,
      "longitude": 132.2069058,
      "countryCode": "jp",
      "rawTags": {
        "KSJ2:LIN": "山陽線",
        "KSJ2:STN": "南岩国",
        "name": "南岩国",
        "name:de": "Minami-Iwakuni",
        "name:en": "Minami-Iwakuni",
        "name:ja": "南岩国",
        "name:ja_kana": "みなみいわくに",
        "name:ja_rm": "Minami-Iwakuni",
        "name:ko": "미나미이와쿠니",
        "note": "National-Land Numerical Information (Railway) 2007, MLIT Japan",
        "note:ja": "国土数値情報（鉄道データ）平成19年　国土交通省",
        "railway": "station",
        "source": "KSJ2",
        "source_ref": "http://nlftp.mlit.go.jp/ksj/jpgis/datalist/KsjTmplt-N02-v1_1.html",
        "website": "https://www.jr-odekake.net/eki/top.php?id=0800624",
        "wikidata": "Q8011236",
        "wikipedia": "ja:南岩国駅",
        "wikipedia:en": "Minami-Iwakuni_Station",
        "wikipedia:ja": "南岩国駅"
      }
    },
    {
      "id": "yamaguchi_station_8558010863",
      "osmId": 8558010863,
      "osmType": "node",
      "prefectureId": "yamaguchi",
      "type": "station",
      "subtype": "private",
      "name": "新南陽",
      "nameKana": null,
      "nameEn": "Shinnan-yō",
      "operator": null,
      "network": null,
      "ref": null,
      "latitude": 34.0696603,
      "longitude": 131.7700182,
      "countryCode": "jp",
      "rawTags": {
        "KSJ2:LIN": "山陽線",
        "KSJ2:STN": "新南陽",
        "name": "新南陽",
        "name:de": "Shinnan-yō",
        "name:en": "Shinnan-yō",
        "name:ja": "新南陽",
        "name:ko": "신난요",
        "note": "National-Land Numerical Information (Railway) 2007, MLIT Japan",
        "note:ja": "国土数値情報（鉄道データ）平成19年　国土交通省",
        "public_transport": "station",
        "railway": "station",
        "source": "KSJ2",
        "source_ref": "http://nlftp.mlit.go.jp/ksj/jpgis/datalist/KsjTmplt-N02-v1_1.html",
        "wikidata": "Q5357664",
        "wikipedia": "ja:新南陽駅"
      }
    },
    {
      "id": "yamaguchi_station_8558016545",
      "osmId": 8558016545,
      "osmType": "node",
      "prefectureId": "yamaguchi",
      "type": "station",
      "subtype": "jr",
      "name": "新下関",
      "nameKana": null,
      "nameEn": "Shin-Shimonoseki",
      "operator": "JR西日本",
      "network": null,
      "ref": null,
      "latitude": 34.0082223,
      "longitude": 130.9492803,
      "countryCode": "jp",
      "rawTags": {
        "addr:block_number": "11-1",
        "addr:city": "下関市",
        "addr:neighbourhood": "1",
        "addr:province": "山口県",
        "addr:quarter": "秋根南町",
        "name": "新下関",
        "name:de": "Shin-Shimonoseki",
        "name:en": "Shin-Shimonoseki",
        "name:ja": "新下関",
        "name:ko": "신시모노세키",
        "note": "National-Land Numerical Information (Railway) 2007, MLIT Japan",
        "operator": "JR西日本",
        "public_transport": "station",
        "railway": "station",
        "source": "KSJ2",
        "source_ref": "http://nlftp.mlit.go.jp/ksj/jpgis/datalist/KsjTmplt-N02-v1_1.html",
        "wikidata": "Q1074353",
        "wikipedia": "ja:新下関駅"
      }
    },
    {
      "id": "yamaguchi_station_8558302338",
      "osmId": 8558302338,
      "osmType": "node",
      "prefectureId": "yamaguchi",
      "type": "station",
      "subtype": "private",
      "name": "新岩国",
      "nameKana": null,
      "nameEn": "Shin-Iwakuni",
      "operator": null,
      "network": null,
      "ref": null,
      "latitude": 34.1645738,
      "longitude": 132.1495132,
      "countryCode": "jp",
      "rawTags": {
        "KSJ2:LIN": "山陽新幹線",
        "KSJ2:STN": "新岩国",
        "name": "新岩国",
        "name:de": "Shin-Iwakuni",
        "name:en": "Shin-Iwakuni",
        "name:ja": "新岩国",
        "name:ko": "신이와쿠니",
        "note": "National-Land Numerical Information (Railway) 2007, MLIT Japan",
        "note:ja": "国土数値情報（鉄道データ）平成19年　国土交通省",
        "public_transport": "station",
        "railway": "station",
        "source": "KSJ2",
        "source_ref": "http://nlftp.mlit.go.jp/ksj/jpgis/datalist/KsjTmplt-N02-v1_1.html",
        "wheelchair": "yes",
        "wikidata": "Q767197",
        "wikipedia": "ja:新岩国駅"
      }
    },
    {
      "id": "yamaguchi_station_8559468556",
      "osmId": 8559468556,
      "osmType": "node",
      "prefectureId": "yamaguchi",
      "type": "station",
      "subtype": "private",
      "name": "幡生",
      "nameKana": null,
      "nameEn": "Hatabu",
      "operator": null,
      "network": null,
      "ref": null,
      "latitude": 33.9812127,
      "longitude": 130.9274002,
      "countryCode": "jp",
      "rawTags": {
        "name": "幡生",
        "name:de": "Hatabu",
        "name:en": "Hatabu",
        "name:ja": "幡生",
        "name:ko": "하타부",
        "railway": "station",
        "source": "KSJ2",
        "wikidata": "Q861522",
        "wikipedia": "ja:幡生駅"
      }
    },
    {
      "id": "yamaguchi_station_8559647241",
      "osmId": 8559647241,
      "osmType": "node",
      "prefectureId": "yamaguchi",
      "type": "station",
      "subtype": "jr",
      "name": "埴生",
      "nameKana": null,
      "nameEn": "Habu",
      "operator": "西日本旅客鉄道",
      "network": null,
      "ref": null,
      "latitude": 34.0491382,
      "longitude": 131.0868488,
      "countryCode": "jp",
      "rawTags": {
        "KSJ2:LIN": "山陽線",
        "KSJ2:STN": "埴生",
        "name": "埴生",
        "name:de": "Habu",
        "name:en": "Habu",
        "name:ja": "埴生",
        "name:ko": "하부",
        "note": "National-Land Numerical Information (Railway) 2007, MLIT Japan",
        "note:ja": "国土数値情報（鉄道データ）平成19年　国土交通省",
        "operator": "西日本旅客鉄道",
        "operator:en": "West Japan Railway Company",
        "railway": "station",
        "source": "KSJ2",
        "source_ref": "http://nlftp.mlit.go.jp/ksj/jpgis/datalist/KsjTmplt-N02-v1_1.html",
        "wikidata": "Q5636995",
        "wikipedia": "ja:埴生駅"
      }
    },
    {
      "id": "yamaguchi_station_8559899910",
      "osmId": 8559899910,
      "osmType": "node",
      "prefectureId": "yamaguchi",
      "type": "station",
      "subtype": "jr",
      "name": "小野田",
      "nameKana": null,
      "nameEn": "Onoda",
      "operator": "西日本旅客鉄道",
      "network": null,
      "ref": null,
      "latitude": 34.0079811,
      "longitude": 131.1854093,
      "countryCode": "jp",
      "rawTags": {
        "KSJ2:LIN": "山陽線",
        "name": "小野田",
        "name:de": "Onoda",
        "name:en": "Onoda",
        "name:ja": "小野田",
        "name:ko": "오노다",
        "note": "National-Land Numerical Information (Railway) 2007, MLIT Japan",
        "note:ja": "国土数値情報（鉄道データ）平成19年　国土交通省",
        "operator": "西日本旅客鉄道",
        "operator:en": "West Japan Railway Company",
        "public_transport": "station",
        "railway": "station",
        "source": "KSJ2",
        "source_ref": "http://nlftp.mlit.go.jp/ksj/jpgis/datalist/KsjTmplt-N02-v1_1.html",
        "wikidata": "Q5358039",
        "wikipedia": "ja:小野田駅"
      }
    },
    {
      "id": "yamaguchi_station_8559901428",
      "osmId": 8559901428,
      "osmType": "node",
      "prefectureId": "yamaguchi",
      "type": "station",
      "subtype": "jr",
      "name": "宇部",
      "nameKana": null,
      "nameEn": "Ube",
      "operator": "西日本旅客鉄道",
      "network": null,
      "ref": null,
      "latitude": 34.0032023,
      "longitude": 131.2220224,
      "countryCode": "jp",
      "rawTags": {
        "KSJ2:LIN": "宇部線",
        "KSJ2:STN": "宇部",
        "contact:website": "https://www.jr-odekake.net/eki/top?id=0800650",
        "name": "宇部",
        "name:de": "Ube",
        "name:en": "Ube",
        "name:ja": "宇部",
        "name:ko": "우베",
        "note": "National-Land Numerical Information (Railway) 2007, MLIT Japan",
        "note:ja": "国土数値情報（鉄道データ）平成19年　国土交通省",
        "operator": "西日本旅客鉄道",
        "public_transport": "station",
        "railway": "station",
        "source": "KSJ2",
        "source_ref": "http://nlftp.mlit.go.jp/ksj/jpgis/datalist/KsjTmplt-N02-v1_1.html",
        "wikidata": "Q5357988",
        "wikipedia": "ja:宇部駅"
      }
    },
    {
      "id": "yamaguchi_station_8560452356",
      "osmId": 8560452356,
      "osmType": "node",
      "prefectureId": "yamaguchi",
      "type": "station",
      "subtype": "jr",
      "name": "本由良",
      "nameKana": null,
      "nameEn": "Hon-Yura",
      "operator": "西日本旅客鉄道",
      "network": null,
      "ref": null,
      "latitude": 34.0319798,
      "longitude": 131.3438205,
      "countryCode": "jp",
      "rawTags": {
        "KSJ2:LIN": "山陽線",
        "KSJ2:STN": "本由良",
        "name": "本由良",
        "name:de": "Hon-Yura",
        "name:en": "Hon-Yura",
        "name:ja": "本由良",
        "name:ko": "혼유라",
        "note": "National-Land Numerical Information (Railway) 2007, MLIT Japan",
        "note:ja": "国土数値情報（鉄道データ）平成19年　国土交通省",
        "operator": "西日本旅客鉄道",
        "operator:en": "West Japan Railway Company",
        "railway": "station",
        "source": "KSJ2",
        "source_ref": "http://nlftp.mlit.go.jp/ksj/jpgis/datalist/KsjTmplt-N02-v1_1.html",
        "wikidata": "Q5357987",
        "wikipedia": "ja:本由良駅"
      }
    },
    {
      "id": "yamaguchi_station_8560452357",
      "osmId": 8560452357,
      "osmType": "node",
      "prefectureId": "yamaguchi",
      "type": "station",
      "subtype": "jr",
      "name": "嘉川",
      "nameKana": null,
      "nameEn": "Kagawa",
      "operator": "西日本旅客鉄道",
      "network": null,
      "ref": null,
      "latitude": 34.0661292,
      "longitude": 131.3702121,
      "countryCode": "jp",
      "rawTags": {
        "KSJ2:LIN": "山陽線",
        "KSJ2:STN": "嘉川",
        "name": "嘉川",
        "name:de": "Kagawa",
        "name:en": "Kagawa",
        "name:ja": "嘉川",
        "name:ko": "가가와",
        "note": "National-Land Numerical Information (Railway) 2007, MLIT Japan",
        "note:ja": "国土数値情報（鉄道データ）平成19年　国土交通省",
        "operator": "西日本旅客鉄道",
        "operator:en": "West Japan Railway Company",
        "railway": "station",
        "source": "KSJ2",
        "source_ref": "http://nlftp.mlit.go.jp/ksj/jpgis/datalist/KsjTmplt-N02-v1_1.html",
        "wikidata": "Q5357947",
        "wikipedia": "ja:嘉川駅"
      }
    },
    {
      "id": "yamaguchi_station_8560452360",
      "osmId": 8560452360,
      "osmType": "node",
      "prefectureId": "yamaguchi",
      "type": "station",
      "subtype": "jr",
      "name": "新山口",
      "nameKana": null,
      "nameEn": "Shin-Yamaguchi",
      "operator": "西日本旅客鉄道",
      "network": null,
      "ref": null,
      "latitude": 34.0937693,
      "longitude": 131.396365,
      "countryCode": "jp",
      "rawTags": {
        "KSJ2:LIN": "宇部線;山口線;山陽線",
        "KSJ2:STN": "新山口",
        "contact:website": "https://www.jr-odekake.net/eki/top?id=0800646",
        "name": "新山口",
        "name:de": "Shin-Yamaguchi",
        "name:en": "Shin-Yamaguchi",
        "name:ja": "新山口",
        "name:ko": "신야마구치",
        "note": "National-Land Numerical Information (Railway) 2007, MLIT Japan",
        "note:ja": "国土数値情報（鉄道データ）平成19年　国土交通省",
        "operator": "西日本旅客鉄道",
        "operator:en": "West Japan Railway Company",
        "public_transport": "station",
        "railway": "station",
        "source": "KSJ2",
        "source_ref": "http://nlftp.mlit.go.jp/ksj/jpgis/datalist/KsjTmplt-N02-v1_1.html",
        "train": "yes",
        "wheelchair": "yes",
        "wikidata": "Q1136574",
        "wikipedia": "ja:新山口駅"
      }
    },
    {
      "id": "yamaguchi_station_8560452371",
      "osmId": 8560452371,
      "osmType": "node",
      "prefectureId": "yamaguchi",
      "type": "station",
      "subtype": "jr",
      "name": "四辻",
      "nameKana": null,
      "nameEn": "Yotsutsuji",
      "operator": "西日本旅客鉄道",
      "network": null,
      "ref": null,
      "latitude": 34.079959,
      "longitude": 131.4480686,
      "countryCode": "jp",
      "rawTags": {
        "KSJ2:LIN": "山陽線",
        "KSJ2:STN": "四辻",
        "name": "四辻",
        "name:de": "Yotsutsuji",
        "name:en": "Yotsutsuji",
        "name:ja": "四辻",
        "name:ko": "요쓰쓰지",
        "note": "National-Land Numerical Information (Railway) 2007, MLIT Japan",
        "note:ja": "国土数値情報（鉄道データ）平成19年　国土交通省",
        "operator": "西日本旅客鉄道",
        "operator:en": "West Japan Railway Company",
        "railway": "station",
        "source": "KSJ2",
        "source_ref": "http://nlftp.mlit.go.jp/ksj/jpgis/datalist/KsjTmplt-N02-v1_1.html",
        "toilets": "yes",
        "wikidata": "Q5358028",
        "wikipedia": "ja:四辻駅"
      }
    },
    {
      "id": "yamaguchi_station_8560452378",
      "osmId": 8560452378,
      "osmType": "node",
      "prefectureId": "yamaguchi",
      "type": "station",
      "subtype": "jr",
      "name": "大道",
      "nameKana": null,
      "nameEn": "Daidō",
      "operator": "西日本旅客鉄道",
      "network": null,
      "ref": null,
      "latitude": 34.0531928,
      "longitude": 131.4884654,
      "countryCode": "jp",
      "rawTags": {
        "KSJ2:LIN": "山陽線",
        "KSJ2:STN": "大道",
        "name": "大道",
        "name:de": "Daidō",
        "name:en": "Daidō",
        "name:ja": "大道",
        "name:ko": "다이도",
        "note": "National-Land Numerical Information (Railway) 2007, MLIT Japan",
        "note:ja": "国土数値情報（鉄道データ）平成19年　国土交通省",
        "operator": "西日本旅客鉄道",
        "operator:en": "West Japan Railway Company",
        "railway": "station",
        "source": "KSJ2",
        "source_ref": "http://nlftp.mlit.go.jp/ksj/jpgis/datalist/KsjTmplt-N02-v1_1.html",
        "wikidata": "Q5209088",
        "wikipedia": "ja:大道駅"
      }
    },
    {
      "id": "yamaguchi_station_8560452384",
      "osmId": 8560452384,
      "osmType": "node",
      "prefectureId": "yamaguchi",
      "type": "station",
      "subtype": "jr",
      "name": "防府",
      "nameKana": null,
      "nameEn": "Hofu",
      "operator": "西日本旅客鉄道",
      "network": null,
      "ref": null,
      "latitude": 34.0533394,
      "longitude": 131.5689276,
      "countryCode": "jp",
      "rawTags": {
        "KSJ2:LIN": "山陽線",
        "KSJ2:STN": "防府",
        "name": "防府",
        "name:de": "Hofu",
        "name:en": "Hofu",
        "name:ja": "防府",
        "name:ko": "호후",
        "note": "National-Land Numerical Information (Railway) 2007, MLIT Japan",
        "note:ja": "国土数値情報（鉄道データ）平成19年　国土交通省",
        "operator": "西日本旅客鉄道",
        "operator:en": "West Japan Railway Company",
        "public_transport": "station",
        "railway": "station",
        "source": "KSJ2",
        "source_ref": "http://nlftp.mlit.go.jp/ksj/jpgis/datalist/KsjTmplt-N02-v1_1.html",
        "train": "yes",
        "wikidata": "Q5357631",
        "wikipedia": "ja:防府駅"
      }
    },
    {
      "id": "yamaguchi_station_8560452430",
      "osmId": 8560452430,
      "osmType": "node",
      "prefectureId": "yamaguchi",
      "type": "station",
      "subtype": "jr",
      "name": "富海",
      "nameKana": null,
      "nameEn": "Tonomi",
      "operator": "西日本旅客鉄道",
      "network": null,
      "ref": null,
      "latitude": 34.0486842,
      "longitude": 131.639239,
      "countryCode": "jp",
      "rawTags": {
        "KSJ2:LIN": "山陽線",
        "KSJ2:STN": "富海",
        "name": "富海",
        "name:de": "Tonomi",
        "name:en": "Tonomi",
        "name:ja": "富海",
        "name:ko": "도노미",
        "note": "National-Land Numerical Information (Railway) 2007, MLIT Japan",
        "note:ja": "国土数値情報（鉄道データ）平成19年　国土交通省",
        "operator": "西日本旅客鉄道",
        "operator:en": "West Japan Railway Company",
        "railway": "station",
        "source": "KSJ2",
        "source_ref": "http://nlftp.mlit.go.jp/ksj/jpgis/datalist/KsjTmplt-N02-v1_1.html",
        "wikidata": "Q5357700",
        "wikipedia": "ja:富海駅"
      }
    },
    {
      "id": "yamaguchi_station_8560452512",
      "osmId": 8560452512,
      "osmType": "node",
      "prefectureId": "yamaguchi",
      "type": "station",
      "subtype": "jr",
      "name": "厚東",
      "nameKana": null,
      "nameEn": "Kotou",
      "operator": "西日本旅客鉄道",
      "network": null,
      "ref": null,
      "latitude": 34.0387171,
      "longitude": 131.2677509,
      "countryCode": "jp",
      "rawTags": {
        "KSJ2:LIN": "山陽線",
        "KSJ2:STN": "厚東",
        "name": "厚東",
        "name:de": "Kotō",
        "name:en": "Kotou",
        "name:ja": "厚東",
        "name:ko": "고토",
        "note": "National-Land Numerical Information (Railway) 2007, MLIT Japan",
        "note:ja": "国土数値情報（鉄道データ）平成19年　国土交通省",
        "operator": "西日本旅客鉄道",
        "operator:en": "West Japan Railway Company",
        "railway": "station",
        "source": "KSJ2",
        "source_ref": "http://nlftp.mlit.go.jp/ksj/jpgis/datalist/KsjTmplt-N02-v1_1.html",
        "wikidata": "Q5358095",
        "wikipedia": "ja:厚東駅"
      }
    },
    {
      "id": "yamaguchi_station_8561132016",
      "osmId": 8561132016,
      "osmType": "node",
      "prefectureId": "yamaguchi",
      "type": "station",
      "subtype": "private",
      "name": "戸田",
      "nameKana": null,
      "nameEn": "Toda",
      "operator": null,
      "network": null,
      "ref": null,
      "latitude": 34.0726086,
      "longitude": 131.7045669,
      "countryCode": "jp",
      "rawTags": {
        "KSJ2:LIN": "山陽線",
        "KSJ2:STN": "戸田",
        "name": "戸田",
        "name:de": "Heta",
        "name:en": "Toda",
        "name:ja": "戸田",
        "name:ko": "헤타",
        "note": "National-Land Numerical Information (Railway) 2007, MLIT Japan",
        "note:ja": "国土数値情報（鉄道データ）平成19年　国土交通省",
        "railway": "station",
        "source": "KSJ2",
        "source_ref": "http://nlftp.mlit.go.jp/ksj/jpgis/datalist/KsjTmplt-N02-v1_1.html",
        "wikidata": "Q5358048",
        "wikipedia": "ja:戸田駅 (山口県)"
      }
    },
    {
      "id": "yamaguchi_station_8561629931",
      "osmId": 8561629931,
      "osmType": "node",
      "prefectureId": "yamaguchi",
      "type": "station",
      "subtype": "jr",
      "name": "徳山",
      "nameKana": null,
      "nameEn": "Tokuyama",
      "operator": "西日本旅客鉄道",
      "network": null,
      "ref": null,
      "latitude": 34.0512305,
      "longitude": 131.8027197,
      "countryCode": "jp",
      "rawTags": {
        "KSJ2:LIN": "山陽線",
        "KSJ2:STN": "徳山",
        "name": "徳山",
        "name:de": "Tokuyama",
        "name:en": "Tokuyama",
        "name:ja": "徳山",
        "name:ko": "도쿠야마",
        "note": "National-Land Numerical Information (Railway) 2007, MLIT Japan",
        "note:ja": "国土数値情報（鉄道データ）平成19年　国土交通省",
        "operator": "西日本旅客鉄道",
        "operator:en": "West Japan Railway Company",
        "public_transport": "station",
        "railway": "station",
        "source": "KSJ2",
        "source_ref": "http://nlftp.mlit.go.jp/ksj/jpgis/datalist/KsjTmplt-N02-v1_1.html",
        "train": "yes",
        "wikidata": "Q1136709",
        "wikipedia": "ja:徳山駅"
      }
    },
    {
      "id": "yamaguchi_station_8562132365",
      "osmId": 8562132365,
      "osmType": "node",
      "prefectureId": "yamaguchi",
      "type": "station",
      "subtype": "private",
      "name": "藤生",
      "nameKana": null,
      "nameEn": "Fujū",
      "operator": null,
      "network": null,
      "ref": null,
      "latitude": 34.1136577,
      "longitude": 132.198379,
      "countryCode": "jp",
      "rawTags": {
        "KSJ2:LIN": "山陽線",
        "KSJ2:STN": "藤生",
        "name": "藤生",
        "name:de": "Fujū",
        "name:en": "Fujū",
        "name:ja": "藤生",
        "name:ko": "후주",
        "note": "National-Land Numerical Information (Railway) 2007, MLIT Japan",
        "note:ja": "国土数値情報（鉄道データ）平成19年　国土交通省",
        "railway": "station",
        "source": "KSJ2",
        "source_ref": "http://nlftp.mlit.go.jp/ksj/jpgis/datalist/KsjTmplt-N02-v1_1.html",
        "wikidata": "Q5357867",
        "wikipedia": "ja:藤生駅"
      }
    },
    {
      "id": "yamaguchi_ferry_terminal_9146454195",
      "osmId": 9146454195,
      "osmType": "node",
      "prefectureId": "yamaguchi",
      "type": "ferry_terminal",
      "subtype": null,
      "name": "情島",
      "nameKana": null,
      "nameEn": null,
      "operator": null,
      "network": null,
      "ref": null,
      "latitude": 33.9584653,
      "longitude": 132.4791606,
      "countryCode": "jp",
      "rawTags": {
        "amenity": "ferry_terminal",
        "ferry": "yes",
        "name": "情島",
        "public_transport": "station"
      }
    },
    {
      "id": "yamaguchi_station_10724602324",
      "osmId": 10724602324,
      "osmType": "node",
      "prefectureId": "yamaguchi",
      "type": "station",
      "subtype": "jr",
      "name": "光",
      "nameKana": null,
      "nameEn": "Hikari",
      "operator": "西日本旅客鉄道",
      "network": null,
      "ref": null,
      "latitude": 33.9739245,
      "longitude": 131.9146925,
      "countryCode": "jp",
      "rawTags": {
        "KSJ2:LIN": "山陽線",
        "KSJ2:STN": "光",
        "name": "光",
        "name:en": "Hikari",
        "name:ja": "光",
        "name:ko": "히카리",
        "note": "National-Land Numerical Information (Railway) 2007, MLIT Japan",
        "note:ja": "国土数値情報（鉄道データ）平成19年　国土交通省",
        "operator": "西日本旅客鉄道",
        "operator:en": "West Japan Railway Company",
        "railway": "station",
        "source": "KSJ2",
        "source_ref": "http://nlftp.mlit.go.jp/ksj/jpgis/datalist/KsjTmplt-N02-v1_1.html",
        "wikidata": "Q5358076",
        "wikipedia": "ja:光駅"
      }
    },
    {
      "id": "yamaguchi_station_10726381153",
      "osmId": 10726381153,
      "osmType": "node",
      "prefectureId": "yamaguchi",
      "type": "station",
      "subtype": "jr",
      "name": "岩田",
      "nameKana": null,
      "nameEn": "Iwata",
      "operator": "西日本旅客鉄道",
      "network": null,
      "ref": null,
      "latitude": 33.9815653,
      "longitude": 131.9951688,
      "countryCode": "jp",
      "rawTags": {
        "KSJ2:LIN": "山陽線",
        "KSJ2:STN": "岩田",
        "name": "岩田",
        "name:en": "Iwata",
        "name:ja": "岩田",
        "name:ko": "이와타",
        "note": "National-Land Numerical Information (Railway) 2007, MLIT Japan",
        "note:ja": "国土数値情報（鉄道データ）平成19年　国土交通省",
        "operator": "西日本旅客鉄道",
        "operator:en": "West Japan Railway Company",
        "railway": "station",
        "source": "KSJ2",
        "source_ref": "http://nlftp.mlit.go.jp/ksj/jpgis/datalist/KsjTmplt-N02-v1_1.html",
        "wikidata": "Q5357651",
        "wikipedia": "ja:岩田駅"
      }
    },
    {
      "id": "yamaguchi_station_10726381155",
      "osmId": 10726381155,
      "osmType": "node",
      "prefectureId": "yamaguchi",
      "type": "station",
      "subtype": "private",
      "name": "田布施",
      "nameKana": null,
      "nameEn": "Tabuse",
      "operator": null,
      "network": null,
      "ref": null,
      "latitude": 33.958818,
      "longitude": 132.0440859,
      "countryCode": "jp",
      "rawTags": {
        "KSJ2:LIN": "山陽線",
        "KSJ2:STN": "田布施",
        "name": "田布施",
        "name:en": "Tabuse",
        "name:ja": "田布施",
        "name:ko": "다부세",
        "note": "National-Land Numerical Information (Railway) 2007, MLIT Japan",
        "note:ja": "国土数値情報（鉄道データ）平成19年　国土交通省",
        "railway": "station",
        "source": "KSJ2",
        "source_ref": "http://nlftp.mlit.go.jp/ksj/jpgis/datalist/KsjTmplt-N02-v1_1.html",
        "wikidata": "Q5357666",
        "wikipedia": "ja:田布施駅"
      }
    },
    {
      "id": "yamaguchi_station_10726381156",
      "osmId": 10726381156,
      "osmType": "node",
      "prefectureId": "yamaguchi",
      "type": "station",
      "subtype": "private",
      "name": "柳井港",
      "nameKana": null,
      "nameEn": "Yanaiminato",
      "operator": null,
      "network": null,
      "ref": null,
      "latitude": 33.9582609,
      "longitude": 132.1342888,
      "countryCode": "jp",
      "rawTags": {
        "KSJ2:LIN": "山陽線",
        "KSJ2:STN": "柳井港",
        "name": "柳井港",
        "name:en": "Yanaiminato",
        "name:ja": "柳井港",
        "name:ko": "야나이미나토",
        "note": "National-Land Numerical Information (Railway) 2007, MLIT Japan",
        "note:ja": "国土数値情報（鉄道データ）平成19年　国土交通省",
        "railway": "station",
        "source": "KSJ2",
        "source_ref": "http://nlftp.mlit.go.jp/ksj/jpgis/datalist/KsjTmplt-N02-v1_1.html",
        "wikidata": "Q5357645",
        "wikipedia": "ja:柳井港駅"
      }
    },
    {
      "id": "yamaguchi_station_11711158258",
      "osmId": 11711158258,
      "osmType": "node",
      "prefectureId": "yamaguchi",
      "type": "station",
      "subtype": "jr",
      "name": "宇部岬",
      "nameKana": null,
      "nameEn": "Ubemisaki",
      "operator": "西日本旅客鉄道",
      "network": null,
      "ref": null,
      "latitude": 33.9347455,
      "longitude": 131.2622377,
      "countryCode": "jp",
      "rawTags": {
        "KSJ2:LIN": "宇部線",
        "KSJ2:STN": "宇部岬",
        "contact:website": "https://www.jr-odekake.net/eki/top?id=0802011",
        "name": "宇部岬",
        "name:en": "Ubemisaki",
        "name:ja": "宇部岬",
        "name:ko": "우베미사키",
        "note": "National-Land Numerical Information (Railway) 2007, MLIT Japan",
        "note:ja": "国土数値情報（鉄道データ）平成19年　国土交通省",
        "operator": "西日本旅客鉄道",
        "public_transport": "station",
        "railway": "station",
        "source": "KSJ2",
        "source_ref": "http://nlftp.mlit.go.jp/ksj/jpgis/datalist/KsjTmplt-N02-v1_1.html",
        "wikidata": "Q7876464",
        "wikipedia": "ja:宇部岬駅"
      }
    },
    {
      "id": "yamaguchi_station_11711162525",
      "osmId": 11711162525,
      "osmType": "node",
      "prefectureId": "yamaguchi",
      "type": "station",
      "subtype": "private",
      "name": "居能",
      "nameKana": null,
      "nameEn": "Inō",
      "operator": null,
      "network": null,
      "ref": null,
      "latitude": 33.9671842,
      "longitude": 131.2279988,
      "countryCode": "jp",
      "rawTags": {
        "KSJ2:LIN": "小野田線",
        "contact:website": "https://www.jr-odekake.net/eki/top?id=0802015",
        "name": "居能",
        "name:en": "Inō",
        "name:ja": "居能",
        "name:ko": "이노",
        "note": "National-Land Numerical Information (Railway) 2007, MLIT Japan",
        "note:ja": "国土数値情報（鉄道データ）平成19年　国土交通省",
        "public_transport": "station",
        "railway": "station",
        "source": "KSJ2",
        "source_ref": "http://nlftp.mlit.go.jp/ksj/jpgis/datalist/KsjTmplt-N02-v1_1.html",
        "wikidata": "Q6061694",
        "wikipedia": "ja:居能駅"
      }
    },
    {
      "id": "yamaguchi_station_12072029869",
      "osmId": 12072029869,
      "osmType": "node",
      "prefectureId": "yamaguchi",
      "type": "station",
      "subtype": "private",
      "name": "和木",
      "nameKana": null,
      "nameEn": "Waki",
      "operator": null,
      "network": null,
      "ref": null,
      "latitude": 34.2042786,
      "longitude": 132.2276272,
      "countryCode": "jp",
      "rawTags": {
        "name": "和木",
        "name:en": "Waki",
        "name:ja": "和木",
        "name:ko": "와키",
        "railway": "station",
        "wheelchair": "yes",
        "wikidata": "Q5358372",
        "wikipedia": "ja:和木駅"
      }
    },
    {
      "id": "yamaguchi_station_12076837508",
      "osmId": 12076837508,
      "osmType": "node",
      "prefectureId": "yamaguchi",
      "type": "station",
      "subtype": "private",
      "name": "櫛ヶ浜",
      "nameKana": "くしがはま",
      "nameEn": "Kushigahama",
      "operator": null,
      "network": null,
      "ref": null,
      "latitude": 34.0310528,
      "longitude": 131.829059,
      "countryCode": "jp",
      "rawTags": {
        "contact:website": "https://www.jr-odekake.net/eki/top?id=0800637",
        "name": "櫛ヶ浜",
        "name:en": "Kushigahama",
        "name:ja": "櫛ヶ浜",
        "name:ja-Hira": "くしがはま",
        "name:ko": "구시가하마",
        "public_transport": "station",
        "railway": "station",
        "wikidata": "Q5357953",
        "wikipedia": "ja:櫛ケ浜駅"
      }
    },
    {
      "id": "yamaguchi_station_12076837509",
      "osmId": 12076837509,
      "osmType": "node",
      "prefectureId": "yamaguchi",
      "type": "station",
      "subtype": "private",
      "name": "下松",
      "nameKana": "くだまつ",
      "nameEn": "Kudamatsu",
      "operator": null,
      "network": null,
      "ref": null,
      "latitude": 34.0088727,
      "longitude": 131.867947,
      "countryCode": "jp",
      "rawTags": {
        "name": "下松",
        "name:en": "Kudamatsu",
        "name:ja": "下松",
        "name:ja-Hira": "くだまつ",
        "name:ko": "구다마쓰",
        "public_transport": "station",
        "railway": "station",
        "wikidata": "Q5357682",
        "wikipedia": "ja:下松駅 (山口県)"
      }
    },
    {
      "id": "yamaguchi_station_12076837513",
      "osmId": 12076837513,
      "osmType": "node",
      "prefectureId": "yamaguchi",
      "type": "station",
      "subtype": "private",
      "name": "島田",
      "nameKana": null,
      "nameEn": "Shimata",
      "operator": null,
      "network": null,
      "ref": null,
      "latitude": 33.9902818,
      "longitude": 131.960915,
      "countryCode": "jp",
      "rawTags": {
        "name": "島田",
        "name:en": "Shimata",
        "name:ja": "島田",
        "name:ko": "시마타",
        "public_transport": "station",
        "railway": "station",
        "wikidata": "Q7496848",
        "wikipedia": "ja:島田駅 (山口県)"
      }
    },
    {
      "id": "yamaguchi_station_12076837516",
      "osmId": 12076837516,
      "osmType": "node",
      "prefectureId": "yamaguchi",
      "type": "station",
      "subtype": "private",
      "name": "柳井",
      "nameKana": null,
      "nameEn": "Yanai",
      "operator": null,
      "network": null,
      "ref": null,
      "latitude": 33.9658575,
      "longitude": 132.1062961,
      "countryCode": "jp",
      "rawTags": {
        "name": "柳井",
        "name:en": "Yanai",
        "name:ja": "柳井",
        "name:ko": "야나이",
        "public_transport": "station",
        "railway": "station",
        "wikidata": "Q5357965",
        "wikipedia": "ja:柳井駅"
      }
    },
    {
      "id": "yamaguchi_station_12076837518",
      "osmId": 12076837518,
      "osmType": "node",
      "prefectureId": "yamaguchi",
      "type": "station",
      "subtype": "private",
      "name": "大畠",
      "nameKana": null,
      "nameEn": "Ōbatake",
      "operator": null,
      "network": null,
      "ref": null,
      "latitude": 33.9632103,
      "longitude": 132.1809842,
      "countryCode": "jp",
      "rawTags": {
        "name": "大畠",
        "name:en": "Ōbatake",
        "name:ja": "大畠",
        "name:ko": "오바타케",
        "public_transport": "station",
        "railway": "station",
        "wikidata": "Q5358101",
        "wikipedia": "ja:大畠駅"
      }
    },
    {
      "id": "yamaguchi_station_12076837519",
      "osmId": 12076837519,
      "osmType": "node",
      "prefectureId": "yamaguchi",
      "type": "station",
      "subtype": "private",
      "name": "神代",
      "nameKana": null,
      "nameEn": "Kōjiro",
      "operator": null,
      "network": null,
      "ref": null,
      "latitude": 33.9982902,
      "longitude": 132.208723,
      "countryCode": "jp",
      "rawTags": {
        "name": "神代",
        "name:en": "Kōjiro",
        "name:ja": "神代",
        "name:ko": "고지로",
        "public_transport": "station",
        "railway": "station",
        "wikidata": "Q5358169",
        "wikipedia": "ja:神代駅 (山口県)"
      }
    },
    {
      "id": "yamaguchi_station_12903226325",
      "osmId": 12903226325,
      "osmType": "node",
      "prefectureId": "yamaguchi",
      "type": "station",
      "subtype": "private",
      "name": "徳佐",
      "nameKana": null,
      "nameEn": "Tokusa",
      "operator": null,
      "network": null,
      "ref": null,
      "latitude": 34.4001356,
      "longitude": 131.7204563,
      "countryCode": "jp",
      "rawTags": {
        "KSJ2:LIN": "山口線",
        "KSJ2:STN": "徳佐",
        "contact:website": "https://www.jr-odekake.net/eki/top?id=0801915",
        "name": "徳佐",
        "name:en": "Tokusa",
        "name:ja": "徳佐",
        "name:ko": "도쿠사",
        "note": "National-Land Numerical Information (Railway) 2007, MLIT Japan",
        "note:ja": "国土数値情報（鉄道データ）平成19年　国土交通省",
        "public_transport": "station",
        "railway": "station",
        "source": "KSJ2",
        "source_ref": "http://nlftp.mlit.go.jp/ksj/jpgis/datalist/KsjTmplt-N02-v1_1.html",
        "wikidata": "Q7813756",
        "wikipedia": "ja:徳佐駅"
      }
    },
    {
      "id": "yamaguchi_station_12903226326",
      "osmId": 12903226326,
      "osmType": "node",
      "prefectureId": "yamaguchi",
      "type": "station",
      "subtype": "private",
      "name": "三谷",
      "nameKana": null,
      "nameEn": "Mitani",
      "operator": null,
      "network": null,
      "ref": null,
      "latitude": 34.3418007,
      "longitude": 131.6245729,
      "countryCode": "jp",
      "rawTags": {
        "KSJ2:LIN": "山口線",
        "KSJ2:STN": "三谷",
        "contact:website": "https://www.jr-odekake.net/eki/top?id=0801913",
        "name": "三谷",
        "name:en": "Mitani",
        "name:ja": "三谷",
        "name:ko": "미타니",
        "note": "National-Land Numerical Information (Railway) 2007, MLIT Japan",
        "note:ja": "国土数値情報（鉄道データ）平成19年　国土交通省",
        "public_transport": "station",
        "railway": "station",
        "source": "KSJ2",
        "source_ref": "http://nlftp.mlit.go.jp/ksj/jpgis/datalist/KsjTmplt-N02-v1_1.html",
        "wikidata": "Q6880766",
        "wikipedia": "ja:三谷駅 (山口県)"
      }
    },
    {
      "id": "yamaguchi_station_12903226333",
      "osmId": 12903226333,
      "osmType": "node",
      "prefectureId": "yamaguchi",
      "type": "station",
      "subtype": "private",
      "name": "山口",
      "nameKana": null,
      "nameEn": "Yamaguchi",
      "operator": null,
      "network": null,
      "ref": null,
      "latitude": 34.1726099,
      "longitude": 131.4808318,
      "countryCode": "jp",
      "rawTags": {
        "KSJ2:LIN": "山口線",
        "KSJ2:STN": "山口",
        "contact:website": "https://www.jr-odekake.net/eki/top?id=0801907",
        "name": "山口",
        "name:en": "Yamaguchi",
        "name:ja": "山口",
        "name:ko": "야마구치",
        "note": "National-Land Numerical Information (Railway) 2007, MLIT Japan",
        "note:ja": "国土数値情報（鉄道データ）平成19年　国土交通省",
        "public_transport": "station",
        "railway": "station",
        "source": "KSJ2",
        "source_ref": "http://nlftp.mlit.go.jp/ksj/jpgis/datalist/KsjTmplt-N02-v1_1.html",
        "wikidata": "Q8192374",
        "wikipedia": "ja:山口駅 (山口県)"
      }
    },
    {
      "id": "yamaguchi_station_12903226334",
      "osmId": 12903226334,
      "osmType": "node",
      "prefectureId": "yamaguchi",
      "type": "station",
      "subtype": "private",
      "name": "湯田温泉",
      "nameKana": null,
      "nameEn": "Yudaonsen",
      "operator": null,
      "network": null,
      "ref": null,
      "latitude": 34.1598129,
      "longitude": 131.4601091,
      "countryCode": "jp",
      "rawTags": {
        "KSJ2:LIN": "山口線",
        "KSJ2:STN": "湯田温泉",
        "contact:website": "https://www.jr-odekake.net/eki/top?id=0801905",
        "name": "湯田温泉",
        "name:en": "Yudaonsen",
        "name:ja": "湯田温泉",
        "name:ko": "유다온센",
        "note": "National-Land Numerical Information (Railway) 2007, MLIT Japan",
        "note:ja": "国土数値情報（鉄道データ）平成19年　国土交通省",
        "public_transport": "station",
        "railway": "station",
        "source": "KSJ2",
        "source_ref": "http://nlftp.mlit.go.jp/ksj/jpgis/datalist/KsjTmplt-N02-v1_1.html",
        "wikidata": "Q8060214",
        "wikipedia": "ja:湯田温泉駅"
      }
    },
    {
      "id": "yamaguchi_station_12917908697",
      "osmId": 12917908697,
      "osmType": "node",
      "prefectureId": "yamaguchi",
      "type": "station",
      "subtype": "jr",
      "name": "岩鼻",
      "nameKana": null,
      "nameEn": "Iwahana",
      "operator": "西日本旅客鉄道",
      "network": "JR宇部線",
      "ref": null,
      "latitude": 33.9787845,
      "longitude": 131.2253602,
      "countryCode": "jp",
      "rawTags": {
        "KSJ2:LIN": "宇部線",
        "KSJ2:STN": "岩鼻",
        "contact:website": "https://www.jr-odekake.net/eki/top?id=0802016",
        "name": "岩鼻",
        "name:en": "Iwahana",
        "name:ja": "岩鼻",
        "name:ko": "이와하나",
        "network": "JR宇部線",
        "note": "National-Land Numerical Information (Railway) 2007, MLIT Japan",
        "note:ja": "国土数値情報（鉄道データ）平成19年　国土交通省",
        "operator": "西日本旅客鉄道",
        "public_transport": "station",
        "railway": "station",
        "source": "KSJ2",
        "source_ref": "http://nlftp.mlit.go.jp/ksj/jpgis/datalist/KsjTmplt-N02-v1_1.html",
        "wikidata": "Q11475717",
        "wikipedia": "ja:岩鼻駅"
      }
    },
    {
      "id": "yamaguchi_station_12917927578",
      "osmId": 12917927578,
      "osmType": "node",
      "prefectureId": "yamaguchi",
      "type": "station",
      "subtype": "private",
      "name": "宇部新川",
      "nameKana": null,
      "nameEn": "Ube-Shinkawa",
      "operator": null,
      "network": null,
      "ref": null,
      "latitude": 33.958623,
      "longitude": 131.2426329,
      "countryCode": "jp",
      "rawTags": {
        "KSJ2:LIN": "宇部線",
        "contact:website": "https://www.jr-odekake.net/eki/top?id=0802014",
        "name": "宇部新川",
        "name:en": "Ube-Shinkawa",
        "name:ja": "宇部新川",
        "name:ko": "우베신카와",
        "note": "National-Land Numerical Information (Railway) 2007, MLIT Japan",
        "note:ja": "国土数値情報（鉄道データ）平成19年　国土交通省",
        "public_transport": "station",
        "railway": "station",
        "source": "KSJ2",
        "source_ref": "http://nlftp.mlit.go.jp/ksj/jpgis/datalist/KsjTmplt-N02-v1_1.html",
        "wikidata": "Q7876457",
        "wikipedia": "ja:宇部新川駅"
      }
    },
    {
      "id": "yamaguchi_station_12917927585",
      "osmId": 12917927585,
      "osmType": "node",
      "prefectureId": "yamaguchi",
      "type": "station",
      "subtype": "jr",
      "name": "琴芝",
      "nameKana": null,
      "nameEn": "Kotoshiba",
      "operator": "西日本旅客鉄道",
      "network": null,
      "ref": null,
      "latitude": 33.9529019,
      "longitude": 131.2519804,
      "countryCode": "jp",
      "rawTags": {
        "KSJ2:LIN": "宇部線",
        "KSJ2:STN": "琴芝",
        "contact:website": "https://www.jr-odekake.net/eki/top?id=0802013",
        "name": "琴芝",
        "name:en": "Kotoshiba",
        "name:ja": "琴芝",
        "name:ko": "고토시바",
        "note": "National-Land Numerical Information (Railway) 2007, MLIT Japan",
        "note:ja": "国土数値情報（鉄道データ）平成19年　国土交通省",
        "operator": "西日本旅客鉄道",
        "public_transport": "station",
        "railway": "station",
        "source": "KSJ2",
        "source_ref": "http://nlftp.mlit.go.jp/ksj/jpgis/datalist/KsjTmplt-N02-v1_1.html",
        "wikidata": "Q6434203",
        "wikipedia": "ja:琴芝駅"
      }
    },
    {
      "id": "yamaguchi_station_12917927586",
      "osmId": 12917927586,
      "osmType": "node",
      "prefectureId": "yamaguchi",
      "type": "station",
      "subtype": "jr",
      "name": "東新川",
      "nameKana": null,
      "nameEn": "Higashi-Shinkawa",
      "operator": "西日本旅客鉄道",
      "network": null,
      "ref": null,
      "latitude": 33.9484365,
      "longitude": 131.2570771,
      "countryCode": "jp",
      "rawTags": {
        "KSJ2:LIN": "宇部線",
        "KSJ2:STN": "東新川",
        "contact:website": "https://www.jr-odekake.net/eki/top?id=0802012",
        "name": "東新川",
        "name:en": "Higashi-Shinkawa",
        "name:ja": "東新川",
        "name:ko": "히가시신카와",
        "note": "National-Land Numerical Information (Railway) 2007, MLIT Japan",
        "note:ja": "国土数値情報（鉄道データ）平成19年　国土交通省",
        "operator": "西日本旅客鉄道",
        "public_transport": "station",
        "railway": "station",
        "source": "KSJ2",
        "source_ref": "http://nlftp.mlit.go.jp/ksj/jpgis/datalist/KsjTmplt-N02-v1_1.html",
        "wikidata": "Q5753829",
        "wikipedia": "ja:東新川駅 (山口県)"
      }
    },
    {
      "id": "yamaguchi_station_12917927641",
      "osmId": 12917927641,
      "osmType": "node",
      "prefectureId": "yamaguchi",
      "type": "station",
      "subtype": "private",
      "name": "草江",
      "nameKana": null,
      "nameEn": "Kusae",
      "operator": null,
      "network": null,
      "ref": null,
      "latitude": 33.9367189,
      "longitude": 131.2742003,
      "countryCode": "jp",
      "rawTags": {
        "KSJ2:LIN": "宇部線",
        "KSJ2:STN": "草江",
        "contact:website": "https://www.jr-odekake.net/eki/top?id=0802010",
        "name": "草江",
        "name:en": "Kusae",
        "name:ja": "草江",
        "name:ko": "구사에",
        "note": "National-Land Numerical Information (Railway) 2007, MLIT Japan",
        "note:ja": "国土数値情報（鉄道データ）平成19年　国土交通省",
        "public_transport": "station",
        "railway": "station",
        "source": "KSJ2",
        "source_ref": "http://nlftp.mlit.go.jp/ksj/jpgis/datalist/KsjTmplt-N02-v1_1.html",
        "wikidata": "Q6447740",
        "wikipedia": "ja:草江駅"
      }
    },
    {
      "id": "yamaguchi_station_12917927642",
      "osmId": 12917927642,
      "osmType": "node",
      "prefectureId": "yamaguchi",
      "type": "station",
      "subtype": "jr",
      "name": "常盤",
      "nameKana": null,
      "nameEn": "Tokiwa",
      "operator": "西日本旅客鉄道",
      "network": null,
      "ref": null,
      "latitude": 33.9407959,
      "longitude": 131.2921651,
      "countryCode": "jp",
      "rawTags": {
        "KSJ2:LIN": "宇部線",
        "KSJ2:STN": "常盤",
        "contact:website": "https://www.jr-odekake.net/eki/top?id=0802009",
        "name": "常盤",
        "name:en": "Tokiwa",
        "name:ja": "常盤",
        "name:ko": "도키와",
        "note": "National-Land Numerical Information (Railway) 2007, MLIT Japan",
        "note:ja": "国土数値情報（鉄道データ）平成19年　国土交通省",
        "operator": "西日本旅客鉄道",
        "public_transport": "station",
        "railway": "station",
        "source": "KSJ2",
        "source_ref": "http://nlftp.mlit.go.jp/ksj/jpgis/datalist/KsjTmplt-N02-v1_1.html",
        "wikidata": "Q7813625",
        "wikipedia": "ja:常盤駅 (山口県)"
      }
    },
    {
      "id": "yamaguchi_station_12917927650",
      "osmId": 12917927650,
      "osmType": "node",
      "prefectureId": "yamaguchi",
      "type": "station",
      "subtype": "private",
      "name": "床波",
      "nameKana": null,
      "nameEn": "Tokonami",
      "operator": null,
      "network": null,
      "ref": null,
      "latitude": 33.9525448,
      "longitude": 131.3053697,
      "countryCode": "jp",
      "rawTags": {
        "KSJ2:LIN": "宇部線",
        "KSJ2:STN": "床波",
        "contact:website": "https://www.jr-odekake.net/eki/top?id=0802008",
        "name": "床波",
        "name:en": "Tokonami",
        "name:ja": "床波",
        "name:ko": "도코나미",
        "note": "National-Land Numerical Information (Railway) 2007, MLIT Japan",
        "note:ja": "国土数値情報（鉄道データ）平成19年　国土交通省",
        "public_transport": "station",
        "railway": "station",
        "source": "KSJ2",
        "source_ref": "http://nlftp.mlit.go.jp/ksj/jpgis/datalist/KsjTmplt-N02-v1_1.html",
        "wikidata": "Q7813676",
        "wikipedia": "ja:床波駅"
      }
    },
    {
      "id": "yamaguchi_station_12917927651",
      "osmId": 12917927651,
      "osmType": "node",
      "prefectureId": "yamaguchi",
      "type": "station",
      "subtype": "jr",
      "name": "丸尾",
      "nameKana": null,
      "nameEn": "Maruo",
      "operator": "西日本旅客鉄道",
      "network": null,
      "ref": null,
      "latitude": 33.9701402,
      "longitude": 131.3368119,
      "countryCode": "jp",
      "rawTags": {
        "KSJ2:LIN": "宇部線",
        "KSJ2:STN": "丸尾",
        "contact:website": "https://www.jr-odekake.net/eki/top?id=0802007",
        "name": "丸尾",
        "name:en": "Maruo",
        "name:ja": "丸尾",
        "name:ko": "마루오",
        "note": "National-Land Numerical Information (Railway) 2007, MLIT Japan",
        "note:ja": "国土数値情報（鉄道データ）平成19年　国土交通省",
        "operator": "西日本旅客鉄道",
        "public_transport": "station",
        "railway": "station",
        "source": "KSJ2",
        "source_ref": "http://nlftp.mlit.go.jp/ksj/jpgis/datalist/KsjTmplt-N02-v1_1.html",
        "wikidata": "Q6777981",
        "wikipedia": "ja:丸尾駅"
      }
    },
    {
      "id": "yamaguchi_station_12917927660",
      "osmId": 12917927660,
      "osmType": "node",
      "prefectureId": "yamaguchi",
      "type": "station",
      "subtype": "private",
      "name": "岐波",
      "nameKana": null,
      "nameEn": "Kiwa",
      "operator": null,
      "network": null,
      "ref": null,
      "latitude": 33.9900994,
      "longitude": 131.3479915,
      "countryCode": "jp",
      "rawTags": {
        "KSJ2:LIN": "宇部線",
        "KSJ2:STN": "岐波",
        "contact:website": "https://www.jr-odekake.net/eki/top?id=0802006",
        "name": "岐波",
        "name:en": "Kiwa",
        "name:ja": "岐波",
        "name:ko": "기와",
        "note": "National-Land Numerical Information (Railway) 2007, MLIT Japan",
        "note:ja": "国土数値情報（鉄道データ）平成19年　国土交通省",
        "public_transport": "station",
        "railway": "station",
        "source": "KSJ2",
        "source_ref": "http://nlftp.mlit.go.jp/ksj/jpgis/datalist/KsjTmplt-N02-v1_1.html",
        "wikidata": "Q6418840",
        "wikipedia": "ja:岐波駅"
      }
    },
    {
      "id": "yamaguchi_station_12917927688",
      "osmId": 12917927688,
      "osmType": "node",
      "prefectureId": "yamaguchi",
      "type": "station",
      "subtype": "jr",
      "name": "阿知須",
      "nameKana": null,
      "nameEn": "Ajisu",
      "operator": "西日本旅客鉄道",
      "network": null,
      "ref": null,
      "latitude": 34.0107308,
      "longitude": 131.3566754,
      "countryCode": "jp",
      "rawTags": {
        "KSJ2:LIN": "宇部線",
        "KSJ2:STN": "阿知須",
        "contact:website": "https://www.jr-odekake.net/eki/top?id=0802005",
        "name": "阿知須",
        "name:en": "Ajisu",
        "name:ja": "阿知須",
        "name:ko": "아지스",
        "note": "National-Land Numerical Information (Railway) 2007, MLIT Japan",
        "note:ja": "国土数値情報（鉄道データ）平成19年　国土交通省",
        "operator": "西日本旅客鉄道",
        "public_transport": "station",
        "railway": "station",
        "source": "KSJ2",
        "source_ref": "http://nlftp.mlit.go.jp/ksj/jpgis/datalist/KsjTmplt-N02-v1_1.html",
        "wikidata": "Q4699770",
        "wikipedia": "ja:阿知須駅"
      }
    },
    {
      "id": "yamaguchi_station_12917927698",
      "osmId": 12917927698,
      "osmType": "node",
      "prefectureId": "yamaguchi",
      "type": "station",
      "subtype": "jr",
      "name": "岩倉",
      "nameKana": null,
      "nameEn": "Iwakura",
      "operator": "西日本旅客鉄道",
      "network": null,
      "ref": null,
      "latitude": 34.0234336,
      "longitude": 131.3599777,
      "countryCode": "jp",
      "rawTags": {
        "KSJ2:LIN": "宇部線",
        "KSJ2:STN": "岩倉",
        "contact:website": "https://www.jr-odekake.net/eki/top?id=0802004",
        "name": "岩倉",
        "name:en": "Iwakura",
        "name:ja": "岩倉",
        "name:ko": "이와쿠라",
        "note": "National-Land Numerical Information (Railway) 2007, MLIT Japan",
        "note:ja": "国土数値情報（鉄道データ）平成19年　国土交通省",
        "operator": "西日本旅客鉄道",
        "public_transport": "station",
        "railway": "station",
        "source": "KSJ2",
        "source_ref": "http://nlftp.mlit.go.jp/ksj/jpgis/datalist/KsjTmplt-N02-v1_1.html",
        "wikidata": "Q6100445",
        "wikipedia": "ja:岩倉駅 (山口県)"
      }
    },
    {
      "id": "yamaguchi_station_12917927703",
      "osmId": 12917927703,
      "osmType": "node",
      "prefectureId": "yamaguchi",
      "type": "station",
      "subtype": "jr",
      "name": "周防佐山",
      "nameKana": null,
      "nameEn": "Suo-Sayama",
      "operator": "西日本旅客鉄道",
      "network": null,
      "ref": null,
      "latitude": 34.0349155,
      "longitude": 131.3636508,
      "countryCode": "jp",
      "rawTags": {
        "KSJ2:LIN": "宇部線",
        "KSJ2:STN": "周防佐山",
        "contact:website": "https://www.jr-odekake.net/eki/top?id=0802003",
        "name": "周防佐山",
        "name:en": "Suo-Sayama",
        "name:ja": "周防佐山",
        "name:ja-Latn": "Suō-Sayama",
        "name:ko": "스오사야마",
        "note": "National-Land Numerical Information (Railway) 2007, MLIT Japan",
        "note:ja": "国土数値情報（鉄道データ）平成19年　国土交通省",
        "operator": "西日本旅客鉄道",
        "public_transport": "station",
        "railway": "station",
        "source": "KSJ2",
        "source_ref": "http://nlftp.mlit.go.jp/ksj/jpgis/datalist/KsjTmplt-N02-v1_1.html",
        "wikidata": "Q7651560",
        "wikipedia": "ja:周防佐山駅"
      }
    },
    {
      "id": "yamaguchi_station_12917927714",
      "osmId": 12917927714,
      "osmType": "node",
      "prefectureId": "yamaguchi",
      "type": "station",
      "subtype": "jr",
      "name": "深溝",
      "nameKana": null,
      "nameEn": "Fukamizo",
      "operator": "西日本旅客鉄道",
      "network": "JR宇部線",
      "ref": null,
      "latitude": 34.0469266,
      "longitude": 131.3713943,
      "countryCode": "jp",
      "rawTags": {
        "KSJ2:LIN": "宇部線",
        "KSJ2:STN": "深溝",
        "contact:website": "https://www.jr-odekake.net/eki/top?id=0802002",
        "name": "深溝",
        "name:en": "Fukamizo",
        "name:ja": "深溝",
        "name:ko": "후카미조",
        "network": "JR宇部線",
        "note": "National-Land Numerical Information (Railway) 2007, MLIT Japan",
        "note:ja": "国土数値情報（鉄道データ）平成19年　国土交通省",
        "operator": "西日本旅客鉄道",
        "public_transport": "station",
        "railway": "station",
        "source": "KSJ2",
        "source_ref": "http://nlftp.mlit.go.jp/ksj/jpgis/datalist/KsjTmplt-N02-v1_1.html",
        "wikidata": "Q5507576",
        "wikipedia": "ja:深溝駅"
      }
    },
    {
      "id": "yamaguchi_station_12917927745",
      "osmId": 12917927745,
      "osmType": "node",
      "prefectureId": "yamaguchi",
      "type": "station",
      "subtype": "private",
      "name": "上嘉川",
      "nameKana": null,
      "nameEn": "Kami-Kagawa",
      "operator": null,
      "network": null,
      "ref": null,
      "latitude": 34.073765,
      "longitude": 131.3789708,
      "countryCode": "jp",
      "rawTags": {
        "KSJ2:LIN": "宇部線",
        "KSJ2:STN": "上嘉川",
        "contact:website": "https://www.jr-odekake.net/eki/top?id=0802001",
        "name": "上嘉川",
        "name:en": "Kami-Kagawa",
        "name:ja": "上嘉川",
        "name:ko": "가미카가와",
        "note": "National-Land Numerical Information (Railway) 2007, MLIT Japan",
        "note:ja": "国土数値情報（鉄道データ）平成19年　国土交通省",
        "public_transport": "station",
        "railway": "station",
        "source": "KSJ2",
        "source_ref": "http://nlftp.mlit.go.jp/ksj/jpgis/datalist/KsjTmplt-N02-v1_1.html",
        "wikidata": "Q6357150",
        "wikipedia": "ja:上嘉川駅"
      }
    },
    {
      "id": "yamaguchi_station_12920296153",
      "osmId": 12920296153,
      "osmType": "node",
      "prefectureId": "yamaguchi",
      "type": "station",
      "subtype": "private",
      "name": "矢原",
      "nameKana": null,
      "nameEn": "Yabara",
      "operator": null,
      "network": null,
      "ref": null,
      "latitude": 34.1504595,
      "longitude": 131.4458214,
      "countryCode": "jp",
      "rawTags": {
        "KSJ2:LIN": "山口線",
        "KSJ2:STN": "矢原",
        "contact:website": "https://www.jr-odekake.net/eki/top?id=0801904",
        "name": "矢原",
        "name:en": "Yabara",
        "name:ja": "矢原",
        "name:ko": "야바라",
        "note": "National-Land Numerical Information (Railway) 2007, MLIT Japan",
        "note:ja": "国土数値情報（鉄道データ）平成19年　国土交通省",
        "public_transport": "station",
        "railway": "station",
        "source": "KSJ2",
        "source_ref": "http://nlftp.mlit.go.jp/ksj/jpgis/datalist/KsjTmplt-N02-v1_1.html",
        "wikidata": "Q8046358",
        "wikipedia": "ja:矢原駅"
      }
    },
    {
      "id": "yamaguchi_station_12920296171",
      "osmId": 12920296171,
      "osmType": "node",
      "prefectureId": "yamaguchi",
      "type": "station",
      "subtype": "private",
      "name": "大歳",
      "nameKana": null,
      "nameEn": "Otoshi",
      "operator": null,
      "network": null,
      "ref": null,
      "latitude": 34.1472377,
      "longitude": 131.432831,
      "countryCode": "jp",
      "rawTags": {
        "KSJ2:LIN": "山口線",
        "KSJ2:STN": "大歳",
        "contact:website": "https://www.jr-odekake.net/eki/top?id=0801903",
        "name": "大歳",
        "name:en": "Otoshi",
        "name:ja": "大歳",
        "name:ja-Latn": "Ōtoshi",
        "name:ko": "오토시",
        "note": "National-Land Numerical Information (Railway) 2007, MLIT Japan",
        "note:ja": "国土数値情報（鉄道データ）平成19年　国土交通省",
        "public_transport": "station",
        "railway": "station",
        "source": "KSJ2",
        "source_ref": "http://nlftp.mlit.go.jp/ksj/jpgis/datalist/KsjTmplt-N02-v1_1.html",
        "wikidata": "Q8081774",
        "wikipedia": "ja:大歳駅"
      }
    },
    {
      "id": "yamaguchi_station_12920296178",
      "osmId": 12920296178,
      "osmType": "node",
      "prefectureId": "yamaguchi",
      "type": "station",
      "subtype": "private",
      "name": "仁保津",
      "nameKana": null,
      "nameEn": "Nihozu",
      "operator": null,
      "network": null,
      "ref": null,
      "latitude": 34.1288839,
      "longitude": 131.4154468,
      "countryCode": "jp",
      "rawTags": {
        "KSJ2:LIN": "山口線",
        "KSJ2:STN": "仁保津",
        "contact:website": "https://www.jr-odekake.net/eki/top?id=0801926",
        "name": "仁保津",
        "name:en": "Nihozu",
        "name:ja": "仁保津",
        "name:ko": "니호즈",
        "note": "National-Land Numerical Information (Railway) 2007, MLIT Japan",
        "note:ja": "国土数値情報（鉄道データ）平成19年　国土交通省",
        "public_transport": "station",
        "railway": "station",
        "source": "KSJ2",
        "source_ref": "http://nlftp.mlit.go.jp/ksj/jpgis/datalist/KsjTmplt-N02-v1_1.html",
        "wikidata": "Q11376321",
        "wikipedia": "ja:仁保津駅"
      }
    },
    {
      "id": "yamaguchi_station_12920296196",
      "osmId": 12920296196,
      "osmType": "node",
      "prefectureId": "yamaguchi",
      "type": "station",
      "subtype": "private",
      "name": "上郷",
      "nameKana": null,
      "nameEn": "Kamigo",
      "operator": null,
      "network": null,
      "ref": null,
      "latitude": 34.1163523,
      "longitude": 131.401819,
      "countryCode": "jp",
      "rawTags": {
        "KSJ2:LIN": "山口線",
        "KSJ2:STN": "上郷",
        "contact:website": "https://www.jr-odekake.net/eki/top?id=0801902",
        "name": "上郷",
        "name:en": "Kamigo",
        "name:ja": "上郷",
        "name:ja-Latn": "Kamigō",
        "name:ko": "가미고",
        "note": "National-Land Numerical Information (Railway) 2007, MLIT Japan",
        "note:ja": "国土数値情報（鉄道データ）平成19年　国土交通省",
        "public_transport": "station",
        "railway": "station",
        "source": "KSJ2",
        "source_ref": "http://nlftp.mlit.go.jp/ksj/jpgis/datalist/KsjTmplt-N02-v1_1.html",
        "wikidata": "Q11360228",
        "wikipedia": "ja:上郷駅"
      }
    },
    {
      "id": "yamaguchi_station_12920307413",
      "osmId": 12920307413,
      "osmType": "node",
      "prefectureId": "yamaguchi",
      "type": "station",
      "subtype": "private",
      "name": "周防下郷",
      "nameKana": null,
      "nameEn": "Suo-Shimogo",
      "operator": null,
      "network": null,
      "ref": null,
      "latitude": 34.1009948,
      "longitude": 131.4016811,
      "countryCode": "jp",
      "rawTags": {
        "KSJ2:LIN": "山口線",
        "KSJ2:STN": "周防下郷",
        "contact:website": "https://www.jr-odekake.net/eki/top?id=0801901",
        "name": "周防下郷",
        "name:en": "Suo-Shimogo",
        "name:ja": "周防下郷",
        "name:ja-Latn": "Suō-Shimogō",
        "name:ko": "스오시모고",
        "note": "National-Land Numerical Information (Railway) 2007, MLIT Japan",
        "note:ja": "国土数値情報（鉄道データ）平成19年　国土交通省",
        "public_transport": "station",
        "railway": "station",
        "source": "KSJ2",
        "source_ref": "http://nlftp.mlit.go.jp/ksj/jpgis/datalist/KsjTmplt-N02-v1_1.html",
        "wikidata": "Q7651565",
        "wikipedia": "ja:周防下郷駅"
      }
    },
    {
      "id": "yamaguchi_airport_57010586",
      "osmId": 57010586,
      "osmType": "way",
      "prefectureId": "yamaguchi",
      "type": "airport",
      "subtype": "domestic",
      "name": "山口宇部空港",
      "nameKana": null,
      "nameEn": "Yamaguchi-Ube Airport",
      "operator": null,
      "network": null,
      "ref": "UBJ",
      "latitude": 33.930108,
      "longitude": 131.2791807,
      "countryCode": "jp",
      "rawTags": {
        "KSJ2:AAC": "35202",
        "KSJ2:AAC_label": "山口県宇部市",
        "KSJ2:AD2": "5",
        "KSJ2:AD2_label": "都道府県",
        "KSJ2:ARP": "33.9300000000 131.2786111111",
        "KSJ2:ATB": "33.9326255800 131.2737933000",
        "KSJ2:CLT": "21 30",
        "KSJ2:COA": "空港整備法に基づく第二種空港",
        "KSJ2:CompositeCurve": "cv61Airport",
        "KSJ2:DSA": "特定飛行場以外",
        "KSJ2:INP": "1",
        "KSJ2:INP_label": "国土交通大臣",
        "KSJ2:IUC": "供用中",
        "KSJ2:NA3": "山口宇部空港",
        "KSJ2:OPT": "07 30",
        "KSJ2:REF": "1",
        "KSJ2:REF_label": "ジェット定期便が就航している場合",
        "KSJ2:airport_id": "cf02_81",
        "KSJ2:runways": "2500 45",
        "aerodrome:type": "public",
        "aeroway": "aerodrome",
        "barrier": "fence",
        "ele": "5",
        "iata": "UBJ",
        "icao": "RJDC",
        "name": "山口宇部空港",
        "name:en": "Yamaguchi-Ube Airport",
        "name:ja": "山口宇部空港",
        "name:ja_rm": "Yamaguchi-Ube Kuko",
        "name:ko": "야마구치우베공항",
        "note": "airport UBJ had 2 nodes !;National-Land Numerical Information (Airport) 2007, MLIT Japan",
        "note:ja": "国土数値情報（空港データ）平成19年　国土交通省",
        "source": "KSJ2",
        "source_ref": "http://nlftp.mlit.go.jp/ksj/jpgis/datalist/KsjTmplt-C28-v1_1.html",
        "wikipedia": "ja:山口宇部空港",
        "wikipedia:en": "Yamaguchi Ube Airport"
      }
    },
    {
      "id": "yamaguchi_ferry_terminal_225454789",
      "osmId": 225454789,
      "osmType": "way",
      "prefectureId": "yamaguchi",
      "type": "ferry_terminal",
      "subtype": null,
      "name": "唐戸桟橋",
      "nameKana": null,
      "nameEn": "Karato Pier",
      "operator": null,
      "network": null,
      "ref": null,
      "latitude": 33.9558221,
      "longitude": 130.9423203,
      "countryCode": "jp",
      "rawTags": {
        "amenity": "ferry_terminal",
        "building": "yes",
        "cargo": "passengers",
        "ferry": "yes",
        "name": "唐戸桟橋",
        "name:en": "Karato Pier",
        "name:zh": "唐户栈桥",
        "public_transport": "station",
        "source": "bing,2012",
        "website": "https://www.kanmon-kisen.co.jp/route/kanmon.html"
      }
    },
    {
      "id": "yamaguchi_airport_664900076",
      "osmId": 664900076,
      "osmType": "way",
      "prefectureId": "yamaguchi",
      "type": "airport",
      "subtype": "domestic",
      "name": "岩国錦帯橋空港",
      "nameKana": null,
      "nameEn": "Iwakuni Kintaikyo Airport",
      "operator": null,
      "network": null,
      "ref": "IWK",
      "latitude": 34.1589857,
      "longitude": 132.2358521,
      "countryCode": "jp",
      "rawTags": {
        "aeroway": "aerodrome",
        "iata": "IWK",
        "icao": "RJOI",
        "name": "岩国錦帯橋空港",
        "name:en": "Iwakuni Kintaikyo Airport",
        "name:ja": "岩国錦帯橋空港",
        "name:ko": "이와쿠니 긴타이쿄공항",
        "website": "https://www.iwakuni-airport.jp/"
      }
    },
    {
      "id": "yamaguchi_ferry_terminal_989700200",
      "osmId": 989700200,
      "osmType": "way",
      "prefectureId": "yamaguchi",
      "type": "ferry_terminal",
      "subtype": null,
      "name": "伊保田港総合待合所",
      "nameKana": null,
      "nameEn": null,
      "operator": null,
      "network": null,
      "ref": null,
      "latitude": 33.9440796,
      "longitude": 132.4387014,
      "countryCode": "jp",
      "rawTags": {
        "amenity": "ferry_terminal",
        "building": "yes",
        "ferry": "yes",
        "name": "伊保田港総合待合所",
        "public_transport": "station"
      }
    },
    {
      "id": "yamaguchi_ferry_terminal_989914233",
      "osmId": 989914233,
      "osmType": "way",
      "prefectureId": "yamaguchi",
      "type": "ferry_terminal",
      "subtype": null,
      "name": "柳井港ポートビル",
      "nameKana": null,
      "nameEn": null,
      "operator": null,
      "network": null,
      "ref": null,
      "latitude": 33.9569312,
      "longitude": 132.1334264,
      "countryCode": "jp",
      "rawTags": {
        "amenity": "ferry_terminal",
        "building": "yes",
        "ferry": "yes",
        "name": "柳井港ポートビル",
        "public_transport": "station"
      }
    },
    {
      "id": "yamaguchi_airport_1137137613",
      "osmId": 1137137613,
      "osmType": "way",
      "prefectureId": "yamaguchi",
      "type": "airport",
      "subtype": "heliport",
      "name": "周南ヘリポート",
      "nameKana": null,
      "nameEn": null,
      "operator": "福谷産業",
      "network": null,
      "ref": null,
      "latitude": 34.0917301,
      "longitude": 131.8364833,
      "countryCode": "jp",
      "rawTags": {
        "access": "private",
        "aeroway": "aerodrome",
        "name": "周南ヘリポート",
        "operator": "福谷産業"
      }
    },
    {
      "id": "yamaguchi_station_1365657107",
      "osmId": 1365657107,
      "osmType": "way",
      "prefectureId": "yamaguchi",
      "type": "station",
      "subtype": "private",
      "name": "長門二見駅",
      "nameKana": null,
      "nameEn": null,
      "operator": null,
      "network": null,
      "ref": null,
      "latitude": 34.2520289,
      "longitude": 130.9156712,
      "countryCode": "jp",
      "rawTags": {
        "name": "長門二見駅",
        "public_transport": "station",
        "railway": "station",
        "train": "yes"
      }
    }
  ]
}