{
  "fetchedAt": "2025-12-12T05:18:53.432Z",
  "prefectureId": "aomori",
  "prefectureName": "青森県",
  "stats": {
    "station": 150,
    "airport": 6,
    "ferry_terminal": 10,
    "bus_terminal": 20,
    "total": 186
  },
  "data": [
    {
      "id": "aomori_station_263176471",
      "osmId": 263176471,
      "osmType": "node",
      "prefectureId": "aomori",
      "type": "station",
      "subtype": "private",
      "name": "大釈迦",
      "nameKana": null,
      "nameEn": "Daishaka",
      "operator": null,
      "network": null,
      "ref": null,
      "latitude": 40.756701,
      "longitude": 140.5876854,
      "countryCode": "jp",
      "rawTags": {
        "KSJ2:LIN": "奥羽線",
        "KSJ2:STN": "大釈迦",
        "name": "大釈迦",
        "name:en": "Daishaka",
        "name:ja": "大釈迦",
        "name:ja-Latn": "Daishaka",
        "name:ko": "다이샤카",
        "note": "National-Land Numerical Information (Railway) 2007, MLIT Japan",
        "note:ja": "国土数値情報（鉄道データ）平成19年　国土交通省",
        "public_transport": "station",
        "railway": "station",
        "source": "KSJ2",
        "source_ref": "http://nlftp.mlit.go.jp/ksj/jpgis/datalist/KsjTmplt-N02-v1_1.html",
        "website": "https://www.jreast.co.jp/estation/station/info.aspx?StationCd=926",
        "wikidata": "Q5209607",
        "wikipedia": "ja:大釈迦駅"
      }
    },
    {
      "id": "aomori_station_263176826",
      "osmId": 263176826,
      "osmType": "node",
      "prefectureId": "aomori",
      "type": "station",
      "subtype": "private",
      "name": "津軽新城",
      "nameKana": "つがるしんじょう",
      "nameEn": "Tsugaru-Shinjo",
      "operator": null,
      "network": null,
      "ref": null,
      "latitude": 40.8280508,
      "longitude": 140.6720593,
      "countryCode": "jp",
      "rawTags": {
        "KSJ2:LIN": "奥羽線",
        "KSJ2:STN": "津軽新城",
        "name": "津軽新城",
        "name:de": "Tsugaru-Shinjo",
        "name:en": "Tsugaru-Shinjo",
        "name:ja": "津軽新城",
        "name:ja_kana": "つがるしんじょう",
        "name:ja_rm": "Tsugaru-Shinjō",
        "name:ko": "쓰가루신조",
        "note": "National-Land Numerical Information (Railway) 2007, MLIT Japan",
        "note:ja": "国土数値情報（鉄道データ）平成19年　国土交通省",
        "public_transport": "station",
        "railway": "station",
        "source": "KSJ2",
        "source_ref": "http://nlftp.mlit.go.jp/ksj/jpgis/datalist/KsjTmplt-N02-v1_1.html",
        "website": "https://www.jreast.co.jp/estation/station/info.aspx?StationCd=999",
        "wikidata": "Q7849962",
        "wikipedia": "ja:津軽新城駅"
      }
    },
    {
      "id": "aomori_station_264186812",
      "osmId": 264186812,
      "osmType": "node",
      "prefectureId": "aomori",
      "type": "station",
      "subtype": "private",
      "name": "小川原",
      "nameKana": null,
      "nameEn": "Kogawara",
      "operator": null,
      "network": null,
      "ref": null,
      "latitude": 40.7100437,
      "longitude": 141.2995492,
      "countryCode": "jp",
      "rawTags": {
        "KSJ2:LIN": "青い森鉄道線",
        "KSJ2:STN": "小川原",
        "name": "小川原",
        "name:en": "Kogawara",
        "name:ja": "小川原",
        "name:ja_rm": "Kogawara",
        "name:ko": "고가와라",
        "note": "National-Land Numerical Information (Railway) 2007, MLIT Japan",
        "note:ja": "国土数値情報（鉄道データ）平成19年　国土交通省",
        "public_transport": "station",
        "railway": "station",
        "source": "KSJ2",
        "source_ref": "http://nlftp.mlit.go.jp/ksj/jpgis/datalist/KsjTmplt-N02-v1_1.html",
        "website": "https://aoimorirailway.com/lang_jp/station_list/kogawara/",
        "wikidata": "Q5357185",
        "wikipedia": "ja:小川原駅"
      }
    },
    {
      "id": "aomori_station_264186817",
      "osmId": 264186817,
      "osmType": "node",
      "prefectureId": "aomori",
      "type": "station",
      "subtype": "private",
      "name": "西平内",
      "nameKana": null,
      "nameEn": "Nishi-Hiranai",
      "operator": null,
      "network": null,
      "ref": null,
      "latitude": 40.917998,
      "longitude": 140.9131142,
      "countryCode": "jp",
      "rawTags": {
        "KSJ2:LIN": "青い森鉄道線",
        "KSJ2:STN": "西平内",
        "name": "西平内",
        "name:en": "Nishi-Hiranai",
        "name:ja": "西平内",
        "name:ja_rm": "Nishi-Hiranai",
        "name:ko": "니시히라나이",
        "note": "National-Land Numerical Information (Railway) 2007, MLIT Japan",
        "note:ja": "国土数値情報（鉄道データ）平成19年　国土交通省",
        "public_transport": "station",
        "railway": "station",
        "source": "KSJ2",
        "source_ref": "http://nlftp.mlit.go.jp/ksj/jpgis/datalist/KsjTmplt-N02-v1_1.html",
        "website": "https://aoimorirailway.com/lang_jp/station_list/nishihiranai/",
        "wikidata": "Q6402261",
        "wikipedia": "ja:西平内駅"
      }
    },
    {
      "id": "aomori_station_264186859",
      "osmId": 264186859,
      "osmType": "node",
      "prefectureId": "aomori",
      "type": "station",
      "subtype": "private",
      "name": "小湊",
      "nameKana": "こみなと",
      "nameEn": "Kominato",
      "operator": null,
      "network": null,
      "ref": null,
      "latitude": 40.9298991,
      "longitude": 140.9551558,
      "countryCode": "jp",
      "rawTags": {
        "KSJ2:LIN": "青い森鉄道線",
        "KSJ2:STN": "小湊",
        "name": "小湊",
        "name:en": "Kominato",
        "name:ja": "小湊",
        "name:ja_kana": "こみなと",
        "name:ja_rm": "Kominato",
        "name:ko": "고미나토",
        "note": "National-Land Numerical Information (Railway) 2007, MLIT Japan",
        "note:ja": "国土数値情報（鉄道データ）平成19年　国土交通省",
        "public_transport": "station",
        "railway": "station",
        "source": "KSJ2",
        "source_ref": "http://nlftp.mlit.go.jp/ksj/jpgis/datalist/KsjTmplt-N02-v1_1.html",
        "website": "https://aoimorirailway.com/lang_jp/station_list/kominato/",
        "wikidata": "Q5356761",
        "wikipedia": "ja:小湊駅"
      }
    },
    {
      "id": "aomori_station_264187311",
      "osmId": 264187311,
      "osmType": "node",
      "prefectureId": "aomori",
      "type": "station",
      "subtype": "private",
      "name": "向山",
      "nameKana": "むかいやま",
      "nameEn": "Mukaiyama",
      "operator": null,
      "network": null,
      "ref": null,
      "latitude": 40.6298319,
      "longitude": 141.3705724,
      "countryCode": "jp",
      "rawTags": {
        "KSJ2:LIN": "青い森鉄道線",
        "KSJ2:STN": "向山",
        "name": "向山",
        "name:en": "Mukaiyama",
        "name:ja": "向山",
        "name:ja-Hira": "むかいやま",
        "name:ko": "무카이야마",
        "note": "National-Land Numerical Information (Railway) 2007, MLIT Japan",
        "note:ja": "国土数値情報（鉄道データ）平成19年　国土交通省",
        "public_transport": "station",
        "railway": "station",
        "source": "KSJ2",
        "source_ref": "http://nlftp.mlit.go.jp/ksj/jpgis/datalist/KsjTmplt-N02-v1_1.html",
        "website": "https://aoimorirailway.com/lang_jp/station_list/mukaiyama/",
        "wikidata": "Q5357175",
        "wikipedia": "ja:向山駅"
      }
    },
    {
      "id": "aomori_station_264187661",
      "osmId": 264187661,
      "osmType": "node",
      "prefectureId": "aomori",
      "type": "station",
      "subtype": "private",
      "name": "清水川",
      "nameKana": null,
      "nameEn": "Shimizugawa",
      "operator": null,
      "network": null,
      "ref": null,
      "latitude": 40.9218213,
      "longitude": 141.0245353,
      "countryCode": "jp",
      "rawTags": {
        "KSJ2:LIN": "青い森鉄道線",
        "KSJ2:STN": "清水川",
        "name": "清水川",
        "name:en": "Shimizugawa",
        "name:ja": "清水川",
        "name:ja_rm": "Shimizugawa",
        "name:ko": "시미즈가와",
        "note": "National-Land Numerical Information (Railway) 2007, MLIT Japan",
        "note:ja": "国土数値情報（鉄道データ）平成19年　国土交通省",
        "public_transport": "station",
        "railway": "station",
        "source": "KSJ2",
        "source_ref": "http://nlftp.mlit.go.jp/ksj/jpgis/datalist/KsjTmplt-N02-v1_1.html",
        "website": "https://aoimorirailway.com/lang_jp/station_list/shimizugawa/",
        "wikidata": "Q5357156",
        "wikipedia": "ja:清水川駅"
      }
    },
    {
      "id": "aomori_station_264187734",
      "osmId": 264187734,
      "osmType": "node",
      "prefectureId": "aomori",
      "type": "station",
      "subtype": "private",
      "name": "乙供",
      "nameKana": null,
      "nameEn": "Ottomo",
      "operator": null,
      "network": null,
      "ref": null,
      "latitude": 40.7798846,
      "longitude": 141.213254,
      "countryCode": "jp",
      "rawTags": {
        "KSJ2:LIN": "青い森鉄道線",
        "KSJ2:STN": "乙供",
        "name": "乙供",
        "name:en": "Ottomo",
        "name:ja": "乙供",
        "name:ja_rm": "Ottomo",
        "name:ko": "옷토모",
        "note": "National-Land Numerical Information (Railway) 2007, MLIT Japan",
        "note:ja": "国土数値情報（鉄道データ）平成19年　国土交通省",
        "public_transport": "station",
        "railway": "station",
        "source": "KSJ2",
        "source_ref": "http://nlftp.mlit.go.jp/ksj/jpgis/datalist/KsjTmplt-N02-v1_1.html",
        "website": "https://aoimorirailway.com/lang_jp/station_list/ottomo/",
        "wikidata": "Q5357206",
        "wikipedia": "ja:乙供駅"
      }
    },
    {
      "id": "aomori_station_264188105",
      "osmId": 264188105,
      "osmType": "node",
      "prefectureId": "aomori",
      "type": "station",
      "subtype": "private",
      "name": "上北町",
      "nameKana": null,
      "nameEn": "Kamikitacho",
      "operator": null,
      "network": null,
      "ref": null,
      "latitude": 40.7329536,
      "longitude": 141.2646972,
      "countryCode": "jp",
      "rawTags": {
        "KSJ2:LIN": "青い森鉄道線",
        "KSJ2:STN": "上北町",
        "name": "上北町",
        "name:en": "Kamikitacho",
        "name:ja": "上北町",
        "name:ja_rm": "Kamikitachō",
        "name:ko": "가미키타초",
        "note": "National-Land Numerical Information (Railway) 2007, MLIT Japan",
        "note:ja": "国土数値情報（鉄道データ）平成19年　国土交通省",
        "public_transport": "station",
        "railway": "station",
        "source": "KSJ2",
        "source_ref": "http://nlftp.mlit.go.jp/ksj/jpgis/datalist/KsjTmplt-N02-v1_1.html",
        "website": "https://aoimorirailway.com/lang_jp/station_list/kamikitachou/",
        "wikidata": "Q5357192",
        "wikipedia": "ja:上北町駅"
      }
    },
    {
      "id": "aomori_station_264188264",
      "osmId": 264188264,
      "osmType": "node",
      "prefectureId": "aomori",
      "type": "station",
      "subtype": "private",
      "name": "千曳",
      "nameKana": "ちびき",
      "nameEn": "Chibiki",
      "operator": null,
      "network": null,
      "ref": null,
      "latitude": 40.8044125,
      "longitude": 141.1532015,
      "countryCode": "jp",
      "rawTags": {
        "KSJ2:LIN": "青い森鉄道線",
        "KSJ2:STN": "千曳",
        "name": "千曳",
        "name:en": "Chibiki",
        "name:ja": "千曳",
        "name:ja-Hira": "ちびき",
        "name:ko": "지비키",
        "note": "National-Land Numerical Information (Railway) 2007, MLIT Japan",
        "note:ja": "国土数値情報（鉄道データ）平成19年　国土交通省",
        "public_transport": "station",
        "railway": "station",
        "source": "KSJ2",
        "source_ref": "http://nlftp.mlit.go.jp/ksj/jpgis/datalist/KsjTmplt-N02-v1_1.html",
        "website": "https://aoimorirailway.com/lang_jp/station_list/chibiki/",
        "wikidata": "Q5095344",
        "wikipedia": "ja:千曳駅"
      }
    },
    {
      "id": "aomori_station_264188538",
      "osmId": 264188538,
      "osmType": "node",
      "prefectureId": "aomori",
      "type": "station",
      "subtype": "private",
      "name": "矢田前",
      "nameKana": null,
      "nameEn": "Yadamae",
      "operator": null,
      "network": null,
      "ref": null,
      "latitude": 40.8340044,
      "longitude": 140.8072786,
      "countryCode": "jp",
      "rawTags": {
        "KSJ2:LIN": "青い森鉄道線",
        "KSJ2:STN": "矢田前",
        "name": "矢田前",
        "name:en": "Yadamae",
        "name:ja": "矢田前",
        "name:ja_rm": "Yadamae",
        "name:ko": "야다마에",
        "note": "National-Land Numerical Information (Railway) 2007, MLIT Japan",
        "note:ja": "国土数値情報（鉄道データ）平成19年　国土交通省",
        "public_transport": "station",
        "railway": "station",
        "source": "KSJ2",
        "source_ref": "http://nlftp.mlit.go.jp/ksj/jpgis/datalist/KsjTmplt-N02-v1_1.html",
        "website": "https://aoimorirailway.com/lang_jp/station_list/yadamae/",
        "wikidata": "Q6397637",
        "wikipedia": "ja:矢田前駅"
      }
    },
    {
      "id": "aomori_station_264219303",
      "osmId": 264219303,
      "osmType": "node",
      "prefectureId": "aomori",
      "type": "station",
      "subtype": "jr",
      "name": "奥内",
      "nameKana": null,
      "nameEn": "Okunai",
      "operator": "東日本旅客鉄道",
      "network": null,
      "ref": null,
      "latitude": 40.9031582,
      "longitude": 140.6722426,
      "countryCode": "jp",
      "rawTags": {
        "KSJ2:LIN": "津軽線",
        "KSJ2:STN": "奥内",
        "name": "奥内",
        "name:en": "Okunai",
        "name:ja": "奥内",
        "name:ko": "오쿠나이",
        "note": "National-Land Numerical Information (Railway) 2007, MLIT Japan",
        "note:ja": "国土数値情報（鉄道データ）平成19年　国土交通省",
        "operator": "東日本旅客鉄道",
        "public_transport": "station",
        "railway": "station",
        "source": "KSJ2",
        "source_ref": "http://nlftp.mlit.go.jp/ksj/jpgis/datalist/KsjTmplt-N02-v1_1.html",
        "wikidata": "Q7082749",
        "wikipedia": "ja:奥内駅"
      }
    },
    {
      "id": "aomori_station_264219305",
      "osmId": 264219305,
      "osmType": "node",
      "prefectureId": "aomori",
      "type": "station",
      "subtype": "jr",
      "name": "瀬辺地",
      "nameKana": null,
      "nameEn": "Seheji",
      "operator": "東日本旅客鉄道",
      "network": null,
      "ref": null,
      "latitude": 41.0081542,
      "longitude": 140.6482762,
      "countryCode": "jp",
      "rawTags": {
        "KSJ2:LIN": "津軽線",
        "KSJ2:STN": "瀬辺地",
        "name": "瀬辺地",
        "name:en": "Seheji",
        "name:ja": "瀬辺地",
        "name:ko": "세헤지",
        "note": "National-Land Numerical Information (Railway) 2007, MLIT Japan",
        "note:ja": "国土数値情報（鉄道データ）平成19年　国土交通省",
        "operator": "東日本旅客鉄道",
        "public_transport": "station",
        "railway": "station",
        "source": "KSJ2",
        "source_ref": "http://nlftp.mlit.go.jp/ksj/jpgis/datalist/KsjTmplt-N02-v1_1.html",
        "wikidata": "Q7446505",
        "wikipedia": "ja:瀬辺地駅"
      }
    },
    {
      "id": "aomori_station_264219307",
      "osmId": 264219307,
      "osmType": "node",
      "prefectureId": "aomori",
      "type": "station",
      "subtype": "jr",
      "name": "左堰",
      "nameKana": null,
      "nameEn": "Hidariseki",
      "operator": "東日本旅客鉄道",
      "network": null,
      "ref": null,
      "latitude": 40.916939,
      "longitude": 140.665996,
      "countryCode": "jp",
      "rawTags": {
        "KSJ2:LIN": "津軽線",
        "KSJ2:STN": "左堰",
        "name": "左堰",
        "name:en": "Hidariseki",
        "name:ja": "左堰",
        "name:ko": "히다리세키",
        "note": "National-Land Numerical Information (Railway) 2007, MLIT Japan",
        "note:ja": "国土数値情報（鉄道データ）平成19年　国土交通省",
        "operator": "東日本旅客鉄道",
        "public_transport": "station",
        "railway": "station",
        "source": "KSJ2",
        "source_ref": "http://nlftp.mlit.go.jp/ksj/jpgis/datalist/KsjTmplt-N02-v1_1.html",
        "wikidata": "Q5751637",
        "wikipedia": "ja:左堰駅"
      }
    },
    {
      "id": "aomori_station_264219321",
      "osmId": 264219321,
      "osmType": "node",
      "prefectureId": "aomori",
      "type": "station",
      "subtype": "jr",
      "name": "中沢",
      "nameKana": null,
      "nameEn": "Nakasawa",
      "operator": "東日本旅客鉄道",
      "network": null,
      "ref": null,
      "latitude": 40.9494006,
      "longitude": 140.656176,
      "countryCode": "jp",
      "rawTags": {
        "KSJ2:LIN": "津軽線",
        "KSJ2:STN": "中沢",
        "name": "中沢",
        "name:en": "Nakasawa",
        "name:ja": "中沢",
        "name:ko": "나카사와",
        "operator": "東日本旅客鉄道",
        "public_transport": "station",
        "railway": "station",
        "source": "KSJ2",
        "wikidata": "Q11366389",
        "wikipedia": "ja:中沢駅"
      }
    },
    {
      "id": "aomori_station_264219903",
      "osmId": 264219903,
      "osmType": "node",
      "prefectureId": "aomori",
      "type": "station",
      "subtype": "jr",
      "name": "後潟",
      "nameKana": null,
      "nameEn": "Ushirogata",
      "operator": "東日本旅客鉄道",
      "network": null,
      "ref": null,
      "latitude": 40.931769,
      "longitude": 140.662389,
      "countryCode": "jp",
      "rawTags": {
        "KSJ2:LIN": "津軽線",
        "KSJ2:STN": "後潟",
        "name": "後潟",
        "name:en": "Ushirogata",
        "name:ja": "後潟",
        "name:ko": "우시로가타",
        "note": "National-Land Numerical Information (Railway) 2007, MLIT Japan",
        "note:ja": "国土数値情報（鉄道データ）平成19年　国土交通省",
        "operator": "東日本旅客鉄道",
        "public_transport": "station",
        "railway": "station",
        "source": "KSJ2",
        "source_ref": "http://nlftp.mlit.go.jp/ksj/jpgis/datalist/KsjTmplt-N02-v1_1.html",
        "wikidata": "Q7901961",
        "wikipedia": "ja:後潟駅"
      }
    },
    {
      "id": "aomori_station_264220540",
      "osmId": 264220540,
      "osmType": "node",
      "prefectureId": "aomori",
      "type": "station",
      "subtype": "jr",
      "name": "郷沢",
      "nameKana": null,
      "nameEn": "Gōsawa",
      "operator": "東日本旅客鉄道",
      "network": null,
      "ref": null,
      "latitude": 40.98817,
      "longitude": 140.652278,
      "countryCode": "jp",
      "rawTags": {
        "KSJ2:LIN": "津軽線",
        "KSJ2:STN": "郷沢",
        "name": "郷沢",
        "name:en": "Gōsawa",
        "name:ja": "郷沢",
        "name:ko": "고사와",
        "note": "National-Land Numerical Information (Railway) 2007, MLIT Japan",
        "note:ja": "国土数値情報（鉄道データ）平成19年　国土交通省",
        "operator": "東日本旅客鉄道",
        "public_transport": "station",
        "railway": "station",
        "source": "KSJ2",
        "source_ref": "http://nlftp.mlit.go.jp/ksj/jpgis/datalist/KsjTmplt-N02-v1_1.html",
        "wikidata": "Q5627759",
        "wikipedia": "ja:郷沢駅"
      }
    },
    {
      "id": "aomori_station_264220685",
      "osmId": 264220685,
      "osmType": "node",
      "prefectureId": "aomori",
      "type": "station",
      "subtype": "jr",
      "name": "蓬田",
      "nameKana": null,
      "nameEn": "Yomogita",
      "operator": "東日本旅客鉄道",
      "network": null,
      "ref": null,
      "latitude": 40.9696082,
      "longitude": 140.6545737,
      "countryCode": "jp",
      "rawTags": {
        "KSJ2:LIN": "津軽線",
        "KSJ2:STN": "蓬田",
        "name": "蓬田",
        "name:en": "Yomogita",
        "name:ja": "蓬田",
        "name:ko": "요모기타",
        "note": "National-Land Numerical Information (Railway) 2007, MLIT Japan",
        "note:ja": "国土数値情報（鉄道データ）平成19年　国土交通省",
        "operator": "東日本旅客鉄道",
        "public_transport": "station",
        "railway": "station",
        "source": "KSJ2",
        "source_ref": "http://nlftp.mlit.go.jp/ksj/jpgis/datalist/KsjTmplt-N02-v1_1.html",
        "wikidata": "Q8054868",
        "wikipedia": "ja:蓬田駅"
      }
    },
    {
      "id": "aomori_station_264220977",
      "osmId": 264220977,
      "osmType": "node",
      "prefectureId": "aomori",
      "type": "station",
      "subtype": "jr",
      "name": "油川",
      "nameKana": null,
      "nameEn": "Aburakawa",
      "operator": "東日本旅客鉄道",
      "network": "JR 津軽線",
      "ref": null,
      "latitude": 40.857101,
      "longitude": 140.6901901,
      "countryCode": "jp",
      "rawTags": {
        "KSJ2:LIN": "津軽線",
        "KSJ2:STN": "油川",
        "name": "油川",
        "name:en": "Aburakawa",
        "name:ja": "油川",
        "name:ko": "아부라카와",
        "network": "JR 津軽線",
        "note": "National-Land Numerical Information (Railway) 2007, MLIT Japan",
        "note:ja": "国土数値情報（鉄道データ）平成19年　国土交通省",
        "operator": "東日本旅客鉄道",
        "public_transport": "station",
        "railway": "station",
        "source": "KSJ2",
        "source_ref": "http://nlftp.mlit.go.jp/ksj/jpgis/datalist/KsjTmplt-N02-v1_1.html",
        "start_date": "1951-12-05",
        "wikidata": "Q4670655",
        "wikipedia": "ja:油川駅"
      }
    },
    {
      "id": "aomori_station_264221039",
      "osmId": 264221039,
      "osmType": "node",
      "prefectureId": "aomori",
      "type": "station",
      "subtype": "jr",
      "name": "津軽宮田",
      "nameKana": null,
      "nameEn": "Tsugaru-Miyata",
      "operator": "東日本旅客鉄道",
      "network": null,
      "ref": null,
      "latitude": 40.8869529,
      "longitude": 140.6744297,
      "countryCode": "jp",
      "rawTags": {
        "KSJ2:LIN": "津軽線",
        "KSJ2:STN": "津軽宮田",
        "name": "津軽宮田",
        "name:en": "Tsugaru-Miyata",
        "name:ja": "津軽宮田",
        "name:ko": "쓰가루미야타",
        "note": "National-Land Numerical Information (Railway) 2007, MLIT Japan",
        "note:ja": "国土数値情報（鉄道データ）平成19年　国土交通省",
        "operator": "東日本旅客鉄道",
        "public_transport": "stop_position",
        "railway": "station",
        "source": "KSJ2",
        "source_ref": "http://nlftp.mlit.go.jp/ksj/jpgis/datalist/KsjTmplt-N02-v1_1.html",
        "train": "yes",
        "wikidata": "Q7849959",
        "wikipedia": "ja:津軽宮田駅"
      }
    },
    {
      "id": "aomori_station_264222011",
      "osmId": 264222011,
      "osmType": "node",
      "prefectureId": "aomori",
      "type": "station",
      "subtype": "private",
      "name": "有戸",
      "nameKana": null,
      "nameEn": "Arito",
      "operator": null,
      "network": null,
      "ref": null,
      "latitude": 40.9139798,
      "longitude": 141.1893847,
      "countryCode": "jp",
      "rawTags": {
        "KSJ2:LIN": "大湊線",
        "KSJ2:STN": "有戸",
        "name": "有戸",
        "name:en": "Arito",
        "name:ja": "有戸",
        "name:ja_rm": "Arito",
        "name:ko": "아리토",
        "note": "National-Land Numerical Information (Railway) 2007, MLIT Japan",
        "note:ja": "国土数値情報（鉄道データ）平成19年　国土交通省",
        "public_transport": "station",
        "railway": "station",
        "source": "KSJ2",
        "source_ref": "http://nlftp.mlit.go.jp/ksj/jpgis/datalist/KsjTmplt-N02-v1_1.html",
        "wikidata": "Q4791144",
        "wikipedia": "ja:有戸駅"
      }
    },
    {
      "id": "aomori_station_264222084",
      "osmId": 264222084,
      "osmType": "node",
      "prefectureId": "aomori",
      "type": "station",
      "subtype": "private",
      "name": "赤川",
      "nameKana": "あかがわ",
      "nameEn": "Akagawa",
      "operator": null,
      "network": null,
      "ref": null,
      "latitude": 41.2679458,
      "longitude": 141.2092635,
      "countryCode": "jp",
      "rawTags": {
        "KSJ2:LIN": "大湊線",
        "KSJ2:STN": "赤川",
        "name": "赤川",
        "name:en": "Akagawa",
        "name:ja": "赤川",
        "name:ja_kana": "あかがわ",
        "name:ja_rm": "Akagawa",
        "name:ko": "아카가와",
        "note": "National-Land Numerical Information (Railway) 2007, MLIT Japan",
        "note:ja": "国土数値情報（鉄道データ）平成19年　国土交通省",
        "public_transport": "station",
        "railway": "station",
        "source": "KSJ2",
        "source_ref": "http://nlftp.mlit.go.jp/ksj/jpgis/datalist/KsjTmplt-N02-v1_1.html",
        "wikidata": "Q4700139",
        "wikipedia": "ja:赤川駅"
      }
    },
    {
      "id": "aomori_station_264222152",
      "osmId": 264222152,
      "osmType": "node",
      "prefectureId": "aomori",
      "type": "station",
      "subtype": "private",
      "name": "近川",
      "nameKana": null,
      "nameEn": "Chikagawa",
      "operator": null,
      "network": null,
      "ref": null,
      "latitude": 41.1916065,
      "longitude": 141.2791747,
      "countryCode": "jp",
      "rawTags": {
        "KSJ2:LIN": "大湊線",
        "KSJ2:STN": "近川",
        "name": "近川",
        "name:en": "Chikagawa",
        "name:ja": "近川",
        "name:ja_rm": "Chikagawa",
        "name:ko": "지카가와",
        "note": "National-Land Numerical Information (Railway) 2007, MLIT Japan",
        "note:ja": "国土数値情報（鉄道データ）平成19年　国土交通省",
        "public_transport": "station",
        "railway": "station",
        "source": "KSJ2",
        "source_ref": "http://nlftp.mlit.go.jp/ksj/jpgis/datalist/KsjTmplt-N02-v1_1.html",
        "wikidata": "Q5097352",
        "wikipedia": "ja:近川駅"
      }
    },
    {
      "id": "aomori_station_264222627",
      "osmId": 264222627,
      "osmType": "node",
      "prefectureId": "aomori",
      "type": "station",
      "subtype": "private",
      "name": "吹越",
      "nameKana": null,
      "nameEn": "Fukkoshi",
      "operator": null,
      "network": null,
      "ref": null,
      "latitude": 41.0221752,
      "longitude": 141.2465754,
      "countryCode": "jp",
      "rawTags": {
        "KSJ2:LIN": "大湊線",
        "KSJ2:STN": "吹越",
        "name": "吹越",
        "name:en": "Fukkoshi",
        "name:ja": "吹越",
        "name:ja_rm": "Fukkoshi",
        "name:ko": "훗코시",
        "note": "National-Land Numerical Information (Railway) 2007, MLIT Japan",
        "note:ja": "国土数値情報（鉄道データ）平成19年　国土交通省",
        "public_transport": "station",
        "railway": "station",
        "source": "KSJ2",
        "source_ref": "http://nlftp.mlit.go.jp/ksj/jpgis/datalist/KsjTmplt-N02-v1_1.html",
        "wikidata": "Q5507606",
        "wikipedia": "ja:吹越駅"
      }
    },
    {
      "id": "aomori_station_264222828",
      "osmId": 264222828,
      "osmType": "node",
      "prefectureId": "aomori",
      "type": "station",
      "subtype": "private",
      "name": "有畑",
      "nameKana": null,
      "nameEn": "Arihata",
      "operator": null,
      "network": null,
      "ref": null,
      "latitude": 41.132216,
      "longitude": 141.276828,
      "countryCode": "jp",
      "rawTags": {
        "KSJ2:LIN": "大湊線",
        "KSJ2:STN": "有畑",
        "name": "有畑",
        "name:en": "Arihata",
        "name:ja": "有畑",
        "name:ja_rm": "Arihata",
        "name:ko": "아리하타",
        "note": "National-Land Numerical Information (Railway) 2007, MLIT Japan",
        "note:ja": "国土数値情報（鉄道データ）平成19年　国土交通省",
        "public_transport": "station",
        "railway": "station",
        "source": "KSJ2",
        "source_ref": "http://nlftp.mlit.go.jp/ksj/jpgis/datalist/KsjTmplt-N02-v1_1.html",
        "wikidata": "Q4790598",
        "wikipedia": "ja:有畑駅"
      }
    },
    {
      "id": "aomori_station_264222966",
      "osmId": 264222966,
      "osmType": "node",
      "prefectureId": "aomori",
      "type": "station",
      "subtype": "private",
      "name": "金谷沢",
      "nameKana": null,
      "nameEn": "Kanayasawa",
      "operator": null,
      "network": null,
      "ref": null,
      "latitude": 41.229304,
      "longitude": 141.248172,
      "countryCode": "jp",
      "rawTags": {
        "KSJ2:LIN": "大湊線",
        "KSJ2:STN": "金谷沢",
        "name": "金谷沢",
        "name:en": "Kanayasawa",
        "name:ja": "金谷沢",
        "name:ja_rm": "Kanayasawa",
        "name:ko": "가나야사와",
        "note": "National-Land Numerical Information (Railway) 2007, MLIT Japan",
        "note:ja": "国土数値情報（鉄道データ）平成19年　国土交通省",
        "public_transport": "station",
        "railway": "station",
        "source": "KSJ2",
        "source_ref": "http://nlftp.mlit.go.jp/ksj/jpgis/datalist/KsjTmplt-N02-v1_1.html",
        "wikidata": "Q6360862",
        "wikipedia": "ja:金谷沢駅"
      }
    },
    {
      "id": "aomori_station_264224666",
      "osmId": 264224666,
      "osmType": "node",
      "prefectureId": "aomori",
      "type": "station",
      "subtype": "private",
      "name": "鮫",
      "nameKana": null,
      "nameEn": "Same",
      "operator": null,
      "network": null,
      "ref": null,
      "latitude": 40.5306459,
      "longitude": 141.5553941,
      "countryCode": "jp",
      "rawTags": {
        "KSJ2:LIN": "八戸線",
        "KSJ2:STN": "鮫",
        "name": "鮫",
        "name:en": "Same",
        "name:ja": "鮫",
        "name:ja_rm": "Same",
        "name:ko": "사메",
        "note": "National-Land Numerical Information (Railway) 2007, MLIT Japan",
        "note:ja": "国土数値情報（鉄道データ）平成19年　国土交通省",
        "public_transport": "station",
        "railway": "station",
        "source": "KSJ2",
        "source_ref": "http://nlftp.mlit.go.jp/ksj/jpgis/datalist/KsjTmplt-N02-v1_1.html",
        "wikidata": "Q6378987",
        "wikipedia": "ja:鮫駅"
      }
    },
    {
      "id": "aomori_station_264224668",
      "osmId": 264224668,
      "osmType": "node",
      "prefectureId": "aomori",
      "type": "station",
      "subtype": "private",
      "name": "大久喜",
      "nameKana": null,
      "nameEn": "Okuki",
      "operator": null,
      "network": null,
      "ref": null,
      "latitude": 40.4947811,
      "longitude": 141.623437,
      "countryCode": "jp",
      "rawTags": {
        "KSJ2:LIN": "八戸線",
        "KSJ2:STN": "大久喜",
        "name": "大久喜",
        "name:en": "Okuki",
        "name:ja": "大久喜",
        "name:ja_rm": "Ōkuki",
        "name:ko": "오쿠키",
        "note": "National-Land Numerical Information (Railway) 2007, MLIT Japan",
        "note:ja": "国土数値情報（鉄道データ）平成19年　国土交通省",
        "public_transport": "station",
        "railway": "station",
        "source": "KSJ2",
        "source_ref": "http://nlftp.mlit.go.jp/ksj/jpgis/datalist/KsjTmplt-N02-v1_1.html",
        "wikidata": "Q6543357",
        "wikipedia": "ja:大久喜駅"
      }
    },
    {
      "id": "aomori_station_264224956",
      "osmId": 264224956,
      "osmType": "node",
      "prefectureId": "aomori",
      "type": "station",
      "subtype": "private",
      "name": "陸奥白浜",
      "nameKana": null,
      "nameEn": "Mutsu-Shirahama",
      "operator": null,
      "network": null,
      "ref": null,
      "latitude": 40.5165172,
      "longitude": 141.5926763,
      "countryCode": "jp",
      "rawTags": {
        "KSJ2:LIN": "八戸線",
        "KSJ2:STN": "陸奥白浜",
        "name": "陸奥白浜",
        "name:en": "Mutsu-Shirahama",
        "name:ja": "陸奥白浜",
        "name:ja_rm": "Mutsu-Shirahama",
        "name:ko": "무쓰시라하마",
        "note": "National-Land Numerical Information (Railway) 2007, MLIT Japan",
        "note:ja": "国土数値情報（鉄道データ）平成19年　国土交通省",
        "public_transport": "station",
        "railway": "station",
        "source": "KSJ2",
        "source_ref": "http://nlftp.mlit.go.jp/ksj/jpgis/datalist/KsjTmplt-N02-v1_1.html",
        "wikidata": "Q6944035",
        "wikipedia": "ja:陸奥白浜駅"
      }
    },
    {
      "id": "aomori_station_264225049",
      "osmId": 264225049,
      "osmType": "node",
      "prefectureId": "aomori",
      "type": "station",
      "subtype": "private",
      "name": "長苗代",
      "nameKana": null,
      "nameEn": "Naganawashiro",
      "operator": null,
      "network": null,
      "ref": null,
      "latitude": 40.5214187,
      "longitude": 141.4658712,
      "countryCode": "jp",
      "rawTags": {
        "KSJ2:LIN": "八戸線",
        "KSJ2:STN": "長苗代",
        "name": "長苗代",
        "name:en": "Naganawashiro",
        "name:ja": "長苗代",
        "name:ja_rm": "Naganawashiro",
        "name:ko": "나가나와시로",
        "note": "National-Land Numerical Information (Railway) 2007, MLIT Japan",
        "note:ja": "国土数値情報（鉄道データ）平成19年　国土交通省",
        "public_transport": "station",
        "railway": "station",
        "source": "KSJ2",
        "source_ref": "http://nlftp.mlit.go.jp/ksj/jpgis/datalist/KsjTmplt-N02-v1_1.html",
        "wikidata": "Q6393619",
        "wikipedia": "ja:長苗代駅"
      }
    },
    {
      "id": "aomori_station_264225103",
      "osmId": 264225103,
      "osmType": "node",
      "prefectureId": "aomori",
      "type": "station",
      "subtype": "private",
      "name": "階上",
      "nameKana": null,
      "nameEn": "Hashikami",
      "operator": null,
      "network": null,
      "ref": null,
      "latitude": 40.4564163,
      "longitude": 141.6654833,
      "countryCode": "jp",
      "rawTags": {
        "KSJ2:LIN": "八戸線",
        "KSJ2:STN": "階上",
        "name": "階上",
        "name:en": "Hashikami",
        "name:ja": "階上",
        "name:ja_rm": "Hashikami",
        "name:ko": "하시카미",
        "note": "National-Land Numerical Information (Railway) 2007, MLIT Japan",
        "note:ja": "国土数値情報（鉄道データ）平成19年　国土交通省",
        "public_transport": "station",
        "railway": "station",
        "source": "KSJ2",
        "source_ref": "http://nlftp.mlit.go.jp/ksj/jpgis/datalist/KsjTmplt-N02-v1_1.html",
        "wikidata": "Q6543378",
        "wikipedia": "ja:階上駅"
      }
    },
    {
      "id": "aomori_station_264225107",
      "osmId": 264225107,
      "osmType": "node",
      "prefectureId": "aomori",
      "type": "station",
      "subtype": "private",
      "name": "本八戸",
      "nameKana": null,
      "nameEn": "Hon-Hachinohe",
      "operator": null,
      "network": null,
      "ref": null,
      "latitude": 40.5162548,
      "longitude": 141.4888217,
      "countryCode": "jp",
      "rawTags": {
        "KSJ2:LIN": "八戸線",
        "KSJ2:STN": "本八戸",
        "name": "本八戸",
        "name:en": "Hon-Hachinohe",
        "name:ja": "本八戸",
        "name:ja_rm": "Hon-Hachinohe",
        "name:ko": "혼하치노헤",
        "note": "National-Land Numerical Information (Railway) 2007, MLIT Japan",
        "note:ja": "国土数値情報（鉄道データ）平成19年　国土交通省",
        "public_transport": "station",
        "railway": "station",
        "source": "KSJ2",
        "source_ref": "http://nlftp.mlit.go.jp/ksj/jpgis/datalist/KsjTmplt-N02-v1_1.html",
        "wikidata": "Q5891918",
        "wikipedia": "ja:本八戸駅"
      }
    },
    {
      "id": "aomori_station_264225152",
      "osmId": 264225152,
      "osmType": "node",
      "prefectureId": "aomori",
      "type": "station",
      "subtype": "private",
      "name": "小中野",
      "nameKana": null,
      "nameEn": "Konakano",
      "operator": null,
      "network": null,
      "ref": null,
      "latitude": 40.5187266,
      "longitude": 141.5102394,
      "countryCode": "jp",
      "rawTags": {
        "KSJ2:LIN": "八戸線",
        "KSJ2:STN": "小中野",
        "name": "小中野",
        "name:en": "Konakano",
        "name:ja": "小中野",
        "name:ja_rm": "Konakano",
        "name:ko": "고나카노",
        "note": "National-Land Numerical Information (Railway) 2007, MLIT Japan",
        "note:ja": "国土数値情報（鉄道データ）平成19年　国土交通省",
        "public_transport": "station",
        "railway": "station",
        "source": "KSJ2",
        "source_ref": "http://nlftp.mlit.go.jp/ksj/jpgis/datalist/KsjTmplt-N02-v1_1.html",
        "wikidata": "Q6393603",
        "wikipedia": "ja:小中野駅"
      }
    },
    {
      "id": "aomori_station_264225154",
      "osmId": 264225154,
      "osmType": "node",
      "prefectureId": "aomori",
      "type": "station",
      "subtype": "private",
      "name": "白銀",
      "nameKana": null,
      "nameEn": "Shirogane",
      "operator": null,
      "network": null,
      "ref": null,
      "latitude": 40.5220565,
      "longitude": 141.541828,
      "countryCode": "jp",
      "rawTags": {
        "KSJ2:LIN": "八戸線",
        "KSJ2:STN": "白銀",
        "name": "白銀",
        "name:en": "Shirogane",
        "name:ja": "白銀",
        "name:ja_rm": "Shirogane",
        "name:ko": "시로가네",
        "note": "National-Land Numerical Information (Railway) 2007, MLIT Japan",
        "note:ja": "国土数値情報（鉄道データ）平成19年　国土交通省",
        "public_transport": "station",
        "railway": "station",
        "source": "KSJ2",
        "source_ref": "http://nlftp.mlit.go.jp/ksj/jpgis/datalist/KsjTmplt-N02-v1_1.html",
        "wikidata": "Q6378968",
        "wikipedia": "ja:白銀駅"
      }
    },
    {
      "id": "aomori_station_264225268",
      "osmId": 264225268,
      "osmType": "node",
      "prefectureId": "aomori",
      "type": "station",
      "subtype": "private",
      "name": "金浜",
      "nameKana": null,
      "nameEn": "Kanehama",
      "operator": null,
      "network": null,
      "ref": null,
      "latitude": 40.476223,
      "longitude": 141.6370382,
      "countryCode": "jp",
      "rawTags": {
        "KSJ2:LIN": "八戸線",
        "KSJ2:STN": "金浜",
        "name": "金浜",
        "name:en": "Kanehama",
        "name:ja": "金浜",
        "name:ja_rm": "Kanehama",
        "name:ko": "가네하마",
        "note": "National-Land Numerical Information (Railway) 2007, MLIT Japan",
        "note:ja": "国土数値情報（鉄道データ）平成19年　国土交通省",
        "public_transport": "station",
        "railway": "station",
        "source": "KSJ2",
        "source_ref": "http://nlftp.mlit.go.jp/ksj/jpgis/datalist/KsjTmplt-N02-v1_1.html",
        "wikidata": "Q6543331",
        "wikipedia": "ja:金浜駅"
      }
    },
    {
      "id": "aomori_station_264225270",
      "osmId": 264225270,
      "osmType": "node",
      "prefectureId": "aomori",
      "type": "station",
      "subtype": "private",
      "name": "陸奥湊",
      "nameKana": null,
      "nameEn": "Mutsu-Minato",
      "operator": null,
      "network": null,
      "ref": null,
      "latitude": 40.5230771,
      "longitude": 141.5273194,
      "countryCode": "jp",
      "rawTags": {
        "KSJ2:LIN": "八戸線",
        "KSJ2:STN": "陸奥湊",
        "name": "陸奥湊",
        "name:en": "Mutsu-Minato",
        "name:ja": "陸奥湊",
        "name:ja_rm": "Mutsu-Minato",
        "name:ko": "무쓰미나토",
        "note": "National-Land Numerical Information (Railway) 2007, MLIT Japan",
        "note:ja": "国土数値情報（鉄道データ）平成19年　国土交通省",
        "public_transport": "station",
        "railway": "station",
        "source": "KSJ2",
        "source_ref": "http://nlftp.mlit.go.jp/ksj/jpgis/datalist/KsjTmplt-N02-v1_1.html",
        "wikidata": "Q6378996",
        "wikipedia": "ja:陸奥湊駅"
      }
    },
    {
      "id": "aomori_station_264225488",
      "osmId": 264225488,
      "osmType": "node",
      "prefectureId": "aomori",
      "type": "station",
      "subtype": "private",
      "name": "追良瀬",
      "nameKana": "おいらせ",
      "nameEn": "Oirase",
      "operator": null,
      "network": null,
      "ref": null,
      "latitude": 40.6861241,
      "longitude": 139.9704062,
      "countryCode": "jp",
      "rawTags": {
        "KSJ2:LIN": "五能線",
        "KSJ2:STN": "追良瀬",
        "name": "追良瀬",
        "name:en": "Oirase",
        "name:ja": "追良瀬",
        "name:ja_kana": "おいらせ",
        "name:ja_rm": "Oirase",
        "name:ko": "오이라세",
        "note": "National-Land Numerical Information (Railway) 2007, MLIT Japan",
        "note:ja": "国土数値情報（鉄道データ）平成19年　国土交通省",
        "public_transport": "station",
        "railway": "station",
        "source": "KSJ2",
        "source_ref": "http://nlftp.mlit.go.jp/ksj/jpgis/datalist/KsjTmplt-N02-v1_1.html",
        "wikidata": "Q7081521",
        "wikipedia": "ja:追良瀬駅"
      }
    },
    {
      "id": "aomori_station_264225492",
      "osmId": 264225492,
      "osmType": "node",
      "prefectureId": "aomori",
      "type": "station",
      "subtype": "private",
      "name": "大戸瀬",
      "nameKana": null,
      "nameEn": "Ōdose",
      "operator": null,
      "network": null,
      "ref": null,
      "latitude": 40.7597811,
      "longitude": 140.0340443,
      "countryCode": "jp",
      "rawTags": {
        "KSJ2:LIN": "五能線",
        "KSJ2:STN": "大戸瀬",
        "name": "大戸瀬",
        "name:en": "Ōdose",
        "name:ja": "大戸瀬",
        "name:ko": "오도세",
        "note": "National-Land Numerical Information (Railway) 2007, MLIT Japan",
        "note:ja": "国土数値情報（鉄道データ）平成19年　国土交通省",
        "public_transport": "station",
        "railway": "station",
        "source": "KSJ2",
        "source_ref": "http://nlftp.mlit.go.jp/ksj/jpgis/datalist/KsjTmplt-N02-v1_1.html",
        "wikidata": "Q8081442",
        "wikipedia": "ja:大戸瀬駅"
      }
    },
    {
      "id": "aomori_station_264225687",
      "osmId": 264225687,
      "osmType": "node",
      "prefectureId": "aomori",
      "type": "station",
      "subtype": "private",
      "name": "鰺ヶ沢",
      "nameKana": null,
      "nameEn": "Ajigasawa",
      "operator": null,
      "network": null,
      "ref": null,
      "latitude": 40.775478,
      "longitude": 140.2208595,
      "countryCode": "jp",
      "rawTags": {
        "KSJ2:LIN": "五能線",
        "KSJ2:STN": "鰺ヶ沢",
        "name": "鰺ヶ沢",
        "name:en": "Ajigasawa",
        "name:ja": "鰺ヶ沢",
        "name:ko": "아지가사와",
        "note": "National-Land Numerical Information (Railway) 2007, MLIT Japan",
        "note:ja": "国土数値情報（鉄道データ）平成19年　国土交通省",
        "railway": "station",
        "source": "KSJ2",
        "source_ref": "http://nlftp.mlit.go.jp/ksj/jpgis/datalist/KsjTmplt-N02-v1_1.html",
        "wikidata": "Q4699731",
        "wikipedia": "ja:鰺ケ沢駅"
      }
    },
    {
      "id": "aomori_station_264225713",
      "osmId": 264225713,
      "osmType": "node",
      "prefectureId": "aomori",
      "type": "station",
      "subtype": "private",
      "name": "陸奥赤石",
      "nameKana": null,
      "nameEn": "Mutsu-Akaishi",
      "operator": null,
      "network": null,
      "ref": null,
      "latitude": 40.762164,
      "longitude": 140.162814,
      "countryCode": "jp",
      "rawTags": {
        "KSJ2:LIN": "五能線",
        "KSJ2:STN": "陸奥赤石",
        "name": "陸奥赤石",
        "name:en": "Mutsu-Akaishi",
        "name:ja": "陸奥赤石",
        "name:ko": "무쓰아카이시",
        "note": "National-Land Numerical Information (Railway) 2007, MLIT Japan",
        "note:ja": "国土数値情報（鉄道データ）平成19年　国土交通省",
        "public_transport": "station",
        "railway": "station",
        "source": "KSJ2",
        "source_ref": "http://nlftp.mlit.go.jp/ksj/jpgis/datalist/KsjTmplt-N02-v1_1.html",
        "wikidata": "Q11658608",
        "wikipedia": "ja:陸奥赤石駅"
      }
    },
    {
      "id": "aomori_station_264225728",
      "osmId": 264225728,
      "osmType": "node",
      "prefectureId": "aomori",
      "type": "station",
      "subtype": "private",
      "name": "板柳",
      "nameKana": null,
      "nameEn": "Itayanagi",
      "operator": null,
      "network": null,
      "ref": null,
      "latitude": 40.6974388,
      "longitude": 140.4616109,
      "countryCode": "jp",
      "rawTags": {
        "KSJ2:LIN": "五能線",
        "KSJ2:STN": "板柳",
        "name": "板柳",
        "name:en": "Itayanagi",
        "name:ja": "板柳",
        "name:ko": "이타야나기",
        "note": "National-Land Numerical Information (Railway) 2007, MLIT Japan",
        "note:ja": "国土数値情報（鉄道データ）平成19年　国土交通省",
        "public_transport": "station",
        "railway": "station",
        "source": "KSJ2",
        "source_ref": "http://nlftp.mlit.go.jp/ksj/jpgis/datalist/KsjTmplt-N02-v1_1.html",
        "wikidata": "Q6094184",
        "wikipedia": "ja:板柳駅"
      }
    },
    {
      "id": "aomori_station_264225883",
      "osmId": 264225883,
      "osmType": "node",
      "prefectureId": "aomori",
      "type": "station",
      "subtype": "private",
      "name": "藤崎",
      "nameKana": "ふじさき",
      "nameEn": "Fujisaki",
      "operator": null,
      "network": null,
      "ref": null,
      "latitude": 40.6540867,
      "longitude": 140.4998012,
      "countryCode": "jp",
      "rawTags": {
        "KSJ2:LIN": "五能線",
        "KSJ2:STN": "藤崎",
        "name": "藤崎",
        "name:en": "Fujisaki",
        "name:ja": "藤崎",
        "name:ja-Hira": "ふじさき",
        "name:ko": "후지사키",
        "note": "National-Land Numerical Information (Railway) 2007, MLIT Japan",
        "note:ja": "国土数値情報（鉄道データ）平成19年　国土交通省",
        "public_transport": "station",
        "railway": "station",
        "source": "KSJ2",
        "source_ref": "http://nlftp.mlit.go.jp/ksj/jpgis/datalist/KsjTmplt-N02-v1_1.html",
        "wikidata": "Q5507474",
        "wikipedia": "ja:藤崎駅 (青森県)"
      }
    },
    {
      "id": "aomori_station_264225886",
      "osmId": 264225886,
      "osmType": "node",
      "prefectureId": "aomori",
      "type": "station",
      "subtype": "private",
      "name": "五所川原",
      "nameKana": "ごしょがわら",
      "nameEn": "Goshogawara",
      "operator": null,
      "network": null,
      "ref": null,
      "latitude": 40.8089316,
      "longitude": 140.4480325,
      "countryCode": "jp",
      "rawTags": {
        "KSJ2:LIN": "五能線",
        "KSJ2:STN": "五所川原",
        "name": "五所川原",
        "name:en": "Goshogawara",
        "name:ja": "五所川原",
        "name:ja_kana": "ごしょがわら",
        "name:ja_rm": "Goshogawara",
        "name:ko": "고쇼가와라",
        "note": "National-Land Numerical Information (Railway) 2007, MLIT Japan",
        "note:ja": "国土数値情報（鉄道データ）平成19年　国土交通省",
        "public_transport": "station",
        "railway": "station",
        "source": "KSJ2",
        "source_ref": "http://nlftp.mlit.go.jp/ksj/jpgis/datalist/KsjTmplt-N02-v1_1.html",
        "wikidata": "Q5587319",
        "wikipedia": "ja:五所川原駅"
      }
    },
    {
      "id": "aomori_station_264226195",
      "osmId": 264226195,
      "osmType": "node",
      "prefectureId": "aomori",
      "type": "station",
      "subtype": "private",
      "name": "種差海岸",
      "nameKana": null,
      "nameEn": "Tanesashi-Kaigan",
      "operator": null,
      "network": null,
      "ref": null,
      "latitude": 40.5070498,
      "longitude": 141.6072643,
      "countryCode": "jp",
      "rawTags": {
        "KSJ2:LIN": "八戸線",
        "KSJ2:STN": "種差海岸",
        "name": "種差海岸",
        "name:en": "Tanesashi-Kaigan",
        "name:ja": "種差海岸",
        "name:ja_rm": "Tanesashi-Kaigan",
        "name:ko": "다네사시카이간",
        "note": "National-Land Numerical Information (Railway) 2007, MLIT Japan",
        "note:ja": "国土数値情報（鉄道データ）平成19年　国土交通省",
        "public_transport": "station",
        "railway": "station",
        "source": "KSJ2",
        "source_ref": "http://nlftp.mlit.go.jp/ksj/jpgis/datalist/KsjTmplt-N02-v1_1.html",
        "wikidata": "Q6543173",
        "wikipedia": "ja:種差海岸駅"
      }
    },
    {
      "id": "aomori_station_264226240",
      "osmId": 264226240,
      "osmType": "node",
      "prefectureId": "aomori",
      "type": "station",
      "subtype": "private",
      "name": "中田",
      "nameKana": null,
      "nameEn": "Nakata",
      "operator": null,
      "network": null,
      "ref": null,
      "latitude": 40.7872729,
      "longitude": 140.364149,
      "countryCode": "jp",
      "rawTags": {
        "KSJ2:LIN": "五能線",
        "KSJ2:STN": "中田",
        "name": "中田",
        "name:en": "Nakata",
        "name:ja": "中田",
        "name:ko": "나카타",
        "note": "National-Land Numerical Information (Railway) 2007, MLIT Japan",
        "note:ja": "国土数値情報（鉄道データ）平成19年　国土交通省",
        "public_transport": "station",
        "railway": "station",
        "source": "KSJ2",
        "source_ref": "http://nlftp.mlit.go.jp/ksj/jpgis/datalist/KsjTmplt-N02-v1_1.html",
        "wikidata": "Q6960342",
        "wikipedia": "ja:中田駅 (青森県)"
      }
    },
    {
      "id": "aomori_station_264226244",
      "osmId": 264226244,
      "osmType": "node",
      "prefectureId": "aomori",
      "type": "station",
      "subtype": "private",
      "name": "越水",
      "nameKana": null,
      "nameEn": "Koshimizu",
      "operator": null,
      "network": null,
      "ref": null,
      "latitude": 40.7873575,
      "longitude": 140.2978654,
      "countryCode": "jp",
      "rawTags": {
        "KSJ2:LIN": "五能線",
        "KSJ2:STN": "越水",
        "name": "越水",
        "name:en": "Koshimizu",
        "name:ja": "越水",
        "name:ko": "고시미즈",
        "note": "National-Land Numerical Information (Railway) 2007, MLIT Japan",
        "note:ja": "国土数値情報（鉄道データ）平成19年　国土交通省",
        "public_transport": "station",
        "railway": "station",
        "source": "KSJ2",
        "source_ref": "http://nlftp.mlit.go.jp/ksj/jpgis/datalist/KsjTmplt-N02-v1_1.html",
        "wikidata": "Q6433130",
        "wikipedia": "ja:越水駅"
      }
    },
    {
      "id": "aomori_station_264226395",
      "osmId": 264226395,
      "osmType": "node",
      "prefectureId": "aomori",
      "type": "station",
      "subtype": "private",
      "name": "木造",
      "nameKana": null,
      "nameEn": "Kizukuri",
      "operator": null,
      "network": null,
      "ref": null,
      "latitude": 40.802565,
      "longitude": 140.388475,
      "countryCode": "jp",
      "rawTags": {
        "KSJ2:LIN": "五能線",
        "KSJ2:STN": "木造",
        "name": "木造",
        "name:en": "Kizukuri",
        "name:ja": "木造",
        "name:ko": "기즈쿠리",
        "note": "National-Land Numerical Information (Railway) 2007, MLIT Japan",
        "note:ja": "国土数値情報（鉄道データ）平成19年　国土交通省",
        "public_transport": "station",
        "railway": "station",
        "source": "KSJ2",
        "source_ref": "http://nlftp.mlit.go.jp/ksj/jpgis/datalist/KsjTmplt-N02-v1_1.html",
        "wikidata": "Q11519398",
        "wikipedia": "ja:木造駅"
      }
    },
    {
      "id": "aomori_station_264226424",
      "osmId": 264226424,
      "osmType": "node",
      "prefectureId": "aomori",
      "type": "station",
      "subtype": "private",
      "name": "風合瀬",
      "nameKana": null,
      "nameEn": "Kasose",
      "operator": null,
      "network": null,
      "ref": null,
      "latitude": 40.7318298,
      "longitude": 139.9945608,
      "countryCode": "jp",
      "rawTags": {
        "KSJ2:LIN": "五能線",
        "KSJ2:STN": "風合瀬",
        "name": "風合瀬",
        "name:en": "Kasose",
        "name:ja": "風合瀬",
        "name:ko": "가소세",
        "note": "National-Land Numerical Information (Railway) 2007, MLIT Japan",
        "note:ja": "国土数値情報（鉄道データ）平成19年　国土交通省",
        "public_transport": "station",
        "railway": "station",
        "source": "KSJ2",
        "source_ref": "http://nlftp.mlit.go.jp/ksj/jpgis/datalist/KsjTmplt-N02-v1_1.html",
        "wikidata": "Q6374623",
        "wikipedia": "ja:風合瀬駅"
      }
    },
    {
      "id": "aomori_station_264226488",
      "osmId": 264226488,
      "osmType": "node",
      "prefectureId": "aomori",
      "type": "station",
      "subtype": "private",
      "name": "北金ヶ沢",
      "nameKana": null,
      "nameEn": "Kita-Kanegasawa",
      "operator": null,
      "network": null,
      "ref": null,
      "latitude": 40.7458106,
      "longitude": 140.0955488,
      "countryCode": "jp",
      "rawTags": {
        "KSJ2:LIN": "五能線",
        "KSJ2:STN": "北金ヶ沢",
        "name": "北金ヶ沢",
        "name:en": "Kita-Kanegasawa",
        "name:ja": "北金ヶ沢",
        "name:ko": "기타카네가사와",
        "note": "National-Land Numerical Information (Railway) 2007, MLIT Japan",
        "note:ja": "国土数値情報（鉄道データ）平成19年　国土交通省",
        "public_transport": "station",
        "railway": "station",
        "source": "KSJ2",
        "source_ref": "http://nlftp.mlit.go.jp/ksj/jpgis/datalist/KsjTmplt-N02-v1_1.html",
        "wikidata": "Q6417555",
        "wikipedia": "ja:北金ケ沢駅"
      }
    },
    {
      "id": "aomori_station_264226665",
      "osmId": 264226665,
      "osmType": "node",
      "prefectureId": "aomori",
      "type": "station",
      "subtype": "private",
      "name": "鶴泊",
      "nameKana": null,
      "nameEn": "Tsurudomari",
      "operator": null,
      "network": null,
      "ref": null,
      "latitude": 40.7365993,
      "longitude": 140.4373796,
      "countryCode": "jp",
      "rawTags": {
        "KSJ2:LIN": "五能線",
        "KSJ2:STN": "鶴泊",
        "name": "鶴泊",
        "name:en": "Tsurudomari",
        "name:ja": "鶴泊",
        "name:ko": "쓰루도마리",
        "note": "National-Land Numerical Information (Railway) 2007, MLIT Japan",
        "note:ja": "国土数値情報（鉄道データ）平成19年　国土交通省",
        "public_transport": "station",
        "railway": "station",
        "source": "KSJ2",
        "source_ref": "http://nlftp.mlit.go.jp/ksj/jpgis/datalist/KsjTmplt-N02-v1_1.html",
        "wikidata": "Q7850261",
        "wikipedia": "ja:鶴泊駅"
      }
    },
    {
      "id": "aomori_station_264226725",
      "osmId": 264226725,
      "osmType": "node",
      "prefectureId": "aomori",
      "type": "station",
      "subtype": "private",
      "name": "千畳敷",
      "nameKana": null,
      "nameEn": "Senjōjiki",
      "operator": null,
      "network": null,
      "ref": null,
      "latitude": 40.7679416,
      "longitude": 140.0551245,
      "countryCode": "jp",
      "rawTags": {
        "KSJ2:LIN": "五能線",
        "KSJ2:STN": "千畳敷",
        "name": "千畳敷",
        "name:en": "Senjōjiki",
        "name:ja": "千畳敷",
        "name:ko": "센조지키",
        "note": "National-Land Numerical Information (Railway) 2007, MLIT Japan",
        "note:ja": "国土数値情報（鉄道データ）平成19年　国土交通省",
        "public_transport": "station",
        "railway": "station",
        "source": "KSJ2",
        "source_ref": "http://nlftp.mlit.go.jp/ksj/jpgis/datalist/KsjTmplt-N02-v1_1.html",
        "train": "yes",
        "wikidata": "Q11405761",
        "wikipedia": "ja:千畳敷駅 (青森県)"
      }
    },
    {
      "id": "aomori_station_264227159",
      "osmId": 264227159,
      "osmType": "node",
      "prefectureId": "aomori",
      "type": "station",
      "subtype": "private",
      "name": "林崎",
      "nameKana": null,
      "nameEn": "Hayashzaki",
      "operator": null,
      "network": null,
      "ref": null,
      "latitude": 40.6751643,
      "longitude": 140.4806331,
      "countryCode": "jp",
      "rawTags": {
        "KSJ2:LIN": "五能線",
        "KSJ2:STN": "林崎",
        "name": "林崎",
        "name:en": "Hayashzaki",
        "name:ja": "林崎",
        "name:ko": "하야시자키",
        "note": "National-Land Numerical Information (Railway) 2007, MLIT Japan",
        "note:ja": "国土数値情報（鉄道データ）平成19年　国土交通省",
        "public_transport": "station",
        "railway": "station",
        "source": "KSJ2",
        "source_ref": "http://nlftp.mlit.go.jp/ksj/jpgis/datalist/KsjTmplt-N02-v1_1.html",
        "wikidata": "Q5686071",
        "wikipedia": "ja:林崎駅"
      }
    },
    {
      "id": "aomori_station_264227349",
      "osmId": 264227349,
      "osmType": "node",
      "prefectureId": "aomori",
      "type": "station",
      "subtype": "private",
      "name": "陸奥森田",
      "nameKana": null,
      "nameEn": "Mutsu-Morita",
      "operator": null,
      "network": null,
      "ref": null,
      "latitude": 40.7817786,
      "longitude": 140.3384754,
      "countryCode": "jp",
      "rawTags": {
        "KSJ2:LIN": "五能線",
        "KSJ2:STN": "陸奥森田",
        "name": "陸奥森田",
        "name:en": "Mutsu-Morita",
        "name:ja": "陸奥森田",
        "name:ko": "무쓰모리타",
        "note": "National-Land Numerical Information (Railway) 2007, MLIT Japan",
        "note:ja": "国土数値情報（鉄道データ）平成19年　国土交通省",
        "public_transport": "station",
        "railway": "station",
        "source": "KSJ2",
        "source_ref": "http://nlftp.mlit.go.jp/ksj/jpgis/datalist/KsjTmplt-N02-v1_1.html",
        "wikidata": "Q6944025",
        "wikipedia": "ja:陸奥森田駅"
      }
    },
    {
      "id": "aomori_station_264227357",
      "osmId": 264227357,
      "osmType": "node",
      "prefectureId": "aomori",
      "type": "station",
      "subtype": "private",
      "name": "陸奥柳田",
      "nameKana": null,
      "nameEn": "Mutsu-Yanagita",
      "operator": null,
      "network": null,
      "ref": null,
      "latitude": 40.7411591,
      "longitude": 140.1250127,
      "countryCode": "jp",
      "rawTags": {
        "KSJ2:LIN": "五能線",
        "KSJ2:STN": "陸奥柳田",
        "name": "陸奥柳田",
        "name:en": "Mutsu-Yanagita",
        "name:ja": "陸奥柳田",
        "name:ko": "무쓰야나기타",
        "note": "National-Land Numerical Information (Railway) 2007, MLIT Japan",
        "note:ja": "国土数値情報（鉄道データ）平成19年　国土交通省",
        "public_transport": "station",
        "railway": "station",
        "source": "KSJ2",
        "source_ref": "http://nlftp.mlit.go.jp/ksj/jpgis/datalist/KsjTmplt-N02-v1_1.html",
        "wikidata": "Q11658602",
        "wikipedia": "ja:陸奥柳田駅"
      }
    },
    {
      "id": "aomori_station_264227359",
      "osmId": 264227359,
      "osmType": "node",
      "prefectureId": "aomori",
      "type": "station",
      "subtype": "private",
      "name": "驫木",
      "nameKana": "とどろき",
      "nameEn": "Todoroki",
      "operator": null,
      "network": null,
      "ref": null,
      "latitude": 40.7073745,
      "longitude": 139.9832248,
      "countryCode": "jp",
      "rawTags": {
        "KSJ2:LIN": "五能線",
        "KSJ2:STN": "驫木",
        "name": "驫木",
        "name:en": "Todoroki",
        "name:ja": "驫木",
        "name:ja_kana": "とどろき",
        "name:ja_rm": "Todoroki",
        "name:ko": "도도로키",
        "note": "National-Land Numerical Information (Railway) 2007, MLIT Japan",
        "note:ja": "国土数値情報（鉄道データ）平成19年　国土交通省",
        "public_transport": "station",
        "railway": "station",
        "source": "KSJ2",
        "source_ref": "http://nlftp.mlit.go.jp/ksj/jpgis/datalist/KsjTmplt-N02-v1_1.html",
        "wikidata": "Q7812853",
        "wikipedia": "ja:驫木駅"
      }
    },
    {
      "id": "aomori_station_264227484",
      "osmId": 264227484,
      "osmType": "node",
      "prefectureId": "aomori",
      "type": "station",
      "subtype": "private",
      "name": "白神岳登山口",
      "nameKana": null,
      "nameEn": "Shirakamidaketozanguchi",
      "operator": null,
      "network": null,
      "ref": null,
      "latitude": 40.512981,
      "longitude": 139.9503412,
      "countryCode": "jp",
      "rawTags": {
        "KSJ2:LIN": "五能線",
        "KSJ2:STN": "白神岳登山口",
        "name": "白神岳登山口",
        "name:en": "Shirakamidaketozanguchi",
        "name:ja": "白神岳登山口",
        "name:ko": "시라카미다케토잔구치",
        "note": "National-Land Numerical Information (Railway) 2007, MLIT Japan",
        "note:ja": "国土数値情報（鉄道データ）平成19年　国土交通省",
        "public_transport": "station",
        "railway": "station",
        "source": "KSJ2",
        "source_ref": "http://nlftp.mlit.go.jp/ksj/jpgis/datalist/KsjTmplt-N02-v1_1.html",
        "wikidata": "Q7498243",
        "wikipedia": "ja:白神岳登山口駅"
      }
    },
    {
      "id": "aomori_station_264227559",
      "osmId": 264227559,
      "osmType": "node",
      "prefectureId": "aomori",
      "type": "station",
      "subtype": "private",
      "name": "十二湖",
      "nameKana": null,
      "nameEn": "Jūniko",
      "operator": null,
      "network": null,
      "ref": null,
      "latitude": 40.5515624,
      "longitude": 139.9422281,
      "countryCode": "jp",
      "rawTags": {
        "KSJ2:LIN": "五能線",
        "KSJ2:STN": "十二湖",
        "name": "十二湖",
        "name:en": "Jūniko",
        "name:ja": "十二湖",
        "name:ko": "주니코",
        "note": "National-Land Numerical Information (Railway) 2007, MLIT Japan",
        "note:ja": "国土数値情報（鉄道データ）平成19年　国土交通省",
        "public_transport": "station",
        "railway": "station",
        "source": "KSJ2",
        "source_ref": "http://nlftp.mlit.go.jp/ksj/jpgis/datalist/KsjTmplt-N02-v1_1.html",
        "wikidata": "Q6322342",
        "wikipedia": "ja:十二湖駅"
      }
    },
    {
      "id": "aomori_station_264227563",
      "osmId": 264227563,
      "osmType": "node",
      "prefectureId": "aomori",
      "type": "station",
      "subtype": "private",
      "name": "艫作",
      "nameKana": "へなし",
      "nameEn": "Henashi",
      "operator": null,
      "network": null,
      "ref": null,
      "latitude": 40.6082019,
      "longitude": 139.8645962,
      "countryCode": "jp",
      "rawTags": {
        "KSJ2:LIN": "五能線",
        "KSJ2:STN": "艫作",
        "name": "艫作",
        "name:en": "Henashi",
        "name:ja": "艫作",
        "name:ja_kana": "へなし",
        "name:ja_rm": "Henashi",
        "name:ko": "헤나시",
        "note": "National-Land Numerical Information (Railway) 2007, MLIT Japan",
        "note:ja": "国土数値情報（鉄道データ）平成19年　国土交通省",
        "public_transport": "station",
        "railway": "station",
        "source": "KSJ2",
        "source_ref": "http://nlftp.mlit.go.jp/ksj/jpgis/datalist/KsjTmplt-N02-v1_1.html",
        "wikidata": "Q5713066",
        "wikipedia": "ja:艫作駅"
      }
    },
    {
      "id": "aomori_station_264227648",
      "osmId": 264227648,
      "osmType": "node",
      "prefectureId": "aomori",
      "type": "station",
      "subtype": "private",
      "name": "ウェスパ椿山",
      "nameKana": "ウェスパつばきやま",
      "nameEn": "WeSPa-Tsubakiyama",
      "operator": null,
      "network": null,
      "ref": null,
      "latitude": 40.5933058,
      "longitude": 139.871245,
      "countryCode": "jp",
      "rawTags": {
        "KSJ2:LIN": "五能線",
        "KSJ2:STN": "ウェスパ椿山",
        "name": "ウェスパ椿山",
        "name:en": "WeSPa-Tsubakiyama",
        "name:ja": "ウェスパ椿山",
        "name:ja_kana": "ウェスパつばきやま",
        "name:ko": "웨스파쓰바키야마",
        "note": "National-Land Numerical Information (Railway) 2007, MLIT Japan",
        "note:ja": "国土数値情報（鉄道データ）平成19年　国土交通省",
        "public_transport": "station",
        "railway": "station",
        "source": "KSJ2",
        "source_ref": "http://nlftp.mlit.go.jp/ksj/jpgis/datalist/KsjTmplt-N02-v1_1.html",
        "wikidata": "Q7977214",
        "wikipedia": "ja:ウェスパ椿山駅"
      }
    },
    {
      "id": "aomori_station_264227686",
      "osmId": 264227686,
      "osmType": "node",
      "prefectureId": "aomori",
      "type": "station",
      "subtype": "private",
      "name": "大間越",
      "nameKana": null,
      "nameEn": "Ōmagoshi",
      "operator": null,
      "network": null,
      "ref": null,
      "latitude": 40.4924738,
      "longitude": 139.9501457,
      "countryCode": "jp",
      "rawTags": {
        "KSJ2:LIN": "五能線",
        "KSJ2:STN": "大間越",
        "name": "大間越",
        "name:en": "Ōmagoshi",
        "name:ja": "大間越",
        "name:ko": "오마고시",
        "note": "National-Land Numerical Information (Railway) 2007, MLIT Japan",
        "note:ja": "国土数値情報（鉄道データ）平成19年　国土交通省",
        "public_transport": "station",
        "railway": "station",
        "source": "KSJ2",
        "source_ref": "http://nlftp.mlit.go.jp/ksj/jpgis/datalist/KsjTmplt-N02-v1_1.html",
        "wikidata": "Q8081604",
        "wikipedia": "ja:大間越駅"
      }
    },
    {
      "id": "aomori_station_264227688",
      "osmId": 264227688,
      "osmType": "node",
      "prefectureId": "aomori",
      "type": "station",
      "subtype": "private",
      "name": "松神",
      "nameKana": null,
      "nameEn": "Matsukami",
      "operator": null,
      "network": null,
      "ref": null,
      "latitude": 40.5347511,
      "longitude": 139.946761,
      "countryCode": "jp",
      "rawTags": {
        "KSJ2:LIN": "五能線",
        "KSJ2:STN": "松神",
        "name": "松神",
        "name:en": "Matsukami",
        "name:ja": "松神",
        "name:ko": "마쓰카미",
        "note": "National-Land Numerical Information (Railway) 2007, MLIT Japan",
        "note:ja": "国土数値情報（鉄道データ）平成19年　国土交通省",
        "public_transport": "station",
        "railway": "station",
        "source": "KSJ2",
        "source_ref": "http://nlftp.mlit.go.jp/ksj/jpgis/datalist/KsjTmplt-N02-v1_1.html",
        "wikidata": "Q6788107",
        "wikipedia": "ja:松神駅"
      }
    },
    {
      "id": "aomori_station_264227789",
      "osmId": 264227789,
      "osmType": "node",
      "prefectureId": "aomori",
      "type": "station",
      "subtype": "private",
      "name": "横磯",
      "nameKana": null,
      "nameEn": "Yokoiso",
      "operator": null,
      "network": null,
      "ref": null,
      "latitude": 40.6300899,
      "longitude": 139.8913309,
      "countryCode": "jp",
      "rawTags": {
        "KSJ2:LIN": "五能線",
        "KSJ2:STN": "横磯",
        "name": "横磯",
        "name:en": "Yokoiso",
        "name:ja": "横磯",
        "name:ko": "요코이소",
        "note": "National-Land Numerical Information (Railway) 2007, MLIT Japan",
        "note:ja": "国土数値情報（鉄道データ）平成19年　国土交通省",
        "public_transport": "station",
        "railway": "station",
        "source": "KSJ2",
        "source_ref": "http://nlftp.mlit.go.jp/ksj/jpgis/datalist/KsjTmplt-N02-v1_1.html",
        "wikidata": "Q8054652",
        "wikipedia": "ja:横磯駅"
      }
    },
    {
      "id": "aomori_station_264227791",
      "osmId": 264227791,
      "osmType": "node",
      "prefectureId": "aomori",
      "type": "station",
      "subtype": "private",
      "name": "陸奥沢辺",
      "nameKana": null,
      "nameEn": "Mutsu-Sawabe",
      "operator": null,
      "network": null,
      "ref": null,
      "latitude": 40.586154,
      "longitude": 139.8954495,
      "countryCode": "jp",
      "rawTags": {
        "KSJ2:LIN": "五能線",
        "KSJ2:STN": "陸奥沢辺",
        "name": "陸奥沢辺",
        "name:en": "Mutsu-Sawabe",
        "name:ja": "陸奥沢辺",
        "name:ko": "무쓰사와베",
        "note": "National-Land Numerical Information (Railway) 2007, MLIT Japan",
        "note:ja": "国土数値情報（鉄道データ）平成19年　国土交通省",
        "public_transport": "station",
        "railway": "station",
        "source": "KSJ2",
        "source_ref": "http://nlftp.mlit.go.jp/ksj/jpgis/datalist/KsjTmplt-N02-v1_1.html",
        "wikidata": "Q6944026",
        "wikipedia": "ja:陸奥沢辺駅"
      }
    },
    {
      "id": "aomori_station_264228069",
      "osmId": 264228069,
      "osmType": "node",
      "prefectureId": "aomori",
      "type": "station",
      "subtype": "private",
      "name": "陸奥岩崎",
      "nameKana": null,
      "nameEn": "Mutsu-Iwasaki",
      "operator": null,
      "network": null,
      "ref": null,
      "latitude": 40.5831185,
      "longitude": 139.9244996,
      "countryCode": "jp",
      "rawTags": {
        "KSJ2:LIN": "五能線",
        "KSJ2:STN": "陸奥岩崎",
        "name": "陸奥岩崎",
        "name:en": "Mutsu-Iwasaki",
        "name:ja": "陸奥岩崎",
        "name:ko": "무쓰이와사키",
        "note": "National-Land Numerical Information (Railway) 2007, MLIT Japan",
        "note:ja": "国土数値情報（鉄道データ）平成19年　国土交通省",
        "public_transport": "station",
        "railway": "station",
        "source": "KSJ2",
        "source_ref": "http://nlftp.mlit.go.jp/ksj/jpgis/datalist/KsjTmplt-N02-v1_1.html",
        "wikidata": "Q6944024",
        "wikipedia": "ja:陸奥岩崎駅"
      }
    },
    {
      "id": "aomori_station_264461805",
      "osmId": 264461805,
      "osmType": "node",
      "prefectureId": "aomori",
      "type": "station",
      "subtype": "private",
      "name": "小栗山",
      "nameKana": null,
      "nameEn": "Koguriyama",
      "operator": "弘南鉄道",
      "network": "弘南鉄道大鰐線",
      "ref": null,
      "latitude": 40.5643684,
      "longitude": 140.4863414,
      "countryCode": "jp",
      "rawTags": {
        "KSJ2:LIN": "大鰐線",
        "KSJ2:STN": "小栗山",
        "name": "小栗山",
        "name:en": "Koguriyama",
        "name:ja": "小栗山",
        "name:ko": "고구리야마",
        "network": "弘南鉄道大鰐線",
        "note": "National-Land Numerical Information (Railway) 2007, MLIT Japan",
        "note:ja": "国土数値情報（鉄道データ）平成19年　国土交通省",
        "operator": "弘南鉄道",
        "public_transport": "stop_position",
        "railway": "station",
        "source": "KSJ2",
        "source_ref": "http://nlftp.mlit.go.jp/ksj/jpgis/datalist/KsjTmplt-N02-v1_1.html",
        "train": "yes",
        "wikidata": "Q6425828",
        "wikipedia": "ja:小栗山駅"
      }
    },
    {
      "id": "aomori_station_264461817",
      "osmId": 264461817,
      "osmType": "node",
      "prefectureId": "aomori",
      "type": "station",
      "subtype": "private",
      "name": "義塾高校前",
      "nameKana": null,
      "nameEn": "Gijukukōkōmae",
      "operator": "弘南鉄道",
      "network": "弘南鉄道大鰐線",
      "ref": null,
      "latitude": 40.5557908,
      "longitude": 140.5276294,
      "countryCode": "jp",
      "rawTags": {
        "KSJ2:LIN": "大鰐線",
        "KSJ2:STN": "義塾高校前",
        "alt_name:ko": "기주쿠코코마에",
        "name": "義塾高校前",
        "name:en": "Gijukukōkōmae",
        "name:ja": "義塾高校前",
        "name:ko": "기주쿠고교앞",
        "network": "弘南鉄道大鰐線",
        "note": "National-Land Numerical Information (Railway) 2007, MLIT Japan",
        "note:ja": "国土数値情報（鉄道データ）平成19年　国土交通省",
        "operator": "弘南鉄道",
        "public_transport": "stop_position",
        "railway": "station",
        "source": "KSJ2",
        "source_ref": "http://nlftp.mlit.go.jp/ksj/jpgis/datalist/KsjTmplt-N02-v1_1.html",
        "train": "yes",
        "wikidata": "Q5560420",
        "wikipedia": "ja:義塾高校前駅"
      }
    },
    {
      "id": "aomori_station_264461875",
      "osmId": 264461875,
      "osmType": "node",
      "prefectureId": "aomori",
      "type": "station",
      "subtype": "private",
      "name": "鯖石",
      "nameKana": null,
      "nameEn": "Sabaishi",
      "operator": "弘南鉄道",
      "network": "弘南鉄道大鰐線",
      "ref": null,
      "latitude": 40.5356712,
      "longitude": 140.552748,
      "countryCode": "jp",
      "rawTags": {
        "KSJ2:LIN": "大鰐線",
        "KSJ2:STN": "鯖石",
        "name": "鯖石",
        "name:en": "Sabaishi",
        "name:ja": "鯖石",
        "name:ko": "사바이시",
        "network": "弘南鉄道大鰐線",
        "note": "National-Land Numerical Information (Railway) 2007, MLIT Japan",
        "note:ja": "国土数値情報（鉄道データ）平成19年　国土交通省",
        "operator": "弘南鉄道",
        "public_transport": "stop_position",
        "railway": "station",
        "source": "KSJ2",
        "source_ref": "http://nlftp.mlit.go.jp/ksj/jpgis/datalist/KsjTmplt-N02-v1_1.html",
        "train": "yes",
        "wikidata": "Q7395852",
        "wikipedia": "ja:鯖石駅"
      }
    },
    {
      "id": "aomori_station_264461890",
      "osmId": 264461890,
      "osmType": "node",
      "prefectureId": "aomori",
      "type": "station",
      "subtype": "private",
      "name": "宿川原",
      "nameKana": null,
      "nameEn": "Shukugawara",
      "operator": "弘南鉄道",
      "network": "弘南鉄道大鰐線",
      "ref": null,
      "latitude": 40.525061,
      "longitude": 140.5576756,
      "countryCode": "jp",
      "rawTags": {
        "KSJ2:LIN": "大鰐線",
        "KSJ2:STN": "宿川原",
        "name": "宿川原",
        "name:en": "Shukugawara",
        "name:ja": "宿川原",
        "name:ko": "슈쿠가와라",
        "network": "弘南鉄道大鰐線",
        "note": "National-Land Numerical Information (Railway) 2007, MLIT Japan",
        "note:ja": "国土数値情報（鉄道データ）平成19年　国土交通省",
        "operator": "弘南鉄道",
        "public_transport": "stop_position",
        "railway": "station",
        "source": "KSJ2",
        "source_ref": "http://nlftp.mlit.go.jp/ksj/jpgis/datalist/KsjTmplt-N02-v1_1.html",
        "train": "yes",
        "wikidata": "Q7504865",
        "wikipedia": "ja:宿川原駅"
      }
    },
    {
      "id": "aomori_station_264461931",
      "osmId": 264461931,
      "osmType": "node",
      "prefectureId": "aomori",
      "type": "station",
      "subtype": "private",
      "name": "津軽大沢",
      "nameKana": null,
      "nameEn": "Tsugaru-Ōsawa",
      "operator": "弘南鉄道",
      "network": "弘南鉄道大鰐線",
      "ref": null,
      "latitude": 40.5579188,
      "longitude": 140.5163177,
      "countryCode": "jp",
      "rawTags": {
        "KSJ2:LIN": "大鰐線",
        "KSJ2:STN": "津軽大沢",
        "name": "津軽大沢",
        "name:en": "Tsugaru-Ōsawa",
        "name:ja": "津軽大沢",
        "name:ko": "쓰가루오사와",
        "network": "弘南鉄道大鰐線",
        "note": "National-Land Numerical Information (Railway) 2007, MLIT Japan",
        "note:ja": "国土数値情報（鉄道データ）平成19年　国土交通省",
        "operator": "弘南鉄道",
        "public_transport": "stop_position",
        "railway": "station",
        "source": "KSJ2",
        "source_ref": "http://nlftp.mlit.go.jp/ksj/jpgis/datalist/KsjTmplt-N02-v1_1.html",
        "train": "yes",
        "wikidata": "Q7849966",
        "wikipedia": "ja:津軽大沢駅"
      }
    },
    {
      "id": "aomori_station_264461933",
      "osmId": 264461933,
      "osmType": "node",
      "prefectureId": "aomori",
      "type": "station",
      "subtype": "private",
      "name": "聖愛中高前",
      "nameKana": null,
      "nameEn": "Seiaichūkōmae",
      "operator": "弘南鉄道",
      "network": "弘南鉄道大鰐線",
      "ref": null,
      "latitude": 40.576923,
      "longitude": 140.472782,
      "countryCode": "jp",
      "rawTags": {
        "KSJ2:LIN": "大鰐線",
        "KSJ2:STN": "城南",
        "name": "聖愛中高前",
        "name:en": "Seiaichūkōmae",
        "name:ja": "聖愛中高前",
        "name:ko": "세이아이추코마에",
        "network": "弘南鉄道大鰐線",
        "note": "National-Land Numerical Information (Railway) 2007, MLIT Japan",
        "note:ja": "国土数値情報（鉄道データ）平成19年　国土交通省",
        "operator": "弘南鉄道",
        "public_transport": "stop_position",
        "railway": "station",
        "source": "KSJ2",
        "source_ref": "http://nlftp.mlit.go.jp/ksj/jpgis/datalist/KsjTmplt-N02-v1_1.html",
        "train": "yes",
        "wikidata": "Q7446561",
        "wikipedia": "ja:聖愛中高前駅"
      }
    },
    {
      "id": "aomori_station_264461969",
      "osmId": 264461969,
      "osmType": "node",
      "prefectureId": "aomori",
      "type": "station",
      "subtype": "private",
      "name": "石川プール前",
      "nameKana": null,
      "nameEn": "Ishikawapūrumae",
      "operator": "弘南鉄道",
      "network": "弘南鉄道大鰐線",
      "ref": null,
      "latitude": 40.5431741,
      "longitude": 140.5504352,
      "countryCode": "jp",
      "rawTags": {
        "KSJ2:LIN": "大鰐線",
        "KSJ2:STN": "石川プール前",
        "alt_name:ko": "이시카와푸루마에",
        "name": "石川プール前",
        "name:en": "Ishikawapūrumae",
        "name:ja": "石川プール前",
        "name:ko": "이시카와풀앞",
        "network": "弘南鉄道大鰐線",
        "note": "National-Land Numerical Information (Railway) 2007, MLIT Japan",
        "note:ja": "国土数値情報（鉄道データ）平成19年　国土交通省",
        "operator": "弘南鉄道",
        "public_transport": "stop_position",
        "railway": "station",
        "source": "KSJ2",
        "source_ref": "http://nlftp.mlit.go.jp/ksj/jpgis/datalist/KsjTmplt-N02-v1_1.html",
        "train": "yes",
        "wikidata": "Q6080260",
        "wikipedia": "ja:石川プール前駅"
      }
    },
    {
      "id": "aomori_station_264462035",
      "osmId": 264462035,
      "osmType": "node",
      "prefectureId": "aomori",
      "type": "station",
      "subtype": "private",
      "name": "石川",
      "nameKana": null,
      "nameEn": "Ishikawa",
      "operator": "弘南鉄道",
      "network": "弘南鉄道大鰐線",
      "ref": null,
      "latitude": 40.5509406,
      "longitude": 140.5413931,
      "countryCode": "jp",
      "rawTags": {
        "KSJ2:LIN": "大鰐線",
        "KSJ2:STN": "石川",
        "name": "石川",
        "name:en": "Ishikawa",
        "name:ja": "石川",
        "name:ko": "이시카와",
        "network": "弘南鉄道大鰐線",
        "note": "National-Land Numerical Information (Railway) 2007, MLIT Japan",
        "note:ja": "国土数値情報（鉄道データ）平成19年　国土交通省",
        "operator": "弘南鉄道",
        "public_transport": "stop_position",
        "railway": "station",
        "source": "KSJ2",
        "source_ref": "http://nlftp.mlit.go.jp/ksj/jpgis/datalist/KsjTmplt-N02-v1_1.html",
        "train": "yes",
        "wikidata": "Q6080304",
        "wikipedia": "ja:石川駅 (弘南鉄道)"
      }
    },
    {
      "id": "aomori_station_264462137",
      "osmId": 264462137,
      "osmType": "node",
      "prefectureId": "aomori",
      "type": "station",
      "subtype": "private",
      "name": "境松",
      "nameKana": "さかいまつ",
      "nameEn": "Sakaimatsu",
      "operator": "弘南鉄道",
      "network": "弘南鉄道弘南線",
      "ref": null,
      "latitude": 40.6491481,
      "longitude": 140.5760103,
      "countryCode": "jp",
      "rawTags": {
        "KSJ2:LIN": "弘南線",
        "KSJ2:STN": "境松",
        "name": "境松",
        "name:en": "Sakaimatsu",
        "name:ja": "境松",
        "name:ja_kana": "さかいまつ",
        "name:ko": "사카이마쓰",
        "network": "弘南鉄道弘南線",
        "note": "National-Land Numerical Information (Railway) 2007, MLIT Japan",
        "note:ja": "国土数値情報（鉄道データ）平成19年　国土交通省",
        "operator": "弘南鉄道",
        "public_transport": "stop_position",
        "railway": "station",
        "source": "KSJ2",
        "source_ref": "http://nlftp.mlit.go.jp/ksj/jpgis/datalist/KsjTmplt-N02-v1_1.html",
        "train": "yes",
        "wikidata": "Q7402782",
        "wikipedia": "ja:境松駅"
      }
    },
    {
      "id": "aomori_station_264462140",
      "osmId": 264462140,
      "osmType": "node",
      "prefectureId": "aomori",
      "type": "station",
      "subtype": "private",
      "name": "柏農高校前",
      "nameKana": null,
      "nameEn": "Hakunōkōkōmae",
      "operator": "弘南鉄道",
      "network": "弘南鉄道弘南線",
      "ref": null,
      "latitude": 40.602194,
      "longitude": 140.564712,
      "countryCode": "jp",
      "rawTags": {
        "KSJ2:LIN": "弘南線",
        "KSJ2:STN": "柏農高校前",
        "name": "柏農高校前",
        "name:en": "Hakunōkōkōmae",
        "name:ja": "柏農高校前",
        "name:ko": "하쿠노코코마에",
        "network": "弘南鉄道弘南線",
        "note": "National-Land Numerical Information (Railway) 2007, MLIT Japan",
        "note:ja": "国土数値情報（鉄道データ）平成19年　国土交通省",
        "operator": "弘南鉄道",
        "public_transport": "stop_position",
        "railway": "station",
        "source": "KSJ2",
        "source_ref": "http://nlftp.mlit.go.jp/ksj/jpgis/datalist/KsjTmplt-N02-v1_1.html",
        "train": "yes",
        "wikidata": "Q11533874",
        "wikipedia": "ja:柏農高校前駅"
      }
    },
    {
      "id": "aomori_station_264462141",
      "osmId": 264462141,
      "osmType": "node",
      "prefectureId": "aomori",
      "type": "station",
      "subtype": "private",
      "name": "運動公園前",
      "nameKana": "うんどうこうえんまえ",
      "nameEn": "Undōkōenmae",
      "operator": "弘南鉄道",
      "network": "弘南鉄道弘南線",
      "ref": null,
      "latitude": 40.5894754,
      "longitude": 140.5033572,
      "countryCode": "jp",
      "rawTags": {
        "KSJ2:LIN": "弘南線",
        "KSJ2:STN": "運動公園前",
        "alt_name:ko": "운도코엔마에",
        "name": "運動公園前",
        "name:en": "Undōkōenmae",
        "name:ja": "運動公園前",
        "name:ja_kana": "うんどうこうえんまえ",
        "name:ko": "운동공원앞",
        "network": "弘南鉄道弘南線",
        "note": "National-Land Numerical Information (Railway) 2007, MLIT Japan",
        "note:ja": "国土数値情報（鉄道データ）平成19年　国土交通省",
        "operator": "弘南鉄道",
        "public_transport": "stop_position",
        "railway": "station",
        "source": "KSJ2",
        "source_ref": "http://nlftp.mlit.go.jp/ksj/jpgis/datalist/KsjTmplt-N02-v1_1.html",
        "train": "yes",
        "wikidata": "Q7884092",
        "wikipedia": "ja:運動公園前駅"
      }
    },
    {
      "id": "aomori_station_264462177",
      "osmId": 264462177,
      "osmType": "node",
      "prefectureId": "aomori",
      "type": "station",
      "subtype": "private",
      "name": "平賀",
      "nameKana": "ひらか",
      "nameEn": "Hiraka",
      "operator": "弘南鉄道",
      "network": "弘南鉄道弘南線",
      "ref": null,
      "latitude": 40.5850906,
      "longitude": 140.5610626,
      "countryCode": "jp",
      "rawTags": {
        "KSJ2:LIN": "弘南線",
        "KSJ2:STN": "平賀",
        "name": "平賀",
        "name:en": "Hiraka",
        "name:ja": "平賀",
        "name:ja_kana": "ひらか",
        "name:ko": "히라카",
        "network": "弘南鉄道弘南線",
        "note": "National-Land Numerical Information (Railway) 2007, MLIT Japan",
        "note:ja": "国土数値情報（鉄道データ）平成19年　国土交通省",
        "operator": "弘南鉄道",
        "public_transport": "stop_position",
        "railway": "station",
        "source": "KSJ2",
        "source_ref": "http://nlftp.mlit.go.jp/ksj/jpgis/datalist/KsjTmplt-N02-v1_1.html",
        "train": "yes",
        "wikidata": "Q11483582",
        "wikipedia": "ja:平賀駅"
      }
    },
    {
      "id": "aomori_station_264462216",
      "osmId": 264462216,
      "osmType": "node",
      "prefectureId": "aomori",
      "type": "station",
      "subtype": "private",
      "name": "新里",
      "nameKana": "にさと",
      "nameEn": "Nisato",
      "operator": "弘南鉄道",
      "network": "弘南鉄道弘南線",
      "ref": null,
      "latitude": 40.5873575,
      "longitude": 140.5203011,
      "countryCode": "jp",
      "rawTags": {
        "KSJ2:LIN": "弘南線",
        "KSJ2:STN": "新里",
        "name": "新里",
        "name:en": "Nisato",
        "name:ja": "新里",
        "name:ja_kana": "にさと",
        "name:ko": "니사토",
        "network": "弘南鉄道弘南線",
        "note": "National-Land Numerical Information (Railway) 2007, MLIT Japan",
        "note:ja": "国土数値情報（鉄道データ）平成19年　国土交通省",
        "operator": "弘南鉄道",
        "public_transport": "stop_position",
        "railway": "station",
        "source": "KSJ2",
        "source_ref": "http://nlftp.mlit.go.jp/ksj/jpgis/datalist/KsjTmplt-N02-v1_1.html",
        "train": "yes",
        "wikidata": "Q7040176",
        "wikipedia": "ja:新里駅 (青森県)"
      }
    },
    {
      "id": "aomori_station_264462219",
      "osmId": 264462219,
      "osmType": "node",
      "prefectureId": "aomori",
      "type": "station",
      "subtype": "private",
      "name": "館田",
      "nameKana": "たちた",
      "nameEn": "Tachita",
      "operator": "弘南鉄道",
      "network": "弘南鉄道弘南線",
      "ref": null,
      "latitude": 40.58517,
      "longitude": 140.5382608,
      "countryCode": "jp",
      "rawTags": {
        "KSJ2:LIN": "弘南線",
        "KSJ2:STN": "館田",
        "name": "館田",
        "name:en": "Tachita",
        "name:ja": "館田",
        "name:ja_kana": "たちた",
        "name:ko": "다치타",
        "network": "弘南鉄道弘南線",
        "note": "National-Land Numerical Information (Railway) 2007, MLIT Japan",
        "note:ja": "国土数値情報（鉄道データ）平成19年　国土交通省",
        "operator": "弘南鉄道",
        "public_transport": "stop_position",
        "railway": "station",
        "source": "KSJ2",
        "source_ref": "http://nlftp.mlit.go.jp/ksj/jpgis/datalist/KsjTmplt-N02-v1_1.html",
        "train": "yes",
        "wikidata": "Q7673836",
        "wikipedia": "ja:館田駅"
      }
    },
    {
      "id": "aomori_station_264462237",
      "osmId": 264462237,
      "osmType": "node",
      "prefectureId": "aomori",
      "type": "station",
      "subtype": "private",
      "name": "田舎館",
      "nameKana": null,
      "nameEn": "Inakadate",
      "operator": "弘南鉄道",
      "network": "弘南鉄道弘南線",
      "ref": null,
      "latitude": 40.6371912,
      "longitude": 140.5710997,
      "countryCode": "jp",
      "rawTags": {
        "KSJ2:LIN": "弘南線",
        "KSJ2:STN": "田舎館",
        "name": "田舎館",
        "name:en": "Inakadate",
        "name:ja": "田舎館",
        "name:ko": "이나카다테",
        "network": "弘南鉄道弘南線",
        "note": "National-Land Numerical Information (Railway) 2007, MLIT Japan",
        "note:ja": "国土数値情報（鉄道データ）平成19年　国土交通省",
        "operator": "弘南鉄道",
        "public_transport": "stop_position",
        "railway": "station",
        "source": "KSJ2",
        "source_ref": "http://nlftp.mlit.go.jp/ksj/jpgis/datalist/KsjTmplt-N02-v1_1.html",
        "train": "yes",
        "wikidata": "Q6013418",
        "wikipedia": "ja:田舎館駅"
      }
    },
    {
      "id": "aomori_station_264462275",
      "osmId": 264462275,
      "osmType": "node",
      "prefectureId": "aomori",
      "type": "station",
      "subtype": "private",
      "name": "尾上高校前",
      "nameKana": "おのえこうこうまえ",
      "nameEn": "Onoekōkōmae",
      "operator": "弘南鉄道",
      "network": "弘南鉄道弘南線",
      "ref": null,
      "latitude": 40.625486,
      "longitude": 140.5774322,
      "countryCode": "jp",
      "rawTags": {
        "KSJ2:LIN": "弘南線",
        "KSJ2:STN": "尾上高校前",
        "alt_name:ko": "오노에코코마에",
        "name": "尾上高校前",
        "name:en": "Onoekōkōmae",
        "name:ja": "尾上高校前",
        "name:ja_kana": "おのえこうこうまえ",
        "name:ko": "오노에고교앞",
        "network": "弘南鉄道弘南線",
        "note": "National-Land Numerical Information (Railway) 2007, MLIT Japan",
        "note:ja": "国土数値情報（鉄道データ）平成19年　国土交通省",
        "operator": "弘南鉄道",
        "public_transport": "stop_position",
        "railway": "station",
        "source": "KSJ2",
        "source_ref": "http://nlftp.mlit.go.jp/ksj/jpgis/datalist/KsjTmplt-N02-v1_1.html",
        "train": "yes",
        "wikidata": "Q7094451",
        "wikipedia": "ja:尾上高校前駅"
      }
    },
    {
      "id": "aomori_station_264462320",
      "osmId": 264462320,
      "osmType": "node",
      "prefectureId": "aomori",
      "type": "station",
      "subtype": "private",
      "name": "津軽尾上",
      "nameKana": "つがるおのえ",
      "nameEn": "Tsugaru-Onoe",
      "operator": "弘南鉄道",
      "network": "弘南鉄道弘南線",
      "ref": null,
      "latitude": 40.614302,
      "longitude": 140.5764866,
      "countryCode": "jp",
      "rawTags": {
        "KSJ2:LIN": "弘南線",
        "KSJ2:STN": "津軽尾上",
        "name": "津軽尾上",
        "name:en": "Tsugaru-Onoe",
        "name:ja": "津軽尾上",
        "name:ja_kana": "つがるおのえ",
        "name:ko": "쓰가루오노에",
        "network": "弘南鉄道弘南線",
        "note": "National-Land Numerical Information (Railway) 2007, MLIT Japan",
        "note:ja": "国土数値情報（鉄道データ）平成19年　国土交通省",
        "operator": "弘南鉄道",
        "public_transport": "stop_position",
        "railway": "station",
        "source": "KSJ2",
        "source_ref": "http://nlftp.mlit.go.jp/ksj/jpgis/datalist/KsjTmplt-N02-v1_1.html",
        "train": "yes",
        "wikidata": "Q7849961",
        "wikipedia": "ja:津軽尾上駅"
      }
    },
    {
      "id": "aomori_station_264877435",
      "osmId": 264877435,
      "osmType": "node",
      "prefectureId": "aomori",
      "type": "station",
      "subtype": "private",
      "name": "大沢内",
      "nameKana": null,
      "nameEn": "Ōzawanai",
      "operator": null,
      "network": null,
      "ref": null,
      "latitude": 40.9396439,
      "longitude": 140.4373349,
      "countryCode": "jp",
      "rawTags": {
        "KSJ2:LIN": "津軽鉄道線",
        "KSJ2:STN": "大沢内",
        "name": "大沢内",
        "name:en": "Ōzawanai",
        "name:ja": "大沢内",
        "name:ko": "오자와나이",
        "note": "National-Land Numerical Information (Railway) 2007, MLIT Japan",
        "note:ja": "国土数値情報（鉄道データ）平成19年　国土交通省",
        "public_transport": "station",
        "railway": "station",
        "source": "KSJ2",
        "source_ref": "http://nlftp.mlit.go.jp/ksj/jpgis/datalist/KsjTmplt-N02-v1_1.html",
        "wikidata": "Q8081819",
        "wikipedia": "ja:大沢内駅"
      }
    },
    {
      "id": "aomori_station_264877466",
      "osmId": 264877466,
      "osmType": "node",
      "prefectureId": "aomori",
      "type": "station",
      "subtype": "private",
      "name": "深郷田",
      "nameKana": null,
      "nameEn": "Fukōda",
      "operator": null,
      "network": null,
      "ref": null,
      "latitude": 40.951035,
      "longitude": 140.4409287,
      "countryCode": "jp",
      "rawTags": {
        "KSJ2:LIN": "津軽鉄道線",
        "KSJ2:STN": "深郷田",
        "name": "深郷田",
        "name:en": "Fukōda",
        "name:ja": "深郷田",
        "name:ko": "후코다",
        "note": "National-Land Numerical Information (Railway) 2007, MLIT Japan",
        "note:ja": "国土数値情報（鉄道データ）平成19年　国土交通省",
        "public_transport": "station",
        "railway": "station",
        "source": "KSJ2",
        "source_ref": "http://nlftp.mlit.go.jp/ksj/jpgis/datalist/KsjTmplt-N02-v1_1.html",
        "wikidata": "Q5507768",
        "wikipedia": "ja:深郷田駅"
      }
    },
    {
      "id": "aomori_station_264877467",
      "osmId": 264877467,
      "osmType": "node",
      "prefectureId": "aomori",
      "type": "station",
      "subtype": "private",
      "name": "川倉",
      "nameKana": null,
      "nameEn": "Kawakura",
      "operator": null,
      "network": null,
      "ref": null,
      "latitude": 40.925997,
      "longitude": 140.443775,
      "countryCode": "jp",
      "rawTags": {
        "KSJ2:LIN": "津軽鉄道線",
        "KSJ2:STN": "川倉",
        "name": "川倉",
        "name:en": "Kawakura",
        "name:ja": "川倉",
        "name:ko": "가와쿠라",
        "note": "National-Land Numerical Information (Railway) 2007, MLIT Japan",
        "note:ja": "国土数値情報（鉄道データ）平成19年　国土交通省",
        "public_transport": "station",
        "railway": "station",
        "source": "KSJ2",
        "source_ref": "http://nlftp.mlit.go.jp/ksj/jpgis/datalist/KsjTmplt-N02-v1_1.html",
        "wikidata": "Q6379584",
        "wikipedia": "ja:川倉駅"
      }
    },
    {
      "id": "aomori_station_264877488",
      "osmId": 264877488,
      "osmType": "node",
      "prefectureId": "aomori",
      "type": "station",
      "subtype": "private",
      "name": "津軽中里",
      "nameKana": "つがるなかさと",
      "nameEn": "Tsugaru-Nakasato",
      "operator": null,
      "network": null,
      "ref": null,
      "latitude": 40.9646016,
      "longitude": 140.4410935,
      "countryCode": "jp",
      "rawTags": {
        "KSJ2:LIN": "津軽鉄道線",
        "KSJ2:STN": "津軽中里",
        "name": "津軽中里",
        "name:en": "Tsugaru-Nakasato",
        "name:ja": "津軽中里",
        "name:ja_kana": "つがるなかさと",
        "name:ja_rm": "Tsugaru-Nakasato",
        "name:ko": "쓰가루나카사토",
        "note": "National-Land Numerical Information (Railway) 2007, MLIT Japan",
        "note:ja": "国土数値情報（鉄道データ）平成19年　国土交通省",
        "public_transport": "station",
        "railway": "station",
        "source": "KSJ2",
        "source_ref": "http://nlftp.mlit.go.jp/ksj/jpgis/datalist/KsjTmplt-N02-v1_1.html",
        "wikidata": "Q7849960",
        "wikipedia": "ja:津軽中里駅"
      }
    },
    {
      "id": "aomori_station_264877504",
      "osmId": 264877504,
      "osmType": "node",
      "prefectureId": "aomori",
      "type": "station",
      "subtype": "private",
      "name": "毘沙門",
      "nameKana": null,
      "nameEn": "Bishamon",
      "operator": null,
      "network": null,
      "ref": null,
      "latitude": 40.8579612,
      "longitude": 140.4777669,
      "countryCode": "jp",
      "rawTags": {
        "KSJ2:LIN": "津軽鉄道線",
        "KSJ2:STN": "毘沙門",
        "name": "毘沙門",
        "name:en": "Bishamon",
        "name:ja": "毘沙門",
        "name:ko": "비샤몬",
        "note": "National-Land Numerical Information (Railway) 2007, MLIT Japan",
        "note:ja": "国土数値情報（鉄道データ）平成19年　国土交通省",
        "public_transport": "station",
        "railway": "station",
        "source": "KSJ2",
        "source_ref": "http://nlftp.mlit.go.jp/ksj/jpgis/datalist/KsjTmplt-N02-v1_1.html",
        "wikidata": "Q11547509",
        "wikipedia": "ja:毘沙門駅"
      }
    },
    {
      "id": "aomori_station_264877518",
      "osmId": 264877518,
      "osmType": "node",
      "prefectureId": "aomori",
      "type": "station",
      "subtype": "private",
      "name": "十川",
      "nameKana": null,
      "nameEn": "Togawa",
      "operator": null,
      "network": null,
      "ref": null,
      "latitude": 40.817456,
      "longitude": 140.4566692,
      "countryCode": "jp",
      "rawTags": {
        "KSJ2:LIN": "津軽鉄道線",
        "KSJ2:STN": "十川",
        "name": "十川",
        "name:en": "Togawa",
        "name:ja": "十川",
        "name:ko": "도가와",
        "note": "National-Land Numerical Information (Railway) 2007, MLIT Japan",
        "note:ja": "国土数値情報（鉄道データ）平成19年　国土交通省",
        "public_transport": "station",
        "railway": "station",
        "source": "KSJ2",
        "source_ref": "http://nlftp.mlit.go.jp/ksj/jpgis/datalist/KsjTmplt-N02-v1_1.html",
        "wikidata": "Q11405026",
        "wikipedia": "ja:十川駅 (青森県)"
      }
    },
    {
      "id": "aomori_station_264877531",
      "osmId": 264877531,
      "osmType": "node",
      "prefectureId": "aomori",
      "type": "station",
      "subtype": "private",
      "name": "津軽飯詰",
      "nameKana": null,
      "nameEn": "Tsugaru-Iizume",
      "operator": null,
      "network": null,
      "ref": null,
      "latitude": 40.829504,
      "longitude": 140.479389,
      "countryCode": "jp",
      "rawTags": {
        "KSJ2:LIN": "津軽鉄道線",
        "KSJ2:STN": "津軽飯詰",
        "name": "津軽飯詰",
        "name:en": "Tsugaru-Iizume",
        "name:ja": "津軽飯詰",
        "name:ko": "쓰가루이즈메",
        "note": "National-Land Numerical Information (Railway) 2007, MLIT Japan",
        "note:ja": "国土数値情報（鉄道データ）平成19年　国土交通省",
        "public_transport": "station",
        "railway": "station",
        "source": "KSJ2",
        "source_ref": "http://nlftp.mlit.go.jp/ksj/jpgis/datalist/KsjTmplt-N02-v1_1.html",
        "wikidata": "Q7849958",
        "wikipedia": "ja:津軽飯詰駅"
      }
    },
    {
      "id": "aomori_station_264877533",
      "osmId": 264877533,
      "osmType": "node",
      "prefectureId": "aomori",
      "type": "station",
      "subtype": "private",
      "name": "芦野公園",
      "nameKana": null,
      "nameEn": "Ashino-Kōen",
      "operator": null,
      "network": null,
      "ref": null,
      "latitude": 40.9123303,
      "longitude": 140.4513781,
      "countryCode": "jp",
      "rawTags": {
        "KSJ2:LIN": "津軽鉄道線",
        "KSJ2:STN": "芦野公園",
        "alt_name:ko": "아시노코엔",
        "name": "芦野公園",
        "name:en": "Ashino-Kōen",
        "name:ja": "芦野公園",
        "name:ko": "아시노공원",
        "note": "National-Land Numerical Information (Railway) 2007, MLIT Japan",
        "note:ja": "国土数値情報（鉄道データ）平成19年　国土交通省",
        "public_transport": "station",
        "railway": "station",
        "source": "KSJ2",
        "source_ref": "http://nlftp.mlit.go.jp/ksj/jpgis/datalist/KsjTmplt-N02-v1_1.html",
        "wikidata": "Q4805115",
        "wikipedia": "ja:芦野公園駅"
      }
    },
    {
      "id": "aomori_station_264877535",
      "osmId": 264877535,
      "osmType": "node",
      "prefectureId": "aomori",
      "type": "station",
      "subtype": "private",
      "name": "津軽五所川原",
      "nameKana": "つがるごしょがわら",
      "nameEn": "Tsugaru Goshogawara",
      "operator": null,
      "network": null,
      "ref": null,
      "latitude": 40.809895,
      "longitude": 140.4485834,
      "countryCode": "jp",
      "rawTags": {
        "KSJ2:LIN": "津軽鉄道線",
        "KSJ2:STN": "津軽五所川原",
        "name": "津軽五所川原",
        "name:en": "Tsugaru Goshogawara",
        "name:ja": "津軽五所川原",
        "name:ja_kana": "つがるごしょがわら",
        "name:ja_rm": "Tsugaru Goshogawara",
        "name:ko": "고쇼가와라",
        "note": "National-Land Numerical Information (Railway) 2007, MLIT Japan",
        "note:ja": "国土数値情報（鉄道データ）平成19年　国土交通省",
        "public_transport": "station",
        "railway": "station",
        "source": "KSJ2",
        "source_ref": "http://nlftp.mlit.go.jp/ksj/jpgis/datalist/KsjTmplt-N02-v1_1.html",
        "wikidata": "Q5587319",
        "wikipedia": "ja:五所川原駅"
      }
    },
    {
      "id": "aomori_station_264877568",
      "osmId": 264877568,
      "osmType": "node",
      "prefectureId": "aomori",
      "type": "station",
      "subtype": "private",
      "name": "嘉瀬",
      "nameKana": "かせ",
      "nameEn": "Kase",
      "operator": null,
      "network": null,
      "ref": null,
      "latitude": 40.8813162,
      "longitude": 140.4691368,
      "countryCode": "jp",
      "rawTags": {
        "KSJ2:LIN": "津軽鉄道線",
        "KSJ2:STN": "嘉瀬",
        "name": "嘉瀬",
        "name:en": "Kase",
        "name:ja": "嘉瀬",
        "name:ja-Hira": "かせ",
        "name:ko": "가세",
        "note": "National-Land Numerical Information (Railway) 2007, MLIT Japan",
        "note:ja": "国土数値情報（鉄道データ）平成19年　国土交通省",
        "public_transport": "station",
        "railway": "station",
        "source": "KSJ2",
        "source_ref": "http://nlftp.mlit.go.jp/ksj/jpgis/datalist/KsjTmplt-N02-v1_1.html",
        "wikidata": "Q6374094",
        "wikipedia": "ja:嘉瀬駅"
      }
    },
    {
      "id": "aomori_station_265838037",
      "osmId": 265838037,
      "osmType": "node",
      "prefectureId": "aomori",
      "type": "station",
      "subtype": "private",
      "name": "諏訪ノ平",
      "nameKana": null,
      "nameEn": "Suwanotaira",
      "operator": null,
      "network": null,
      "ref": null,
      "latitude": 40.4150219,
      "longitude": 141.3048002,
      "countryCode": "jp",
      "rawTags": {
        "KSJ2:LIN": "青い森鉄道線",
        "KSJ2:STN": "諏訪ノ平",
        "name": "諏訪ノ平",
        "name:en": "Suwanotaira",
        "name:ja": "諏訪ノ平",
        "name:ja_rm": "Suwanotaira",
        "name:ko": "스와노타이라",
        "note": "National-Land Numerical Information (Railway) 2007, MLIT Japan",
        "note:ja": "国土数値情報（鉄道データ）平成19年　国土交通省",
        "public_transport": "station",
        "railway": "station",
        "source": "KSJ2",
        "source_ref": "http://nlftp.mlit.go.jp/ksj/jpgis/datalist/KsjTmplt-N02-v1_1.html",
        "website": "https://aoimorirailway.com/lang_jp/station_list/suwa/",
        "wikidata": "Q5357110",
        "wikipedia": "ja:諏訪ノ平駅"
      }
    },
    {
      "id": "aomori_station_265838210",
      "osmId": 265838210,
      "osmType": "node",
      "prefectureId": "aomori",
      "type": "station",
      "subtype": "private",
      "name": "剣吉",
      "nameKana": null,
      "nameEn": "Kenyoshi",
      "operator": null,
      "network": null,
      "ref": null,
      "latitude": 40.4487365,
      "longitude": 141.3463976,
      "countryCode": "jp",
      "rawTags": {
        "KSJ2:LIN": "青い森鉄道線",
        "KSJ2:STN": "剣吉",
        "name": "剣吉",
        "name:en": "Kenyoshi",
        "name:ja": "剣吉",
        "name:ja_rm": "Kenyoshi",
        "name:ko": "겐요시",
        "note": "National-Land Numerical Information (Railway) 2007, MLIT Japan",
        "note:ja": "国土数値情報（鉄道データ）平成19年　国土交通省",
        "public_transport": "station",
        "railway": "station",
        "source": "KSJ2",
        "source_ref": "http://nlftp.mlit.go.jp/ksj/jpgis/datalist/KsjTmplt-N02-v1_1.html",
        "website": "https://aoimorirailway.com/lang_jp/station_list/kenyoshi/",
        "wikidata": "Q5357122",
        "wikipedia": "ja:剣吉駅"
      }
    },
    {
      "id": "aomori_station_265838230",
      "osmId": 265838230,
      "osmType": "node",
      "prefectureId": "aomori",
      "type": "station",
      "subtype": "private",
      "name": "苫米地",
      "nameKana": "とまべち",
      "nameEn": "Tomabechi",
      "operator": null,
      "network": null,
      "ref": null,
      "latitude": 40.4669488,
      "longitude": 141.3750713,
      "countryCode": "jp",
      "rawTags": {
        "KSJ2:LIN": "青い森鉄道線",
        "KSJ2:STN": "苫米地",
        "name": "苫米地",
        "name:en": "Tomabechi",
        "name:ja": "苫米地",
        "name:ja-Hira": "とまべち",
        "name:ja-Latn": "Tomabechi",
        "name:ko": "도마베치",
        "note": "National-Land Numerical Information (Railway) 2007, MLIT Japan",
        "note:ja": "国土数値情報（鉄道データ）平成19年 国土交通省",
        "public_transport": "station",
        "railway": "station",
        "source": "KSJ2",
        "source_ref": "http://nlftp.mlit.go.jp/ksj/jpgis/datalist/KsjTmplt-N02-v1_1.html",
        "website": "https://aoimorirailway.com/lang_jp/station_list/tomabechi/",
        "wikidata": "Q6420074",
        "wikipedia": "ja:苫米地駅"
      }
    },
    {
      "id": "aomori_airport_415168449",
      "osmId": 415168449,
      "osmType": "node",
      "prefectureId": "aomori",
      "type": "airport",
      "subtype": "domestic",
      "name": "青森空港",
      "nameKana": "あおもりくうこう",
      "nameEn": "Aomori Airport",
      "operator": null,
      "network": null,
      "ref": "AOJ",
      "latitude": 40.7340525,
      "longitude": 140.689686,
      "countryCode": "jp",
      "rawTags": {
        "KSJ2:AAC": "02201",
        "KSJ2:AAC_label": "青森県青森市",
        "KSJ2:AD2": "5",
        "KSJ2:AD2_label": "都道府県",
        "KSJ2:ARP": "40.7333333333 140.6886111111",
        "KSJ2:ATB": "40.7383333300 140.6890000000",
        "KSJ2:CLT": "21 30",
        "KSJ2:COA": "空港整備法に基づく第三種空港",
        "KSJ2:CompositeCurve": "cv16Airport",
        "KSJ2:DSA": "特定飛行場以外",
        "KSJ2:INP": "5",
        "KSJ2:INP_label": "都道府県",
        "KSJ2:IUC": "供用中",
        "KSJ2:NA3": "青森空港",
        "KSJ2:OPT": "07 30",
        "KSJ2:REF": "1",
        "KSJ2:REF_label": "ジェット定期便が就航している場合",
        "KSJ2:airport_id": "cf02_17",
        "KSJ2:runways": "3000 60",
        "addr:housenumber": "青森県青森市大谷小谷1-5",
        "aeroway": "aerodrome",
        "ele": "202",
        "iata": "AOJ",
        "icao": "RJSA",
        "is_in": "Aomori, Japan",
        "layer": "1",
        "name": "青森空港",
        "name:en": "Aomori Airport",
        "name:ja": "青森空港",
        "name:ja_kana": "あおもりくうこう",
        "name:ja_rm": "Aomori Kuko",
        "name:ko": "아오모리공항",
        "name:ru": "Аэропорт Аомори",
        "note": "National-Land Numerical Information (Airport) 2007, MLIT Japan",
        "note:ja": "国土数値情報（空港データ）平成19年　国土交通省",
        "phone": "+81 17 739 2000",
        "source": "KSJ2;wikipedia",
        "source_ref": "http://nlftp.mlit.go.jp/ksj/jpgis/datalist/KsjTmplt-C28-v1_1.html",
        "website": "https://aomori-airport.co.jp/",
        "wikidata": "Q628429",
        "wikipedia": "en:Aomori Airport"
      }
    },
    {
      "id": "aomori_airport_1042056016",
      "osmId": 1042056016,
      "osmType": "node",
      "prefectureId": "aomori",
      "type": "airport",
      "subtype": "military",
      "name": "八戸航空基地",
      "nameKana": null,
      "nameEn": "Hachinohe Airport",
      "operator": null,
      "network": null,
      "ref": "HHE",
      "latitude": 40.5541994,
      "longitude": 141.468868,
      "countryCode": "jp",
      "rawTags": {
        "aeroway": "aerodrome",
        "iata": "HHE",
        "icao": "RJSH",
        "landuse": "military",
        "military": "airfield",
        "name": "八戸航空基地",
        "name:en": "Hachinohe Airport",
        "source": "ourairports.com",
        "wikidata": "Q2901111",
        "wikipedia": "en:JMSDF Hachinohe Air Base"
      }
    },
    {
      "id": "aomori_station_1504476443",
      "osmId": 1504476443,
      "osmType": "node",
      "prefectureId": "aomori",
      "type": "station",
      "subtype": "private",
      "name": "野内",
      "nameKana": null,
      "nameEn": "Nonai",
      "operator": null,
      "network": null,
      "ref": null,
      "latitude": 40.8461439,
      "longitude": 140.8169874,
      "countryCode": "jp",
      "rawTags": {
        "KSJ2:LIN": "青い森鉄道線",
        "name": "野内",
        "name:en": "Nonai",
        "name:ja": "野内",
        "name:ja_rm": "Nonai",
        "name:ko": "노나이",
        "public_transport": "station",
        "railway": "station",
        "website": "https://aoimorirailway.com/lang_jp/station_list/nonai/",
        "wikidata": "Q6402251",
        "wikipedia": "ja:野内駅"
      }
    },
    {
      "id": "aomori_station_2388548335",
      "osmId": 2388548335,
      "osmType": "node",
      "prefectureId": "aomori",
      "type": "station",
      "subtype": "private",
      "name": "体験坑道",
      "nameKana": null,
      "nameEn": "Experience Tunnel",
      "operator": null,
      "network": null,
      "ref": null,
      "latitude": 41.256716,
      "longitude": 140.347691,
      "countryCode": "jp",
      "rawTags": {
        "KSJ2:station": "#eb03_10328",
        "KSJ2:stationName": "体験坑道",
        "name": "体験坑道",
        "name:en": "Experience Tunnel",
        "name:ja": "体験坑道",
        "name:ko": "체험갱도",
        "name:zh": "体验坑道",
        "public_transport": "station",
        "railway": "station",
        "wikidata": "Q7446759",
        "wikipedia": "ja:体験坑道駅"
      }
    },
    {
      "id": "aomori_station_2388548343",
      "osmId": 2388548343,
      "osmType": "node",
      "prefectureId": "aomori",
      "type": "station",
      "subtype": "private",
      "name": "青函トンネル記念館",
      "nameKana": null,
      "nameEn": "Seikan Tunnel Museum",
      "operator": null,
      "network": null,
      "ref": null,
      "latitude": 41.2540359,
      "longitude": 140.3471709,
      "countryCode": "jp",
      "rawTags": {
        "KSJ2:station": "#eb03_10329",
        "KSJ2:stationName": "青函トンネル記念館",
        "name": "青函トンネル記念館",
        "name:en": "Seikan Tunnel Museum",
        "name:ja": "青函トンネル記念館",
        "name:ko": "세이칸터널기념관",
        "name:zh": "青函隧道纪念馆",
        "public_transport": "station",
        "railway": "station",
        "wikidata": "Q7446759",
        "wikipedia": "ja:青函トンネル記念館駅"
      }
    },
    {
      "id": "aomori_ferry_terminal_2418982638",
      "osmId": 2418982638,
      "osmType": "node",
      "prefectureId": "aomori",
      "type": "ferry_terminal",
      "subtype": null,
      "name": "子ノ口港",
      "nameKana": null,
      "nameEn": "Towadako Ferries",
      "operator": null,
      "network": null,
      "ref": null,
      "latitude": 40.4786341,
      "longitude": 140.9398392,
      "countryCode": "jp",
      "rawTags": {
        "amenity": "ferry_terminal",
        "cargo": "passengers",
        "name": "子ノ口港",
        "name:en": "Towadako Ferries"
      }
    },
    {
      "id": "aomori_bus_terminal_2418982718",
      "osmId": 2418982718,
      "osmType": "node",
      "prefectureId": "aomori",
      "type": "bus_terminal",
      "subtype": null,
      "name": "ＪＲバス子ノ口駅",
      "nameKana": null,
      "nameEn": null,
      "operator": null,
      "network": null,
      "ref": null,
      "latitude": 40.4788296,
      "longitude": 140.9407621,
      "countryCode": "jp",
      "rawTags": {
        "amenity": "bus_station",
        "bus": "yes",
        "name": "ＪＲバス子ノ口駅",
        "public_transport": "stop_position"
      }
    },
    {
      "id": "aomori_station_2621455092",
      "osmId": 2621455092,
      "osmType": "node",
      "prefectureId": "aomori",
      "type": "station",
      "subtype": "private",
      "name": "浅虫温泉",
      "nameKana": null,
      "nameEn": "Asamushi-Onsen",
      "operator": null,
      "network": null,
      "ref": null,
      "latitude": 40.891134,
      "longitude": 140.8624683,
      "countryCode": "jp",
      "rawTags": {
        "KSJ2:LIN": "青い森鉄道線",
        "KSJ2:STN": "浅虫温泉",
        "alt_name:ko": "아사무시온센",
        "name": "浅虫温泉",
        "name:en": "Asamushi-Onsen",
        "name:ja": "浅虫温泉",
        "name:ja_rm": "Asamushi-Onsen",
        "name:ko": "아사무시온천",
        "note": "National-Land Numerical Information (Railway) 2007, MLIT Japan",
        "note:ja": "国土数値情報（鉄道データ）平成19年　国土交通省",
        "public_transport": "station",
        "railway": "station",
        "source": "KSJ2",
        "source_ref": "http://nlftp.mlit.go.jp/ksj/jpgis/datalist/KsjTmplt-N02-v1_1.html",
        "website": "https://aoimorirailway.com/lang_jp/station_list/asamushi/",
        "wikidata": "Q650851",
        "wikipedia": "ja:浅虫温泉駅"
      }
    },
    {
      "id": "aomori_station_2987233557",
      "osmId": 2987233557,
      "osmType": "node",
      "prefectureId": "aomori",
      "type": "station",
      "subtype": "private",
      "name": "田んぼアート",
      "nameKana": "たんぼあーと",
      "nameEn": "Tamboāto",
      "operator": "弘南鉄道",
      "network": "弘南鉄道弘南線",
      "ref": null,
      "latitude": 40.6325032,
      "longitude": 140.5738861,
      "countryCode": "jp",
      "rawTags": {
        "name": "田んぼアート",
        "name:en": "Tamboāto",
        "name:ja-Hira": "たんぼあーと",
        "name:ja_kana": "たんぼあーと",
        "name:ja_rm": "tanboāto",
        "network": "弘南鉄道弘南線",
        "operator": "弘南鉄道",
        "public_transport": "stop_position",
        "railway": "station",
        "train": "yes",
        "wikidata": "Q15120699",
        "wikipedia": "ja:田んぼアート駅"
      }
    },
    {
      "id": "aomori_station_3665957894",
      "osmId": 3665957894,
      "osmType": "node",
      "prefectureId": "aomori",
      "type": "station",
      "subtype": "private",
      "name": "七戸十和田",
      "nameKana": null,
      "nameEn": "Shichinohe-Towada",
      "operator": null,
      "network": null,
      "ref": null,
      "latitude": 40.7199949,
      "longitude": 141.1534608,
      "countryCode": "jp",
      "rawTags": {
        "name": "七戸十和田",
        "name:de": "Shichinohe-Towada",
        "name:en": "Shichinohe-Towada",
        "name:ja": "七戸十和田",
        "name:ja_rm": "Shichinohe-Towada",
        "name:ko": "시치노헤토와다",
        "name:ru": "Ситинохе-Товада",
        "public_transport": "station",
        "railway": "station",
        "train": "yes",
        "website": "https://www.jreast.co.jp/estation/station/info.aspx?StationCd=1725",
        "wikidata": "Q1136467",
        "wikipedia": "ja:七戸十和田駅"
      }
    },
    {
      "id": "aomori_station_3906277085",
      "osmId": 3906277085,
      "osmType": "node",
      "prefectureId": "aomori",
      "type": "station",
      "subtype": "jr",
      "name": "中小国",
      "nameKana": null,
      "nameEn": "Nakaoguni",
      "operator": "東日本旅客鉄道",
      "network": null,
      "ref": null,
      "latitude": 41.0514769,
      "longitude": 140.5971212,
      "countryCode": "jp",
      "rawTags": {
        "KSJ2:LIN": "津軽線;海峡線",
        "KSJ2:STN": "中小国",
        "name": "中小国",
        "name:en": "Nakaoguni",
        "name:ja": "中小国",
        "name:ko": "나카오구니",
        "operator": "東日本旅客鉄道",
        "public_transport": "station",
        "railway": "station",
        "source": "GSImaps/std",
        "train": "yes",
        "wikidata": "Q4528111",
        "wikipedia": "ja:中小国駅"
      }
    },
    {
      "id": "aomori_station_3906277087",
      "osmId": 3906277087,
      "osmType": "node",
      "prefectureId": "aomori",
      "type": "station",
      "subtype": "private",
      "name": "奥津軽いまべつ",
      "nameKana": "おくつがるいまべつ",
      "nameEn": "Okutsugaru-imabetsu",
      "operator": null,
      "network": null,
      "ref": null,
      "latitude": 41.1449446,
      "longitude": 140.5157284,
      "countryCode": "jp",
      "rawTags": {
        "name": "奥津軽いまべつ",
        "name:de": "Okutsugaru-Imabetsu",
        "name:en": "Okutsugaru-imabetsu",
        "name:ja": "奥津軽いまべつ",
        "name:ja_kana": "おくつがるいまべつ",
        "name:ja_rm": "Okutsugaru-imabetsu",
        "name:ko": "오쿠쓰가루이마베쓰",
        "name:zh": "奧津轻今别",
        "public_transport": "station",
        "railway": "station",
        "wikidata": "Q4546298",
        "wikipedia": "ja:奥津軽いまべつ駅"
      }
    },
    {
      "id": "aomori_station_3906277088",
      "osmId": 3906277088,
      "osmType": "node",
      "prefectureId": "aomori",
      "type": "station",
      "subtype": "private",
      "name": "蟹田",
      "nameKana": "かにた",
      "nameEn": "Kanita",
      "operator": null,
      "network": null,
      "ref": null,
      "latitude": 41.0383689,
      "longitude": 140.6425216,
      "countryCode": "jp",
      "rawTags": {
        "KSJ2:LIN": "津軽線",
        "KSJ2:STN": "蟹田",
        "name": "蟹田",
        "name:en": "Kanita",
        "name:ja": "蟹田",
        "name:ja-Hira": "かにた",
        "name:ja-Latn": "Kanita",
        "name:ko": "가니타",
        "public_transport": "station",
        "railway": "station",
        "source": "GSImaps/std",
        "train": "yes",
        "wikidata": "Q6363288",
        "wikipedia": "ja:蟹田駅"
      }
    },
    {
      "id": "aomori_station_3920556721",
      "osmId": 3920556721,
      "osmType": "node",
      "prefectureId": "aomori",
      "type": "station",
      "subtype": "private",
      "name": "八戸",
      "nameKana": "はちのへ",
      "nameEn": "Hachinohe",
      "operator": null,
      "network": null,
      "ref": null,
      "latitude": 40.5093889,
      "longitude": 141.4311833,
      "countryCode": "jp",
      "rawTags": {
        "highspeed": "yes",
        "name": "八戸",
        "name:de": "Hachinohe",
        "name:en": "Hachinohe",
        "name:ja": "八戸",
        "name:ja_kana": "はちのへ",
        "name:ja_rm": "Hachinohe",
        "name:ko": "하치노헤",
        "name:ru": "Хатинохе",
        "public_transport": "station",
        "railway": "station",
        "source": "KSJ2",
        "train": "yes",
        "website": "https://www.jreast.co.jp/estation/station/info.aspx?StationCd=1230",
        "wikidata": "Q800866",
        "wikipedia": "ja:八戸駅"
      }
    },
    {
      "id": "aomori_station_3920556724",
      "osmId": 3920556724,
      "osmType": "node",
      "prefectureId": "aomori",
      "type": "station",
      "subtype": "private",
      "name": "三沢",
      "nameKana": "みさわ",
      "nameEn": "Misawa",
      "operator": null,
      "network": null,
      "ref": null,
      "latitude": 40.6693545,
      "longitude": 141.3536492,
      "countryCode": "jp",
      "rawTags": {
        "KSJ2:LIN": "青い森鉄道線;十和田観光電鉄線",
        "KSJ2:STN": "三沢",
        "name": "三沢",
        "name:en": "Misawa",
        "name:ja": "三沢",
        "name:ja-Hira": "みさわ",
        "name:ko": "미사와",
        "name:zh": "三泽",
        "note": "National-Land Numerical Information (Railway) 2007, MLIT Japan",
        "note:ja": "国土数値情報（鉄道データ）平成19年　国土交通省",
        "public_transport": "station",
        "railway": "station",
        "source": "KSJ2",
        "source_ref": "http://nlftp.mlit.go.jp/ksj/jpgis/datalist/KsjTmplt-N02-v1_1.html",
        "website": "https://aoimorirailway.com/lang_jp/station_list/misawa/",
        "wikidata": "Q5924504",
        "wikipedia": "ja:三沢駅 (青森県)"
      }
    },
    {
      "id": "aomori_station_3920556726",
      "osmId": 3920556726,
      "osmType": "node",
      "prefectureId": "aomori",
      "type": "station",
      "subtype": "private",
      "name": "野辺地",
      "nameKana": null,
      "nameEn": "Noheji",
      "operator": null,
      "network": null,
      "ref": null,
      "latitude": 40.8554611,
      "longitude": 141.1197284,
      "countryCode": "jp",
      "rawTags": {
        "KSJ2:LIN": "青い森鉄道線;大湊線",
        "KSJ2:STN": "野辺地",
        "name": "野辺地",
        "name:en": "Noheji",
        "name:ja": "野辺地",
        "name:ja_rm": "Noheji",
        "name:ko": "노헤지",
        "note": "National-Land Numerical Information (Railway) 2007, MLIT Japan",
        "note:ja": "国土数値情報（鉄道データ）平成19年　国土交通省",
        "public_transport": "station",
        "railway": "station",
        "source": "KSJ2",
        "source_ref": "http://nlftp.mlit.go.jp/ksj/jpgis/datalist/KsjTmplt-N02-v1_1.html",
        "website": "https://aoimorirailway.com/lang_jp/station_list/noheji/",
        "wikidata": "Q6393634",
        "wikipedia": "ja:野辺地駅"
      }
    },
    {
      "id": "aomori_station_3921351174",
      "osmId": 3921351174,
      "osmType": "node",
      "prefectureId": "aomori",
      "type": "station",
      "subtype": "private",
      "name": "青森",
      "nameKana": "あおもり",
      "nameEn": "Aomori",
      "operator": null,
      "network": null,
      "ref": null,
      "latitude": 40.8299247,
      "longitude": 140.7341384,
      "countryCode": "jp",
      "rawTags": {
        "KSJ2:LIN": "奥羽線;青い森鉄道線;津軽線",
        "KSJ2:STN": "青森",
        "name": "青森",
        "name:de": "Aomori",
        "name:en": "Aomori",
        "name:it": "Aomori",
        "name:ja": "青森",
        "name:ja-Hira": "あおもり",
        "name:ja-Latn": "Aomori",
        "name:ko": "아오모리",
        "name:zh": "青森",
        "note": "National-Land Numerical Information (Railway) 2007, MLIT Japan",
        "note:ja": "国土数値情報（鉄道データ）平成19年　国土交通省",
        "public_transport": "station",
        "railway": "station",
        "source": "KSJ2",
        "source_ref": "http://nlftp.mlit.go.jp/ksj/jpgis/datalist/KsjTmplt-N02-v1_1.html",
        "website": "https://www.jreast.co.jp/estation/station/info.aspx?StationCd=25",
        "wheelchair": "limited",
        "wikidata": "Q59516",
        "wikipedia": "ja:青森駅"
      }
    },
    {
      "id": "aomori_station_3921351175",
      "osmId": 3921351175,
      "osmType": "node",
      "prefectureId": "aomori",
      "type": "station",
      "subtype": "private",
      "name": "東青森",
      "nameKana": null,
      "nameEn": "Higashi-Aomori",
      "operator": null,
      "network": null,
      "ref": null,
      "latitude": 40.8101734,
      "longitude": 140.7826596,
      "countryCode": "jp",
      "rawTags": {
        "KSJ2:LIN": "青い森鉄道線",
        "KSJ2:STN": "東青森",
        "name": "東青森",
        "name:en": "Higashi-Aomori",
        "name:ja": "東青森",
        "name:ja_rm": "Higashi-Aomori",
        "name:ko": "히가시아오모리",
        "note": "National-Land Numerical Information (Railway) 2007, MLIT Japan",
        "note:ja": "国土数値情報（鉄道データ）平成19年　国土交通省",
        "public_transport": "station",
        "railway": "station",
        "source": "KSJ2",
        "source_ref": "http://nlftp.mlit.go.jp/ksj/jpgis/datalist/KsjTmplt-N02-v1_1.html",
        "website": "https://aoimorirailway.com/lang_jp/station_list/h-aomori/",
        "wheelchair": "no",
        "wikidata": "Q5753477",
        "wikipedia": "ja:東青森駅"
      }
    },
    {
      "id": "aomori_station_3921351176",
      "osmId": 3921351176,
      "osmType": "node",
      "prefectureId": "aomori",
      "type": "station",
      "subtype": "private",
      "name": "小柳",
      "nameKana": "こやなぎ",
      "nameEn": "Koyanagi",
      "operator": null,
      "network": null,
      "ref": null,
      "latitude": 40.8179921,
      "longitude": 140.7979124,
      "countryCode": "jp",
      "rawTags": {
        "KSJ2:LIN": "青い森鉄道線",
        "KSJ2:STN": "小柳",
        "name": "小柳",
        "name:en": "Koyanagi",
        "name:ja": "小柳",
        "name:ja-Hira": "こやなぎ",
        "name:ko": "고야나기",
        "note": "National-Land Numerical Information (Railway) 2007, MLIT Japan",
        "note:ja": "国土数値情報（鉄道データ）平成19年　国土交通省",
        "public_transport": "station",
        "railway": "station",
        "source": "KSJ2",
        "source_ref": "http://nlftp.mlit.go.jp/ksj/jpgis/datalist/KsjTmplt-N02-v1_1.html",
        "website": "https://aoimorirailway.com/lang_jp/station_list/koyanagi/",
        "wheelchair": "no",
        "wikidata": "Q6397627",
        "wikipedia": "ja:小柳駅 (青森県)"
      }
    },
    {
      "id": "aomori_station_3921351177",
      "osmId": 3921351177,
      "osmType": "node",
      "prefectureId": "aomori",
      "type": "station",
      "subtype": "private",
      "name": "筒井",
      "nameKana": "つつい",
      "nameEn": "Tsutsui",
      "operator": null,
      "network": null,
      "ref": null,
      "latitude": 40.8057042,
      "longitude": 140.7694475,
      "countryCode": "jp",
      "rawTags": {
        "KSJ2:LIN": "青い森鉄道線",
        "name": "筒井",
        "name:en": "Tsutsui",
        "name:ja": "筒井",
        "name:ja-Hira": "つつい",
        "name:ja-Latn": "Tsutsui",
        "name:ko": "쓰쓰이",
        "public_transport": "station",
        "railway": "station",
        "train": "yes",
        "website": "https://aoimorirailway.com/lang_jp/station_list/tsutsui/",
        "wheelchair": "yes",
        "wikidata": "Q11603024",
        "wikipedia": "ja:筒井駅 (青森県)"
      }
    },
    {
      "id": "aomori_station_3921354047",
      "osmId": 3921354047,
      "osmType": "node",
      "prefectureId": "aomori",
      "type": "station",
      "subtype": "private",
      "name": "新青森",
      "nameKana": null,
      "nameEn": "Shin-Aomori",
      "operator": null,
      "network": null,
      "ref": null,
      "latitude": 40.8282447,
      "longitude": 140.6934733,
      "countryCode": "jp",
      "rawTags": {
        "highspeed": "yes",
        "name": "新青森",
        "name:de": "Shin-Aomori",
        "name:en": "Shin-Aomori",
        "name:it": "Shin-Aomori",
        "name:ja": "新青森",
        "name:ja-Latn": "Shin-Aomori",
        "name:ko": "신아오모리",
        "name:ru": "Син-Аомори",
        "public_transport": "station",
        "railway": "station",
        "source": "KSJ2",
        "toilets:wheelchair": "yes",
        "train": "yes",
        "wheelchair": "limited",
        "wikidata": "Q1187835",
        "wikipedia": "ja:新青森駅"
      }
    },
    {
      "id": "aomori_station_4032225420",
      "osmId": 4032225420,
      "osmType": "node",
      "prefectureId": "aomori",
      "type": "station",
      "subtype": "private",
      "name": "陸奥横浜",
      "nameKana": "むつよこはま",
      "nameEn": "Mutsu-Yokohama",
      "operator": null,
      "network": null,
      "ref": null,
      "latitude": 41.0863776,
      "longitude": 141.2498185,
      "countryCode": "jp",
      "rawTags": {
        "name": "陸奥横浜",
        "name:en": "Mutsu-Yokohama",
        "name:ja-Hira": "むつよこはま",
        "public_transport": "station",
        "railway": "station",
        "train": "yes",
        "wikidata": "Q6944033",
        "wikipedia": "ja:陸奥横浜駅"
      }
    },
    {
      "id": "aomori_station_4143883343",
      "osmId": 4143883343,
      "osmType": "node",
      "prefectureId": "aomori",
      "type": "station",
      "subtype": "private",
      "name": "弘前東高前",
      "nameKana": "ひろさきひがしこうまえ",
      "nameEn": "Hirosaki-Higashikōmae",
      "operator": null,
      "network": null,
      "ref": null,
      "latitude": 40.5923016,
      "longitude": 140.4884227,
      "countryCode": "jp",
      "rawTags": {
        "KSJ2:LIN": "弘南線",
        "KSJ2:STN": "弘前東高前",
        "alt_name:ko": "히로사키히가시코마에",
        "name": "弘前東高前",
        "name:en": "Hirosaki-Higashikōmae",
        "name:ja": "弘前東高前",
        "name:ja_kana": "ひろさきひがしこうまえ",
        "name:ko": "히로사키히가시고앞",
        "note": "National-Land Numerical Information (Railway) 2007, MLIT Japan",
        "note:ja": "国土数値情報（鉄道データ）平成19年　国土交通省",
        "public_transport": "station",
        "railway": "station",
        "source": "KSJ2",
        "source_ref": "http://nlftp.mlit.go.jp/ksj/jpgis/datalist/KsjTmplt-N02-v1_1.html",
        "train": "yes",
        "wikidata": "Q5770706",
        "wikipedia": "ja:弘前東高前駅"
      }
    },
    {
      "id": "aomori_bus_terminal_4830429653",
      "osmId": 4830429653,
      "osmType": "node",
      "prefectureId": "aomori",
      "type": "bus_terminal",
      "subtype": null,
      "name": "下北交通 大畑出張所",
      "nameKana": null,
      "nameEn": null,
      "operator": "下北交通",
      "network": null,
      "ref": null,
      "latitude": 41.402265,
      "longitude": 141.163671,
      "countryCode": "jp",
      "rawTags": {
        "amenity": "bus_station",
        "bus": "yes",
        "description": "旧大畑駅駅舎",
        "name": "下北交通 大畑出張所",
        "operator": "下北交通",
        "public_transport": "station",
        "wikidata": "Q11360643",
        "wikipedia": "ja:大畑駅 (青森県)"
      }
    },
    {
      "id": "aomori_station_4837881282",
      "osmId": 4837881282,
      "osmType": "node",
      "prefectureId": "aomori",
      "type": "station",
      "subtype": "private",
      "name": "下北",
      "nameKana": null,
      "nameEn": "Shimokita",
      "operator": null,
      "network": null,
      "ref": null,
      "latitude": 41.2829772,
      "longitude": 141.1897987,
      "countryCode": "jp",
      "rawTags": {
        "KSJ2:LIN": "大湊線",
        "KSJ2:STN": "下北",
        "name": "下北",
        "name:en": "Shimokita",
        "name:ja": "下北",
        "name:ja_rm": "Shimokita",
        "name:ko": "시모키타",
        "note": "National-Land Numerical Information (Railway) 2007, MLIT Japan",
        "note:ja": "国土数値情報（鉄道データ）平成19年　国土交通省",
        "public_transport": "station",
        "railway": "station",
        "wheelchair": "yes",
        "wikidata": "Q7496973",
        "wikipedia": "ja:下北駅"
      }
    },
    {
      "id": "aomori_station_4837881283",
      "osmId": 4837881283,
      "osmType": "node",
      "prefectureId": "aomori",
      "type": "station",
      "subtype": "private",
      "name": "大湊",
      "nameKana": "おおみなと",
      "nameEn": "Ominato",
      "operator": null,
      "network": null,
      "ref": null,
      "latitude": 41.2804269,
      "longitude": 141.1615289,
      "countryCode": "jp",
      "rawTags": {
        "KSJ2:LIN": "大湊線",
        "KSJ2:STN": "大湊",
        "name": "大湊",
        "name:en": "Ominato",
        "name:ja": "大湊",
        "name:ja_kana": "おおみなと",
        "name:ja_rm": "Ōminato",
        "name:ko": "오미나토",
        "note": "National-Land Numerical Information (Railway) 2007, MLIT Japan",
        "note:ja": "国土数値情報（鉄道データ）平成19年　国土交通省",
        "public_transport": "station",
        "railway": "station",
        "wikidata": "Q8081617",
        "wikipedia": "ja:大湊駅"
      }
    },
    {
      "id": "aomori_station_4837932838",
      "osmId": 4837932838,
      "osmType": "node",
      "prefectureId": "aomori",
      "type": "station",
      "subtype": "jr",
      "name": "三厩",
      "nameKana": null,
      "nameEn": "Minmaya",
      "operator": "東日本旅客鉄道",
      "network": null,
      "ref": null,
      "latitude": 41.1854265,
      "longitude": 140.4444712,
      "countryCode": "jp",
      "rawTags": {
        "KSJ2:LIN": "津軽線",
        "KSJ2:STN": "三厩",
        "name": "三厩",
        "name:en": "Minmaya",
        "name:ja": "三厩",
        "name:ko": "민마야",
        "note": "National-Land Numerical Information (Railway) 2007, MLIT Japan",
        "note:ja": "国土数値情報（鉄道データ）平成19年　国土交通省",
        "operator": "東日本旅客鉄道",
        "operator:ja": "東日本旅客鉄道",
        "public_transport": "station",
        "railway": "station",
        "source": "KSJ2",
        "source_ref": "http://nlftp.mlit.go.jp/ksj/jpgis/datalist/KsjTmplt-N02-v1_1.html",
        "wikidata": "Q6867880",
        "wikipedia": "ja:三厩駅"
      }
    },
    {
      "id": "aomori_ferry_terminal_5341050988",
      "osmId": 5341050988,
      "osmType": "node",
      "prefectureId": "aomori",
      "type": "ferry_terminal",
      "subtype": null,
      "name": "八戸港",
      "nameKana": null,
      "nameEn": null,
      "operator": null,
      "network": null,
      "ref": null,
      "latitude": 40.54875,
      "longitude": 141.5069649,
      "countryCode": "jp",
      "rawTags": {
        "amenity": "ferry_terminal",
        "cargo": "passengers;vehicle",
        "name": "八戸港"
      }
    },
    {
      "id": "aomori_station_5357100607",
      "osmId": 5357100607,
      "osmType": "node",
      "prefectureId": "aomori",
      "type": "station",
      "subtype": "private",
      "name": "陸奥市川",
      "nameKana": "むついちかわ",
      "nameEn": "Mutsu-Ichikawa",
      "operator": null,
      "network": null,
      "ref": null,
      "latitude": 40.5628103,
      "longitude": 141.4393199,
      "countryCode": "jp",
      "rawTags": {
        "KSJ2:LIN": "青い森鉄道線",
        "KSJ2:STN": "陸奥市川",
        "name": "陸奥市川",
        "name:en": "Mutsu-Ichikawa",
        "name:ja": "陸奥市川",
        "name:ja-Hira": "むついちかわ",
        "name:ja-Latn": "Mutsu-Ichikawa",
        "name:ko": "무쓰이치카와",
        "note": "National-Land Numerical Information (Railway) 2007, MLIT Japan",
        "note:ja": "国土数値情報（鉄道データ）平成19年 国土交通省",
        "public_transport": "station",
        "railway": "station",
        "source": "KSJ2",
        "source_ref": "http://nlftp.mlit.go.jp/ksj/jpgis/datalist/KsjTmplt-N02-v1_1.html",
        "website": "https://aoimorirailway.com/lang_jp/station_list/mutsu/",
        "wikidata": "Q5356831",
        "wikipedia": "ja:陸奥市川駅"
      }
    },
    {
      "id": "aomori_ferry_terminal_5388769310",
      "osmId": 5388769310,
      "osmType": "node",
      "prefectureId": "aomori",
      "type": "ferry_terminal",
      "subtype": null,
      "name": "八戸港観光遊覧船 はやぶさⅡ",
      "nameKana": null,
      "nameEn": null,
      "operator": null,
      "network": null,
      "ref": null,
      "latitude": 40.5357246,
      "longitude": 141.5573512,
      "countryCode": "jp",
      "rawTags": {
        "amenity": "ferry_terminal",
        "name": "八戸港観光遊覧船 はやぶさⅡ"
      }
    },
    {
      "id": "aomori_ferry_terminal_5478278681",
      "osmId": 5478278681,
      "osmType": "node",
      "prefectureId": "aomori",
      "type": "ferry_terminal",
      "subtype": null,
      "name": "脇野沢港フェリーターミナル",
      "nameKana": "わきのさわふぇりーたーみなろ",
      "nameEn": "Wanikosawa Ferry Terminal",
      "operator": "むつ湾フェリー株式会社",
      "network": null,
      "ref": null,
      "latitude": 41.1447712,
      "longitude": 140.8267211,
      "countryCode": "jp",
      "rawTags": {
        "addr:city": "むつ市",
        "addr:housenumber": "227",
        "addr:neighbourhood": "本村",
        "addr:postcode": "039-5327",
        "addr:province": "青森県",
        "addr:quarter": "脇野沢",
        "amenity": "ferry_terminal",
        "cargo": "passengers;vehicle",
        "contact:phone": "0175-44-3371",
        "contact:website": "https://www.mutsuwan-ferry.jp/",
        "ferry": "yes",
        "name": "脇野沢港フェリーターミナル",
        "name:en": "Wanikosawa Ferry Terminal",
        "name:ja-Hira": "わきのさわふぇりーたーみなろ",
        "name:ja-Latn": "Wakinosawa Ferī Tāminaru",
        "operator": "むつ湾フェリー株式会社",
        "public_transport": "station"
      }
    },
    {
      "id": "aomori_ferry_terminal_5478278682",
      "osmId": 5478278682,
      "osmType": "node",
      "prefectureId": "aomori",
      "type": "ferry_terminal",
      "subtype": null,
      "name": "蟹田港フェリーターミナル",
      "nameKana": "かにたふぇりーたーみなる",
      "nameEn": "Kanita Ferry Terminal",
      "operator": "むつ湾フェリー株式会社",
      "network": null,
      "ref": null,
      "latitude": 41.0492005,
      "longitude": 140.6466261,
      "countryCode": "jp",
      "rawTags": {
        "addr:city": "外ヶ浜町",
        "addr:county": "東津軽郡",
        "addr:housenumber": "160",
        "addr:neighbourhood": "中師本",
        "addr:postcode": "030-1302",
        "addr:province": "青森県",
        "addr:quarter": "蟹田",
        "amenity": "ferry_terminal",
        "cargo": "passengers;vehicle",
        "contact:phone": "0174-22-3020",
        "contact:website": "https://www.mutsuwan-ferry.jp/",
        "ferry": "yes",
        "name": "蟹田港フェリーターミナル",
        "name:en": "Kanita Ferry Terminal",
        "name:ja-Hira": "かにたふぇりーたーみなる",
        "name:ja-Latn": "Kanita Ferī Tāminaru",
        "operator": "むつ湾フェリー株式会社",
        "public_transport": "station"
      }
    },
    {
      "id": "aomori_ferry_terminal_5604775723",
      "osmId": 5604775723,
      "osmType": "node",
      "prefectureId": "aomori",
      "type": "ferry_terminal",
      "subtype": null,
      "name": "休屋港",
      "nameKana": null,
      "nameEn": null,
      "operator": null,
      "network": null,
      "ref": null,
      "latitude": 40.4267979,
      "longitude": 140.8915419,
      "countryCode": "jp",
      "rawTags": {
        "amenity": "ferry_terminal",
        "cargo": "passengers",
        "name": "休屋港"
      }
    },
    {
      "id": "aomori_bus_terminal_5850325373",
      "osmId": 5850325373,
      "osmType": "node",
      "prefectureId": "aomori",
      "type": "bus_terminal",
      "subtype": null,
      "name": "八戸ラピアバスターミナル",
      "nameKana": null,
      "nameEn": null,
      "operator": null,
      "network": null,
      "ref": null,
      "latitude": 40.5214764,
      "longitude": 141.5029733,
      "countryCode": "jp",
      "rawTags": {
        "amenity": "bus_station",
        "bus": "yes",
        "name": "八戸ラピアバスターミナル",
        "public_transport": "station"
      }
    },
    {
      "id": "aomori_station_5994202571",
      "osmId": 5994202571,
      "osmType": "node",
      "prefectureId": "aomori",
      "type": "station",
      "subtype": "private",
      "name": "北野辺地",
      "nameKana": null,
      "nameEn": "Kita-Noheji",
      "operator": null,
      "network": null,
      "ref": null,
      "latitude": 40.8711076,
      "longitude": 141.1342547,
      "countryCode": "jp",
      "rawTags": {
        "KSJ2:LIN": "大湊線",
        "KSJ2:STN": "北野辺地",
        "name": "北野辺地",
        "name:en": "Kita-Noheji",
        "name:ja": "北野辺地",
        "name:ja_rm": "Kita-Noheji",
        "name:ko": "기타노헤지",
        "note": "National-Land Numerical Information (Railway) 2007, MLIT Japan",
        "note:ja": "国土数値情報（鉄道データ）平成19年　国土交通省",
        "public_transport": "station",
        "railway": "station",
        "source": "KSJ2",
        "source_ref": "http://nlftp.mlit.go.jp/ksj/jpgis/datalist/KsjTmplt-N02-v1_1.html",
        "wikidata": "Q6417582",
        "wikipedia": "ja:北野辺地駅"
      }
    },
    {
      "id": "aomori_station_6067523339",
      "osmId": 6067523339,
      "osmType": "node",
      "prefectureId": "aomori",
      "type": "station",
      "subtype": "jr",
      "name": "撫牛子",
      "nameKana": null,
      "nameEn": "Naijoshi",
      "operator": "JR東日本",
      "network": null,
      "ref": null,
      "latitude": 40.6218286,
      "longitude": 140.4980715,
      "countryCode": "jp",
      "rawTags": {
        "KSJ2:LIN": "奥羽線",
        "KSJ2:STN": "撫牛子",
        "addr:city": "弘前市",
        "addr:province": "青森県",
        "name": "撫牛子",
        "name:de": "Naijoshi",
        "name:en": "Naijoshi",
        "name:ja": "撫牛子",
        "name:ja_rm": "Naijōshi",
        "name:ko": "나이조시",
        "note": "National-Land Numerical Information (Railway) 2007, MLIT Japan",
        "note:ja": "国土数値情報（鉄道データ）平成19年　国土交通省",
        "operator": "JR東日本",
        "public_transport": "station",
        "railway": "station",
        "train": "yes",
        "website": "https://www.jreast.co.jp/estation/station/info.aspx?StationCd=1080",
        "wikidata": "Q6959563",
        "wikipedia": "ja:撫牛子駅"
      }
    },
    {
      "id": "aomori_station_6110900832",
      "osmId": 6110900832,
      "osmType": "node",
      "prefectureId": "aomori",
      "type": "station",
      "subtype": "private",
      "name": "大鰐温泉",
      "nameKana": "おおわにおんせん",
      "nameEn": "Owani-Onsen",
      "operator": null,
      "network": null,
      "ref": null,
      "latitude": 40.521471,
      "longitude": 140.5670401,
      "countryCode": "jp",
      "rawTags": {
        "name": "大鰐温泉",
        "name:de": "Ōwani-Onsen",
        "name:en": "Owani-Onsen",
        "name:ja-Hira": "おおわにおんせん",
        "name:ja-Latn": "Ōwani-Onsen",
        "public_transport": "station",
        "railway": "station",
        "source": "KSJ2",
        "train": "yes",
        "wikidata": "Q8081800",
        "wikipedia": "ja:大鰐温泉駅"
      }
    },
    {
      "id": "aomori_station_6110900862",
      "osmId": 6110900862,
      "osmType": "node",
      "prefectureId": "aomori",
      "type": "station",
      "subtype": "private",
      "name": "長峰",
      "nameKana": "ながみね",
      "nameEn": "Nagamine",
      "operator": null,
      "network": null,
      "ref": null,
      "latitude": 40.5158944,
      "longitude": 140.6031226,
      "countryCode": "jp",
      "rawTags": {
        "name": "長峰",
        "name:de": "Nagamine",
        "name:en": "Nagamine",
        "name:ja-Hira": "ながみね",
        "name:ja-Latn": "Nagamine",
        "public_transport": "station",
        "railway": "station",
        "source": "KSJ2",
        "train": "yes",
        "wikidata": "Q6958414",
        "wikipedia": "ja:長峰駅"
      }
    },
    {
      "id": "aomori_bus_terminal_6209385475",
      "osmId": 6209385475,
      "osmType": "node",
      "prefectureId": "aomori",
      "type": "bus_terminal",
      "subtype": null,
      "name": "大杉平バスセンター",
      "nameKana": null,
      "nameEn": null,
      "operator": null,
      "network": null,
      "ref": null,
      "latitude": 40.4995065,
      "longitude": 141.4815163,
      "countryCode": "jp",
      "rawTags": {
        "amenity": "bus_station",
        "bus": "yes",
        "name": "大杉平バスセンター",
        "public_transport": "station"
      }
    },
    {
      "id": "aomori_bus_terminal_6209413816",
      "osmId": 6209413816,
      "osmType": "node",
      "prefectureId": "aomori",
      "type": "bus_terminal",
      "subtype": null,
      "name": "西高校前",
      "nameKana": null,
      "nameEn": null,
      "operator": null,
      "network": null,
      "ref": null,
      "latitude": 40.5114504,
      "longitude": 141.4245675,
      "countryCode": "jp",
      "rawTags": {
        "amenity": "bus_station",
        "bus": "yes",
        "name": "西高校前",
        "public_transport": "station"
      }
    },
    {
      "id": "aomori_bus_terminal_6212108508",
      "osmId": 6212108508,
      "osmType": "node",
      "prefectureId": "aomori",
      "type": "bus_terminal",
      "subtype": null,
      "name": "ラピアバスセンター",
      "nameKana": null,
      "nameEn": null,
      "operator": null,
      "network": null,
      "ref": null,
      "latitude": 40.5223444,
      "longitude": 141.5061134,
      "countryCode": "jp",
      "rawTags": {
        "amenity": "bus_station",
        "bus": "yes",
        "name": "ラピアバスセンター",
        "public_transport": "station"
      }
    },
    {
      "id": "aomori_bus_terminal_6212108511",
      "osmId": 6212108511,
      "osmType": "node",
      "prefectureId": "aomori",
      "type": "bus_terminal",
      "subtype": null,
      "name": "八戸営業所",
      "nameKana": null,
      "nameEn": null,
      "operator": "十和田観光電鉄",
      "network": null,
      "ref": null,
      "latitude": 40.5247185,
      "longitude": 141.5135012,
      "countryCode": "jp",
      "rawTags": {
        "amenity": "bus_station",
        "bus": "yes",
        "name": "八戸営業所",
        "operator": "十和田観光電鉄",
        "public_transport": "station"
      }
    },
    {
      "id": "aomori_bus_terminal_6215324772",
      "osmId": 6215324772,
      "osmType": "node",
      "prefectureId": "aomori",
      "type": "bus_terminal",
      "subtype": null,
      "name": "旭ヶ丘団地",
      "nameKana": null,
      "nameEn": null,
      "operator": null,
      "network": null,
      "ref": null,
      "latitude": 40.4979881,
      "longitude": 141.5354953,
      "countryCode": "jp",
      "rawTags": {
        "amenity": "bus_station",
        "bus": "yes",
        "name": "旭ヶ丘団地",
        "public_transport": "station"
      }
    },
    {
      "id": "aomori_bus_terminal_6215519495",
      "osmId": 6215519495,
      "osmType": "node",
      "prefectureId": "aomori",
      "type": "bus_terminal",
      "subtype": null,
      "name": "是川団地",
      "nameKana": null,
      "nameEn": null,
      "operator": null,
      "network": null,
      "ref": null,
      "latitude": 40.4697698,
      "longitude": 141.4973639,
      "countryCode": "jp",
      "rawTags": {
        "amenity": "bus_station",
        "bus": "yes",
        "name": "是川団地",
        "public_transport": "station"
      }
    },
    {
      "id": "aomori_bus_terminal_6217832129",
      "osmId": 6217832129,
      "osmType": "node",
      "prefectureId": "aomori",
      "type": "bus_terminal",
      "subtype": null,
      "name": "平庭",
      "nameKana": null,
      "nameEn": null,
      "operator": null,
      "network": null,
      "ref": null,
      "latitude": 40.5028486,
      "longitude": 141.5637002,
      "countryCode": "jp",
      "rawTags": {
        "amenity": "bus_station",
        "bus": "yes",
        "name": "平庭",
        "public_transport": "station"
      }
    },
    {
      "id": "aomori_bus_terminal_6359218497",
      "osmId": 6359218497,
      "osmType": "node",
      "prefectureId": "aomori",
      "type": "bus_terminal",
      "subtype": null,
      "name": "県立郷土館前(ねぶたん号)バス停",
      "nameKana": null,
      "nameEn": null,
      "operator": null,
      "network": null,
      "ref": null,
      "latitude": 40.8271097,
      "longitude": 140.7485093,
      "countryCode": "jp",
      "rawTags": {
        "amenity": "bus_station",
        "bus": "yes",
        "name": "県立郷土館前(ねぶたん号)バス停",
        "public_transport": "station"
      }
    },
    {
      "id": "aomori_station_6374717354",
      "osmId": 6374717354,
      "osmType": "node",
      "prefectureId": "aomori",
      "type": "station",
      "subtype": "private",
      "name": "大鰐",
      "nameKana": null,
      "nameEn": "Ōwani",
      "operator": "弘南鉄道",
      "network": null,
      "ref": null,
      "latitude": 40.5218329,
      "longitude": 140.5670254,
      "countryCode": "jp",
      "rawTags": {
        "KSJ2:LIN": "大鰐線",
        "KSJ2:STN": "大鰐",
        "alt_name:ko": "오와니온센",
        "name": "大鰐",
        "name:en": "Ōwani",
        "name:ja": "大鰐",
        "name:ko": "오와니온천",
        "note": "National-Land Numerical Information (Railway) 2007, MLIT Japan",
        "note:ja": "国土数値情報（鉄道データ）平成19年　国土交通省",
        "operator": "弘南鉄道",
        "public_transport": "station",
        "railway": "station",
        "source": "KSJ2",
        "source_ref": "http://nlftp.mlit.go.jp/ksj/jpgis/datalist/KsjTmplt-N02-v1_1.html",
        "train": "yes",
        "wikidata": "Q8081800",
        "wikipedia": "ja:大鰐駅"
      }
    },
    {
      "id": "aomori_bus_terminal_6725229486",
      "osmId": 6725229486,
      "osmType": "node",
      "prefectureId": "aomori",
      "type": "bus_terminal",
      "subtype": null,
      "name": "下北交通 むつバスターミナル",
      "nameKana": null,
      "nameEn": null,
      "operator": null,
      "network": null,
      "ref": null,
      "latitude": 41.2962573,
      "longitude": 141.214204,
      "countryCode": "jp",
      "rawTags": {
        "amenity": "bus_station",
        "name": "下北交通 むつバスターミナル"
      }
    },
    {
      "id": "aomori_station_7029984731",
      "osmId": 7029984731,
      "osmType": "node",
      "prefectureId": "aomori",
      "type": "station",
      "subtype": "private",
      "name": "大蛇",
      "nameKana": null,
      "nameEn": "Oja",
      "operator": null,
      "network": null,
      "ref": null,
      "latitude": 40.4671517,
      "longitude": 141.6509651,
      "countryCode": "jp",
      "rawTags": {
        "KSJ2:LIN": "八戸線",
        "KSJ2:STN": "大蛇",
        "name": "大蛇",
        "name:en": "Oja",
        "name:ja": "大蛇",
        "name:ja_rm": "Ōja",
        "name:ko": "오자",
        "note": "National-Land Numerical Information (Railway) 2007, MLIT Japan",
        "note:ja": "国土数値情報（鉄道データ）平成19年　国土交通省",
        "public_transport": "station",
        "railway": "station",
        "source": "KSJ2",
        "source_ref": "http://nlftp.mlit.go.jp/ksj/jpgis/datalist/KsjTmplt-N02-v1_1.html",
        "wikidata": "Q8081543",
        "wikipedia": "ja:大蛇駅"
      }
    },
    {
      "id": "aomori_bus_terminal_7611904361",
      "osmId": 7611904361,
      "osmType": "node",
      "prefectureId": "aomori",
      "type": "bus_terminal",
      "subtype": null,
      "name": "岬台団地",
      "nameKana": null,
      "nameEn": null,
      "operator": null,
      "network": null,
      "ref": null,
      "latitude": 40.5184401,
      "longitude": 141.5660986,
      "countryCode": "jp",
      "rawTags": {
        "amenity": "bus_station",
        "name": "岬台団地",
        "public_transport": "platform"
      }
    },
    {
      "id": "aomori_station_7668030814",
      "osmId": 7668030814,
      "osmType": "node",
      "prefectureId": "aomori",
      "type": "station",
      "subtype": "private",
      "name": "下田",
      "nameKana": "しもだ",
      "nameEn": "Shimoda",
      "operator": null,
      "network": null,
      "ref": null,
      "latitude": 40.5920089,
      "longitude": 141.4077142,
      "countryCode": "jp",
      "rawTags": {
        "KSJ2:LIN": "青い森鉄道線",
        "KSJ2:STN": "下田",
        "name": "下田",
        "name:en": "Shimoda",
        "name:ja": "下田",
        "name:ja-Hira": "しもだ",
        "name:ko": "시모다",
        "note": "National-Land Numerical Information (Railway) 2007, MLIT Japan",
        "note:ja": "国土数値情報（鉄道データ）平成19年　国土交通省",
        "public_transport": "station",
        "railway": "station",
        "source": "KSJ2",
        "source_ref": "http://nlftp.mlit.go.jp/ksj/jpgis/datalist/KsjTmplt-N02-v1_1.html",
        "website": "https://aoimorirailway.com/lang_jp/station_list/shimoda/",
        "wikidata": "Q5357199",
        "wikipedia": "ja:下田駅"
      }
    },
    {
      "id": "aomori_station_7996111597",
      "osmId": 7996111597,
      "osmType": "node",
      "prefectureId": "aomori",
      "type": "station",
      "subtype": "private",
      "name": "黒石",
      "nameKana": null,
      "nameEn": "Kuroishi",
      "operator": "弘南鉄道",
      "network": "弘南鉄道弘南線",
      "ref": null,
      "latitude": 40.6482601,
      "longitude": 140.5917659,
      "countryCode": "jp",
      "rawTags": {
        "KSJ2:LIN": "弘南線",
        "KSJ2:STN": "黒石",
        "name": "黒石",
        "name:en": "Kuroishi",
        "name:ja": "黒石",
        "name:ko": "구로이시",
        "network": "弘南鉄道弘南線",
        "note": "National-Land Numerical Information (Railway) 2007, MLIT Japan",
        "note:ja": "国土数値情報（鉄道データ）平成19年　国土交通省",
        "operator": "弘南鉄道",
        "public_transport": "station",
        "railway": "station",
        "source": "KSJ2",
        "source_ref": "http://nlftp.mlit.go.jp/ksj/jpgis/datalist/KsjTmplt-N02-v1_1.html",
        "train": "yes",
        "wikidata": "Q6446318",
        "wikipedia": "ja:黒石駅 (青森県)"
      }
    },
    {
      "id": "aomori_station_8111211131",
      "osmId": 8111211131,
      "osmType": "node",
      "prefectureId": "aomori",
      "type": "station",
      "subtype": "private",
      "name": "松木平",
      "nameKana": null,
      "nameEn": "Matsukitai",
      "operator": "弘南鉄道",
      "network": "弘南鉄道大鰐線",
      "ref": null,
      "latitude": 40.5605678,
      "longitude": 140.4972778,
      "countryCode": "jp",
      "rawTags": {
        "KSJ2:LIN": "大鰐線",
        "KSJ2:STN": "松木平",
        "name": "松木平",
        "name:en": "Matsukitai",
        "name:ja": "松木平",
        "name:ko": "마쓰키타이",
        "network": "弘南鉄道大鰐線",
        "note": "National-Land Numerical Information (Railway) 2007, MLIT Japan",
        "note:ja": "国土数値情報（鉄道データ）平成19年　国土交通省",
        "operator": "弘南鉄道",
        "public_transport": "station",
        "railway": "station",
        "source": "KSJ2",
        "source_ref": "http://nlftp.mlit.go.jp/ksj/jpgis/datalist/KsjTmplt-N02-v1_1.html",
        "wikidata": "Q6788116",
        "wikipedia": "ja:松木平駅"
      }
    },
    {
      "id": "aomori_station_8120213658",
      "osmId": 8120213658,
      "osmType": "node",
      "prefectureId": "aomori",
      "type": "station",
      "subtype": "private",
      "name": "陸奥鶴田",
      "nameKana": null,
      "nameEn": "Mutsu-Tsuruda",
      "operator": null,
      "network": null,
      "ref": null,
      "latitude": 40.7579873,
      "longitude": 140.4354121,
      "countryCode": "jp",
      "rawTags": {
        "KSJ2:LIN": "五能線",
        "KSJ2:STN": "陸奥鶴田",
        "name": "陸奥鶴田",
        "name:en": "Mutsu-Tsuruda",
        "name:ja": "陸奥鶴田",
        "name:ko": "무쓰쓰루다",
        "public_transport": "station",
        "railway": "station",
        "wikidata": "Q6944031",
        "wikipedia": "ja:陸奥鶴田駅"
      }
    },
    {
      "id": "aomori_station_8549548463",
      "osmId": 8549548463,
      "osmType": "node",
      "prefectureId": "aomori",
      "type": "station",
      "subtype": "private",
      "name": "目時",
      "nameKana": "めとき",
      "nameEn": "Metoki",
      "operator": null,
      "network": null,
      "ref": null,
      "latitude": 40.3516361,
      "longitude": 141.2894931,
      "countryCode": "jp",
      "rawTags": {
        "name": "目時",
        "name:en": "Metoki",
        "name:ja": "目時",
        "name:ja-Hira": "めとき",
        "name:ja-Latn": "Metoki",
        "name:ko": "메토키",
        "name:zh": "目时",
        "name:zh-Hans": "目时",
        "name:zh-Hant": "目時",
        "note": "National-Land Numerical Information (Railway) 2007, MLIT Japan",
        "note:ja": "国土数値情報（鉄道データ）平成19年　国土交通省",
        "public_transport": "station",
        "railway": "station",
        "source": "KSJ2",
        "source_ref": "http://nlftp.mlit.go.jp/ksj/jpgis/datalist/KsjTmplt-N02-v1_1.html",
        "train": "yes",
        "website": "https://aoimorirailway.com/lang_jp/station_list/metoki/",
        "wikidata": "Q6824222",
        "wikipedia": "ja:目時駅"
      }
    },
    {
      "id": "aomori_station_8556047792",
      "osmId": 8556047792,
      "osmType": "node",
      "prefectureId": "aomori",
      "type": "station",
      "subtype": "jr",
      "name": "大川平",
      "nameKana": "おおかわだい",
      "nameEn": "Okawadai",
      "operator": "東日本旅客鉄道",
      "network": null,
      "ref": null,
      "latitude": 41.1631519,
      "longitude": 140.507479,
      "countryCode": "jp",
      "rawTags": {
        "name": "大川平",
        "name:en": "Okawadai",
        "name:ja": "大川平",
        "name:ja-Hira": "おおかわだい",
        "name:ja-Latn": "Ōkawadai",
        "name:ko": "오카와다이",
        "note": "National-Land Numerical Information (Railway) 2007, MLIT Japan",
        "note:ja": "国土数値情報（鉄道データ）平成19年　国土交通省",
        "operator": "東日本旅客鉄道",
        "public_transport": "station",
        "railway": "station",
        "source": "KSJ2",
        "source_ref": "http://nlftp.mlit.go.jp/ksj/jpgis/datalist/KsjTmplt-N02-v1_1.html",
        "train": "yes",
        "wikidata": "Q8081557",
        "wikipedia": "ja:大川平駅"
      }
    },
    {
      "id": "aomori_station_8556047793",
      "osmId": 8556047793,
      "osmType": "node",
      "prefectureId": "aomori",
      "type": "station",
      "subtype": "private",
      "name": "今別",
      "nameKana": "いまべつ",
      "nameEn": "Imabetsu",
      "operator": null,
      "network": null,
      "ref": null,
      "latitude": 41.1796735,
      "longitude": 140.4905047,
      "countryCode": "jp",
      "rawTags": {
        "name": "今別",
        "name:en": "Imabetsu",
        "name:ja": "今別",
        "name:ja-Hira": "いまべつ",
        "name:ja-Latn": "Imabetsu",
        "name:ko": "이마베쓰",
        "note": "National-Land Numerical Information (Railway) 2007, MLIT Japan",
        "note:ja": "国土数値情報（鉄道データ）平成19年　国土交通省",
        "public_transport": "station",
        "railway": "station",
        "source": "KSJ2",
        "source_ref": "http://nlftp.mlit.go.jp/ksj/jpgis/datalist/KsjTmplt-N02-v1_1.html",
        "train": "yes",
        "wikidata": "Q6001932",
        "wikipedia": "ja:今別駅"
      }
    },
    {
      "id": "aomori_station_8556047794",
      "osmId": 8556047794,
      "osmType": "node",
      "prefectureId": "aomori",
      "type": "station",
      "subtype": "private",
      "name": "津軽浜名",
      "nameKana": null,
      "nameEn": "Tsugaru-Hamana",
      "operator": null,
      "network": null,
      "ref": null,
      "latitude": 41.1806243,
      "longitude": 140.4716366,
      "countryCode": "jp",
      "rawTags": {
        "name": "津軽浜名",
        "name:en": "Tsugaru-Hamana",
        "name:ja": "津軽浜名",
        "name:ko": "쓰가루하마나",
        "note": "National-Land Numerical Information (Railway) 2007, MLIT Japan",
        "note:ja": "国土数値情報（鉄道データ）平成19年　国土交通省",
        "public_transport": "station",
        "railway": "station",
        "source": "KSJ2",
        "source_ref": "http://nlftp.mlit.go.jp/ksj/jpgis/datalist/KsjTmplt-N02-v1_1.html",
        "train": "yes",
        "wikidata": "Q7849957",
        "wikipedia": "ja:津軽浜名駅"
      }
    },
    {
      "id": "aomori_station_8556065059",
      "osmId": 8556065059,
      "osmType": "node",
      "prefectureId": "aomori",
      "type": "station",
      "subtype": "jr",
      "name": "津軽二股",
      "nameKana": "つがるふたまた",
      "nameEn": "Tsugaru-futamata",
      "operator": "東日本旅客鉄道",
      "network": null,
      "ref": null,
      "latitude": 41.145593,
      "longitude": 140.5144112,
      "countryCode": "jp",
      "rawTags": {
        "name": "津軽二股",
        "name:en": "Tsugaru-futamata",
        "name:ja": "津軽二股",
        "name:ja-Hira": "つがるふたまた",
        "name:ja-Latn": "Tsugaru-Futamata",
        "name:ko": "쓰가루후타마타",
        "note": "National-Land Numerical Information (Railway) 2007, MLIT Japan",
        "note:ja": "国土数値情報（鉄道データ）平成19年　国土交通省",
        "operator": "東日本旅客鉄道",
        "operator:ja": "東日本旅客鉄道",
        "public_transport": "station",
        "railway": "station",
        "source": "KSJ2",
        "source_ref": "http://nlftp.mlit.go.jp/ksj/jpgis/datalist/KsjTmplt-N02-v1_1.html",
        "train": "yes",
        "wikidata": "Q7849955",
        "wikipedia": "ja:津軽二股駅"
      }
    },
    {
      "id": "aomori_station_8558472727",
      "osmId": 8558472727,
      "osmType": "node",
      "prefectureId": "aomori",
      "type": "station",
      "subtype": "private",
      "name": "大平",
      "nameKana": null,
      "nameEn": "Ōdai",
      "operator": null,
      "network": null,
      "ref": null,
      "latitude": 41.0657912,
      "longitude": 140.5594227,
      "countryCode": "jp",
      "rawTags": {
        "name": "大平",
        "name:en": "Ōdai",
        "name:ja": "大平",
        "name:ko": "오다이",
        "public_transport": "station",
        "railway": "station",
        "source": "GSImaps/std",
        "train": "yes",
        "wikidata": "Q8081435",
        "wikipedia": "ja:大平駅"
      }
    },
    {
      "id": "aomori_station_8648840815",
      "osmId": 8648840815,
      "osmType": "node",
      "prefectureId": "aomori",
      "type": "station",
      "subtype": "private",
      "name": "浪岡",
      "nameKana": null,
      "nameEn": "Namioka",
      "operator": null,
      "network": null,
      "ref": null,
      "latitude": 40.7105259,
      "longitude": 140.5809152,
      "countryCode": "jp",
      "rawTags": {
        "KSJ2:LIN": "奥羽線",
        "KSJ2:STN": "浪岡",
        "name": "浪岡",
        "name:de": "Namioka",
        "name:en": "Namioka",
        "name:ja": "浪岡",
        "name:ja_rm": "Namioka",
        "name:ko": "나미오카",
        "public_transport": "station",
        "railway": "station",
        "website": "https://www.jreast.co.jp/estation/station/info.aspx?StationCd=1124",
        "wikidata": "Q6961895",
        "wikipedia": "ja:浪岡駅"
      }
    },
    {
      "id": "aomori_station_8649219868",
      "osmId": 8649219868,
      "osmType": "node",
      "prefectureId": "aomori",
      "type": "station",
      "subtype": "private",
      "name": "津軽湯の沢",
      "nameKana": null,
      "nameEn": "Tsugaru-Yunosawa",
      "operator": null,
      "network": null,
      "ref": null,
      "latitude": 40.441701,
      "longitude": 140.6324042,
      "countryCode": "jp",
      "rawTags": {
        "KSJ2:LIN": "奥羽線",
        "KSJ2:STN": "津軽湯の沢",
        "name": "津軽湯の沢",
        "name:en": "Tsugaru-Yunosawa",
        "name:ja": "津軽湯の沢",
        "name:ja_rm": "Tsugaru-Yunosawa",
        "name:ko": "쓰가루유노사와",
        "note": "National-Land Numerical Information (Railway) 2007, MLIT Japan",
        "note:ja": "国土数値情報（鉄道データ）平成19年　国土交通省",
        "public_transport": "station",
        "railway": "station",
        "source": "KSJ2",
        "source_ref": "http://nlftp.mlit.go.jp/ksj/jpgis/datalist/KsjTmplt-N02-v1_1.html",
        "wikidata": "Q7849963",
        "wikipedia": "ja:津軽湯の沢駅"
      }
    },
    {
      "id": "aomori_station_8649219943",
      "osmId": 8649219943,
      "osmType": "node",
      "prefectureId": "aomori",
      "type": "station",
      "subtype": "private",
      "name": "碇ヶ関",
      "nameKana": null,
      "nameEn": "Ikarigaseki",
      "operator": null,
      "network": null,
      "ref": null,
      "latitude": 40.4793766,
      "longitude": 140.6223178,
      "countryCode": "jp",
      "rawTags": {
        "KSJ2:LIN": "奥羽線",
        "KSJ2:STN": "碇ヶ関",
        "name": "碇ヶ関",
        "name:de": "Ikarigaseki",
        "name:en": "Ikarigaseki",
        "name:ja": "碇ヶ関",
        "name:ja_rm": "Ikarigaseki",
        "name:ko": "이카리가세키",
        "note": "National-Land Numerical Information (Railway) 2007, MLIT Japan",
        "note:ja": "国土数値情報（鉄道データ）平成19年　国土交通省",
        "public_transport": "station",
        "railway": "station",
        "source": "KSJ2",
        "source_ref": "http://nlftp.mlit.go.jp/ksj/jpgis/datalist/KsjTmplt-N02-v1_1.html",
        "train": "yes",
        "wikidata": "Q5995394",
        "wikipedia": "ja:碇ケ関駅"
      }
    },
    {
      "id": "aomori_station_8649219946",
      "osmId": 8649219946,
      "osmType": "node",
      "prefectureId": "aomori",
      "type": "station",
      "subtype": "private",
      "name": "弘前",
      "nameKana": null,
      "nameEn": "Hirosaki",
      "operator": null,
      "network": null,
      "ref": null,
      "latitude": 40.5995511,
      "longitude": 140.4852086,
      "countryCode": "jp",
      "rawTags": {
        "KSJ2:LIN": "奥羽線",
        "KSJ2:STN": "弘前",
        "name": "弘前",
        "name:de": "Hirosaki",
        "name:en": "Hirosaki",
        "name:it": "Hirosaki",
        "name:ja": "弘前",
        "name:ja-Latn": "Hirosaki",
        "name:ko": "히로사키",
        "note": "National-Land Numerical Information (Railway) 2007, MLIT Japan",
        "note:ja": "国土数値情報（鉄道データ）平成19年　国土交通省",
        "public_transport": "station",
        "railway": "station",
        "source": "KSJ2",
        "source_ref": "http://nlftp.mlit.go.jp/ksj/jpgis/datalist/KsjTmplt-N02-v1_1.html",
        "website": "https://www.jreast.co.jp/estation/station/info.aspx?StationCd=1344",
        "wikidata": "Q5770722",
        "wikipedia": "ja:弘前駅"
      }
    },
    {
      "id": "aomori_station_8651588732",
      "osmId": 8651588732,
      "osmType": "node",
      "prefectureId": "aomori",
      "type": "station",
      "subtype": "private",
      "name": "川部",
      "nameKana": null,
      "nameEn": "Kawabe",
      "operator": null,
      "network": null,
      "ref": null,
      "latitude": 40.6469983,
      "longitude": 140.5215325,
      "countryCode": "jp",
      "rawTags": {
        "KSJ2:LIN": "五能線;奥羽線",
        "KSJ2:STN": "川部",
        "name": "川部",
        "name:de": "Kawabe",
        "name:en": "Kawabe",
        "name:ja": "川部",
        "name:ja_rm": "Kawabe",
        "name:ko": "가와베",
        "note": "National-Land Numerical Information (Railway) 2007, MLIT Japan",
        "note:ja": "国土数値情報（鉄道データ）平成19年　国土交通省",
        "public_transport": "station",
        "railway": "station",
        "source": "KSJ2",
        "source_ref": "http://nlftp.mlit.go.jp/ksj/jpgis/datalist/KsjTmplt-N02-v1_1.html",
        "website": "https://www.jreast.co.jp/estation/station/info.aspx?StationCd=534",
        "wikidata": "Q6379432",
        "wikipedia": "ja:川部駅"
      }
    },
    {
      "id": "aomori_station_9122714690",
      "osmId": 9122714690,
      "osmType": "node",
      "prefectureId": "aomori",
      "type": "station",
      "subtype": "private",
      "name": "深浦",
      "nameKana": null,
      "nameEn": "Fukaura",
      "operator": null,
      "network": null,
      "ref": null,
      "latitude": 40.6504406,
      "longitude": 139.9294496,
      "countryCode": "jp",
      "rawTags": {
        "name": "深浦",
        "name:en": "Fukaura",
        "name:ja": "深浦",
        "name:ko": "후카우라",
        "public_transport": "station",
        "railway": "station",
        "wikidata": "Q5507586",
        "wikipedia": "ja:深浦駅"
      }
    },
    {
      "id": "aomori_station_9561831167",
      "osmId": 9561831167,
      "osmType": "node",
      "prefectureId": "aomori",
      "type": "station",
      "subtype": "private",
      "name": ":五農校前",
      "nameKana": null,
      "nameEn": "Gonoko-mae",
      "operator": null,
      "network": null,
      "ref": null,
      "latitude": 40.8212196,
      "longitude": 140.4786852,
      "countryCode": "jp",
      "rawTags": {
        "KSJ2:LIN": "津軽鉄道線",
        "KSJ2:STN": "五農校前",
        "name": ":五農校前",
        "name:en": "Gonoko-mae",
        "name:ja": "五農校前",
        "public_transport": "station",
        "railway": "station",
        "wikidata": "Q5582338",
        "wikipedia": "ja:五農校前駅"
      }
    },
    {
      "id": "aomori_station_9764394383",
      "osmId": 9764394383,
      "osmType": "node",
      "prefectureId": "aomori",
      "type": "station",
      "subtype": "private",
      "name": "千年",
      "nameKana": null,
      "nameEn": "Chitose",
      "operator": "弘南鉄道",
      "network": "弘南鉄道大鰐線",
      "ref": null,
      "latitude": 40.5671119,
      "longitude": 140.4806278,
      "countryCode": "jp",
      "rawTags": {
        "KSJ2:LIN": "大鰐線",
        "KSJ2:STN": "千年",
        "name": "千年",
        "name:en": "Chitose",
        "name:ja": "千年",
        "name:ko": "지토세",
        "network": "弘南鉄道大鰐線",
        "operator": "弘南鉄道",
        "railway": "station",
        "train": "yes",
        "wikidata": "Q5102287",
        "wikipedia": "ja:千年駅"
      }
    },
    {
      "id": "aomori_station_9818579462",
      "osmId": 9818579462,
      "osmType": "node",
      "prefectureId": "aomori",
      "type": "station",
      "subtype": "private",
      "name": "金木",
      "nameKana": null,
      "nameEn": "Kanagi",
      "operator": null,
      "network": null,
      "ref": null,
      "latitude": 40.9031521,
      "longitude": 140.4598913,
      "countryCode": "jp",
      "rawTags": {
        "KSJ2:LIN": "津軽鉄道線",
        "KSJ2:STN": "金木",
        "name": "金木",
        "name:en": "Kanagi",
        "name:ja": "金木",
        "name:ko": "가나기",
        "public_transport": "station",
        "railway": "station",
        "wikidata": "Q6360304",
        "wikipedia": "ja:金木駅"
      }
    },
    {
      "id": "aomori_station_9834642569",
      "osmId": 9834642569,
      "osmType": "node",
      "prefectureId": "aomori",
      "type": "station",
      "subtype": "private",
      "name": "中央弘前",
      "nameKana": null,
      "nameEn": "Chūō-Hirosaki",
      "operator": "弘南鉄道",
      "network": "弘南鉄道大鰐線",
      "ref": null,
      "latitude": 40.5994019,
      "longitude": 140.4724581,
      "countryCode": "jp",
      "rawTags": {
        "name": "中央弘前",
        "name:en": "Chūō-Hirosaki",
        "network": "弘南鉄道大鰐線",
        "operator": "弘南鉄道",
        "public_transport": "station",
        "railway": "station",
        "train": "yes",
        "wikidata": "Q5119035"
      }
    },
    {
      "id": "aomori_station_9834717804",
      "osmId": 9834717804,
      "osmType": "node",
      "prefectureId": "aomori",
      "type": "station",
      "subtype": "private",
      "name": "弘高下",
      "nameKana": null,
      "nameEn": "Hirokōshita",
      "operator": "弘南鉄道",
      "network": "弘南鉄道大鰐線",
      "ref": null,
      "latitude": 40.592987,
      "longitude": 140.4681793,
      "countryCode": "jp",
      "rawTags": {
        "name": "弘高下",
        "name:en": "Hirokōshita",
        "name:ja": "弘高下",
        "name:ko": "히로코시타",
        "network": "弘南鉄道大鰐線",
        "operator": "弘南鉄道",
        "public_transport": "station",
        "railway": "station",
        "train": "yes"
      }
    },
    {
      "id": "aomori_station_9838910129",
      "osmId": 9838910129,
      "osmType": "node",
      "prefectureId": "aomori",
      "type": "station",
      "subtype": "private",
      "name": "弘前学院大前",
      "nameKana": null,
      "nameEn": "Hirosaki Gaukuin Dai Mae",
      "operator": "弘南鉄道",
      "network": "弘南鉄道大鰐線",
      "ref": null,
      "latitude": 40.5835007,
      "longitude": 140.4705437,
      "countryCode": "jp",
      "rawTags": {
        "name": "弘前学院大前",
        "name:en": "Hirosaki Gaukuin Dai Mae",
        "name:ja": "弘前学院大前",
        "name:ko": "히로사키가쿠인대앞",
        "network": "弘南鉄道大鰐線",
        "operator": "弘南鉄道",
        "public_transport": "station",
        "railway": "station",
        "train": "yes",
        "wikidata": "Q5770713",
        "wikipedia": "ja:弘前学院大前駅"
      }
    },
    {
      "id": "aomori_station_9840075731",
      "osmId": 9840075731,
      "osmType": "node",
      "prefectureId": "aomori",
      "type": "station",
      "subtype": "private",
      "name": "狩場沢",
      "nameKana": "かりばさわ",
      "nameEn": "Karibasawa",
      "operator": null,
      "network": null,
      "ref": null,
      "latitude": 40.9005085,
      "longitude": 141.0711989,
      "countryCode": "jp",
      "rawTags": {
        "KSJ2:LIN": "青い森鉄道線",
        "KSJ2:STN": "狩場沢",
        "name": "狩場沢",
        "name:en": "Karibasawa",
        "name:ja": "狩場沢",
        "name:ja-Hira": "かりばさわ",
        "name:ja-Latn": "Karibasawa",
        "name:ko": "가리바사와",
        "name:zh": "狩场泽",
        "name:zh-Hans": "狩场泽",
        "name:zh-Hant": "狩場澤",
        "public_transport": "station",
        "railway": "station",
        "website": "https://aoimorirailway.com/lang_jp/station_list/karibasawa/",
        "wikidata": "Q6370477",
        "wikipedia": "ja:狩場沢駅"
      }
    },
    {
      "id": "aomori_station_11053583218",
      "osmId": 11053583218,
      "osmType": "node",
      "prefectureId": "aomori",
      "type": "station",
      "subtype": "private",
      "name": "北常盤",
      "nameKana": null,
      "nameEn": "Kita-Tokiwa",
      "operator": null,
      "network": null,
      "ref": null,
      "latitude": 40.6704293,
      "longitude": 140.5436808,
      "countryCode": "jp",
      "rawTags": {
        "name": "北常盤",
        "name:en": "Kita-Tokiwa",
        "name:ja": "北常盤",
        "name:ja-Latn": "Kita-Tokiwa",
        "name:ko": "기타토키와",
        "public_transport": "station",
        "railway": "station",
        "website": "https://www.jreast.co.jp/estation/station/info.aspx?StationCd=576",
        "wikidata": "Q6417613",
        "wikipedia": "ja:北常盤駅"
      }
    },
    {
      "id": "aomori_station_11053583220",
      "osmId": 11053583220,
      "osmType": "node",
      "prefectureId": "aomori",
      "type": "station",
      "subtype": "private",
      "name": "鶴ヶ坂",
      "nameKana": null,
      "nameEn": "Tsurugasaka",
      "operator": null,
      "network": null,
      "ref": null,
      "latitude": 40.7914725,
      "longitude": 140.6349161,
      "countryCode": "jp",
      "rawTags": {
        "name": "鶴ヶ坂",
        "name:en": "Tsurugasaka",
        "name:ja": "鶴ヶ坂",
        "name:ja-Latn": "Tsurugasaka",
        "name:ko": "쓰루가사카",
        "public_transport": "station",
        "railway": "station",
        "website": "https://www.jreast.co.jp/estation/station/info.aspx?StationCd=1021",
        "wikidata": "Q7850268",
        "wikipedia": "ja:鶴ケ坂駅"
      }
    },
    {
      "id": "aomori_station_12796004250",
      "osmId": 12796004250,
      "osmType": "node",
      "prefectureId": "aomori",
      "type": "station",
      "subtype": "private",
      "name": "三戸",
      "nameKana": null,
      "nameEn": "Sannohe",
      "operator": null,
      "network": null,
      "ref": null,
      "latitude": 40.395603,
      "longitude": 141.2732658,
      "countryCode": "jp",
      "rawTags": {
        "KSJ2:LIN": "青い森鉄道線",
        "KSJ2:STN": "三戸",
        "name": "三戸",
        "name:en": "Sannohe",
        "name:ja": "三戸",
        "name:ja_rm": "Sannohe",
        "name:ko": "산노헤",
        "note": "National-Land Numerical Information (Railway) 2007, MLIT Japan",
        "note:ja": "国土数値情報（鉄道データ）平成19年 国土交通省",
        "public_transport": "station",
        "railway": "station",
        "source": "KSJ2",
        "source_ref": "http://nlftp.mlit.go.jp/ksj/jpgis/datalist/KsjTmplt-N02-v1_1.html",
        "website": "https://aoimorirailway.com/lang_jp/station_list/sannohe/",
        "wikidata": "Q5357203",
        "wikimedia_commons": "File:Aoimori Sannohe Station building, Aomori Pref.jpg",
        "wikipedia": "ja:三戸駅"
      }
    },
    {
      "id": "aomori_station_12796042925",
      "osmId": 12796042925,
      "osmType": "node",
      "prefectureId": "aomori",
      "type": "station",
      "subtype": "private",
      "name": "北高岩",
      "nameKana": null,
      "nameEn": "Kitatakaiwa",
      "operator": null,
      "network": null,
      "ref": null,
      "latitude": 40.4755165,
      "longitude": 141.4064945,
      "countryCode": "jp",
      "rawTags": {
        "KSJ2:LIN": "青い森鉄道線",
        "KSJ2:STN": "北高岩",
        "name": "北高岩",
        "name:en": "Kitatakaiwa",
        "name:ja": "北高岩",
        "name:ja_rm": "Kitatakaiwa",
        "name:ko": "기타타카이와",
        "note": "National-Land Numerical Information (Railway) 2007, MLIT Japan",
        "note:ja": "国土数値情報（鉄道データ）平成19年 国土交通省",
        "public_transport": "station",
        "railway": "station",
        "source": "KSJ2",
        "source_ref": "http://nlftp.mlit.go.jp/ksj/jpgis/datalist/KsjTmplt-N02-v1_1.html",
        "website": "https://aoimorirailway.com/lang_jp/station_list/kitatakaiwa/",
        "wikidata": "Q5357135",
        "wikipedia": "ja:北高岩駅"
      }
    },
    {
      "id": "aomori_ferry_terminal_26618394",
      "osmId": 26618394,
      "osmType": "way",
      "prefectureId": "aomori",
      "type": "ferry_terminal",
      "subtype": null,
      "name": "津軽海峡フェリー青森ターミナル",
      "nameKana": "つがるかいきょうふぇりーあおもりたーみなる",
      "nameEn": "Tsugaru Kaikyō Ferry Aomori Terminal",
      "operator": null,
      "network": null,
      "ref": null,
      "latitude": 40.8461679,
      "longitude": 140.7161207,
      "countryCode": "jp",
      "rawTags": {
        "addr:block_number": "12",
        "addr:city": "青森市",
        "addr:housenumber": "1",
        "addr:neighbourhood": "2丁目",
        "addr:postcode": "038-0002",
        "addr:province": "青森県",
        "addr:quarter": "沖館",
        "amenity": "ferry_terminal",
        "building": "yes",
        "name": "津軽海峡フェリー青森ターミナル",
        "name:en": "Tsugaru Kaikyō Ferry Aomori Terminal",
        "name:ja": "津軽海峡フェリー青森ターミナル",
        "name:ja-Hira": "つがるかいきょうふぇりーあおもりたーみなる",
        "name:ja-Latn": "Tsugaru Kaikyō Ferī Aomori Tāminaru",
        "name:ko": "쓰가루해협 페리 아오모리 터미널",
        "phone": "+81 17-766-4733",
        "website": "https://www.tsugarukaikyo.co.jp/"
      }
    },
    {
      "id": "aomori_airport_57008923",
      "osmId": 57008923,
      "osmType": "way",
      "prefectureId": "aomori",
      "type": "airport",
      "subtype": "domestic",
      "name": "三沢空港",
      "nameKana": null,
      "nameEn": "Misawa Airport",
      "operator": null,
      "network": null,
      "ref": "MSJ",
      "latitude": 40.7013585,
      "longitude": 141.3688222,
      "countryCode": "jp",
      "rawTags": {
        "KSJ2:AAC": "02207",
        "KSJ2:AAC_label": "青森県三沢市",
        "KSJ2:AD2": "3",
        "KSJ2:AD2_label": "米軍",
        "KSJ2:ARP": "40.7052777778 141.3694444444",
        "KSJ2:ATB": "40.6965833300 141.3877500000",
        "KSJ2:CLT": "20 00",
        "KSJ2:COA": "自衛隊、米軍との共用飛行場",
        "KSJ2:CompositeCurve": "cv17Airport",
        "KSJ2:DSA": "特定飛行場以外",
        "KSJ2:INP": "3",
        "KSJ2:INP_label": "米軍",
        "KSJ2:IUC": "供用中",
        "KSJ2:NA3": "三沢飛行場",
        "KSJ2:OPT": "08 30",
        "KSJ2:REF": "1",
        "KSJ2:REF_label": "ジェット定期便が就航している場合",
        "KSJ2:airport_id": "cf02_18",
        "KSJ2:runways": "3050 45",
        "aerodrome:type": "public",
        "aeroway": "aerodrome",
        "barrier": "fence",
        "ele": "36.3",
        "iata": "MSJ",
        "icao": "RJSM",
        "name": "三沢空港",
        "name:en": "Misawa Airport",
        "name:ja": "三沢空港",
        "name:ja_rm": "Misawa Hikōjō",
        "name:ru": "Аэродром Мисава",
        "note": "National-Land Numerical Information (Airport) 2007, MLIT Japan",
        "note:ja": "国土数値情報（空港データ）平成19年　国土交通省",
        "source": "KSJ2;wikipedia",
        "source_ref": "http://nlftp.mlit.go.jp/ksj/jpgis/datalist/KsjTmplt-C28-v1_1.html",
        "wikidata": "Q3566938",
        "wikipedia": "en:Misawa Airport"
      }
    },
    {
      "id": "aomori_bus_terminal_233523108",
      "osmId": 233523108,
      "osmType": "way",
      "prefectureId": "aomori",
      "type": "bus_terminal",
      "subtype": null,
      "name": "十和田湖駅",
      "nameKana": null,
      "nameEn": "JRHouse Towada",
      "operator": null,
      "network": null,
      "ref": null,
      "latitude": 40.4265697,
      "longitude": 140.894271,
      "countryCode": "jp",
      "rawTags": {
        "amenity": "bus_station",
        "building": "yes",
        "name": "十和田湖駅",
        "name:en": "JRHouse Towada",
        "public_transport": "station"
      }
    },
    {
      "id": "aomori_airport_245451491",
      "osmId": 245451491,
      "osmType": "way",
      "prefectureId": "aomori",
      "type": "airport",
      "subtype": "military",
      "name": "海上自衛隊 八戸航空基地",
      "nameKana": null,
      "nameEn": "JMSDF Hachinohe Air Base",
      "operator": null,
      "network": null,
      "ref": "HHE",
      "latitude": 40.551525,
      "longitude": 141.4672316,
      "countryCode": "jp",
      "rawTags": {
        "aeroway": "aerodrome",
        "iata": "HHE",
        "icao": "RJSH",
        "landuse": "military",
        "military": "airfield",
        "name": "海上自衛隊 八戸航空基地",
        "name:en": "JMSDF Hachinohe Air Base"
      }
    },
    {
      "id": "aomori_bus_terminal_350272623",
      "osmId": 350272623,
      "osmType": "way",
      "prefectureId": "aomori",
      "type": "bus_terminal",
      "subtype": null,
      "name": "旭ヶ丘営業所",
      "nameKana": null,
      "nameEn": null,
      "operator": "八戸市交通部",
      "network": null,
      "ref": null,
      "latitude": 40.5028164,
      "longitude": 141.5380981,
      "countryCode": "jp",
      "rawTags": {
        "amenity": "bus_station",
        "building": "yes",
        "bus": "yes",
        "internet_access": "no",
        "name": "旭ヶ丘営業所",
        "operator": "八戸市交通部",
        "public_transport": "station"
      }
    },
    {
      "id": "aomori_ferry_terminal_352634083",
      "osmId": 352634083,
      "osmType": "way",
      "prefectureId": "aomori",
      "type": "ferry_terminal",
      "subtype": null,
      "name": "青函フェリー青森ターミナル",
      "nameKana": "せいかんふぇりーあおもりたーみなる",
      "nameEn": "Seikan Ferry Aomori Terminal",
      "operator": null,
      "network": null,
      "ref": null,
      "latitude": 40.8438885,
      "longitude": 140.7158261,
      "countryCode": "jp",
      "rawTags": {
        "addr:block_number": "11",
        "addr:city": "青森市",
        "addr:housenumber": "1",
        "addr:neighbourhood": "2丁目",
        "addr:postcode": "038-0002",
        "addr:province": "青森県",
        "addr:quarter": "沖舘",
        "amenity": "ferry_terminal",
        "building": "yes",
        "name": "青函フェリー青森ターミナル",
        "name:en": "Seikan Ferry Aomori Terminal",
        "name:ja": "青函フェリー青森ターミナル",
        "name:ja-Hira": "せいかんふぇりーあおもりたーみなる",
        "name:ja-Latn": "Seikan Ferī Aomori Tāminaru",
        "phone": "+81 17-782-3671",
        "website": "http://www.seikan-ferry.co.jp/"
      }
    },
    {
      "id": "aomori_airport_421590433",
      "osmId": 421590433,
      "osmType": "way",
      "prefectureId": "aomori",
      "type": "airport",
      "subtype": "domestic",
      "name": "大湊航空基地",
      "nameKana": null,
      "nameEn": "Ominato Airbase",
      "operator": "JMSDF",
      "network": null,
      "ref": "RJSO",
      "latitude": 41.2342211,
      "longitude": 141.1357465,
      "countryCode": "jp",
      "rawTags": {
        "aeroway": "aerodrome",
        "icao": "RJSO",
        "name": "大湊航空基地",
        "name:en": "Ominato Airbase",
        "operator": "JMSDF",
        "source": "YahooJapan/ALPSMAP"
      }
    },
    {
      "id": "aomori_ferry_terminal_546943118",
      "osmId": 546943118,
      "osmType": "way",
      "prefectureId": "aomori",
      "type": "ferry_terminal",
      "subtype": null,
      "name": "津軽海峡フェリー 大間ターミナル",
      "nameKana": "つがるかいきょうふぇりーおおまたーみなる",
      "nameEn": "Tsugaru Kaikyō Ferry Ōma Terminal",
      "operator": null,
      "network": null,
      "ref": null,
      "latitude": 41.5261676,
      "longitude": 140.8988507,
      "countryCode": "jp",
      "rawTags": {
        "addr:city": "大間町",
        "addr:county": "下北郡",
        "addr:housenumber": "10番地",
        "addr:neighbourhood": "字根田内",
        "addr:postcode": "039-4601",
        "addr:province": "青森県",
        "addr:quarter": "大字大間",
        "amenity": "ferry_terminal",
        "building": "yes",
        "name": "津軽海峡フェリー 大間ターミナル",
        "name:en": "Tsugaru Kaikyō Ferry Ōma Terminal",
        "name:ja": "津軽海峡フェリー 大間ターミナル",
        "name:ja-Hira": "つがるかいきょうふぇりーおおまたーみなる",
        "name:ja-Latn": "Tsugaru Kaikyō Ferī Ōma Tāminaru",
        "name:ko": "쓰가루해협페리 오마페리터미널",
        "phone": "+81 0175-37-3111",
        "website": "https://www.tsugarukaikyo.co.jp/"
      }
    },
    {
      "id": "aomori_bus_terminal_561954771",
      "osmId": 561954771,
      "osmType": "way",
      "prefectureId": "aomori",
      "type": "bus_terminal",
      "subtype": null,
      "name": "八戸市交通部旭ヶ丘営業所",
      "nameKana": null,
      "nameEn": null,
      "operator": null,
      "network": null,
      "ref": null,
      "latitude": 40.5023753,
      "longitude": 141.5374666,
      "countryCode": "jp",
      "rawTags": {
        "amenity": "bus_station",
        "bus": "yes",
        "name": "八戸市交通部旭ヶ丘営業所",
        "public_transport": "station"
      }
    },
    {
      "id": "aomori_bus_terminal_589480820",
      "osmId": 589480820,
      "osmType": "way",
      "prefectureId": "aomori",
      "type": "bus_terminal",
      "subtype": null,
      "name": "弘南バス　五所川原駅前案内所",
      "nameKana": null,
      "nameEn": null,
      "operator": "弘南バス",
      "network": null,
      "ref": null,
      "latitude": 40.8095078,
      "longitude": 140.4473822,
      "countryCode": "jp",
      "rawTags": {
        "addr:block_number": "38番地",
        "addr:city": "五所川原市",
        "addr:postcode": "037-0063",
        "addr:province": "青森県",
        "addr:quarter": "大字大町",
        "amenity": "bus_station",
        "building": "yes",
        "bus": "yes",
        "name": "弘南バス　五所川原駅前案内所",
        "operator": "弘南バス",
        "public_transport": "station"
      }
    },
    {
      "id": "aomori_bus_terminal_805981137",
      "osmId": 805981137,
      "osmType": "way",
      "prefectureId": "aomori",
      "type": "bus_terminal",
      "subtype": null,
      "name": "南部バス 三戸営業所",
      "nameKana": null,
      "nameEn": null,
      "operator": null,
      "network": null,
      "ref": null,
      "latitude": 40.3717876,
      "longitude": 141.2442322,
      "countryCode": "jp",
      "rawTags": {
        "amenity": "bus_station",
        "name": "南部バス 三戸営業所"
      }
    },
    {
      "id": "aomori_bus_terminal_1041851892",
      "osmId": 1041851892,
      "osmType": "way",
      "prefectureId": "aomori",
      "type": "bus_terminal",
      "subtype": null,
      "name": "南部バス 五戸駅",
      "nameKana": null,
      "nameEn": null,
      "operator": null,
      "network": null,
      "ref": null,
      "latitude": 40.5239799,
      "longitude": 141.3076876,
      "countryCode": "jp",
      "rawTags": {
        "amenity": "bus_station",
        "bus": "yes",
        "name": "南部バス 五戸駅",
        "public_transport": "station"
      }
    },
    {
      "id": "aomori_bus_terminal_1041851899",
      "osmId": 1041851899,
      "osmType": "way",
      "prefectureId": "aomori",
      "type": "bus_terminal",
      "subtype": null,
      "name": "南部バス 八戸営業所",
      "nameKana": null,
      "nameEn": null,
      "operator": null,
      "network": null,
      "ref": null,
      "latitude": 40.4849548,
      "longitude": 141.4792124,
      "countryCode": "jp",
      "rawTags": {
        "amenity": "bus_station",
        "bus": "yes",
        "name": "南部バス 八戸営業所",
        "public_transport": "station"
      }
    },
    {
      "id": "aomori_ferry_terminal_1177158419",
      "osmId": 1177158419,
      "osmType": "way",
      "prefectureId": "aomori",
      "type": "ferry_terminal",
      "subtype": null,
      "name": "クルーズターミナル",
      "nameKana": null,
      "nameEn": null,
      "operator": null,
      "network": null,
      "ref": null,
      "latitude": 40.8326585,
      "longitude": 140.7461828,
      "countryCode": "jp",
      "rawTags": {
        "amenity": "ferry_terminal",
        "building": "yes",
        "ferry": "yes",
        "name": "クルーズターミナル",
        "public_transport": "station"
      }
    },
    {
      "id": "aomori_airport_6723874",
      "osmId": 6723874,
      "osmType": "relation",
      "prefectureId": "aomori",
      "type": "airport",
      "subtype": "military",
      "name": "Misawa Air Base - 三沢飛行場",
      "nameKana": null,
      "nameEn": "Misawa Air Base",
      "operator": "Japan Air Self-Defense Force;US Air Force;US Navy;US Army",
      "network": null,
      "ref": "MSJ",
      "latitude": 40.7079796,
      "longitude": 141.3544758,
      "countryCode": "jp",
      "rawTags": {
        "aeroway": "aerodrome",
        "iata": "MSJ",
        "icao": "RJSM",
        "landuse": "military",
        "military": "airfield",
        "name": "Misawa Air Base - 三沢飛行場",
        "name:en": "Misawa Air Base",
        "name:ja": "三沢飛行場",
        "operator": "Japan Air Self-Defense Force;US Air Force;US Navy;US Army",
        "type": "multipolygon",
        "wikidata": "Q1350451",
        "wikipedia": "ja:三沢飛行場"
      }
    }
  ]
}