{
  "fetchedAt": "2025-12-12T05:35:30.091Z",
  "prefectureId": "ehime",
  "prefectureName": "愛媛県",
  "stats": {
    "station": 124,
    "airport": 1,
    "ferry_terminal": 64,
    "bus_terminal": 16,
    "total": 205
  },
  "data": [
    {
      "id": "ehime_station_265003238",
      "osmId": 265003238,
      "osmType": "node",
      "prefectureId": "ehime",
      "type": "station",
      "subtype": "jr",
      "name": "真土",
      "nameKana": "まつち",
      "nameEn": "Matsuchi",
      "operator": "四国旅客鉄道",
      "network": null,
      "ref": null,
      "latitude": 33.2240858,
      "longitude": 132.7453372,
      "countryCode": "jp",
      "rawTags": {
        "KSJ2:LIN": "予土線",
        "KSJ2:STN": "真土",
        "name": "真土",
        "name:en": "Matsuchi",
        "name:ja": "真土",
        "name:ja-Hira": "まつち",
        "name:ko": "마쓰치",
        "note": "National-Land Numerical Information (Railway) 2007, MLIT Japan",
        "note:ja": "国土数値情報（鉄道データ）平成19年　国土交通省",
        "operator": "四国旅客鉄道",
        "public_transport": "station",
        "railway": "station",
        "source": "KSJ2",
        "source_ref": "http://nlftp.mlit.go.jp/ksj/jpgis/datalist/KsjTmplt-N02-v1_1.html",
        "wikidata": "Q4388373",
        "wikipedia": "ja:真土駅"
      }
    },
    {
      "id": "ehime_station_265005223",
      "osmId": 265005223,
      "osmType": "node",
      "prefectureId": "ehime",
      "type": "station",
      "subtype": "jr",
      "name": "吉野生",
      "nameKana": "よしのぶ",
      "nameEn": "Yoshinobu",
      "operator": "四国旅客鉄道",
      "network": null,
      "ref": null,
      "latitude": 33.2245719,
      "longitude": 132.7290605,
      "countryCode": "jp",
      "rawTags": {
        "KSJ2:LIN": "予土線",
        "KSJ2:STN": "吉野生",
        "name": "吉野生",
        "name:en": "Yoshinobu",
        "name:ja": "吉野生",
        "name:ja-Hira": "よしのぶ",
        "name:ko": "요시노부",
        "note": "National-Land Numerical Information (Railway) 2007, MLIT Japan",
        "note:ja": "国土数値情報（鉄道データ）平成19年　国土交通省",
        "operator": "四国旅客鉄道",
        "public_transport": "station",
        "railway": "station",
        "source": "KSJ2",
        "source_ref": "http://nlftp.mlit.go.jp/ksj/jpgis/datalist/KsjTmplt-N02-v1_1.html",
        "wikidata": "Q4388407",
        "wikipedia": "ja:吉野生駅"
      }
    },
    {
      "id": "ehime_station_265005437",
      "osmId": 265005437,
      "osmType": "node",
      "prefectureId": "ehime",
      "type": "station",
      "subtype": "jr",
      "name": "関川",
      "nameKana": null,
      "nameEn": "Sekigawa",
      "operator": "四国旅客鉄道",
      "network": null,
      "ref": "Y27",
      "latitude": 33.9556979,
      "longitude": 133.3932199,
      "countryCode": "jp",
      "rawTags": {
        "KSJ2:LIN": "予讃線",
        "KSJ2:STN": "関川",
        "name": "関川",
        "name:en": "Sekigawa",
        "name:ja": "関川",
        "name:ko": "세키가와",
        "note": "National-Land Numerical Information (Railway) 2007, MLIT Japan",
        "note:ja": "国土数値情報（鉄道データ）平成19年　国土交通省",
        "operator": "四国旅客鉄道",
        "public_transport": "stop_position",
        "railway": "station",
        "ref": "Y27",
        "source": "KSJ2",
        "source_ref": "http://nlftp.mlit.go.jp/ksj/jpgis/datalist/KsjTmplt-N02-v1_1.html",
        "train": "yes",
        "wikidata": "Q599042",
        "wikipedia": "ja:関川駅"
      }
    },
    {
      "id": "ehime_station_265005439",
      "osmId": 265005439,
      "osmType": "node",
      "prefectureId": "ehime",
      "type": "station",
      "subtype": "jr",
      "name": "赤星",
      "nameKana": null,
      "nameEn": "Akaboshi",
      "operator": "四国旅客鉄道",
      "network": null,
      "ref": "Y25",
      "latitude": 33.9667245,
      "longitude": 133.4561713,
      "countryCode": "jp",
      "rawTags": {
        "KSJ2:LIN": "予讃線",
        "KSJ2:STN": "赤星",
        "name": "赤星",
        "name:en": "Akaboshi",
        "name:ja": "赤星",
        "name:ko": "아카보시",
        "note": "National-Land Numerical Information (Railway) 2007, MLIT Japan",
        "note:ja": "国土数値情報（鉄道データ）平成19年　国土交通省",
        "operator": "四国旅客鉄道",
        "public_transport": "stop_position",
        "railway": "station",
        "ref": "Y25",
        "source": "KSJ2",
        "source_ref": "http://nlftp.mlit.go.jp/ksj/jpgis/datalist/KsjTmplt-N02-v1_1.html",
        "train": "yes",
        "wikidata": "Q1056031",
        "wikipedia": "ja:赤星駅"
      }
    },
    {
      "id": "ehime_station_265005657",
      "osmId": 265005657,
      "osmType": "node",
      "prefectureId": "ehime",
      "type": "station",
      "subtype": "jr",
      "name": "深田",
      "nameKana": "ふかた",
      "nameEn": "Fukata",
      "operator": "四国旅客鉄道",
      "network": null,
      "ref": null,
      "latitude": 33.2676636,
      "longitude": 132.6603709,
      "countryCode": "jp",
      "rawTags": {
        "KSJ2:LIN": "予土線",
        "KSJ2:STN": "深田",
        "name": "深田",
        "name:en": "Fukata",
        "name:ja": "深田",
        "name:ja-Hira": "ふかた",
        "name:ko": "후카타",
        "note": "National-Land Numerical Information (Railway) 2007, MLIT Japan",
        "note:ja": "国土数値情報（鉄道データ）平成19年　国土交通省",
        "operator": "四国旅客鉄道",
        "public_transport": "station",
        "railway": "station",
        "source": "KSJ2",
        "source_ref": "http://nlftp.mlit.go.jp/ksj/jpgis/datalist/KsjTmplt-N02-v1_1.html",
        "wikidata": "Q4388210",
        "wikipedia": "ja:深田駅"
      }
    },
    {
      "id": "ehime_station_265005713",
      "osmId": 265005713,
      "osmType": "node",
      "prefectureId": "ehime",
      "type": "station",
      "subtype": "private",
      "name": "伊予宮野下",
      "nameKana": "いよみやのした",
      "nameEn": "Iyo-Miyanoshita",
      "operator": null,
      "network": null,
      "ref": null,
      "latitude": 33.2888721,
      "longitude": 132.6057654,
      "countryCode": "jp",
      "rawTags": {
        "KSJ2:LIN": "予土線",
        "KSJ2:STN": "伊予宮野下",
        "name": "伊予宮野下",
        "name:en": "Iyo-Miyanoshita",
        "name:ja": "伊予宮野下",
        "name:ja-Hira": "いよみやのした",
        "name:ko": "이요미야노시타",
        "note": "National-Land Numerical Information (Railway) 2007, MLIT Japan",
        "note:ja": "国土数値情報（鉄道データ）平成19年　国土交通省",
        "public_transport": "station",
        "railway": "station",
        "source": "KSJ2",
        "source_ref": "http://nlftp.mlit.go.jp/ksj/jpgis/datalist/KsjTmplt-N02-v1_1.html",
        "wikidata": "Q4388231",
        "wikipedia": "ja:伊予宮野下駅"
      }
    },
    {
      "id": "ehime_station_265005779",
      "osmId": 265005779,
      "osmType": "node",
      "prefectureId": "ehime",
      "type": "station",
      "subtype": "private",
      "name": "務田",
      "nameKana": "むでん",
      "nameEn": "Muden",
      "operator": null,
      "network": null,
      "ref": null,
      "latitude": 33.2828238,
      "longitude": 132.6002142,
      "countryCode": "jp",
      "rawTags": {
        "KSJ2:LIN": "予土線",
        "KSJ2:STN": "務田",
        "name": "務田",
        "name:en": "Muden",
        "name:ja": "務田",
        "name:ja-Hira": "むでん",
        "name:ko": "무덴",
        "note": "National-Land Numerical Information (Railway) 2007, MLIT Japan",
        "note:ja": "国土数値情報（鉄道データ）平成19年　国土交通省",
        "public_transport": "station",
        "railway": "station",
        "source": "KSJ2",
        "source_ref": "http://nlftp.mlit.go.jp/ksj/jpgis/datalist/KsjTmplt-N02-v1_1.html",
        "wikidata": "Q4388190",
        "wikipedia": "ja:務田駅"
      }
    },
    {
      "id": "ehime_station_265005938",
      "osmId": 265005938,
      "osmType": "node",
      "prefectureId": "ehime",
      "type": "station",
      "subtype": "jr",
      "name": "近永",
      "nameKana": null,
      "nameEn": "Chikanaga",
      "operator": "四国旅客鉄道",
      "network": null,
      "ref": null,
      "latitude": 33.2556258,
      "longitude": 132.676551,
      "countryCode": "jp",
      "rawTags": {
        "KSJ2:LIN": "予土線",
        "KSJ2:STN": "近永",
        "internet_access": "wlan",
        "name": "近永",
        "name:en": "Chikanaga",
        "name:ja": "近永",
        "name:ko": "지카나가",
        "note": "National-Land Numerical Information (Railway) 2007, MLIT Japan",
        "note:ja": "国土数値情報（鉄道データ）平成19年　国土交通省",
        "operator": "四国旅客鉄道",
        "public_transport": "station",
        "railway": "station",
        "source": "KSJ2",
        "source_ref": "http://nlftp.mlit.go.jp/ksj/jpgis/datalist/KsjTmplt-N02-v1_1.html",
        "wikidata": "Q4388236",
        "wikipedia": "ja:近永駅"
      }
    },
    {
      "id": "ehime_station_265005942",
      "osmId": 265005942,
      "osmType": "node",
      "prefectureId": "ehime",
      "type": "station",
      "subtype": "private",
      "name": "二名",
      "nameKana": "ふたな",
      "nameEn": "Futana",
      "operator": null,
      "network": null,
      "ref": null,
      "latitude": 33.2915304,
      "longitude": 132.6290749,
      "countryCode": "jp",
      "rawTags": {
        "KSJ2:LIN": "予土線",
        "KSJ2:STN": "二名",
        "name": "二名",
        "name:en": "Futana",
        "name:ja": "二名",
        "name:ja-Hira": "ふたな",
        "name:ko": "후타나",
        "note": "National-Land Numerical Information (Railway) 2007, MLIT Japan",
        "note:ja": "国土数値情報（鉄道データ）平成19年　国土交通省",
        "public_transport": "station",
        "railway": "station",
        "source": "KSJ2",
        "source_ref": "http://nlftp.mlit.go.jp/ksj/jpgis/datalist/KsjTmplt-N02-v1_1.html",
        "wikidata": "Q4388104",
        "wikipedia": "ja:二名駅"
      }
    },
    {
      "id": "ehime_station_265006131",
      "osmId": 265006131,
      "osmType": "node",
      "prefectureId": "ehime",
      "type": "station",
      "subtype": "jr",
      "name": "大内",
      "nameKana": "おおうち",
      "nameEn": "Ōuchi",
      "operator": "四国旅客鉄道",
      "network": null,
      "ref": null,
      "latitude": 33.2869174,
      "longitude": 132.642351,
      "countryCode": "jp",
      "rawTags": {
        "KSJ2:LIN": "予土線",
        "KSJ2:STN": "大内",
        "name": "大内",
        "name:en": "Ōuchi",
        "name:ja": "大内",
        "name:ja-Hira": "おおうち",
        "name:ko": "오우치",
        "note": "National-Land Numerical Information (Railway) 2007, MLIT Japan",
        "note:ja": "国土数値情報（鉄道データ）平成19年　国土交通省",
        "operator": "四国旅客鉄道",
        "public_transport": "station",
        "railway": "station",
        "source": "KSJ2",
        "source_ref": "http://nlftp.mlit.go.jp/ksj/jpgis/datalist/KsjTmplt-N02-v1_1.html",
        "wikidata": "Q4388110",
        "wikipedia": "ja:大内駅"
      }
    },
    {
      "id": "ehime_station_265006881",
      "osmId": 265006881,
      "osmType": "node",
      "prefectureId": "ehime",
      "type": "station",
      "subtype": "jr",
      "name": "玉之江",
      "nameKana": null,
      "nameEn": "Tamanoe",
      "operator": "四国旅客鉄道",
      "network": null,
      "ref": "Y35",
      "latitude": 33.9125628,
      "longitude": 133.0990325,
      "countryCode": "jp",
      "rawTags": {
        "KSJ2:LIN": "予讃線",
        "KSJ2:STN": "玉之江",
        "name": "玉之江",
        "name:en": "Tamanoe",
        "name:ja": "玉之江",
        "name:ko": "다마노에",
        "note": "National-Land Numerical Information (Railway) 2007, MLIT Japan",
        "note:ja": "国土数値情報（鉄道データ）平成19年　国土交通省",
        "operator": "四国旅客鉄道",
        "public_transport": "stop_position",
        "railway": "station",
        "ref": "Y35",
        "source": "KSJ2",
        "source_ref": "http://nlftp.mlit.go.jp/ksj/jpgis/datalist/KsjTmplt-N02-v1_1.html",
        "train": "yes",
        "wikidata": "Q875851",
        "wikipedia": "ja:玉之江駅"
      }
    },
    {
      "id": "ehime_station_265007014",
      "osmId": 265007014,
      "osmType": "node",
      "prefectureId": "ehime",
      "type": "station",
      "subtype": "jr",
      "name": "伊予小松",
      "nameKana": null,
      "nameEn": "Iyo-Komatsu",
      "operator": "四国旅客鉄道",
      "network": null,
      "ref": "Y34",
      "latitude": 33.897657,
      "longitude": 133.1167046,
      "countryCode": "jp",
      "rawTags": {
        "KSJ2:LIN": "予讃線",
        "KSJ2:STN": "伊予小松",
        "name": "伊予小松",
        "name:en": "Iyo-Komatsu",
        "name:ja": "伊予小松",
        "name:ko": "이요코마쓰",
        "note": "National-Land Numerical Information (Railway) 2007, MLIT Japan",
        "note:ja": "国土数値情報（鉄道データ）平成19年　国土交通省",
        "operator": "四国旅客鉄道",
        "public_transport": "stop_position",
        "railway": "station",
        "ref": "Y34",
        "source": "KSJ2",
        "source_ref": "http://nlftp.mlit.go.jp/ksj/jpgis/datalist/KsjTmplt-N02-v1_1.html",
        "train": "yes",
        "wikidata": "Q875877",
        "wikipedia": "ja:伊予小松駅"
      }
    },
    {
      "id": "ehime_station_265007238",
      "osmId": 265007238,
      "osmType": "node",
      "prefectureId": "ehime",
      "type": "station",
      "subtype": "jr",
      "name": "伊予三芳",
      "nameKana": null,
      "nameEn": "Iyo-Miyoshi",
      "operator": "四国旅客鉄道",
      "network": null,
      "ref": "Y37",
      "latitude": 33.9543536,
      "longitude": 133.0643307,
      "countryCode": "jp",
      "rawTags": {
        "KSJ2:LIN": "予讃線",
        "KSJ2:STN": "伊予三芳",
        "name": "伊予三芳",
        "name:en": "Iyo-Miyoshi",
        "name:ja": "伊予三芳",
        "name:ko": "이요미요시",
        "note": "National-Land Numerical Information (Railway) 2007, MLIT Japan",
        "note:ja": "国土数値情報（鉄道データ）平成19年　国土交通省",
        "operator": "四国旅客鉄道",
        "public_transport": "stop_position",
        "railway": "station",
        "ref": "Y37",
        "source": "KSJ2",
        "source_ref": "http://nlftp.mlit.go.jp/ksj/jpgis/datalist/KsjTmplt-N02-v1_1.html",
        "train": "yes",
        "wikidata": "Q898636",
        "wikipedia": "ja:伊予三芳駅"
      }
    },
    {
      "id": "ehime_station_265007647",
      "osmId": 265007647,
      "osmType": "node",
      "prefectureId": "ehime",
      "type": "station",
      "subtype": "jr",
      "name": "伊予桜井",
      "nameKana": null,
      "nameEn": "Iyo-Sakurai",
      "operator": "四国旅客鉄道",
      "network": null,
      "ref": "Y38",
      "latitude": 34.0119793,
      "longitude": 133.0358368,
      "countryCode": "jp",
      "rawTags": {
        "KSJ2:LIN": "予讃線",
        "KSJ2:STN": "伊予桜井",
        "name": "伊予桜井",
        "name:en": "Iyo-Sakurai",
        "name:ja": "伊予桜井",
        "name:ko": "이요사쿠라이",
        "note": "National-Land Numerical Information (Railway) 2007, MLIT Japan",
        "note:ja": "国土数値情報（鉄道データ）平成19年　国土交通省",
        "operator": "四国旅客鉄道",
        "public_transport": "stop_position",
        "railway": "station",
        "ref": "Y38",
        "source": "KSJ2",
        "source_ref": "http://nlftp.mlit.go.jp/ksj/jpgis/datalist/KsjTmplt-N02-v1_1.html",
        "train": "yes",
        "wikidata": "Q875864",
        "wikipedia": "ja:伊予桜井駅"
      }
    },
    {
      "id": "ehime_station_265009422",
      "osmId": 265009422,
      "osmType": "node",
      "prefectureId": "ehime",
      "type": "station",
      "subtype": "jr",
      "name": "伊予氷見",
      "nameKana": null,
      "nameEn": "Iyo-Himi",
      "operator": "四国旅客鉄道",
      "network": null,
      "ref": "Y33",
      "latitude": 33.8967955,
      "longitude": 133.1307552,
      "countryCode": "jp",
      "rawTags": {
        "KSJ2:LIN": "予讃線",
        "KSJ2:STN": "伊予氷見",
        "name": "伊予氷見",
        "name:en": "Iyo-Himi",
        "name:ja": "伊予氷見",
        "name:ko": "이요히미",
        "note": "National-Land Numerical Information (Railway) 2007, MLIT Japan",
        "note:ja": "国土数値情報（鉄道データ）平成19年　国土交通省",
        "operator": "四国旅客鉄道",
        "public_transport": "stop_position",
        "railway": "station",
        "ref": "Y33",
        "source": "KSJ2",
        "source_ref": "http://nlftp.mlit.go.jp/ksj/jpgis/datalist/KsjTmplt-N02-v1_1.html",
        "train": "yes",
        "wikidata": "Q875836",
        "wikipedia": "ja:伊予氷見駅"
      }
    },
    {
      "id": "ehime_station_265040980",
      "osmId": 265040980,
      "osmType": "node",
      "prefectureId": "ehime",
      "type": "station",
      "subtype": "private",
      "name": "牛渕",
      "nameKana": null,
      "nameEn": "Ushibuchi",
      "operator": "伊予鉄道",
      "network": null,
      "ref": "IY20",
      "latitude": 33.7952114,
      "longitude": 132.8561079,
      "countryCode": "jp",
      "rawTags": {
        "name": "牛渕",
        "name:en": "Ushibuchi",
        "name:ja": "牛渕",
        "name:ja-Latn": "Ushibuchi",
        "name:ko": "우시부치",
        "operator": "伊予鉄道",
        "public_transport": "station",
        "railway": "station",
        "ref": "IY20",
        "wikidata": "Q11570181",
        "wikipedia": "ja:牛渕駅"
      }
    },
    {
      "id": "ehime_station_265041001",
      "osmId": 265041001,
      "osmType": "node",
      "prefectureId": "ehime",
      "type": "station",
      "subtype": "private",
      "name": "田窪",
      "nameKana": null,
      "nameEn": "Tanokubo",
      "operator": "伊予鉄道",
      "network": null,
      "ref": "IY21",
      "latitude": 33.7929531,
      "longitude": 132.8654144,
      "countryCode": "jp",
      "rawTags": {
        "name": "田窪",
        "name:en": "Tanokubo",
        "name:ja": "田窪",
        "name:ja-Latn": "Tanokubo",
        "name:ko": "다노쿠보",
        "operator": "伊予鉄道",
        "public_transport": "station",
        "railway": "station",
        "ref": "IY21",
        "wikidata": "Q11577219",
        "wikipedia": "ja:田窪駅"
      }
    },
    {
      "id": "ehime_station_265041162",
      "osmId": 265041162,
      "osmType": "node",
      "prefectureId": "ehime",
      "type": "station",
      "subtype": "private",
      "name": "土橋",
      "nameKana": null,
      "nameEn": "Dobashi",
      "operator": "伊予鉄道",
      "network": null,
      "ref": "IY25",
      "latitude": 33.8327068,
      "longitude": 132.7562758,
      "countryCode": "jp",
      "rawTags": {
        "name": "土橋",
        "name:en": "Dobashi",
        "name:ja": "土橋",
        "name:ja-Latn": "Dobashi",
        "name:ko": "도바시",
        "operator": "伊予鉄道",
        "public_transport": "station",
        "railway": "station",
        "ref": "IY25",
        "train": "yes",
        "wikidata": "Q11423714",
        "wikipedia": "ja:土橋駅 (愛媛県)"
      }
    },
    {
      "id": "ehime_station_265041175",
      "osmId": 265041175,
      "osmType": "node",
      "prefectureId": "ehime",
      "type": "station",
      "subtype": "private",
      "name": "新川",
      "nameKana": null,
      "nameEn": "Shinkawa",
      "operator": "伊予鉄道",
      "network": null,
      "ref": "IY33",
      "latitude": 33.7718784,
      "longitude": 132.7041423,
      "countryCode": "jp",
      "rawTags": {
        "name": "新川",
        "name:en": "Shinkawa",
        "name:ja": "新川",
        "name:ja-Latn": "Shinkawa",
        "name:ko": "신카와",
        "operator": "伊予鉄道",
        "public_transport": "station",
        "railway": "station",
        "ref": "IY33",
        "wikidata": "Q11502113",
        "wikipedia": "ja:新川駅 (愛媛県)"
      }
    },
    {
      "id": "ehime_station_265041184",
      "osmId": 265041184,
      "osmType": "node",
      "prefectureId": "ehime",
      "type": "station",
      "subtype": "private",
      "name": "松前",
      "nameKana": null,
      "nameEn": "Masaki",
      "operator": "伊予鉄道",
      "network": null,
      "ref": "IY31",
      "latitude": 33.7861048,
      "longitude": 132.7050016,
      "countryCode": "jp",
      "rawTags": {
        "name": "松前",
        "name:en": "Masaki",
        "name:ja": "松前",
        "name:ja-Latn": "Masaki",
        "name:ko": "마사키",
        "operator": "伊予鉄道",
        "public_transport": "station",
        "railway": "station",
        "ref": "IY31",
        "train": "yes",
        "wikidata": "Q11529329",
        "wikipedia": "ja:松前駅"
      }
    },
    {
      "id": "ehime_station_265041210",
      "osmId": 265041210,
      "osmType": "node",
      "prefectureId": "ehime",
      "type": "station",
      "subtype": "private",
      "name": "地蔵町",
      "nameKana": null,
      "nameEn": "Jizomachi",
      "operator": "伊予鉄道",
      "network": null,
      "ref": "IY32",
      "latitude": 33.779555,
      "longitude": 132.7041954,
      "countryCode": "jp",
      "rawTags": {
        "name": "地蔵町",
        "name:en": "Jizomachi",
        "name:ja": "地蔵町",
        "name:ja-Latn": "Jizomachi",
        "name:ko": "지조마치",
        "operator": "伊予鉄道",
        "public_transport": "station",
        "railway": "station",
        "ref": "IY32",
        "train": "yes",
        "wikidata": "Q11424683",
        "wikipedia": "ja:地蔵町駅"
      }
    },
    {
      "id": "ehime_station_265041261",
      "osmId": 265041261,
      "osmType": "node",
      "prefectureId": "ehime",
      "type": "station",
      "subtype": "private",
      "name": "大手町",
      "nameKana": null,
      "nameEn": "Otemachi",
      "operator": "伊予鉄道",
      "network": null,
      "ref": "IY09",
      "latitude": 33.8399141,
      "longitude": 132.7553103,
      "countryCode": "jp",
      "rawTags": {
        "name": "大手町",
        "name:en": "Otemachi",
        "name:ja": "大手町",
        "name:ja-Latn": "Otemachi",
        "name:ko": "오테마치",
        "operator": "伊予鉄道",
        "public_transport": "station",
        "railway": "station",
        "ref": "IY09",
        "train": "yes",
        "wikidata": "Q11435570",
        "wikipedia": "ja:大手町駅 (愛媛県)"
      }
    },
    {
      "id": "ehime_station_265041263",
      "osmId": 265041263,
      "osmType": "node",
      "prefectureId": "ehime",
      "type": "station",
      "subtype": "private",
      "name": "港山",
      "nameKana": null,
      "nameEn": "Minatoyama",
      "operator": "伊予鉄道",
      "network": null,
      "ref": "IY03",
      "latitude": 33.8695183,
      "longitude": 132.7132546,
      "countryCode": "jp",
      "rawTags": {
        "name": "港山",
        "name:en": "Minatoyama",
        "name:ja": "港山",
        "name:ja-Latn": "Minatoyama",
        "name:ko": "미나토야마",
        "operator": "伊予鉄道",
        "public_transport": "station",
        "railway": "station",
        "ref": "IY03",
        "wikidata": "Q11563075",
        "wikipedia": "ja:港山駅"
      }
    },
    {
      "id": "ehime_station_265041360",
      "osmId": 265041360,
      "osmType": "node",
      "prefectureId": "ehime",
      "type": "station",
      "subtype": "private",
      "name": "高浜",
      "nameKana": "たかはま",
      "nameEn": "Takahama",
      "operator": "伊予鉄道",
      "network": null,
      "ref": "IY01",
      "latitude": 33.8834303,
      "longitude": 132.702036,
      "countryCode": "jp",
      "rawTags": {
        "name": "高浜",
        "name:en": "Takahama",
        "name:ja": "高浜",
        "name:ja-Hira": "たかはま",
        "name:ko": "다카하마",
        "operator": "伊予鉄道",
        "public_transport": "station",
        "railway": "station",
        "ref": "IY01",
        "train": "yes",
        "wikidata": "Q11671850",
        "wikipedia": "ja:高浜駅 (愛媛県)"
      }
    },
    {
      "id": "ehime_ferry_terminal_538722602",
      "osmId": 538722602,
      "osmType": "node",
      "prefectureId": "ehime",
      "type": "ferry_terminal",
      "subtype": null,
      "name": "岡村港",
      "nameKana": null,
      "nameEn": "Okamura Port",
      "operator": null,
      "network": null,
      "ref": null,
      "latitude": 34.1844812,
      "longitude": 132.8839061,
      "countryCode": "jp",
      "rawTags": {
        "amenity": "ferry_terminal",
        "ferry": "yes",
        "name": "岡村港",
        "name:en": "Okamura Port",
        "public_transport": "station",
        "wikidata": "Q11473317",
        "wikipedia": "ja:岡村港"
      }
    },
    {
      "id": "ehime_ferry_terminal_538722789",
      "osmId": 538722789,
      "osmType": "node",
      "prefectureId": "ehime",
      "type": "ferry_terminal",
      "subtype": null,
      "name": "大下港",
      "nameKana": "おおげこう",
      "nameEn": "Ohge Port",
      "operator": null,
      "network": null,
      "ref": null,
      "latitude": 34.1888011,
      "longitude": 132.9221852,
      "countryCode": "jp",
      "rawTags": {
        "amenity": "ferry_terminal",
        "ferry": "yes",
        "name": "大下港",
        "name:en": "Ohge Port",
        "name:ja-Hira": "おおげこう",
        "public_transport": "station",
        "wikidata": "Q11431831",
        "wikipedia": "ja:大下港"
      }
    },
    {
      "id": "ehime_ferry_terminal_538722808",
      "osmId": 538722808,
      "osmType": "node",
      "prefectureId": "ehime",
      "type": "ferry_terminal",
      "subtype": null,
      "name": "小大下港",
      "nameKana": null,
      "nameEn": null,
      "operator": null,
      "network": null,
      "ref": null,
      "latitude": 34.1903785,
      "longitude": 132.8995807,
      "countryCode": "jp",
      "rawTags": {
        "amenity": "ferry_terminal",
        "ferry": "yes",
        "name": "小大下港",
        "public_transport": "station"
      }
    },
    {
      "id": "ehime_ferry_terminal_540525959",
      "osmId": 540525959,
      "osmType": "node",
      "prefectureId": "ehime",
      "type": "ferry_terminal",
      "subtype": null,
      "name": "小漕港 (Okogi)",
      "nameKana": null,
      "nameEn": null,
      "operator": null,
      "network": null,
      "ref": null,
      "latitude": 34.2788986,
      "longitude": 133.1449203,
      "countryCode": "jp",
      "rawTags": {
        "amenity": "ferry_terminal",
        "ferry": "yes",
        "name": "小漕港 (Okogi)",
        "public_transport": "station"
      }
    },
    {
      "id": "ehime_ferry_terminal_540530609",
      "osmId": 540530609,
      "osmType": "node",
      "prefectureId": "ehime",
      "type": "ferry_terminal",
      "subtype": null,
      "name": "下田水港 (Shitadami)",
      "nameKana": null,
      "nameEn": null,
      "operator": null,
      "network": null,
      "ref": null,
      "latitude": 34.1277266,
      "longitude": 133.0198975,
      "countryCode": "jp",
      "rawTags": {
        "amenity": "ferry_terminal",
        "ferry": "yes",
        "name": "下田水港 (Shitadami)",
        "public_transport": "station"
      }
    },
    {
      "id": "ehime_ferry_terminal_541637897",
      "osmId": 541637897,
      "osmType": "node",
      "prefectureId": "ehime",
      "type": "ferry_terminal",
      "subtype": null,
      "name": "上弓削港",
      "nameKana": null,
      "nameEn": null,
      "operator": null,
      "network": null,
      "ref": null,
      "latitude": 34.2772634,
      "longitude": 133.2097472,
      "countryCode": "jp",
      "rawTags": {
        "amenity": "ferry_terminal",
        "ferry": "yes",
        "name": "上弓削港",
        "public_transport": "station"
      }
    },
    {
      "id": "ehime_ferry_terminal_562871663",
      "osmId": 562871663,
      "osmType": "node",
      "prefectureId": "ehime",
      "type": "ferry_terminal",
      "subtype": null,
      "name": "生名港",
      "nameKana": null,
      "nameEn": null,
      "operator": null,
      "network": null,
      "ref": null,
      "latitude": 34.2665548,
      "longitude": 133.1855753,
      "countryCode": "jp",
      "rawTags": {
        "amenity": "ferry_terminal",
        "ferry": "yes",
        "name": "生名港",
        "public_transport": "station"
      }
    },
    {
      "id": "ehime_ferry_terminal_929957121",
      "osmId": 929957121,
      "osmType": "node",
      "prefectureId": "ehime",
      "type": "ferry_terminal",
      "subtype": null,
      "name": "三崎港",
      "nameKana": null,
      "nameEn": "Misaki Port",
      "operator": null,
      "network": null,
      "ref": null,
      "latitude": 33.3903867,
      "longitude": 132.117568,
      "countryCode": "jp",
      "rawTags": {
        "amenity": "ferry_terminal",
        "ferry": "yes",
        "name": "三崎港",
        "name:en": "Misaki Port",
        "public_transport": "station"
      }
    },
    {
      "id": "ehime_ferry_terminal_1199540497",
      "osmId": 1199540497,
      "osmType": "node",
      "prefectureId": "ehime",
      "type": "ferry_terminal",
      "subtype": null,
      "name": "今治港",
      "nameKana": null,
      "nameEn": "Imabari Port",
      "operator": null,
      "network": null,
      "ref": null,
      "latitude": 34.0699838,
      "longitude": 133.0048984,
      "countryCode": "jp",
      "rawTags": {
        "amenity": "ferry_terminal",
        "ferry": "yes",
        "name": "今治港",
        "name:en": "Imabari Port",
        "public_transport": "station",
        "seamark:harbour:category": "ferry",
        "seamark:name": "Imabari",
        "seamark:type": "harbour"
      }
    },
    {
      "id": "ehime_bus_terminal_3152610045",
      "osmId": 3152610045,
      "osmType": "node",
      "prefectureId": "ehime",
      "type": "bus_terminal",
      "subtype": null,
      "name": "西条駅前",
      "nameKana": null,
      "nameEn": null,
      "operator": null,
      "network": null,
      "ref": null,
      "latitude": 33.912837,
      "longitude": 133.1873332,
      "countryCode": "jp",
      "rawTags": {
        "amenity": "bus_station",
        "bus": "yes",
        "name": "西条駅前",
        "note": "国土数値情報（バス停留所）平成２４年　国土交通省",
        "public_transport": "station"
      }
    },
    {
      "id": "ehime_bus_terminal_3170654038",
      "osmId": 3170654038,
      "osmType": "node",
      "prefectureId": "ehime",
      "type": "bus_terminal",
      "subtype": null,
      "name": "伊予鉄バス 北条バスターミナル",
      "nameKana": null,
      "nameEn": null,
      "operator": null,
      "network": null,
      "ref": null,
      "latitude": 33.9796167,
      "longitude": 132.7766807,
      "countryCode": "jp",
      "rawTags": {
        "amenity": "bus_station",
        "name": "伊予鉄バス 北条バスターミナル"
      }
    },
    {
      "id": "ehime_station_3598694803",
      "osmId": 3598694803,
      "osmType": "node",
      "prefectureId": "ehime",
      "type": "station",
      "subtype": "private",
      "name": "松山市",
      "nameKana": null,
      "nameEn": "Matsuyama City",
      "operator": "伊予鉄道",
      "network": "伊予鉄",
      "ref": "IY10",
      "latitude": 33.8356333,
      "longitude": 132.7615666,
      "countryCode": "jp",
      "rawTags": {
        "name": "松山市",
        "name:en": "Matsuyama City",
        "name:es": "Ciudad de Matsuyama",
        "name:ja": "松山市",
        "name:ja-Latn": "Matsuyamashi",
        "name:ko": "마쓰야마시",
        "network": "伊予鉄",
        "operator": "伊予鉄道",
        "public_transport": "station",
        "railway": "station",
        "ref": "IY10",
        "train": "yes",
        "wikidata": "Q6788233",
        "wikipedia": "ja:松山市駅"
      }
    },
    {
      "id": "ehime_station_3631894947",
      "osmId": 3631894947,
      "osmType": "node",
      "prefectureId": "ehime",
      "type": "station",
      "subtype": "private",
      "name": "道後温泉",
      "nameKana": null,
      "nameEn": "Dogo Onsen",
      "operator": "伊予鉄道",
      "network": null,
      "ref": "24",
      "latitude": 33.8504258,
      "longitude": 132.7850817,
      "countryCode": "jp",
      "rawTags": {
        "name": "道後温泉",
        "name:en": "Dogo Onsen",
        "name:fr": "Dogo Onsen",
        "name:ja": "道後温泉駅",
        "name:ja-Latn": "Dōgo Onsen",
        "operator": "伊予鉄道",
        "public_transport": "station",
        "railway": "station",
        "ref": "24",
        "tram": "yes",
        "wheelchair": "yes",
        "wikidata": "Q11641715"
      }
    },
    {
      "id": "ehime_station_3634551862",
      "osmId": 3634551862,
      "osmType": "node",
      "prefectureId": "ehime",
      "type": "station",
      "subtype": "private",
      "name": "いよ立花",
      "nameKana": null,
      "nameEn": "Iyo-Tachibana",
      "operator": "伊予鉄道",
      "network": null,
      "ref": "IY12",
      "latitude": 33.8275199,
      "longitude": 132.7734245,
      "countryCode": "jp",
      "rawTags": {
        "name": "いよ立花",
        "name:en": "Iyo-Tachibana",
        "name:ja": "いよ立花",
        "name:ja-Latn": "Iyo-Tachibana",
        "name:ko": "이요타치바나",
        "operator": "伊予鉄道",
        "public_transport": "station",
        "railway": "station",
        "ref": "IY12",
        "train": "yes",
        "wikidata": "Q11260047",
        "wikipedia": "ja:いよ立花駅"
      }
    },
    {
      "id": "ehime_station_3634554436",
      "osmId": 3634554436,
      "osmType": "node",
      "prefectureId": "ehime",
      "type": "station",
      "subtype": "private",
      "name": "三津",
      "nameKana": null,
      "nameEn": "Mitsu",
      "operator": "伊予鉄道",
      "network": null,
      "ref": "IY04",
      "latitude": 33.8638379,
      "longitude": 132.7197282,
      "countryCode": "jp",
      "rawTags": {
        "name": "三津",
        "name:en": "Mitsu",
        "name:ja": "三津",
        "name:ja-Latn": "Mitsu",
        "name:ko": "미쓰",
        "operator": "伊予鉄道",
        "public_transport": "station",
        "railway": "station",
        "ref": "IY04",
        "train": "yes",
        "wikidata": "Q11356310",
        "wikipedia": "ja:三津駅"
      }
    },
    {
      "id": "ehime_station_3634554437",
      "osmId": 3634554437,
      "osmType": "node",
      "prefectureId": "ehime",
      "type": "station",
      "subtype": "private",
      "name": "久米",
      "nameKana": null,
      "nameEn": "Kume",
      "operator": "伊予鉄道",
      "network": null,
      "ref": "IY15",
      "latitude": 33.8160825,
      "longitude": 132.8045267,
      "countryCode": "jp",
      "rawTags": {
        "name": "久米",
        "name:en": "Kume",
        "name:ja": "久米",
        "name:ja-Latn": "Kume",
        "name:ko": "구메",
        "operator": "伊予鉄道",
        "public_transport": "station",
        "railway": "station",
        "ref": "IY15",
        "wheelchair": "yes",
        "wikidata": "Q11369643",
        "wikipedia": "ja:久米駅"
      }
    },
    {
      "id": "ehime_station_3634554438",
      "osmId": 3634554438,
      "osmType": "node",
      "prefectureId": "ehime",
      "type": "station",
      "subtype": "private",
      "name": "北久米",
      "nameKana": null,
      "nameEn": "Kita-Kume",
      "operator": "伊予鉄道",
      "network": null,
      "ref": "IY14",
      "latitude": 33.8192662,
      "longitude": 132.7987052,
      "countryCode": "jp",
      "rawTags": {
        "name": "北久米",
        "name:en": "Kita-Kume",
        "name:ja": "北久米",
        "name:ja-Latn": "Kita-Kume",
        "name:ko": "기타쿠메",
        "operator": "伊予鉄道",
        "public_transport": "station",
        "railway": "station",
        "ref": "IY14",
        "train": "yes",
        "wikidata": "Q11400900",
        "wikipedia": "ja:北久米駅"
      }
    },
    {
      "id": "ehime_station_3634554439",
      "osmId": 3634554439,
      "osmType": "node",
      "prefectureId": "ehime",
      "type": "station",
      "subtype": "private",
      "name": "古町",
      "nameKana": null,
      "nameEn": "Komachi",
      "operator": "伊予鉄道",
      "network": null,
      "ref": "IY08;07",
      "latitude": 33.847224,
      "longitude": 132.755097,
      "countryCode": "jp",
      "rawTags": {
        "name": "古町",
        "name:en": "Komachi",
        "name:ja": "古町",
        "name:ja-Latn": "Komachi",
        "name:ko": "고마치",
        "operator": "伊予鉄道",
        "public_transport": "station",
        "railway": "station",
        "ref": "IY08;07",
        "train": "yes",
        "wheelchair": "yes",
        "wikidata": "Q11411531",
        "wikipedia": "ja:古町駅"
      }
    },
    {
      "id": "ehime_station_3634554440",
      "osmId": 3634554440,
      "osmType": "node",
      "prefectureId": "ehime",
      "type": "station",
      "subtype": "private",
      "name": "山西",
      "nameKana": null,
      "nameEn": "Yamanishi",
      "operator": "伊予鉄道",
      "network": null,
      "ref": "IY05",
      "latitude": 33.855332,
      "longitude": 132.7243161,
      "countryCode": "jp",
      "rawTags": {
        "name": "山西",
        "name:en": "Yamanishi",
        "name:ja": "山西",
        "name:ja-Latn": "Yamanishi",
        "name:ko": "야마니시",
        "operator": "伊予鉄道",
        "public_transport": "station",
        "railway": "station",
        "ref": "IY05",
        "train": "yes",
        "wikidata": "Q11470915",
        "wikipedia": "ja:山西駅"
      }
    },
    {
      "id": "ehime_station_3634554441",
      "osmId": 3634554441,
      "osmType": "node",
      "prefectureId": "ehime",
      "type": "station",
      "subtype": "private",
      "name": "平井",
      "nameKana": null,
      "nameEn": "Hirai",
      "operator": "伊予鉄道",
      "network": null,
      "ref": "IY17",
      "latitude": 33.8085405,
      "longitude": 132.8289599,
      "countryCode": "jp",
      "rawTags": {
        "name": "平井",
        "name:en": "Hirai",
        "name:ja": "平井",
        "name:ja-Latn": "Hirai",
        "name:ko": "히라이",
        "operator": "伊予鉄道",
        "public_transport": "station",
        "railway": "station",
        "ref": "IY17",
        "wikidata": "Q11482061",
        "wikipedia": "ja:平井駅 (愛媛県)"
      }
    },
    {
      "id": "ehime_station_3634554442",
      "osmId": 3634554442,
      "osmType": "node",
      "prefectureId": "ehime",
      "type": "station",
      "subtype": "private",
      "name": "愛大医学部南口",
      "nameKana": null,
      "nameEn": "Ehime Univ. Hospital",
      "operator": "伊予鉄道",
      "network": "横河原線",
      "ref": "IY23",
      "latitude": 33.7983407,
      "longitude": 132.8791635,
      "countryCode": "jp",
      "rawTags": {
        "addr:city": "東温市",
        "addr:province": "愛媛県",
        "name": "愛大医学部南口",
        "name:en": "Ehime Univ. Hospital",
        "name:ja": "愛大医学部南口",
        "name:ja-Latn": "Aidai-Igakubu-Minamiguchi",
        "name:ko": "아이다이이가쿠부미나미구치",
        "network": "横河原線",
        "operator": "伊予鉄道",
        "public_transport": "station",
        "railway": "station",
        "ref": "IY23",
        "start_date": "1981/08/10",
        "wikidata": "Q11493498",
        "wikipedia": "ja:愛大医学部南口駅"
      }
    },
    {
      "id": "ehime_station_3634554443",
      "osmId": 3634554443,
      "osmType": "node",
      "prefectureId": "ehime",
      "type": "station",
      "subtype": "private",
      "name": "梅本",
      "nameKana": null,
      "nameEn": "Umenomoto",
      "operator": "伊予鉄道",
      "network": null,
      "ref": "IY18",
      "latitude": 33.8013391,
      "longitude": 132.8387599,
      "countryCode": "jp",
      "rawTags": {
        "name": "梅本",
        "name:en": "Umenomoto",
        "name:ja": "梅本",
        "name:ja-Latn": "Umenomoto",
        "name:ko": "우메노모토",
        "operator": "伊予鉄道",
        "public_transport": "station",
        "railway": "station",
        "ref": "IY18",
        "wikidata": "Q11538501",
        "wikipedia": "ja:梅本駅"
      }
    },
    {
      "id": "ehime_station_3634554444",
      "osmId": 3634554444,
      "osmType": "node",
      "prefectureId": "ehime",
      "type": "station",
      "subtype": "private",
      "name": "梅津寺",
      "nameKana": null,
      "nameEn": "Baishinji",
      "operator": "伊予鉄道",
      "network": null,
      "ref": "IY02",
      "latitude": 33.8749701,
      "longitude": 132.7074802,
      "countryCode": "jp",
      "rawTags": {
        "name": "梅津寺",
        "name:en": "Baishinji",
        "name:ja": "梅津寺",
        "name:ko": "바이신지",
        "operator": "伊予鉄道",
        "public_transport": "station",
        "railway": "station",
        "ref": "IY02",
        "train": "yes",
        "wikidata": "Q11538554",
        "wikipedia": "ja:梅津寺駅"
      }
    },
    {
      "id": "ehime_station_3634554445",
      "osmId": 3634554445,
      "osmType": "node",
      "prefectureId": "ehime",
      "type": "station",
      "subtype": "private",
      "name": "横河原",
      "nameKana": null,
      "nameEn": "Yokogawara",
      "operator": "伊予鉄道",
      "network": null,
      "ref": "IY24",
      "latitude": 33.8033319,
      "longitude": 132.8842865,
      "countryCode": "jp",
      "rawTags": {
        "name": "横河原",
        "name:en": "Yokogawara",
        "name:ja": "横河原",
        "name:ja-Latn": "Yokogawara",
        "name:ko": "요코가와라",
        "operator": "伊予鉄道",
        "public_transport": "station",
        "railway": "station",
        "ref": "IY24",
        "wikidata": "Q11542807",
        "wikipedia": "ja:横河原駅"
      }
    },
    {
      "id": "ehime_station_3634554446",
      "osmId": 3634554446,
      "osmType": "node",
      "prefectureId": "ehime",
      "type": "station",
      "subtype": "private",
      "name": "牛渕団地前",
      "nameKana": null,
      "nameEn": "Ushibuchi-Danchi",
      "operator": "伊予鉄道",
      "network": null,
      "ref": "IY19",
      "latitude": 33.7977433,
      "longitude": 132.846049,
      "countryCode": "jp",
      "rawTags": {
        "alt_name:ko": "우시부치단치마에",
        "name": "牛渕団地前",
        "name:en": "Ushibuchi-Danchi",
        "name:ja": "牛渕団地前",
        "name:ja-Latn": "Ushibuchi-Danchi",
        "name:ko": "우시부치단지앞",
        "operator": "伊予鉄道",
        "public_transport": "station",
        "railway": "station",
        "ref": "IY19",
        "wikidata": "Q11570180",
        "wikipedia": "ja:牛渕団地前駅"
      }
    },
    {
      "id": "ehime_station_3634554447",
      "osmId": 3634554447,
      "osmType": "node",
      "prefectureId": "ehime",
      "type": "station",
      "subtype": "private",
      "name": "石手川公園",
      "nameKana": null,
      "nameEn": "Ishitegawa Park",
      "operator": "伊予鉄道",
      "network": null,
      "ref": "IY11",
      "latitude": 33.8309855,
      "longitude": 132.7695935,
      "countryCode": "jp",
      "rawTags": {
        "alt_name:ko": "이시테가와코엔",
        "name": "石手川公園",
        "name:en": "Ishitegawa Park",
        "name:ja": "石手川公園",
        "name:ja-Latn": "Ishitegawakoen",
        "name:ko": "이시테가와공원",
        "operator": "伊予鉄道",
        "public_transport": "station",
        "railway": "station",
        "ref": "IY11",
        "train": "yes",
        "wikidata": "Q11586534",
        "wikipedia": "ja:石手川公園駅"
      }
    },
    {
      "id": "ehime_station_3634554448",
      "osmId": 3634554448,
      "osmType": "node",
      "prefectureId": "ehime",
      "type": "station",
      "subtype": "private",
      "name": "福音寺",
      "nameKana": null,
      "nameEn": "Fukuonji",
      "operator": "伊予鉄道",
      "network": null,
      "ref": "IY13",
      "latitude": 33.8227261,
      "longitude": 132.7882293,
      "countryCode": "jp",
      "rawTags": {
        "name": "福音寺",
        "name:en": "Fukuonji",
        "name:ja": "福音寺",
        "name:ja-Latn": "Fukuonji",
        "name:ko": "후쿠온지",
        "operator": "伊予鉄道",
        "public_transport": "station",
        "railway": "station",
        "ref": "IY13",
        "train": "yes",
        "wikidata": "Q11594481",
        "wikipedia": "ja:福音寺駅"
      }
    },
    {
      "id": "ehime_station_3634554449",
      "osmId": 3634554449,
      "osmType": "node",
      "prefectureId": "ehime",
      "type": "station",
      "subtype": "private",
      "name": "衣山",
      "nameKana": null,
      "nameEn": "Kinuyama",
      "operator": "伊予鉄道",
      "network": null,
      "ref": "IY07",
      "latitude": 33.8522426,
      "longitude": 132.7441944,
      "countryCode": "jp",
      "rawTags": {
        "name": "衣山",
        "name:en": "Kinuyama",
        "name:ja": "衣山",
        "name:ja-Latn": "Kinuyama",
        "name:ko": "기누야마",
        "operator": "伊予鉄道",
        "public_transport": "station",
        "railway": "station",
        "ref": "IY07",
        "train": "yes",
        "wikidata": "Q11626365",
        "wikipedia": "ja:衣山駅"
      }
    },
    {
      "id": "ehime_station_3634554450",
      "osmId": 3634554450,
      "osmType": "node",
      "prefectureId": "ehime",
      "type": "station",
      "subtype": "private",
      "name": "西衣山",
      "nameKana": null,
      "nameEn": "Nishi-Kinuyama",
      "operator": "伊予鉄道",
      "network": null,
      "ref": "IY06",
      "latitude": 33.8501712,
      "longitude": 132.7340067,
      "countryCode": "jp",
      "rawTags": {
        "name": "西衣山",
        "name:en": "Nishi-Kinuyama",
        "name:ja": "西衣山",
        "name:ja-Latn": "Nishi-Kinuyama",
        "name:ko": "니시키누야마",
        "operator": "伊予鉄道",
        "public_transport": "station",
        "railway": "station",
        "ref": "IY06",
        "wikidata": "Q11629491",
        "wikipedia": "ja:西衣山駅"
      }
    },
    {
      "id": "ehime_station_3634554451",
      "osmId": 3634554451,
      "osmType": "node",
      "prefectureId": "ehime",
      "type": "station",
      "subtype": "private",
      "name": "見奈良",
      "nameKana": null,
      "nameEn": "Minara",
      "operator": "伊予鉄道",
      "network": null,
      "ref": "IY22",
      "latitude": 33.7927396,
      "longitude": 132.8733774,
      "countryCode": "jp",
      "rawTags": {
        "name": "見奈良",
        "name:en": "Minara",
        "name:ja": "見奈良",
        "name:ja-Latn": "Minara",
        "name:ko": "미나라",
        "operator": "伊予鉄道",
        "public_transport": "station",
        "railway": "station",
        "ref": "IY22",
        "wikidata": "Q11630170",
        "wikipedia": "ja:見奈良駅"
      }
    },
    {
      "id": "ehime_station_3634554452",
      "osmId": 3634554452,
      "osmType": "node",
      "prefectureId": "ehime",
      "type": "station",
      "subtype": "private",
      "name": "鷹ノ子",
      "nameKana": null,
      "nameEn": "Takanoko",
      "operator": "伊予鉄道",
      "network": null,
      "ref": "IY16",
      "latitude": 33.8126501,
      "longitude": 132.8149172,
      "countryCode": "jp",
      "rawTags": {
        "name": "鷹ノ子",
        "name:en": "Takanoko",
        "name:ja": "鷹ノ子",
        "name:ja-Latn": "Takanoko",
        "name:ko": "다카노코",
        "operator": "伊予鉄道",
        "public_transport": "station",
        "railway": "station",
        "ref": "IY16",
        "wikidata": "Q11676316",
        "wikipedia": "ja:鷹ノ子駅"
      }
    },
    {
      "id": "ehime_station_3637536523",
      "osmId": 3637536523,
      "osmType": "node",
      "prefectureId": "ehime",
      "type": "station",
      "subtype": "private",
      "name": "余戸",
      "nameKana": null,
      "nameEn": "Yogo",
      "operator": "伊予鉄道",
      "network": null,
      "ref": "IY27",
      "latitude": 33.8160352,
      "longitude": 132.7336634,
      "countryCode": "jp",
      "rawTags": {
        "name": "余戸",
        "name:en": "Yogo",
        "name:ja": "余戸",
        "name:ja-Latn": "Yogo",
        "name:ko": "요고",
        "operator": "伊予鉄道",
        "public_transport": "station",
        "railway": "station",
        "ref": "IY27",
        "train": "yes",
        "wikidata": "Q11385278",
        "wikipedia": "ja:余戸駅"
      }
    },
    {
      "id": "ehime_station_3637536524",
      "osmId": 3637536524,
      "osmType": "node",
      "prefectureId": "ehime",
      "type": "station",
      "subtype": "private",
      "name": "古泉",
      "nameKana": null,
      "nameEn": "Koizumi",
      "operator": "伊予鉄道",
      "network": null,
      "ref": "IY30",
      "latitude": 33.7926256,
      "longitude": 132.7172912,
      "countryCode": "jp",
      "rawTags": {
        "name": "古泉",
        "name:en": "Koizumi",
        "name:ja": "古泉",
        "name:ja-Latn": "Koizumi",
        "name:ko": "고이즈미",
        "operator": "伊予鉄道",
        "public_transport": "station",
        "railway": "station",
        "ref": "IY30",
        "train": "yes",
        "wikidata": "Q11411412",
        "wikipedia": "ja:古泉駅"
      }
    },
    {
      "id": "ehime_station_3637536525",
      "osmId": 3637536525,
      "osmType": "node",
      "prefectureId": "ehime",
      "type": "station",
      "subtype": "private",
      "name": "土居田",
      "nameKana": null,
      "nameEn": "Doida",
      "operator": "伊予鉄道",
      "network": null,
      "ref": "IY26",
      "latitude": 33.8241385,
      "longitude": 132.7441374,
      "countryCode": "jp",
      "rawTags": {
        "name": "土居田",
        "name:en": "Doida",
        "name:ja": "土居田",
        "name:ja-Latn": "Doida",
        "name:ko": "도이다",
        "operator": "伊予鉄道",
        "public_transport": "station",
        "railway": "station",
        "ref": "IY26",
        "train": "yes",
        "wikidata": "Q11423194",
        "wikipedia": "ja:土居田駅"
      }
    },
    {
      "id": "ehime_station_3637536526",
      "osmId": 3637536526,
      "osmType": "node",
      "prefectureId": "ehime",
      "type": "station",
      "subtype": "private",
      "name": "岡田",
      "nameKana": null,
      "nameEn": "Okada",
      "operator": "伊予鉄道",
      "network": null,
      "ref": "IY29",
      "latitude": 33.7991278,
      "longitude": 132.7241135,
      "countryCode": "jp",
      "rawTags": {
        "name": "岡田",
        "name:en": "Okada",
        "name:ja": "岡田",
        "name:ja-Latn": "Okada",
        "name:ko": "오카다",
        "operator": "伊予鉄道",
        "public_transport": "station",
        "railway": "station",
        "ref": "IY29",
        "wikidata": "Q11473734",
        "wikipedia": "ja:岡田駅 (愛媛県)"
      }
    },
    {
      "id": "ehime_station_3637536527",
      "osmId": 3637536527,
      "osmType": "node",
      "prefectureId": "ehime",
      "type": "station",
      "subtype": "private",
      "name": "郡中",
      "nameKana": null,
      "nameEn": "Gunchu",
      "operator": "伊予鉄道",
      "network": null,
      "ref": "IY34",
      "latitude": 33.7606162,
      "longitude": 132.7039005,
      "countryCode": "jp",
      "rawTags": {
        "name": "郡中",
        "name:en": "Gunchu",
        "name:ja": "郡中",
        "name:ja-Latn": "Gunchū",
        "name:ko": "군추",
        "operator": "伊予鉄道",
        "public_transport": "station",
        "railway": "station",
        "ref": "IY34",
        "wikidata": "Q11643098",
        "wikipedia": "ja:郡中駅"
      }
    },
    {
      "id": "ehime_station_3637536528",
      "osmId": 3637536528,
      "osmType": "node",
      "prefectureId": "ehime",
      "type": "station",
      "subtype": "private",
      "name": "郡中港",
      "nameKana": null,
      "nameEn": "Gunchu Port",
      "operator": "伊予鉄道",
      "network": null,
      "ref": "IY35",
      "latitude": 33.756067,
      "longitude": 132.7021151,
      "countryCode": "jp",
      "rawTags": {
        "name": "郡中港",
        "name:en": "Gunchu Port",
        "name:ja": "郡中港",
        "name:ja-Latn": "Gunchūkō",
        "name:ko": "군추코",
        "operator": "伊予鉄道",
        "public_transport": "station",
        "railway": "station",
        "ref": "IY35",
        "train": "yes",
        "wikidata": "Q11643096",
        "wikipedia": "ja:郡中港駅"
      }
    },
    {
      "id": "ehime_station_3637536529",
      "osmId": 3637536529,
      "osmType": "node",
      "prefectureId": "ehime",
      "type": "station",
      "subtype": "private",
      "name": "鎌田",
      "nameKana": null,
      "nameEn": "Kamata",
      "operator": "伊予鉄道",
      "network": null,
      "ref": "IY28",
      "latitude": 33.8104328,
      "longitude": 132.729925,
      "countryCode": "jp",
      "rawTags": {
        "name": "鎌田",
        "name:en": "Kamata",
        "name:ja": "鎌田",
        "name:ja-Latn": "Kamata",
        "name:ko": "가마타",
        "operator": "伊予鉄道",
        "public_transport": "station",
        "railway": "station",
        "ref": "IY28",
        "train": "yes",
        "wikidata": "Q11651101",
        "wikipedia": "ja:鎌田駅"
      }
    },
    {
      "id": "ehime_ferry_terminal_3732787121",
      "osmId": 3732787121,
      "osmType": "node",
      "prefectureId": "ehime",
      "type": "ferry_terminal",
      "subtype": null,
      "name": "宗方港",
      "nameKana": null,
      "nameEn": "Munakata Port",
      "operator": null,
      "network": null,
      "ref": null,
      "latitude": 34.2031092,
      "longitude": 132.9428741,
      "countryCode": "jp",
      "rawTags": {
        "amenity": "ferry_terminal",
        "ferry": "yes",
        "name": "宗方港",
        "name:en": "Munakata Port",
        "name:ja": "宗方港",
        "public_transport": "station"
      }
    },
    {
      "id": "ehime_ferry_terminal_3769922205",
      "osmId": 3769922205,
      "osmType": "node",
      "prefectureId": "ehime",
      "type": "ferry_terminal",
      "subtype": null,
      "name": "生名立石港",
      "nameKana": null,
      "nameEn": null,
      "operator": null,
      "network": null,
      "ref": null,
      "latitude": 34.2776919,
      "longitude": 133.1776752,
      "countryCode": "jp",
      "rawTags": {
        "amenity": "ferry_terminal",
        "ferry": "yes",
        "name": "生名立石港",
        "public_transport": "station"
      }
    },
    {
      "id": "ehime_ferry_terminal_3770398179",
      "osmId": 3770398179,
      "osmType": "node",
      "prefectureId": "ehime",
      "type": "ferry_terminal",
      "subtype": null,
      "name": "長江港",
      "nameKana": "ながえこう",
      "nameEn": "Nagae Port",
      "operator": null,
      "network": null,
      "ref": null,
      "latitude": 34.2712287,
      "longitude": 133.158693,
      "countryCode": "jp",
      "rawTags": {
        "amenity": "ferry_terminal",
        "ferry": "yes",
        "name": "長江港",
        "name:en": "Nagae Port",
        "name:ja-Hira": "ながえこう",
        "public_transport": "station"
      }
    },
    {
      "id": "ehime_ferry_terminal_4072844948",
      "osmId": 4072844948,
      "osmType": "node",
      "prefectureId": "ehime",
      "type": "ferry_terminal",
      "subtype": null,
      "name": "八幡浜港",
      "nameKana": null,
      "nameEn": "Yawatahama",
      "operator": null,
      "network": "宇和島運輸・オレンジフェリー",
      "ref": null,
      "latitude": 33.4584579,
      "longitude": 132.4147345,
      "countryCode": "jp",
      "rawTags": {
        "amenity": "ferry_terminal",
        "ferry": "yes",
        "name": "八幡浜港",
        "name:en": "Yawatahama",
        "name:ja-Latn": "Yawatahama",
        "network": "宇和島運輸・オレンジフェリー",
        "note": "臼杵行き埠頭",
        "public_transport": "stop_position"
      }
    },
    {
      "id": "ehime_ferry_terminal_4099487638",
      "osmId": 4099487638,
      "osmType": "node",
      "prefectureId": "ehime",
      "type": "ferry_terminal",
      "subtype": null,
      "name": "Honkushima",
      "nameKana": null,
      "nameEn": null,
      "operator": null,
      "network": null,
      "ref": null,
      "latitude": 33.2218397,
      "longitude": 132.5229106,
      "countryCode": "jp",
      "rawTags": {
        "amenity": "ferry_terminal",
        "cargo": "passengers;vehicle",
        "name": "Honkushima",
        "name:ja": "本九島"
      }
    },
    {
      "id": "ehime_bus_terminal_4163618046",
      "osmId": 4163618046,
      "osmType": "node",
      "prefectureId": "ehime",
      "type": "bus_terminal",
      "subtype": null,
      "name": "JR宇和島駅",
      "nameKana": null,
      "nameEn": "JR Uwajima",
      "operator": null,
      "network": null,
      "ref": null,
      "latitude": 33.2256775,
      "longitude": 132.5679682,
      "countryCode": "jp",
      "rawTags": {
        "amenity": "bus_station",
        "name": "JR宇和島駅",
        "name:en": "JR Uwajima"
      }
    },
    {
      "id": "ehime_ferry_terminal_4375179489",
      "osmId": 4375179489,
      "osmType": "node",
      "prefectureId": "ehime",
      "type": "ferry_terminal",
      "subtype": null,
      "name": "三津浜港FT",
      "nameKana": null,
      "nameEn": null,
      "operator": null,
      "network": null,
      "ref": null,
      "latitude": 33.8657525,
      "longitude": 132.7094867,
      "countryCode": "jp",
      "rawTags": {
        "amenity": "ferry_terminal",
        "ferry": "yes",
        "name": "三津浜港FT",
        "public_transport": "station"
      }
    },
    {
      "id": "ehime_ferry_terminal_4722052343",
      "osmId": 4722052343,
      "osmType": "node",
      "prefectureId": "ehime",
      "type": "ferry_terminal",
      "subtype": null,
      "name": "魚島港",
      "nameKana": null,
      "nameEn": null,
      "operator": null,
      "network": null,
      "ref": null,
      "latitude": 34.1790033,
      "longitude": 133.3222006,
      "countryCode": "jp",
      "rawTags": {
        "amenity": "ferry_terminal",
        "ferry": "yes",
        "name": "魚島港",
        "public_transport": "station"
      }
    },
    {
      "id": "ehime_station_4917630471",
      "osmId": 4917630471,
      "osmType": "node",
      "prefectureId": "ehime",
      "type": "station",
      "subtype": "private",
      "name": "うちよけ",
      "nameKana": null,
      "nameEn": null,
      "operator": null,
      "network": null,
      "ref": null,
      "latitude": 33.8991134,
      "longitude": 133.3082159,
      "countryCode": "jp",
      "rawTags": {
        "name": "うちよけ",
        "public_transport": "station",
        "railway": "station"
      }
    },
    {
      "id": "ehime_station_4917630474",
      "osmId": 4917630474,
      "osmType": "node",
      "prefectureId": "ehime",
      "type": "station",
      "subtype": "private",
      "name": "端出場",
      "nameKana": null,
      "nameEn": null,
      "operator": null,
      "network": null,
      "ref": null,
      "latitude": 33.9017047,
      "longitude": 133.3093058,
      "countryCode": "jp",
      "rawTags": {
        "name": "端出場",
        "public_transport": "station",
        "railway": "station"
      }
    },
    {
      "id": "ehime_ferry_terminal_4988048814",
      "osmId": 4988048814,
      "osmType": "node",
      "prefectureId": "ehime",
      "type": "ferry_terminal",
      "subtype": null,
      "name": "津島港",
      "nameKana": null,
      "nameEn": null,
      "operator": null,
      "network": null,
      "ref": null,
      "latitude": 34.1539936,
      "longitude": 133.0059617,
      "countryCode": "jp",
      "rawTags": {
        "amenity": "ferry_terminal",
        "ferry": "yes",
        "name": "津島港",
        "public_transport": "station",
        "wikidata": "Q34966771"
      }
    },
    {
      "id": "ehime_ferry_terminal_4988054118",
      "osmId": 4988054118,
      "osmType": "node",
      "prefectureId": "ehime",
      "type": "ferry_terminal",
      "subtype": null,
      "name": "幸港",
      "nameKana": null,
      "nameEn": null,
      "operator": null,
      "network": null,
      "ref": null,
      "latitude": 34.1502054,
      "longitude": 133.0397987,
      "countryCode": "jp",
      "rawTags": {
        "amenity": "ferry_terminal",
        "ferry": "yes",
        "name": "幸港",
        "public_transport": "station"
      }
    },
    {
      "id": "ehime_ferry_terminal_5001159823",
      "osmId": 5001159823,
      "osmType": "node",
      "prefectureId": "ehime",
      "type": "ferry_terminal",
      "subtype": null,
      "name": "小島港",
      "nameKana": null,
      "nameEn": null,
      "operator": null,
      "network": null,
      "ref": null,
      "latitude": 34.1228666,
      "longitude": 132.9765278,
      "countryCode": "jp",
      "rawTags": {
        "amenity": "ferry_terminal",
        "ferry": "yes",
        "name": "小島港",
        "public_transport": "station"
      }
    },
    {
      "id": "ehime_ferry_terminal_5456663930",
      "osmId": 5456663930,
      "osmType": "node",
      "prefectureId": "ehime",
      "type": "ferry_terminal",
      "subtype": null,
      "name": "来島港",
      "nameKana": null,
      "nameEn": null,
      "operator": null,
      "network": null,
      "ref": null,
      "latitude": 34.1169595,
      "longitude": 132.9702359,
      "countryCode": "jp",
      "rawTags": {
        "amenity": "ferry_terminal",
        "ferry": "yes",
        "name": "来島港",
        "public_transport": "station"
      }
    },
    {
      "id": "ehime_ferry_terminal_5456692612",
      "osmId": 5456692612,
      "osmType": "node",
      "prefectureId": "ehime",
      "type": "ferry_terminal",
      "subtype": null,
      "name": "宮窪港",
      "nameKana": null,
      "nameEn": null,
      "operator": null,
      "network": null,
      "ref": null,
      "latitude": 34.1756478,
      "longitude": 133.0775353,
      "countryCode": "jp",
      "rawTags": {
        "amenity": "ferry_terminal",
        "ferry": "yes",
        "name": "宮窪港",
        "public_transport": "station",
        "wikidata": "Q11455213",
        "wikipedia": "ja:宮窪漁港"
      }
    },
    {
      "id": "ehime_bus_terminal_6230975698",
      "osmId": 6230975698,
      "osmType": "node",
      "prefectureId": "ehime",
      "type": "bus_terminal",
      "subtype": null,
      "name": "伊予鉄南予バス 久万営業所",
      "nameKana": null,
      "nameEn": null,
      "operator": "伊予鉄南予バス",
      "network": null,
      "ref": null,
      "latitude": 33.6599691,
      "longitude": 132.9000422,
      "countryCode": "jp",
      "rawTags": {
        "amenity": "bus_station",
        "name": "伊予鉄南予バス 久万営業所",
        "operator": "伊予鉄南予バス"
      }
    },
    {
      "id": "ehime_ferry_terminal_6237423763",
      "osmId": 6237423763,
      "osmType": "node",
      "prefectureId": "ehime",
      "type": "ferry_terminal",
      "subtype": null,
      "name": "盛港",
      "nameKana": null,
      "nameEn": "Sakari Port",
      "operator": null,
      "network": null,
      "ref": null,
      "latitude": 34.2940428,
      "longitude": 133.028125,
      "countryCode": "jp",
      "rawTags": {
        "amenity": "ferry_terminal",
        "ferry": "yes",
        "name": "盛港",
        "name:en": "Sakari Port",
        "public_transport": "station",
        "wikidata": "Q11581432",
        "wikipedia": "ja:盛漁港"
      }
    },
    {
      "id": "ehime_bus_terminal_6376107787",
      "osmId": 6376107787,
      "osmType": "node",
      "prefectureId": "ehime",
      "type": "bus_terminal",
      "subtype": null,
      "name": "JR四国バス 久万高原駅",
      "nameKana": null,
      "nameEn": null,
      "operator": null,
      "network": null,
      "ref": null,
      "latitude": 33.6550647,
      "longitude": 132.9016978,
      "countryCode": "jp",
      "rawTags": {
        "amenity": "bus_station",
        "name": "JR四国バス 久万高原駅"
      }
    },
    {
      "id": "ehime_ferry_terminal_6719062131",
      "osmId": 6719062131,
      "osmType": "node",
      "prefectureId": "ehime",
      "type": "ferry_terminal",
      "subtype": null,
      "name": "尾浦港",
      "nameKana": null,
      "nameEn": "Oura Port",
      "operator": null,
      "network": null,
      "ref": null,
      "latitude": 34.1991832,
      "longitude": 133.1035728,
      "countryCode": "jp",
      "rawTags": {
        "amenity": "ferry_terminal",
        "ferry": "yes",
        "name": "尾浦港",
        "name:en": "Oura Port",
        "public_transport": "station"
      }
    },
    {
      "id": "ehime_ferry_terminal_6982128561",
      "osmId": 6982128561,
      "osmType": "node",
      "prefectureId": "ehime",
      "type": "ferry_terminal",
      "subtype": null,
      "name": "鵜島港",
      "nameKana": null,
      "nameEn": "Ushima Port",
      "operator": null,
      "network": null,
      "ref": null,
      "latitude": 34.1831449,
      "longitude": 133.0879353,
      "countryCode": "jp",
      "rawTags": {
        "amenity": "ferry_terminal",
        "ferry": "yes",
        "name": "鵜島港",
        "name:en": "Ushima Port",
        "public_transport": "station"
      }
    },
    {
      "id": "ehime_ferry_terminal_6982128577",
      "osmId": 6982128577,
      "osmType": "node",
      "prefectureId": "ehime",
      "type": "ferry_terminal",
      "subtype": null,
      "name": "木浦港",
      "nameKana": null,
      "nameEn": "Kinoura Port",
      "operator": null,
      "network": null,
      "ref": null,
      "latitude": 34.2052641,
      "longitude": 133.1187262,
      "countryCode": "jp",
      "rawTags": {
        "amenity": "ferry_terminal",
        "ferry": "yes",
        "name": "木浦港",
        "name:en": "Kinoura Port",
        "official_name": "伯方港",
        "official_name:en": "Hakata Port",
        "public_transport": "station"
      }
    },
    {
      "id": "ehime_ferry_terminal_6996341330",
      "osmId": 6996341330,
      "osmType": "node",
      "prefectureId": "ehime",
      "type": "ferry_terminal",
      "subtype": null,
      "name": "友浦港",
      "nameKana": "ともうらこう",
      "nameEn": "Tomoura Port",
      "operator": null,
      "network": null,
      "ref": null,
      "latitude": 34.1522952,
      "longitude": 133.0826774,
      "countryCode": "jp",
      "rawTags": {
        "amenity": "ferry_terminal",
        "ferry": "yes",
        "name": "友浦港",
        "name:en": "Tomoura Port",
        "name:ja-Hira": "ともうらこう",
        "public_transport": "station",
        "wikidata": "Q11410350",
        "wikipedia": "ja:友浦漁港"
      }
    },
    {
      "id": "ehime_station_7733520879",
      "osmId": 7733520879,
      "osmType": "node",
      "prefectureId": "ehime",
      "type": "station",
      "subtype": "private",
      "name": "光洋台",
      "nameKana": null,
      "nameEn": "Kōyōdai",
      "operator": null,
      "network": null,
      "ref": "Y51",
      "latitude": 33.9269781,
      "longitude": 132.761095,
      "countryCode": "jp",
      "rawTags": {
        "KSJ2:LIN": "予讃線",
        "KSJ2:STN": "光洋台",
        "name": "光洋台",
        "name:en": "Kōyōdai",
        "name:ja": "光洋台",
        "name:ko": "고요다이",
        "note": "National-Land Numerical Information (Railway) 2007, MLIT Japan",
        "note:ja": "国土数値情報（鉄道データ）平成19年　国土交通省",
        "public_transport": "station",
        "railway": "station",
        "ref": "Y51",
        "source": "KSJ2",
        "source_ref": "http://nlftp.mlit.go.jp/ksj/jpgis/datalist/KsjTmplt-N02-v1_1.html",
        "wikidata": "Q899000",
        "wikipedia": "ja:光洋台駅"
      }
    },
    {
      "id": "ehime_station_7733520880",
      "osmId": 7733520880,
      "osmType": "node",
      "prefectureId": "ehime",
      "type": "station",
      "subtype": "private",
      "name": "伊予和気",
      "nameKana": null,
      "nameEn": "Iyo-Wake",
      "operator": null,
      "network": null,
      "ref": "Y53",
      "latitude": 33.8896309,
      "longitude": 132.7407149,
      "countryCode": "jp",
      "rawTags": {
        "KSJ2:LIN": "予讃線",
        "KSJ2:STN": "伊予和気",
        "name": "伊予和気",
        "name:en": "Iyo-Wake",
        "name:ja": "伊予和気",
        "name:ko": "이요와케",
        "note": "National-Land Numerical Information (Railway) 2007, MLIT Japan",
        "note:ja": "国土数値情報（鉄道データ）平成19年　国土交通省",
        "public_transport": "station",
        "railway": "station",
        "ref": "Y53",
        "source": "KSJ2",
        "source_ref": "http://nlftp.mlit.go.jp/ksj/jpgis/datalist/KsjTmplt-N02-v1_1.html",
        "wikidata": "Q899231",
        "wikipedia": "ja:伊予和気駅"
      }
    },
    {
      "id": "ehime_station_7795593133",
      "osmId": 7795593133,
      "osmType": "node",
      "prefectureId": "ehime",
      "type": "station",
      "subtype": "jr",
      "name": "伊予横田",
      "nameKana": null,
      "nameEn": "Iyo-Yokota",
      "operator": "四国旅客鉄道",
      "network": null,
      "ref": "U03",
      "latitude": 33.7727704,
      "longitude": 132.726801,
      "countryCode": "jp",
      "rawTags": {
        "KSJ2:LIN": "予讃線",
        "KSJ2:STN": "伊予横田",
        "name": "伊予横田",
        "name:en": "Iyo-Yokota",
        "name:ja": "伊予横田",
        "name:ko": "이요요코타",
        "note": "National-Land Numerical Information (Railway) 2007, MLIT Japan",
        "note:ja": "国土数値情報（鉄道データ）平成19年　国土交通省",
        "operator": "四国旅客鉄道",
        "public_transport": "station",
        "railway": "station",
        "ref": "U03",
        "source": "KSJ2",
        "source_ref": "http://nlftp.mlit.go.jp/ksj/jpgis/datalist/KsjTmplt-N02-v1_1.html",
        "wikidata": "Q898981",
        "wikipedia": "ja:伊予横田駅"
      }
    },
    {
      "id": "ehime_station_7795593134",
      "osmId": 7795593134,
      "osmType": "node",
      "prefectureId": "ehime",
      "type": "station",
      "subtype": "jr",
      "name": "松山",
      "nameKana": null,
      "nameEn": "Matsuyama",
      "operator": "四国旅客鉄道",
      "network": null,
      "ref": "Y55;U00",
      "latitude": 33.8399303,
      "longitude": 132.7507395,
      "countryCode": "jp",
      "rawTags": {
        "KSJ2:LIN": "予讃線",
        "KSJ2:STN": "松山",
        "name": "松山",
        "name:en": "Matsuyama",
        "name:ja": "松山",
        "name:ko": "마쓰야마",
        "note": "National-Land Numerical Information (Railway) 2007, MLIT Japan",
        "note:ja": "国土数値情報（鉄道データ）平成19年　国土交通省",
        "operator": "四国旅客鉄道",
        "operator:en": "Shikoku Railway Company",
        "public_transport": "station",
        "railway": "station",
        "ref": "Y55;U00",
        "source": "KSJ2",
        "source_ref": "http://nlftp.mlit.go.jp/ksj/jpgis/datalist/KsjTmplt-N02-v1_1.html",
        "wikidata": "Q1058202",
        "wikipedia": "ja:松山駅 (愛媛県)"
      }
    },
    {
      "id": "ehime_station_7795593135",
      "osmId": 7795593135,
      "osmType": "node",
      "prefectureId": "ehime",
      "type": "station",
      "subtype": "jr",
      "name": "南伊予",
      "nameKana": "みなみいよ",
      "nameEn": "Minami-Iyo",
      "operator": "四国旅客鉄道株式会社",
      "network": "JR",
      "ref": "U02-1",
      "latitude": 33.7776893,
      "longitude": 132.7387684,
      "countryCode": "jp",
      "rawTags": {
        "brand": "JR四国",
        "brand:en": "JR Shikoku",
        "brand:ja": "JR四国",
        "brand:ja-Latn": "JR Shikoku",
        "name": "南伊予",
        "name:en": "Minami-Iyo",
        "name:ja": "南伊予",
        "name:ja-Hira": "みなみいよ",
        "name:ja-Latn": "Minami-Iyo",
        "network": "JR",
        "network:en": "JR",
        "network:ja": "JR",
        "network:wikidata": "Q864495",
        "operator": "四国旅客鉄道株式会社",
        "operator:en": "Shikoku Railway Company",
        "operator:ja": "四国旅客鉄道株式会社",
        "operator:wikidata": "Q496531",
        "public_transport": "station",
        "railway": "station",
        "ref": "U02-1",
        "start_date": "2020-03-14",
        "supervised": "no",
        "wikidata": "Q60987891",
        "wikipedia": "ja:南伊予駅"
      }
    },
    {
      "id": "ehime_station_7795593136",
      "osmId": 7795593136,
      "osmType": "node",
      "prefectureId": "ehime",
      "type": "station",
      "subtype": "jr",
      "name": "北伊予",
      "nameKana": null,
      "nameEn": "Kita-Iyo",
      "operator": "四国旅客鉄道",
      "network": null,
      "ref": "U02",
      "latitude": 33.7877056,
      "longitude": 132.7489528,
      "countryCode": "jp",
      "rawTags": {
        "name": "北伊予",
        "name:en": "Kita-Iyo",
        "name:ja-Latn": "Kita-Iyo",
        "operator": "四国旅客鉄道",
        "public_transport": "station",
        "railway": "station",
        "ref": "U02",
        "wikidata": "Q898935",
        "wikipedia": "ja:北伊予駅"
      }
    },
    {
      "id": "ehime_station_7795593137",
      "osmId": 7795593137,
      "osmType": "node",
      "prefectureId": "ehime",
      "type": "station",
      "subtype": "jr",
      "name": "伊予市",
      "nameKana": "いよし",
      "nameEn": "Iyoshi",
      "operator": "四国旅客鉄道",
      "network": null,
      "ref": "U05",
      "latitude": 33.7554599,
      "longitude": 132.7023293,
      "countryCode": "jp",
      "rawTags": {
        "KSJ2:LIN": "予讃線",
        "KSJ2:STN": "伊予市",
        "name": "伊予市",
        "name:en": "Iyoshi",
        "name:ja": "伊予市",
        "name:ja-Hira": "いよし",
        "name:ja-Latn": "Iyo-shi",
        "name:ko": "이요시",
        "note": "National-Land Numerical Information (Railway) 2007, MLIT Japan",
        "note:ja": "国土数値情報（鉄道データ）平成19年 国土交通省",
        "operator": "四国旅客鉄道",
        "public_transport": "station",
        "railway": "station",
        "ref": "U05",
        "source": "KSJ2",
        "source_ref": "http://nlftp.mlit.go.jp/ksj/jpgis/datalist/KsjTmplt-N02-v1_1.html",
        "wikidata": "Q869533",
        "wikipedia": "ja:伊予市駅"
      }
    },
    {
      "id": "ehime_station_7795593138",
      "osmId": 7795593138,
      "osmType": "node",
      "prefectureId": "ehime",
      "type": "station",
      "subtype": "private",
      "name": "三津浜",
      "nameKana": null,
      "nameEn": "Mitsuhama",
      "operator": null,
      "network": null,
      "ref": "Y54",
      "latitude": 33.8624691,
      "longitude": 132.7287751,
      "countryCode": "jp",
      "rawTags": {
        "KSJ2:LIN": "予讃線",
        "KSJ2:STN": "三津浜",
        "name": "三津浜",
        "name:en": "Mitsuhama",
        "name:ja": "三津浜",
        "name:ko": "미쓰하마",
        "note": "National-Land Numerical Information (Railway) 2007, MLIT Japan",
        "note:ja": "国土数値情報（鉄道データ）平成19年　国土交通省",
        "public_transport": "station",
        "railway": "station",
        "ref": "Y54",
        "source": "KSJ2",
        "source_ref": "http://nlftp.mlit.go.jp/ksj/jpgis/datalist/KsjTmplt-N02-v1_1.html",
        "wikidata": "Q899123",
        "wikipedia": "ja:三津浜駅"
      }
    },
    {
      "id": "ehime_station_7795593139",
      "osmId": 7795593139,
      "osmType": "node",
      "prefectureId": "ehime",
      "type": "station",
      "subtype": "jr",
      "name": "鳥ノ木",
      "nameKana": null,
      "nameEn": "Torinoki",
      "operator": "四国旅客鉄道",
      "network": null,
      "ref": "U04",
      "latitude": 33.7638599,
      "longitude": 132.7114843,
      "countryCode": "jp",
      "rawTags": {
        "KSJ2:LIN": "予讃線",
        "KSJ2:STN": "鳥ノ木",
        "name": "鳥ノ木",
        "name:en": "Torinoki",
        "name:ja": "鳥ノ木",
        "name:ko": "도리노키",
        "note": "National-Land Numerical Information (Railway) 2007, MLIT Japan",
        "note:ja": "国土数値情報（鉄道データ）平成19年　国土交通省",
        "operator": "四国旅客鉄道",
        "public_transport": "station",
        "railway": "station",
        "ref": "U04",
        "source": "KSJ2",
        "source_ref": "http://nlftp.mlit.go.jp/ksj/jpgis/datalist/KsjTmplt-N02-v1_1.html",
        "wikidata": "Q513429",
        "wikipedia": "ja:鳥ノ木駅"
      }
    },
    {
      "id": "ehime_station_7795593140",
      "osmId": 7795593140,
      "osmType": "node",
      "prefectureId": "ehime",
      "type": "station",
      "subtype": "jr",
      "name": "市坪",
      "nameKana": "いちつぼ",
      "nameEn": "Ichitsubo",
      "operator": "四国旅客鉄道",
      "network": null,
      "ref": "U01",
      "latitude": 33.8095121,
      "longitude": 132.7492846,
      "countryCode": "jp",
      "rawTags": {
        "KSJ2:LIN": "予讃線",
        "KSJ2:STN": "市坪",
        "name": "市坪",
        "name:en": "Ichitsubo",
        "name:ja": "市坪",
        "name:ja-Hira": "いちつぼ",
        "name:ko": "이치쓰보",
        "note": "National-Land Numerical Information (Railway) 2007, MLIT Japan",
        "note:ja": "国土数値情報（鉄道データ）平成19年　国土交通省",
        "operator": "四国旅客鉄道",
        "public_transport": "station",
        "railway": "station",
        "ref": "U01",
        "source": "KSJ2",
        "source_ref": "http://nlftp.mlit.go.jp/ksj/jpgis/datalist/KsjTmplt-N02-v1_1.html",
        "wikidata": "Q899104",
        "wikipedia": "ja:市坪駅"
      }
    },
    {
      "id": "ehime_station_7825993156",
      "osmId": 7825993156,
      "osmType": "node",
      "prefectureId": "ehime",
      "type": "station",
      "subtype": "jr",
      "name": "伊予富田",
      "nameKana": null,
      "nameEn": "Iyo-Tomita",
      "operator": "四国旅客鉄道",
      "network": null,
      "ref": "Y39",
      "latitude": 34.0364431,
      "longitude": 133.0091196,
      "countryCode": "jp",
      "rawTags": {
        "KSJ2:LIN": "予讃線",
        "KSJ2:STN": "伊予富田",
        "name": "伊予富田",
        "name:en": "Iyo-Tomita",
        "name:ja": "伊予富田",
        "name:ko": "이요토미타",
        "note": "National-Land Numerical Information (Railway) 2007, MLIT Japan",
        "note:ja": "国土数値情報（鉄道データ）平成19年　国土交通省",
        "operator": "四国旅客鉄道",
        "public_transport": "station",
        "railway": "station",
        "ref": "Y39",
        "source": "KSJ2",
        "source_ref": "http://nlftp.mlit.go.jp/ksj/jpgis/datalist/KsjTmplt-N02-v1_1.html",
        "wikidata": "Q585178",
        "wikipedia": "ja:伊予富田駅"
      }
    },
    {
      "id": "ehime_station_7826015588",
      "osmId": 7826015588,
      "osmType": "node",
      "prefectureId": "ehime",
      "type": "station",
      "subtype": "jr",
      "name": "今治",
      "nameKana": null,
      "nameEn": "Imabari",
      "operator": "四国旅客鉄道",
      "network": null,
      "ref": "Y40",
      "latitude": 34.0641845,
      "longitude": 132.9936721,
      "countryCode": "jp",
      "rawTags": {
        "KSJ2:LIN": "予讃線",
        "KSJ2:STN": "今治",
        "name": "今治",
        "name:en": "Imabari",
        "name:ja": "今治",
        "name:ko": "이마바리",
        "note": "National-Land Numerical Information (Railway) 2007, MLIT Japan",
        "note:ja": "国土数値情報（鉄道データ）平成19年　国土交通省",
        "operator": "四国旅客鉄道",
        "public_transport": "station",
        "railway": "station",
        "ref": "Y40",
        "source": "KSJ2",
        "source_ref": "http://nlftp.mlit.go.jp/ksj/jpgis/datalist/KsjTmplt-N02-v1_1.html",
        "train": "yes",
        "wikidata": "Q875869",
        "wikipedia": "ja:今治駅"
      }
    },
    {
      "id": "ehime_station_7826015589",
      "osmId": 7826015589,
      "osmType": "node",
      "prefectureId": "ehime",
      "type": "station",
      "subtype": "private",
      "name": "伊予大平",
      "nameKana": null,
      "nameEn": "Iyo-Ōhira",
      "operator": null,
      "network": null,
      "ref": null,
      "latitude": 33.7160026,
      "longitude": 132.7085634,
      "countryCode": "jp",
      "rawTags": {
        "KSJ2:LIN": "予讃線",
        "KSJ2:STN": "伊予大平",
        "name": "伊予大平",
        "name:en": "Iyo-Ōhira",
        "name:ja": "伊予大平",
        "name:ko": "이요오히라",
        "note": "National-Land Numerical Information (Railway) 2007, MLIT Japan",
        "note:ja": "国土数値情報（鉄道データ）平成19年　国土交通省",
        "public_transport": "station",
        "railway": "station",
        "source": "KSJ2",
        "source_ref": "http://nlftp.mlit.go.jp/ksj/jpgis/datalist/KsjTmplt-N02-v1_1.html",
        "wikidata": "Q267402",
        "wikipedia": "ja:伊予大平駅"
      }
    },
    {
      "id": "ehime_station_7826453326",
      "osmId": 7826453326,
      "osmType": "node",
      "prefectureId": "ehime",
      "type": "station",
      "subtype": "jr",
      "name": "柳原",
      "nameKana": null,
      "nameEn": "Yanagihara",
      "operator": "四国旅客鉄道",
      "network": null,
      "ref": "Y49",
      "latitude": 33.953534,
      "longitude": 132.7735252,
      "countryCode": "jp",
      "rawTags": {
        "KSJ2:LIN": "予讃線",
        "KSJ2:STN": "柳原",
        "name": "柳原",
        "name:en": "Yanagihara",
        "name:ja": "柳原",
        "name:ko": "야나기하라",
        "note": "National-Land Numerical Information (Railway) 2007, MLIT Japan",
        "note:ja": "国土数値情報（鉄道データ）平成19年　国土交通省",
        "operator": "四国旅客鉄道",
        "public_transport": "station",
        "railway": "station",
        "ref": "Y49",
        "source": "KSJ2",
        "source_ref": "http://nlftp.mlit.go.jp/ksj/jpgis/datalist/KsjTmplt-N02-v1_1.html",
        "wikidata": "Q898944",
        "wikipedia": "ja:柳原駅 (愛媛県)"
      }
    },
    {
      "id": "ehime_station_7826453327",
      "osmId": 7826453327,
      "osmType": "node",
      "prefectureId": "ehime",
      "type": "station",
      "subtype": "private",
      "name": "粟井",
      "nameKana": null,
      "nameEn": "Awai",
      "operator": null,
      "network": null,
      "ref": "Y50",
      "latitude": 33.9427301,
      "longitude": 132.7705353,
      "countryCode": "jp",
      "rawTags": {
        "KSJ2:LIN": "予讃線",
        "KSJ2:STN": "粟井",
        "name": "粟井",
        "name:en": "Awai",
        "name:ja": "粟井",
        "name:ko": "아와이",
        "note": "National-Land Numerical Information (Railway) 2007, MLIT Japan",
        "note:ja": "国土数値情報（鉄道データ）平成19年　国土交通省",
        "public_transport": "station",
        "railway": "station",
        "ref": "Y50",
        "source": "KSJ2",
        "source_ref": "http://nlftp.mlit.go.jp/ksj/jpgis/datalist/KsjTmplt-N02-v1_1.html",
        "wikidata": "Q898993",
        "wikipedia": "ja:粟井駅"
      }
    },
    {
      "id": "ehime_station_7826453328",
      "osmId": 7826453328,
      "osmType": "node",
      "prefectureId": "ehime",
      "type": "station",
      "subtype": "jr",
      "name": "堀江",
      "nameKana": null,
      "nameEn": "Horie",
      "operator": "四国旅客鉄道",
      "network": null,
      "ref": "Y52",
      "latitude": 33.9058337,
      "longitude": 132.7534287,
      "countryCode": "jp",
      "rawTags": {
        "KSJ2:LIN": "予讃線",
        "KSJ2:STN": "堀江",
        "name": "堀江",
        "name:en": "Horie",
        "name:ja": "堀江",
        "name:ko": "호리에",
        "note": "National-Land Numerical Information (Railway) 2007, MLIT Japan",
        "note:ja": "国土数値情報（鉄道データ）平成19年　国土交通省",
        "operator": "四国旅客鉄道",
        "public_transport": "station",
        "railway": "station",
        "ref": "Y52",
        "source": "KSJ2",
        "source_ref": "http://nlftp.mlit.go.jp/ksj/jpgis/datalist/KsjTmplt-N02-v1_1.html",
        "wikidata": "Q899174",
        "wikipedia": "ja:堀江駅"
      }
    },
    {
      "id": "ehime_station_7832077479",
      "osmId": 7832077479,
      "osmType": "node",
      "prefectureId": "ehime",
      "type": "station",
      "subtype": "jr",
      "name": "菊間",
      "nameKana": null,
      "nameEn": "Kikuma",
      "operator": "四国旅客鉄道",
      "network": null,
      "ref": "Y45",
      "latitude": 34.0333295,
      "longitude": 132.8408433,
      "countryCode": "jp",
      "rawTags": {
        "KSJ2:LIN": "予讃線",
        "KSJ2:STN": "菊間",
        "name": "菊間",
        "name:en": "Kikuma",
        "name:ja": "菊間",
        "name:ko": "기쿠마",
        "note": "National-Land Numerical Information (Railway) 2007, MLIT Japan",
        "note:ja": "国土数値情報（鉄道データ）平成19年　国土交通省",
        "operator": "四国旅客鉄道",
        "public_transport": "station",
        "railway": "station",
        "ref": "Y45",
        "source": "KSJ2",
        "source_ref": "http://nlftp.mlit.go.jp/ksj/jpgis/datalist/KsjTmplt-N02-v1_1.html",
        "wikidata": "Q898633",
        "wikipedia": "ja:菊間駅"
      }
    },
    {
      "id": "ehime_station_7832077480",
      "osmId": 7832077480,
      "osmType": "node",
      "prefectureId": "ehime",
      "type": "station",
      "subtype": "jr",
      "name": "伊予亀岡",
      "nameKana": null,
      "nameEn": "Iyo-Kameoka",
      "operator": "四国旅客鉄道",
      "network": null,
      "ref": "Y44",
      "latitude": 34.0538303,
      "longitude": 132.8741686,
      "countryCode": "jp",
      "rawTags": {
        "KSJ2:LIN": "予讃線",
        "KSJ2:STN": "伊予亀岡",
        "name": "伊予亀岡",
        "name:en": "Iyo-Kameoka",
        "name:ja": "伊予亀岡",
        "name:ko": "이요카메오카",
        "note": "National-Land Numerical Information (Railway) 2007, MLIT Japan",
        "note:ja": "国土数値情報（鉄道データ）平成19年　国土交通省",
        "operator": "四国旅客鉄道",
        "public_transport": "station",
        "railway": "station",
        "ref": "Y44",
        "source": "KSJ2",
        "source_ref": "http://nlftp.mlit.go.jp/ksj/jpgis/datalist/KsjTmplt-N02-v1_1.html",
        "wikidata": "Q899227",
        "wikipedia": "ja:伊予亀岡駅"
      }
    },
    {
      "id": "ehime_station_7832077481",
      "osmId": 7832077481,
      "osmType": "node",
      "prefectureId": "ehime",
      "type": "station",
      "subtype": "jr",
      "name": "大西",
      "nameKana": null,
      "nameEn": "Ōnishi",
      "operator": "四国旅客鉄道",
      "network": null,
      "ref": "Y43",
      "latitude": 34.0661031,
      "longitude": 132.9291502,
      "countryCode": "jp",
      "rawTags": {
        "KSJ2:LIN": "予讃線",
        "KSJ2:STN": "大西",
        "name": "大西",
        "name:en": "Ōnishi",
        "name:ja": "大西",
        "name:ko": "오니시",
        "note": "National-Land Numerical Information (Railway) 2007, MLIT Japan",
        "note:ja": "国土数値情報（鉄道データ）平成19年　国土交通省",
        "operator": "四国旅客鉄道",
        "public_transport": "station",
        "railway": "station",
        "ref": "Y43",
        "source": "KSJ2",
        "source_ref": "http://nlftp.mlit.go.jp/ksj/jpgis/datalist/KsjTmplt-N02-v1_1.html",
        "wikidata": "Q898627",
        "wikipedia": "ja:大西駅"
      }
    },
    {
      "id": "ehime_station_7832077482",
      "osmId": 7832077482,
      "osmType": "node",
      "prefectureId": "ehime",
      "type": "station",
      "subtype": "jr",
      "name": "波方",
      "nameKana": null,
      "nameEn": "Namikata",
      "operator": "四国旅客鉄道",
      "network": null,
      "ref": "Y42",
      "latitude": 34.0951639,
      "longitude": 132.9420119,
      "countryCode": "jp",
      "rawTags": {
        "KSJ2:LIN": "予讃線",
        "KSJ2:STN": "波方",
        "name": "波方",
        "name:en": "Namikata",
        "name:ja": "波方",
        "name:ko": "나미카타",
        "note": "National-Land Numerical Information (Railway) 2007, MLIT Japan",
        "note:ja": "国土数値情報（鉄道データ）平成19年　国土交通省",
        "operator": "四国旅客鉄道",
        "public_transport": "station",
        "railway": "station",
        "ref": "Y42",
        "source": "KSJ2",
        "source_ref": "http://nlftp.mlit.go.jp/ksj/jpgis/datalist/KsjTmplt-N02-v1_1.html",
        "wikidata": "Q875859",
        "wikipedia": "ja:波方駅"
      }
    },
    {
      "id": "ehime_station_7832077483",
      "osmId": 7832077483,
      "osmType": "node",
      "prefectureId": "ehime",
      "type": "station",
      "subtype": "jr",
      "name": "波止浜",
      "nameKana": null,
      "nameEn": "Hashihama",
      "operator": "四国旅客鉄道",
      "network": null,
      "ref": "Y41",
      "latitude": 34.0979811,
      "longitude": 132.9687349,
      "countryCode": "jp",
      "rawTags": {
        "KSJ2:LIN": "予讃線",
        "KSJ2:STN": "波止浜",
        "name": "波止浜",
        "name:en": "Hashihama",
        "name:ja": "波止浜",
        "name:ko": "하시하마",
        "note": "National-Land Numerical Information (Railway) 2007, MLIT Japan",
        "note:ja": "国土数値情報（鉄道データ）平成19年　国土交通省",
        "operator": "四国旅客鉄道",
        "public_transport": "station",
        "railway": "station",
        "ref": "Y41",
        "source": "KSJ2",
        "source_ref": "http://nlftp.mlit.go.jp/ksj/jpgis/datalist/KsjTmplt-N02-v1_1.html",
        "wikidata": "Q875845",
        "wikipedia": "ja:波止浜駅"
      }
    },
    {
      "id": "ehime_station_7832095785",
      "osmId": 7832095785,
      "osmType": "node",
      "prefectureId": "ehime",
      "type": "station",
      "subtype": "jr",
      "name": "喜多山",
      "nameKana": null,
      "nameEn": "Kitayama",
      "operator": "四国旅客鉄道",
      "network": null,
      "ref": null,
      "latitude": 33.533273,
      "longitude": 132.6110999,
      "countryCode": "jp",
      "rawTags": {
        "KSJ2:LIN": "内子線",
        "KSJ2:STN": "喜多山",
        "name": "喜多山",
        "name:en": "Kitayama",
        "name:ja": "喜多山",
        "name:ko": "기타야마",
        "note": "National-Land Numerical Information (Railway) 2007, MLIT Japan",
        "note:ja": "国土数値情報（鉄道データ）平成19年　国土交通省",
        "operator": "四国旅客鉄道",
        "operator:ja": "四国旅客鉄道",
        "public_transport": "station",
        "railway": "station",
        "source": "KSJ2",
        "source_ref": "http://nlftp.mlit.go.jp/ksj/jpgis/datalist/KsjTmplt-N02-v1_1.html",
        "wikidata": "Q373353",
        "wikipedia": "ja:喜多山駅 (愛媛県)"
      }
    },
    {
      "id": "ehime_station_7832095786",
      "osmId": 7832095786,
      "osmType": "node",
      "prefectureId": "ehime",
      "type": "station",
      "subtype": "jr",
      "name": "五十崎",
      "nameKana": null,
      "nameEn": "Ikazaki",
      "operator": "四国旅客鉄道",
      "network": null,
      "ref": null,
      "latitude": 33.538314,
      "longitude": 132.6366654,
      "countryCode": "jp",
      "rawTags": {
        "KSJ2:LIN": "内子線",
        "KSJ2:STN": "五十崎",
        "name": "五十崎",
        "name:en": "Ikazaki",
        "name:ja": "五十崎",
        "name:ko": "이카자키",
        "note": "National-Land Numerical Information (Railway) 2007, MLIT Japan",
        "note:ja": "国土数値情報（鉄道データ）平成19年　国土交通省",
        "operator": "四国旅客鉄道",
        "operator:ja": "四国旅客鉄道",
        "public_transport": "station",
        "railway": "station",
        "source": "KSJ2",
        "source_ref": "http://nlftp.mlit.go.jp/ksj/jpgis/datalist/KsjTmplt-N02-v1_1.html",
        "wikidata": "Q899606",
        "wikipedia": "ja:五十崎駅"
      }
    },
    {
      "id": "ehime_station_7832095789",
      "osmId": 7832095789,
      "osmType": "node",
      "prefectureId": "ehime",
      "type": "station",
      "subtype": "jr",
      "name": "宇和島",
      "nameKana": "うわじま",
      "nameEn": "Uwajima",
      "operator": "四国旅客鉄道",
      "network": null,
      "ref": null,
      "latitude": 33.2260474,
      "longitude": 132.5675039,
      "countryCode": "jp",
      "rawTags": {
        "name": "宇和島",
        "name:en": "Uwajima",
        "name:ja": "宇和島",
        "name:ja-Hira": "うわじま",
        "operator": "四国旅客鉄道",
        "public_transport": "station",
        "railway": "station",
        "wikidata": "Q1057654",
        "wikipedia": "ja:宇和島駅"
      }
    },
    {
      "id": "ehime_station_7832236440",
      "osmId": 7832236440,
      "osmType": "node",
      "prefectureId": "ehime",
      "type": "station",
      "subtype": "jr",
      "name": "向井原",
      "nameKana": null,
      "nameEn": "Mukaibara",
      "operator": "四国旅客鉄道",
      "network": null,
      "ref": "S06",
      "latitude": 33.7362119,
      "longitude": 132.695784,
      "countryCode": "jp",
      "rawTags": {
        "KSJ2:LIN": "予讃線",
        "KSJ2:STN": "向井原",
        "name": "向井原",
        "name:en": "Mukaibara",
        "name:ja": "向井原",
        "name:ko": "무카이바라",
        "note": "National-Land Numerical Information (Railway) 2007, MLIT Japan",
        "note:ja": "国土数値情報（鉄道データ）平成19年　国土交通省",
        "operator": "四国旅客鉄道",
        "public_transport": "station",
        "railway": "station",
        "ref": "S06",
        "source": "KSJ2",
        "source_ref": "http://nlftp.mlit.go.jp/ksj/jpgis/datalist/KsjTmplt-N02-v1_1.html",
        "wikidata": "Q944990",
        "wikipedia": "ja:向井原駅"
      }
    },
    {
      "id": "ehime_station_7832285057",
      "osmId": 7832285057,
      "osmType": "node",
      "prefectureId": "ehime",
      "type": "station",
      "subtype": "jr",
      "name": "新谷",
      "nameKana": null,
      "nameEn": "Niiya",
      "operator": "四国旅客鉄道",
      "network": null,
      "ref": "U13",
      "latitude": 33.5341434,
      "longitude": 132.5990215,
      "countryCode": "jp",
      "rawTags": {
        "KSJ2:LIN": "予讃線",
        "KSJ2:STN": "新谷",
        "name": "新谷",
        "name:en": "Niiya",
        "name:ja": "新谷",
        "name:ko": "니야",
        "note": "National-Land Numerical Information (Railway) 2007, MLIT Japan",
        "note:ja": "国土数値情報（鉄道データ）平成19年　国土交通省",
        "operator": "四国旅客鉄道",
        "operator:ja": "四国旅客鉄道",
        "public_transport": "station",
        "railway": "station",
        "ref": "U13",
        "source": "KSJ2",
        "source_ref": "http://nlftp.mlit.go.jp/ksj/jpgis/datalist/KsjTmplt-N02-v1_1.html",
        "wikidata": "Q900418",
        "wikipedia": "ja:新谷駅"
      }
    },
    {
      "id": "ehime_station_7832331461",
      "osmId": 7832331461,
      "osmType": "node",
      "prefectureId": "ehime",
      "type": "station",
      "subtype": "jr",
      "name": "伊予大洲",
      "nameKana": "いよおおず",
      "nameEn": "Iyo-Ōzu",
      "operator": "四国旅客鉄道",
      "network": null,
      "ref": "U14;S18",
      "latitude": 33.5186432,
      "longitude": 132.5447545,
      "countryCode": "jp",
      "rawTags": {
        "KSJ2:LIN": "予讃線",
        "KSJ2:STN": "伊予大洲",
        "contact:website": "https://www.jr-shikoku.co.jp/01_trainbus/kakueki/iyozu/",
        "name": "伊予大洲",
        "name:en": "Iyo-Ōzu",
        "name:ja": "伊予大洲",
        "name:ja-Hira": "いよおおず",
        "name:ko": "이요오즈",
        "note": "National-Land Numerical Information (Railway) 2007, MLIT Japan",
        "note:ja": "国土数値情報（鉄道データ）平成19年　国土交通省",
        "operator": "四国旅客鉄道",
        "public_transport": "station",
        "railway": "station",
        "ref": "U14;S18",
        "source": "KSJ2",
        "source_ref": "http://nlftp.mlit.go.jp/ksj/jpgis/datalist/KsjTmplt-N02-v1_1.html",
        "wikidata": "Q898968",
        "wikipedia": "ja:伊予大洲駅"
      }
    },
    {
      "id": "ehime_station_7832535469",
      "osmId": 7832535469,
      "osmType": "node",
      "prefectureId": "ehime",
      "type": "station",
      "subtype": "jr",
      "name": "西大洲",
      "nameKana": null,
      "nameEn": "Nishi-Ōzu",
      "operator": "四国旅客鉄道",
      "network": null,
      "ref": null,
      "latitude": 33.5082231,
      "longitude": 132.5269903,
      "countryCode": "jp",
      "rawTags": {
        "KSJ2:LIN": "予讃線",
        "KSJ2:STN": "西大洲",
        "name": "西大洲",
        "name:en": "Nishi-Ōzu",
        "name:ja": "西大洲",
        "name:ko": "니시오즈",
        "note": "National-Land Numerical Information (Railway) 2007, MLIT Japan",
        "note:ja": "国土数値情報（鉄道データ）平成19年　国土交通省",
        "operator": "四国旅客鉄道",
        "public_transport": "station",
        "railway": "station",
        "source": "KSJ2",
        "source_ref": "http://nlftp.mlit.go.jp/ksj/jpgis/datalist/KsjTmplt-N02-v1_1.html",
        "wikidata": "Q899566",
        "wikipedia": "ja:西大洲駅"
      }
    },
    {
      "id": "ehime_station_7832571907",
      "osmId": 7832571907,
      "osmType": "node",
      "prefectureId": "ehime",
      "type": "station",
      "subtype": "jr",
      "name": "伊予石城",
      "nameKana": null,
      "nameEn": "Iyo-Iwaki",
      "operator": "四国旅客鉄道",
      "network": null,
      "ref": null,
      "latitude": 33.3914382,
      "longitude": 132.4733036,
      "countryCode": "jp",
      "rawTags": {
        "KSJ2:LIN": "予讃線",
        "KSJ2:STN": "伊予石城",
        "name": "伊予石城",
        "name:en": "Iyo-Iwaki",
        "name:ja": "伊予石城",
        "name:ko": "이요이와키",
        "note": "National-Land Numerical Information (Railway) 2007, MLIT Japan",
        "note:ja": "国土数値情報（鉄道データ）平成19年　国土交通省",
        "operator": "四国旅客鉄道",
        "public_transport": "station",
        "railway": "station",
        "source": "KSJ2",
        "source_ref": "http://nlftp.mlit.go.jp/ksj/jpgis/datalist/KsjTmplt-N02-v1_1.html",
        "wikidata": "Q899531",
        "wikipedia": "ja:伊予石城駅"
      }
    },
    {
      "id": "ehime_station_7832571908",
      "osmId": 7832571908,
      "osmType": "node",
      "prefectureId": "ehime",
      "type": "station",
      "subtype": "jr",
      "name": "双岩",
      "nameKana": null,
      "nameEn": "Futaiwa",
      "operator": "四国旅客鉄道",
      "network": null,
      "ref": null,
      "latitude": 33.4246469,
      "longitude": 132.4578076,
      "countryCode": "jp",
      "rawTags": {
        "KSJ2:LIN": "予讃線",
        "KSJ2:STN": "双岩",
        "name": "双岩",
        "name:en": "Futaiwa",
        "name:ja": "双岩",
        "name:ko": "후타이와",
        "note": "National-Land Numerical Information (Railway) 2007, MLIT Japan",
        "note:ja": "国土数値情報（鉄道データ）平成19年　国土交通省",
        "operator": "四国旅客鉄道",
        "public_transport": "station",
        "railway": "station",
        "source": "KSJ2",
        "source_ref": "http://nlftp.mlit.go.jp/ksj/jpgis/datalist/KsjTmplt-N02-v1_1.html",
        "wikidata": "Q899611",
        "wikipedia": "ja:双岩駅"
      }
    },
    {
      "id": "ehime_station_7832571909",
      "osmId": 7832571909,
      "osmType": "node",
      "prefectureId": "ehime",
      "type": "station",
      "subtype": "jr",
      "name": "八幡浜",
      "nameKana": "やわたはま",
      "nameEn": "Yawatahama",
      "operator": "四国旅客鉄道",
      "network": null,
      "ref": "U18",
      "latitude": 33.45817,
      "longitude": 132.4359975,
      "countryCode": "jp",
      "rawTags": {
        "KSJ2:LIN": "予讃線",
        "KSJ2:STN": "八幡浜",
        "name": "八幡浜",
        "name:en": "Yawatahama",
        "name:ja": "八幡浜",
        "name:ja-Hira": "やわたはま",
        "name:ko": "야와타하마",
        "note": "National-Land Numerical Information (Railway) 2007, MLIT Japan",
        "note:ja": "国土数値情報（鉄道データ）平成19年　国土交通省",
        "operator": "四国旅客鉄道",
        "public_transport": "station",
        "railway": "station",
        "ref": "U18",
        "source": "KSJ2",
        "source_ref": "http://nlftp.mlit.go.jp/ksj/jpgis/datalist/KsjTmplt-N02-v1_1.html",
        "wikidata": "Q899549",
        "wikipedia": "ja:八幡浜駅"
      }
    },
    {
      "id": "ehime_station_7832583488",
      "osmId": 7832583488,
      "osmType": "node",
      "prefectureId": "ehime",
      "type": "station",
      "subtype": "jr",
      "name": "千丈",
      "nameKana": null,
      "nameEn": "Senjō",
      "operator": "四国旅客鉄道",
      "network": null,
      "ref": null,
      "latitude": 33.4652781,
      "longitude": 132.4569708,
      "countryCode": "jp",
      "rawTags": {
        "KSJ2:LIN": "予讃線",
        "KSJ2:STN": "千丈",
        "name": "千丈",
        "name:en": "Senjō",
        "name:ja": "千丈",
        "name:ko": "센조",
        "note": "National-Land Numerical Information (Railway) 2007, MLIT Japan",
        "note:ja": "国土数値情報（鉄道データ）平成19年　国土交通省",
        "operator": "四国旅客鉄道",
        "public_transport": "station",
        "railway": "station",
        "source": "KSJ2",
        "source_ref": "http://nlftp.mlit.go.jp/ksj/jpgis/datalist/KsjTmplt-N02-v1_1.html",
        "wikidata": "Q899525",
        "wikipedia": "ja:千丈駅"
      }
    },
    {
      "id": "ehime_station_7832583489",
      "osmId": 7832583489,
      "osmType": "node",
      "prefectureId": "ehime",
      "type": "station",
      "subtype": "jr",
      "name": "伊予平野",
      "nameKana": null,
      "nameEn": "Iyo-Hirano",
      "operator": "四国旅客鉄道",
      "network": null,
      "ref": "U16",
      "latitude": 33.4957105,
      "longitude": 132.5181252,
      "countryCode": "jp",
      "rawTags": {
        "KSJ2:LIN": "予讃線",
        "KSJ2:STN": "伊予平野",
        "name": "伊予平野",
        "name:en": "Iyo-Hirano",
        "name:ja": "伊予平野",
        "name:ko": "이요히라노",
        "note": "National-Land Numerical Information (Railway) 2007, MLIT Japan",
        "note:ja": "国土数値情報（鉄道データ）平成19年　国土交通省",
        "operator": "四国旅客鉄道",
        "public_transport": "station",
        "railway": "station",
        "ref": "U16",
        "source": "KSJ2",
        "source_ref": "http://nlftp.mlit.go.jp/ksj/jpgis/datalist/KsjTmplt-N02-v1_1.html",
        "wikidata": "Q899620",
        "wikipedia": "ja:伊予平野駅"
      }
    },
    {
      "id": "ehime_station_7832690122",
      "osmId": 7832690122,
      "osmType": "node",
      "prefectureId": "ehime",
      "type": "station",
      "subtype": "jr",
      "name": "北宇和島",
      "nameKana": "きたうわじま",
      "nameEn": "Kita-Uwajima",
      "operator": "四国旅客鉄道",
      "network": null,
      "ref": null,
      "latitude": 33.2386242,
      "longitude": 132.5697879,
      "countryCode": "jp",
      "rawTags": {
        "KSJ2:LIN": "予土線;予讃線",
        "KSJ2:STN": "北宇和島",
        "name": "北宇和島",
        "name:en": "Kita-Uwajima",
        "name:ja": "北宇和島",
        "name:ja-Hira": "きたうわじま",
        "name:ko": "기타우와지마",
        "note": "National-Land Numerical Information (Railway) 2007, MLIT Japan",
        "note:ja": "国土数値情報（鉄道データ）平成19年　国土交通省",
        "operator": "四国旅客鉄道",
        "public_transport": "station",
        "railway": "station",
        "source": "KSJ2",
        "source_ref": "http://nlftp.mlit.go.jp/ksj/jpgis/datalist/KsjTmplt-N02-v1_1.html",
        "wikidata": "Q1057073",
        "wikipedia": "ja:北宇和島駅"
      }
    },
    {
      "id": "ehime_station_7832690123",
      "osmId": 7832690123,
      "osmType": "node",
      "prefectureId": "ehime",
      "type": "station",
      "subtype": "jr",
      "name": "高光",
      "nameKana": null,
      "nameEn": "Takamitsu",
      "operator": "四国旅客鉄道",
      "network": null,
      "ref": null,
      "latitude": 33.2561769,
      "longitude": 132.5734692,
      "countryCode": "jp",
      "rawTags": {
        "KSJ2:LIN": "予讃線",
        "KSJ2:STN": "高光",
        "name": "高光",
        "name:en": "Takamitsu",
        "name:ja": "高光",
        "name:ko": "다카미쓰",
        "note": "National-Land Numerical Information (Railway) 2007, MLIT Japan",
        "note:ja": "国土数値情報（鉄道データ）平成19年　国土交通省",
        "operator": "四国旅客鉄道",
        "public_transport": "station",
        "railway": "station",
        "source": "KSJ2",
        "source_ref": "http://nlftp.mlit.go.jp/ksj/jpgis/datalist/KsjTmplt-N02-v1_1.html",
        "wikidata": "Q899560",
        "wikipedia": "ja:高光駅"
      }
    },
    {
      "id": "ehime_station_7832690124",
      "osmId": 7832690124,
      "osmType": "node",
      "prefectureId": "ehime",
      "type": "station",
      "subtype": "jr",
      "name": "伊予吉田",
      "nameKana": null,
      "nameEn": "Iyo-Yoshida",
      "operator": "四国旅客鉄道",
      "network": null,
      "ref": null,
      "latitude": 33.2732675,
      "longitude": 132.5443029,
      "countryCode": "jp",
      "rawTags": {
        "KSJ2:LIN": "予讃線",
        "KSJ2:STN": "伊予吉田",
        "name": "伊予吉田",
        "name:en": "Iyo-Yoshida",
        "name:ja": "伊予吉田",
        "name:ko": "이요요시다",
        "note": "National-Land Numerical Information (Railway) 2007, MLIT Japan",
        "note:ja": "国土数値情報（鉄道データ）平成19年　国土交通省",
        "operator": "四国旅客鉄道",
        "public_transport": "station",
        "railway": "station",
        "source": "KSJ2",
        "source_ref": "http://nlftp.mlit.go.jp/ksj/jpgis/datalist/KsjTmplt-N02-v1_1.html",
        "wikidata": "Q899582",
        "wikipedia": "ja:伊予吉田駅"
      }
    },
    {
      "id": "ehime_station_7832690125",
      "osmId": 7832690125,
      "osmType": "node",
      "prefectureId": "ehime",
      "type": "station",
      "subtype": "jr",
      "name": "立間",
      "nameKana": null,
      "nameEn": "Tachima",
      "operator": "四国旅客鉄道",
      "network": "JR予讃線",
      "ref": null,
      "latitude": 33.2966643,
      "longitude": 132.5395628,
      "countryCode": "jp",
      "rawTags": {
        "KSJ2:LIN": "予讃線",
        "KSJ2:STN": "立間",
        "name": "立間",
        "name:en": "Tachima",
        "name:ja": "立間",
        "name:ko": "다치마",
        "network": "JR予讃線",
        "note": "National-Land Numerical Information (Railway) 2007, MLIT Japan",
        "note:ja": "国土数値情報（鉄道データ）平成19年　国土交通省",
        "operator": "四国旅客鉄道",
        "public_transport": "station",
        "railway": "station",
        "source": "KSJ2",
        "source_ref": "http://nlftp.mlit.go.jp/ksj/jpgis/datalist/KsjTmplt-N02-v1_1.html",
        "wikidata": "Q899598",
        "wikipedia": "ja:立間駅"
      }
    },
    {
      "id": "ehime_station_7832690126",
      "osmId": 7832690126,
      "osmType": "node",
      "prefectureId": "ehime",
      "type": "station",
      "subtype": "jr",
      "name": "下宇和",
      "nameKana": null,
      "nameEn": "Shimo-Uwa",
      "operator": "四国旅客鉄道",
      "network": null,
      "ref": null,
      "latitude": 33.3494645,
      "longitude": 132.5312137,
      "countryCode": "jp",
      "rawTags": {
        "KSJ2:LIN": "予讃線",
        "KSJ2:STN": "下宇和",
        "name": "下宇和",
        "name:en": "Shimo-Uwa",
        "name:ja": "下宇和",
        "name:ko": "시모우와",
        "note": "National-Land Numerical Information (Railway) 2007, MLIT Japan",
        "note:ja": "国土数値情報（鉄道データ）平成19年　国土交通省",
        "operator": "四国旅客鉄道",
        "public_transport": "station",
        "railway": "station",
        "source": "KSJ2",
        "source_ref": "http://nlftp.mlit.go.jp/ksj/jpgis/datalist/KsjTmplt-N02-v1_1.html",
        "wikidata": "Q899553",
        "wikipedia": "ja:下宇和駅"
      }
    },
    {
      "id": "ehime_station_7832690127",
      "osmId": 7832690127,
      "osmType": "node",
      "prefectureId": "ehime",
      "type": "station",
      "subtype": "jr",
      "name": "卯之町",
      "nameKana": "うのまち",
      "nameEn": "Unomachi",
      "operator": "四国旅客鉄道",
      "network": null,
      "ref": null,
      "latitude": 33.3630507,
      "longitude": 132.5099277,
      "countryCode": "jp",
      "rawTags": {
        "KSJ2:LIN": "予讃線",
        "KSJ2:STN": "卯之町",
        "name": "卯之町",
        "name:en": "Unomachi",
        "name:ja": "卯之町",
        "name:ja-Hira": "うのまち",
        "name:ko": "우노마치",
        "note": "National-Land Numerical Information (Railway) 2007, MLIT Japan",
        "note:ja": "国土数値情報（鉄道データ）平成19年　国土交通省",
        "operator": "四国旅客鉄道",
        "public_transport": "station",
        "railway": "station",
        "source": "KSJ2",
        "source_ref": "http://nlftp.mlit.go.jp/ksj/jpgis/datalist/KsjTmplt-N02-v1_1.html",
        "wikidata": "Q899595",
        "wikipedia": "ja:卯之町駅"
      }
    },
    {
      "id": "ehime_station_7832690128",
      "osmId": 7832690128,
      "osmType": "node",
      "prefectureId": "ehime",
      "type": "station",
      "subtype": "jr",
      "name": "上宇和",
      "nameKana": null,
      "nameEn": "Kami-Uwa",
      "operator": "四国旅客鉄道",
      "network": null,
      "ref": null,
      "latitude": 33.3799692,
      "longitude": 132.5014264,
      "countryCode": "jp",
      "rawTags": {
        "KSJ2:LIN": "予讃線",
        "KSJ2:STN": "上宇和",
        "name": "上宇和",
        "name:en": "Kami-Uwa",
        "name:ja": "上宇和",
        "name:ko": "가미우와",
        "note": "National-Land Numerical Information (Railway) 2007, MLIT Japan",
        "note:ja": "国土数値情報（鉄道データ）平成19年　国土交通省",
        "operator": "四国旅客鉄道",
        "public_transport": "station",
        "railway": "station",
        "source": "KSJ2",
        "source_ref": "http://nlftp.mlit.go.jp/ksj/jpgis/datalist/KsjTmplt-N02-v1_1.html",
        "wikidata": "Q899575",
        "wikipedia": "ja:上宇和駅"
      }
    },
    {
      "id": "ehime_station_7834237023",
      "osmId": 7834237023,
      "osmType": "node",
      "prefectureId": "ehime",
      "type": "station",
      "subtype": "jr",
      "name": "五郎",
      "nameKana": null,
      "nameEn": "Gorō",
      "operator": "四国旅客鉄道",
      "network": null,
      "ref": null,
      "latitude": 33.5416886,
      "longitude": 132.5704269,
      "countryCode": "jp",
      "rawTags": {
        "KSJ2:LIN": "予讃線",
        "KSJ2:STN": "五郎",
        "name": "五郎",
        "name:en": "Gorō",
        "name:ja": "五郎",
        "name:ko": "고로",
        "note": "National-Land Numerical Information (Railway) 2007, MLIT Japan",
        "note:ja": "国土数値情報（鉄道データ）平成19年　国土交通省",
        "operator": "四国旅客鉄道",
        "public_transport": "station",
        "railway": "station",
        "source": "KSJ2",
        "source_ref": "http://nlftp.mlit.go.jp/ksj/jpgis/datalist/KsjTmplt-N02-v1_1.html",
        "wikidata": "Q899112",
        "wikipedia": "ja:五郎駅"
      }
    },
    {
      "id": "ehime_station_7834237024",
      "osmId": 7834237024,
      "osmType": "node",
      "prefectureId": "ehime",
      "type": "station",
      "subtype": "jr",
      "name": "春賀",
      "nameKana": null,
      "nameEn": "Haruka",
      "operator": "四国旅客鉄道",
      "network": null,
      "ref": null,
      "latitude": 33.5558823,
      "longitude": 132.5550967,
      "countryCode": "jp",
      "rawTags": {
        "KSJ2:LIN": "予讃線",
        "KSJ2:STN": "春賀",
        "name": "春賀",
        "name:en": "Haruka",
        "name:ja": "春賀",
        "name:ko": "하루카",
        "note": "National-Land Numerical Information (Railway) 2007, MLIT Japan",
        "note:ja": "国土数値情報（鉄道データ）平成19年　国土交通省",
        "operator": "四国旅客鉄道",
        "public_transport": "station",
        "railway": "station",
        "source": "KSJ2",
        "source_ref": "http://nlftp.mlit.go.jp/ksj/jpgis/datalist/KsjTmplt-N02-v1_1.html",
        "wikidata": "Q898949",
        "wikipedia": "ja:春賀駅"
      }
    },
    {
      "id": "ehime_station_7834237025",
      "osmId": 7834237025,
      "osmType": "node",
      "prefectureId": "ehime",
      "type": "station",
      "subtype": "jr",
      "name": "八多喜",
      "nameKana": null,
      "nameEn": "Hataki",
      "operator": "四国旅客鉄道",
      "network": null,
      "ref": null,
      "latitude": 33.5627709,
      "longitude": 132.5406973,
      "countryCode": "jp",
      "rawTags": {
        "KSJ2:LIN": "予讃線",
        "KSJ2:STN": "八多喜",
        "name": "八多喜",
        "name:en": "Hataki",
        "name:ja": "八多喜",
        "name:ko": "하타키",
        "note": "National-Land Numerical Information (Railway) 2007, MLIT Japan",
        "note:ja": "国土数値情報（鉄道データ）平成19年　国土交通省",
        "operator": "四国旅客鉄道",
        "public_transport": "station",
        "railway": "station",
        "source": "KSJ2",
        "source_ref": "http://nlftp.mlit.go.jp/ksj/jpgis/datalist/KsjTmplt-N02-v1_1.html",
        "wikidata": "Q898952",
        "wikipedia": "ja:八多喜駅"
      }
    },
    {
      "id": "ehime_station_7834237026",
      "osmId": 7834237026,
      "osmType": "node",
      "prefectureId": "ehime",
      "type": "station",
      "subtype": "jr",
      "name": "伊予白滝",
      "nameKana": null,
      "nameEn": "Iyo-Shirataki",
      "operator": "四国旅客鉄道",
      "network": null,
      "ref": null,
      "latitude": 33.5785477,
      "longitude": 132.5265829,
      "countryCode": "jp",
      "rawTags": {
        "KSJ2:LIN": "予讃線",
        "KSJ2:STN": "伊予白滝",
        "name": "伊予白滝",
        "name:en": "Iyo-Shirataki",
        "name:ja": "伊予白滝",
        "name:ko": "이요시라타키",
        "note": "National-Land Numerical Information (Railway) 2007, MLIT Japan",
        "note:ja": "国土数値情報（鉄道データ）平成19年　国土交通省",
        "operator": "四国旅客鉄道",
        "public_transport": "station",
        "railway": "station",
        "source": "KSJ2",
        "source_ref": "http://nlftp.mlit.go.jp/ksj/jpgis/datalist/KsjTmplt-N02-v1_1.html",
        "wikidata": "Q898985",
        "wikipedia": "ja:伊予白滝駅"
      }
    },
    {
      "id": "ehime_station_7834237027",
      "osmId": 7834237027,
      "osmType": "node",
      "prefectureId": "ehime",
      "type": "station",
      "subtype": "jr",
      "name": "伊予出石",
      "nameKana": null,
      "nameEn": "Iyo-Izushi",
      "operator": "四国旅客鉄道",
      "network": null,
      "ref": null,
      "latitude": 33.5963609,
      "longitude": 132.4990151,
      "countryCode": "jp",
      "rawTags": {
        "KSJ2:LIN": "予讃線",
        "KSJ2:STN": "伊予出石",
        "name": "伊予出石",
        "name:en": "Iyo-Izushi",
        "name:ja": "伊予出石",
        "name:ko": "이요이즈시",
        "note": "National-Land Numerical Information (Railway) 2007, MLIT Japan",
        "note:ja": "国土数値情報（鉄道データ）平成19年　国土交通省",
        "operator": "四国旅客鉄道",
        "public_transport": "station",
        "railway": "station",
        "source": "KSJ2",
        "source_ref": "http://nlftp.mlit.go.jp/ksj/jpgis/datalist/KsjTmplt-N02-v1_1.html",
        "wikidata": "Q898960",
        "wikipedia": "ja:伊予出石駅"
      }
    },
    {
      "id": "ehime_station_7834237028",
      "osmId": 7834237028,
      "osmType": "node",
      "prefectureId": "ehime",
      "type": "station",
      "subtype": "jr",
      "name": "伊予長浜",
      "nameKana": null,
      "nameEn": "Iyo-Nagahama",
      "operator": "四国旅客鉄道",
      "network": null,
      "ref": null,
      "latitude": 33.6152965,
      "longitude": 132.4869563,
      "countryCode": "jp",
      "rawTags": {
        "KSJ2:LIN": "予讃線",
        "KSJ2:STN": "伊予長浜",
        "name": "伊予長浜",
        "name:en": "Iyo-Nagahama",
        "name:ja": "伊予長浜",
        "name:ko": "이요나가하마",
        "note": "National-Land Numerical Information (Railway) 2007, MLIT Japan",
        "note:ja": "国土数値情報（鉄道データ）平成19年　国土交通省",
        "operator": "四国旅客鉄道",
        "public_transport": "station",
        "railway": "station",
        "source": "KSJ2",
        "source_ref": "http://nlftp.mlit.go.jp/ksj/jpgis/datalist/KsjTmplt-N02-v1_1.html",
        "wikidata": "Q898941",
        "wikipedia": "ja:伊予長浜駅"
      }
    },
    {
      "id": "ehime_station_7834237029",
      "osmId": 7834237029,
      "osmType": "node",
      "prefectureId": "ehime",
      "type": "station",
      "subtype": "jr",
      "name": "喜多灘",
      "nameKana": null,
      "nameEn": "Kitanada",
      "operator": "四国旅客鉄道",
      "network": null,
      "ref": null,
      "latitude": 33.6372107,
      "longitude": 132.531439,
      "countryCode": "jp",
      "rawTags": {
        "KSJ2:LIN": "予讃線",
        "KSJ2:STN": "喜多灘",
        "name": "喜多灘",
        "name:en": "Kitanada",
        "name:ja": "喜多灘",
        "name:ko": "기타나다",
        "note": "National-Land Numerical Information (Railway) 2007, MLIT Japan",
        "note:ja": "国土数値情報（鉄道データ）平成19年　国土交通省",
        "operator": "四国旅客鉄道",
        "public_transport": "station",
        "railway": "station",
        "source": "KSJ2",
        "source_ref": "http://nlftp.mlit.go.jp/ksj/jpgis/datalist/KsjTmplt-N02-v1_1.html",
        "wikidata": "Q898976",
        "wikipedia": "ja:喜多灘駅"
      }
    },
    {
      "id": "ehime_station_7834237030",
      "osmId": 7834237030,
      "osmType": "node",
      "prefectureId": "ehime",
      "type": "station",
      "subtype": "jr",
      "name": "串",
      "nameKana": null,
      "nameEn": "Kushi",
      "operator": "四国旅客鉄道",
      "network": null,
      "ref": null,
      "latitude": 33.6472702,
      "longitude": 132.5634035,
      "countryCode": "jp",
      "rawTags": {
        "KSJ2:LIN": "予讃線",
        "KSJ2:STN": "串",
        "name": "串",
        "name:en": "Kushi",
        "name:ja": "串",
        "name:ko": "구시",
        "note": "National-Land Numerical Information (Railway) 2007, MLIT Japan",
        "note:ja": "国土数値情報（鉄道データ）平成19年　国土交通省",
        "operator": "四国旅客鉄道",
        "public_transport": "station",
        "railway": "station",
        "source": "KSJ2",
        "source_ref": "http://nlftp.mlit.go.jp/ksj/jpgis/datalist/KsjTmplt-N02-v1_1.html",
        "wikidata": "Q899182",
        "wikipedia": "ja:串駅"
      }
    },
    {
      "id": "ehime_station_7834237031",
      "osmId": 7834237031,
      "osmType": "node",
      "prefectureId": "ehime",
      "type": "station",
      "subtype": "jr",
      "name": "下灘",
      "nameKana": null,
      "nameEn": "Shimonada",
      "operator": "四国旅客鉄道",
      "network": null,
      "ref": null,
      "latitude": 33.6554175,
      "longitude": 132.5894116,
      "countryCode": "jp",
      "rawTags": {
        "KSJ2:LIN": "予讃線",
        "KSJ2:STN": "下灘",
        "name": "下灘",
        "name:en": "Shimonada",
        "name:ja": "下灘",
        "name:ko": "시모나다",
        "note": "National-Land Numerical Information (Railway) 2007, MLIT Japan",
        "note:ja": "国土数値情報（鉄道データ）平成19年　国土交通省",
        "operator": "四国旅客鉄道",
        "public_transport": "station",
        "railway": "station",
        "source": "KSJ2",
        "source_ref": "http://nlftp.mlit.go.jp/ksj/jpgis/datalist/KsjTmplt-N02-v1_1.html",
        "wikidata": "Q899167",
        "wikipedia": "ja:下灘駅"
      }
    },
    {
      "id": "ehime_station_7834237032",
      "osmId": 7834237032,
      "osmType": "node",
      "prefectureId": "ehime",
      "type": "station",
      "subtype": "jr",
      "name": "高野川",
      "nameKana": null,
      "nameEn": "Kōnokawa",
      "operator": "四国旅客鉄道",
      "network": null,
      "ref": "S07",
      "latitude": 33.7018799,
      "longitude": 132.6590484,
      "countryCode": "jp",
      "rawTags": {
        "KSJ2:LIN": "予讃線",
        "KSJ2:STN": "高野川",
        "name": "高野川",
        "name:en": "Kōnokawa",
        "name:ja": "高野川",
        "name:ko": "고노카와",
        "note": "National-Land Numerical Information (Railway) 2007, MLIT Japan",
        "note:ja": "国土数値情報（鉄道データ）平成19年　国土交通省",
        "operator": "四国旅客鉄道",
        "public_transport": "station",
        "railway": "station",
        "ref": "S07",
        "source": "KSJ2",
        "source_ref": "http://nlftp.mlit.go.jp/ksj/jpgis/datalist/KsjTmplt-N02-v1_1.html",
        "wikidata": "Q898973",
        "wikipedia": "ja:高野川駅"
      }
    },
    {
      "id": "ehime_station_7834237033",
      "osmId": 7834237033,
      "osmType": "node",
      "prefectureId": "ehime",
      "type": "station",
      "subtype": "jr",
      "name": "伊予上灘",
      "nameKana": null,
      "nameEn": "Iyo-Kaminada",
      "operator": "四国旅客鉄道",
      "network": null,
      "ref": "S08",
      "latitude": 33.6837856,
      "longitude": 132.6332617,
      "countryCode": "jp",
      "rawTags": {
        "KSJ2:LIN": "予讃線",
        "KSJ2:STN": "伊予上灘",
        "name": "伊予上灘",
        "name:en": "Iyo-Kaminada",
        "name:ja": "伊予上灘",
        "name:ko": "이요카미나다",
        "note": "National-Land Numerical Information (Railway) 2007, MLIT Japan",
        "note:ja": "国土数値情報（鉄道データ）平成19年　国土交通省",
        "operator": "四国旅客鉄道",
        "public_transport": "station",
        "railway": "station",
        "ref": "S08",
        "source": "KSJ2",
        "source_ref": "http://nlftp.mlit.go.jp/ksj/jpgis/datalist/KsjTmplt-N02-v1_1.html",
        "wikidata": "Q898957",
        "wikipedia": "ja:伊予上灘駅"
      }
    },
    {
      "id": "ehime_ferry_terminal_7914178545",
      "osmId": 7914178545,
      "osmType": "node",
      "prefectureId": "ehime",
      "type": "ferry_terminal",
      "subtype": null,
      "name": "岩城港",
      "nameKana": null,
      "nameEn": "Iwagi Port",
      "operator": null,
      "network": null,
      "ref": null,
      "latitude": 34.245344,
      "longitude": 133.1472514,
      "countryCode": "jp",
      "rawTags": {
        "amenity": "ferry_terminal",
        "ferry": "yes",
        "name": "岩城港",
        "name:en": "Iwagi Port",
        "public_transport": "station",
        "wikidata": "Q11474318",
        "wikipedia": "ja:岩城漁港"
      }
    },
    {
      "id": "ehime_ferry_terminal_7914178556",
      "osmId": 7914178556,
      "osmType": "node",
      "prefectureId": "ehime",
      "type": "ferry_terminal",
      "subtype": null,
      "name": "佐島港",
      "nameKana": null,
      "nameEn": null,
      "operator": null,
      "network": null,
      "ref": null,
      "latitude": 34.2538874,
      "longitude": 133.1876175,
      "countryCode": "jp",
      "rawTags": {
        "amenity": "ferry_terminal",
        "ferry": "yes",
        "name": "佐島港",
        "public_transport": "station"
      }
    },
    {
      "id": "ehime_ferry_terminal_7931651996",
      "osmId": 7931651996,
      "osmType": "node",
      "prefectureId": "ehime",
      "type": "ferry_terminal",
      "subtype": null,
      "name": "波止浜港",
      "nameKana": null,
      "nameEn": null,
      "operator": null,
      "network": null,
      "ref": null,
      "latitude": 34.1095599,
      "longitude": 132.9690865,
      "countryCode": "jp",
      "rawTags": {
        "amenity": "ferry_terminal",
        "ferry": "yes",
        "name": "波止浜港",
        "public_transport": "station",
        "wikidata": "Q11555557",
        "wikipedia": "ja:波止浜港"
      }
    },
    {
      "id": "ehime_ferry_terminal_7931652051",
      "osmId": 7931652051,
      "osmType": "node",
      "prefectureId": "ehime",
      "type": "ferry_terminal",
      "subtype": null,
      "name": "馬島港",
      "nameKana": null,
      "nameEn": null,
      "operator": null,
      "network": null,
      "ref": null,
      "latitude": 34.1165698,
      "longitude": 132.9908126,
      "countryCode": "jp",
      "rawTags": {
        "amenity": "ferry_terminal",
        "ferry": "yes",
        "name": "馬島港",
        "public_transport": "station"
      }
    },
    {
      "id": "ehime_ferry_terminal_8004532582",
      "osmId": 8004532582,
      "osmType": "node",
      "prefectureId": "ehime",
      "type": "ferry_terminal",
      "subtype": null,
      "name": "高井神港",
      "nameKana": null,
      "nameEn": "Takaikami Port",
      "operator": null,
      "network": null,
      "ref": null,
      "latitude": 34.1936413,
      "longitude": 133.2731565,
      "countryCode": "jp",
      "rawTags": {
        "amenity": "ferry_terminal",
        "ferry": "yes",
        "name": "高井神港",
        "name:en": "Takaikami Port",
        "public_transport": "station"
      }
    },
    {
      "id": "ehime_ferry_terminal_8007308065",
      "osmId": 8007308065,
      "osmType": "node",
      "prefectureId": "ehime",
      "type": "ferry_terminal",
      "subtype": null,
      "name": "弓削港",
      "nameKana": null,
      "nameEn": null,
      "operator": null,
      "network": null,
      "ref": null,
      "latitude": 34.2586382,
      "longitude": 133.2003688,
      "countryCode": "jp",
      "rawTags": {
        "amenity": "ferry_terminal",
        "ferry": "yes",
        "name": "弓削港",
        "public_transport": "station",
        "wikidata": "Q11487071",
        "wikipedia": "ja:弓削港"
      }
    },
    {
      "id": "ehime_bus_terminal_8361099970",
      "osmId": 8361099970,
      "osmType": "node",
      "prefectureId": "ehime",
      "type": "bus_terminal",
      "subtype": null,
      "name": "伯方島バスストップ",
      "nameKana": null,
      "nameEn": "Hakatajima Bus stop",
      "operator": null,
      "network": null,
      "ref": null,
      "latitude": 34.2046263,
      "longitude": 133.0758022,
      "countryCode": "jp",
      "rawTags": {
        "amenity": "bus_station",
        "bus": "yes",
        "name": "伯方島バスストップ",
        "name:en": "Hakatajima Bus stop",
        "public_transport": "station",
        "short_name": "伯方島BS"
      }
    },
    {
      "id": "ehime_station_8383580474",
      "osmId": 8383580474,
      "osmType": "node",
      "prefectureId": "ehime",
      "type": "station",
      "subtype": "private",
      "name": "松丸",
      "nameKana": "まつまる",
      "nameEn": "Matsumaru",
      "operator": null,
      "network": null,
      "ref": null,
      "latitude": 33.2284358,
      "longitude": 132.7085741,
      "countryCode": "jp",
      "rawTags": {
        "KSJ2:LIN": "予土線",
        "KSJ2:STN": "松丸",
        "name": "松丸",
        "name:en": "Matsumaru",
        "name:ja": "松丸",
        "name:ja-Hira": "まつまる",
        "name:ko": "마쓰마루",
        "note": "National-Land Numerical Information (Railway) 2007, MLIT Japan",
        "note:ja": "国土数値情報（鉄道データ）平成19年　国土交通省",
        "public_transport": "station",
        "railway": "station",
        "source": "KSJ2",
        "source_ref": "http://nlftp.mlit.go.jp/ksj/jpgis/datalist/KsjTmplt-N02-v1_1.html",
        "wikidata": "Q4388383",
        "wikipedia": "ja:松丸駅"
      }
    },
    {
      "id": "ehime_bus_terminal_8439249732",
      "osmId": 8439249732,
      "osmType": "node",
      "prefectureId": "ehime",
      "type": "bus_terminal",
      "subtype": null,
      "name": "大三島バスストップ",
      "nameKana": null,
      "nameEn": "Omishima Bus Stop",
      "operator": null,
      "network": null,
      "ref": null,
      "latitude": 34.2523562,
      "longitude": 133.053056,
      "countryCode": "jp",
      "rawTags": {
        "amenity": "bus_station",
        "bus": "yes",
        "name": "大三島バスストップ",
        "name:en": "Omishima Bus Stop",
        "public_transport": "station"
      }
    },
    {
      "id": "ehime_station_8583968612",
      "osmId": 8583968612,
      "osmType": "node",
      "prefectureId": "ehime",
      "type": "station",
      "subtype": "private",
      "name": "大浦",
      "nameKana": null,
      "nameEn": "Ōura",
      "operator": null,
      "network": null,
      "ref": null,
      "latitude": 33.9993042,
      "longitude": 132.7754507,
      "countryCode": "jp",
      "rawTags": {
        "name": "大浦",
        "name:en": "Ōura",
        "public_transport": "station",
        "railway": "station",
        "train": "yes",
        "wikidata": "Q898624",
        "wikipedia": "ja:大浦駅"
      }
    },
    {
      "id": "ehime_station_8583968615",
      "osmId": 8583968615,
      "osmType": "node",
      "prefectureId": "ehime",
      "type": "station",
      "subtype": "private",
      "name": "浅海",
      "nameKana": "あさなみ",
      "nameEn": "Asanami",
      "operator": null,
      "network": null,
      "ref": null,
      "latitude": 34.0099253,
      "longitude": 132.8027642,
      "countryCode": "jp",
      "rawTags": {
        "name": "浅海",
        "name:en": "Asanami",
        "name:ja-Hira": "あさなみ",
        "name:ko": "아사나미",
        "public_transport": "station",
        "railway": "station",
        "train": "yes",
        "wikidata": "Q1057690",
        "wikipedia": "ja:浅海駅"
      }
    },
    {
      "id": "ehime_station_8586983259",
      "osmId": 8586983259,
      "osmType": "node",
      "prefectureId": "ehime",
      "type": "station",
      "subtype": "private",
      "name": "伊予北条",
      "nameKana": null,
      "nameEn": "Iyo-Hōjō",
      "operator": null,
      "network": null,
      "ref": null,
      "latitude": 33.9725556,
      "longitude": 132.7752133,
      "countryCode": "jp",
      "rawTags": {
        "name": "伊予北条",
        "name:en": "Iyo-Hōjō",
        "name:ja": "伊予北条",
        "name:ko": "이요호조",
        "public_transport": "station",
        "railway": "station",
        "wikidata": "Q899115",
        "wikipedia": "ja:伊予北条駅"
      }
    },
    {
      "id": "ehime_station_8599386258",
      "osmId": 8599386258,
      "osmType": "node",
      "prefectureId": "ehime",
      "type": "station",
      "subtype": "jr",
      "name": "新居浜",
      "nameKana": null,
      "nameEn": "Niihama",
      "operator": "四国旅客鉄道",
      "network": null,
      "ref": "Y29",
      "latitude": 33.9479803,
      "longitude": 133.2943345,
      "countryCode": "jp",
      "rawTags": {
        "KSJ2:LIN": "予讃線",
        "KSJ2:STN": "新居浜",
        "name": "新居浜",
        "name:de": "Niihama",
        "name:en": "Niihama",
        "name:ja": "新居浜",
        "name:ko": "니이하마",
        "note": "National-Land Numerical Information (Railway) 2007, MLIT Japan",
        "note:ja": "国土数値情報（鉄道データ）平成19年　国土交通省",
        "operator": "四国旅客鉄道",
        "public_transport": "station",
        "railway": "station",
        "ref": "Y29",
        "source": "KSJ2",
        "source_ref": "http://nlftp.mlit.go.jp/ksj/jpgis/datalist/KsjTmplt-N02-v1_1.html",
        "wikidata": "Q873300",
        "wikipedia": "ja:新居浜駅"
      }
    },
    {
      "id": "ehime_station_8599386260",
      "osmId": 8599386260,
      "osmType": "node",
      "prefectureId": "ehime",
      "type": "station",
      "subtype": "private",
      "name": "壬生川",
      "nameKana": null,
      "nameEn": "Nyūgawa",
      "operator": null,
      "network": null,
      "ref": "Y36",
      "latitude": 33.9294333,
      "longitude": 133.0856764,
      "countryCode": "jp",
      "rawTags": {
        "KSJ2:LIN": "予讃線",
        "KSJ2:STN": "壬生川",
        "name": "壬生川",
        "name:de": "Nyūgawa",
        "name:en": "Nyūgawa",
        "name:ja": "壬生川",
        "name:ko": "뉴가와",
        "note": "National-Land Numerical Information (Railway) 2007, MLIT Japan",
        "note:ja": "国土数値情報（鉄道データ）平成19年　国土交通省",
        "railway": "station",
        "ref": "Y36",
        "source": "KSJ2",
        "source_ref": "http://nlftp.mlit.go.jp/ksj/jpgis/datalist/KsjTmplt-N02-v1_1.html",
        "wikidata": "Q875515",
        "wikipedia": "ja:壬生川駅"
      }
    },
    {
      "id": "ehime_station_8599386263",
      "osmId": 8599386263,
      "osmType": "node",
      "prefectureId": "ehime",
      "type": "station",
      "subtype": "jr",
      "name": "伊予西条",
      "nameKana": null,
      "nameEn": "Iyo-Saijō",
      "operator": "四国旅客鉄道",
      "network": null,
      "ref": "Y31",
      "latitude": 33.9124158,
      "longitude": 133.1875765,
      "countryCode": "jp",
      "rawTags": {
        "KSJ2:LIN": "予讃線",
        "KSJ2:STN": "伊予西条",
        "name": "伊予西条",
        "name:de": "Iyo-Saijō",
        "name:en": "Iyo-Saijō",
        "name:ja": "伊予西条",
        "name:ko": "이요사이조",
        "note": "National-Land Numerical Information (Railway) 2007, MLIT Japan",
        "note:ja": "国土数値情報（鉄道データ）平成19年　国土交通省",
        "operator": "四国旅客鉄道",
        "public_transport": "stop_position",
        "railway": "station",
        "ref": "Y31",
        "source": "KSJ2",
        "source_ref": "http://nlftp.mlit.go.jp/ksj/jpgis/datalist/KsjTmplt-N02-v1_1.html",
        "train": "yes",
        "wikidata": "Q871270",
        "wikipedia": "ja:伊予西条駅"
      }
    },
    {
      "id": "ehime_ferry_terminal_8625686804",
      "osmId": 8625686804,
      "osmType": "node",
      "prefectureId": "ehime",
      "type": "ferry_terminal",
      "subtype": null,
      "name": "戸島港",
      "nameKana": null,
      "nameEn": null,
      "operator": null,
      "network": null,
      "ref": null,
      "latitude": 33.1977846,
      "longitude": 132.3598687,
      "countryCode": "jp",
      "rawTags": {
        "amenity": "ferry_terminal",
        "ferry": "yes",
        "name": "戸島港",
        "public_transport": "station"
      }
    },
    {
      "id": "ehime_ferry_terminal_8625705452",
      "osmId": 8625705452,
      "osmType": "node",
      "prefectureId": "ehime",
      "type": "ferry_terminal",
      "subtype": null,
      "name": "小内浦港",
      "nameKana": null,
      "nameEn": null,
      "operator": null,
      "network": null,
      "ref": null,
      "latitude": 33.2039545,
      "longitude": 132.3684541,
      "countryCode": "jp",
      "rawTags": {
        "amenity": "ferry_terminal",
        "ferry": "yes",
        "name": "小内浦港",
        "public_transport": "station"
      }
    },
    {
      "id": "ehime_ferry_terminal_8625707292",
      "osmId": 8625707292,
      "osmType": "node",
      "prefectureId": "ehime",
      "type": "ferry_terminal",
      "subtype": null,
      "name": "嘉島港",
      "nameKana": null,
      "nameEn": null,
      "operator": null,
      "network": null,
      "ref": null,
      "latitude": 33.2287201,
      "longitude": 132.364022,
      "countryCode": "jp",
      "rawTags": {
        "amenity": "ferry_terminal",
        "ferry": "yes",
        "name": "嘉島港",
        "public_transport": "station"
      }
    },
    {
      "id": "ehime_ferry_terminal_8627513389",
      "osmId": 8627513389,
      "osmType": "node",
      "prefectureId": "ehime",
      "type": "ferry_terminal",
      "subtype": null,
      "name": "矢ヶ浜港",
      "nameKana": null,
      "nameEn": null,
      "operator": null,
      "network": null,
      "ref": null,
      "latitude": 33.2016306,
      "longitude": 132.3934474,
      "countryCode": "jp",
      "rawTags": {
        "amenity": "ferry_terminal",
        "ferry": "yes",
        "name": "矢ヶ浜港",
        "public_transport": "station"
      }
    },
    {
      "id": "ehime_station_8677679126",
      "osmId": 8677679126,
      "osmType": "node",
      "prefectureId": "ehime",
      "type": "station",
      "subtype": "private",
      "name": "伊予立川",
      "nameKana": null,
      "nameEn": "Iyo-Tachikawa",
      "operator": null,
      "network": null,
      "ref": "U09",
      "latitude": 33.6015551,
      "longitude": 132.6781679,
      "countryCode": "jp",
      "rawTags": {
        "KSJ2:LIN": "予讃線",
        "KSJ2:STN": "伊予立川",
        "name": "伊予立川",
        "name:en": "Iyo-Tachikawa",
        "name:ja": "伊予立川",
        "name:ko": "이요타치카와",
        "note": "National-Land Numerical Information (Railway) 2007, MLIT Japan",
        "note:ja": "国土数値情報（鉄道データ）平成19年　国土交通省",
        "public_transport": "station",
        "railway": "station",
        "ref": "U09",
        "source": "KSJ2",
        "source_ref": "http://nlftp.mlit.go.jp/ksj/jpgis/datalist/KsjTmplt-N02-v1_1.html",
        "wikidata": "Q899589",
        "wikipedia": "ja:伊予立川駅"
      }
    },
    {
      "id": "ehime_station_8677685275",
      "osmId": 8677685275,
      "osmType": "node",
      "prefectureId": "ehime",
      "type": "station",
      "subtype": "private",
      "name": "伊予中山",
      "nameKana": null,
      "nameEn": "Iyo-Nakayama",
      "operator": null,
      "network": null,
      "ref": null,
      "latitude": 33.6497866,
      "longitude": 132.711726,
      "countryCode": "jp",
      "rawTags": {
        "KSJ2:LIN": "予讃線",
        "KSJ2:STN": "伊予中山",
        "name": "伊予中山",
        "name:en": "Iyo-Nakayama",
        "name:ja": "伊予中山",
        "name:ko": "이요나카야마",
        "public_transport": "station",
        "railway": "station",
        "train": "yes",
        "wikidata": "Q899520",
        "wikipedia": "ja:伊予中山駅"
      }
    },
    {
      "id": "ehime_station_8677689823",
      "osmId": 8677689823,
      "osmType": "node",
      "prefectureId": "ehime",
      "type": "station",
      "subtype": "jr",
      "name": "伊予三島",
      "nameKana": null,
      "nameEn": "Iyo-Mishima",
      "operator": "四国旅客鉄道",
      "network": null,
      "ref": "Y23",
      "latitude": 33.9795874,
      "longitude": 133.5423253,
      "countryCode": "jp",
      "rawTags": {
        "KSJ2:LIN": "予讃線",
        "KSJ2:STN": "伊予三島",
        "name": "伊予三島",
        "name:en": "Iyo-Mishima",
        "name:ja": "伊予三島",
        "name:ko": "이요미시마",
        "operator": "四国旅客鉄道",
        "public_transport": "station",
        "railway": "station",
        "ref": "Y23",
        "wikidata": "Q872795",
        "wikipedia": "ja:伊予三島駅"
      }
    },
    {
      "id": "ehime_station_8687376854",
      "osmId": 8687376854,
      "osmType": "node",
      "prefectureId": "ehime",
      "type": "station",
      "subtype": "jr",
      "name": "川之江",
      "nameKana": "かわのえ",
      "nameEn": "Kawanoe",
      "operator": "四国旅客鉄道",
      "network": null,
      "ref": "Y22",
      "latitude": 34.0143555,
      "longitude": 133.5760642,
      "countryCode": "jp",
      "rawTags": {
        "KSJ2:LIN": "予讃線",
        "KSJ2:STN": "川之江",
        "name": "川之江",
        "name:de": "Kawanoe",
        "name:en": "Kawanoe",
        "name:ja": "川之江",
        "name:ja-Hira": "かわのえ",
        "name:ko": "가와노에",
        "operator": "四国旅客鉄道",
        "public_transport": "station",
        "railway": "station",
        "ref": "Y22",
        "wheelchair": "no",
        "wikidata": "Q873285",
        "wikipedia": "ja:川之江駅"
      }
    },
    {
      "id": "ehime_station_8687385146",
      "osmId": 8687385146,
      "osmType": "node",
      "prefectureId": "ehime",
      "type": "station",
      "subtype": "jr",
      "name": "内子",
      "nameKana": "うちこ",
      "nameEn": "Uchiko",
      "operator": "四国旅客鉄道",
      "network": null,
      "ref": "U10",
      "latitude": 33.5492071,
      "longitude": 132.6462757,
      "countryCode": "jp",
      "rawTags": {
        "KSJ2:LIN": "予讃線;内子線",
        "KSJ2:STN": "内子",
        "layer": "1",
        "name": "内子",
        "name:de": "Uchiko",
        "name:en": "Uchiko",
        "name:ja": "内子",
        "name:ja-Hira": "うちこ",
        "name:ko": "우치코",
        "operator": "四国旅客鉄道",
        "operator:ja": "四国旅客鉄道",
        "public_transport": "station",
        "railway": "station",
        "ref": "U10",
        "wikidata": "Q899541",
        "wikipedia": "ja:内子駅"
      }
    },
    {
      "id": "ehime_station_8949781056",
      "osmId": 8949781056,
      "osmType": "node",
      "prefectureId": "ehime",
      "type": "station",
      "subtype": "jr",
      "name": "伊予寒川",
      "nameKana": null,
      "nameEn": "Iyo-Sangawa",
      "operator": "四国旅客鉄道",
      "network": null,
      "ref": "Y24",
      "latitude": 33.967913,
      "longitude": 133.5001208,
      "countryCode": "jp",
      "rawTags": {
        "KSJ2:LIN": "予讃線",
        "KSJ2:STN": "伊予寒川",
        "name": "伊予寒川",
        "name:en": "Iyo-Sangawa",
        "name:ja": "伊予寒川",
        "name:ko": "이요산가와",
        "operator": "四国旅客鉄道",
        "railway": "station",
        "ref": "Y24",
        "train": "yes",
        "wikidata": "Q1056023",
        "wikipedia": "ja:伊予寒川駅"
      }
    },
    {
      "id": "ehime_station_9000004606",
      "osmId": 9000004606,
      "osmType": "node",
      "prefectureId": "ehime",
      "type": "station",
      "subtype": "jr",
      "name": "多喜浜",
      "nameKana": null,
      "nameEn": "Takihama",
      "operator": "四国旅客鉄道",
      "network": null,
      "ref": "Y28",
      "latitude": 33.9704694,
      "longitude": 133.3244294,
      "countryCode": "jp",
      "rawTags": {
        "KSJ2:LIN": "予讃線",
        "KSJ2:STN": "多喜浜",
        "name": "多喜浜",
        "name:en": "Takihama",
        "name:ja": "多喜浜",
        "name:ko": "다키하마",
        "operator": "四国旅客鉄道",
        "public_transport": "station",
        "railway": "station",
        "ref": "Y28",
        "train": "yes",
        "wikidata": "Q872785",
        "wikipedia": "ja:多喜浜駅"
      }
    },
    {
      "id": "ehime_station_9000033924",
      "osmId": 9000033924,
      "osmType": "node",
      "prefectureId": "ehime",
      "type": "station",
      "subtype": "jr",
      "name": "伊予土居",
      "nameKana": null,
      "nameEn": "Iyo-Doi",
      "operator": "四国旅客鉄道",
      "network": null,
      "ref": "Y26",
      "latitude": 33.9591402,
      "longitude": 133.4281893,
      "countryCode": "jp",
      "rawTags": {
        "KSJ2:LIN": "予讃線",
        "KSJ2:STN": "伊予土居",
        "name": "伊予土居",
        "name:en": "Iyo-Doi",
        "name:ja": "伊予土居",
        "name:ko": "이요도이",
        "operator": "四国旅客鉄道",
        "railway": "station",
        "ref": "Y26",
        "train": "yes",
        "wikidata": "Q875497",
        "wikipedia": "ja:伊予土居駅"
      }
    },
    {
      "id": "ehime_station_9000675447",
      "osmId": 9000675447,
      "osmType": "node",
      "prefectureId": "ehime",
      "type": "station",
      "subtype": "jr",
      "name": "中萩",
      "nameKana": null,
      "nameEn": "Nakahagi",
      "operator": "四国旅客鉄道",
      "network": null,
      "ref": "Y30",
      "latitude": 33.926164,
      "longitude": 133.2533917,
      "countryCode": "jp",
      "rawTags": {
        "KSJ2:LIN": "予讃線",
        "KSJ2:STN": "中萩",
        "name": "中萩",
        "name:en": "Nakahagi",
        "name:ja": "中萩",
        "name:ko": "나카하기",
        "operator": "四国旅客鉄道",
        "public_transport": "station",
        "railway": "station",
        "ref": "Y30",
        "wikidata": "Q873180",
        "wikipedia": "ja:中萩駅"
      }
    },
    {
      "id": "ehime_station_9002659764",
      "osmId": 9002659764,
      "osmType": "node",
      "prefectureId": "ehime",
      "type": "station",
      "subtype": "jr",
      "name": "石鎚山",
      "nameKana": null,
      "nameEn": "Ishizuchiyama",
      "operator": "四国旅客鉄道",
      "network": null,
      "ref": "Y32",
      "latitude": 33.8958625,
      "longitude": 133.1572446,
      "countryCode": "jp",
      "rawTags": {
        "KSJ2:LIN": "予讃線",
        "KSJ2:STN": "石鎚山",
        "name": "石鎚山",
        "name:en": "Ishizuchiyama",
        "name:ja": "石鎚山",
        "name:ko": "이시즈치야마",
        "operator": "四国旅客鉄道",
        "railway": "station",
        "ref": "Y32",
        "train": "yes",
        "wikidata": "Q872807",
        "wikipedia": "ja:石鎚山駅"
      }
    },
    {
      "id": "ehime_ferry_terminal_9130493096",
      "osmId": 9130493096,
      "osmType": "node",
      "prefectureId": "ehime",
      "type": "ferry_terminal",
      "subtype": null,
      "name": "釣島港",
      "nameKana": null,
      "nameEn": "Tsurushima Port",
      "operator": null,
      "network": null,
      "ref": null,
      "latitude": 33.8943174,
      "longitude": 132.6399131,
      "countryCode": "jp",
      "rawTags": {
        "amenity": "ferry_terminal",
        "ferry": "yes",
        "name": "釣島港",
        "name:en": "Tsurushima Port",
        "public_transport": "station"
      }
    },
    {
      "id": "ehime_ferry_terminal_9130493153",
      "osmId": 9130493153,
      "osmType": "node",
      "prefectureId": "ehime",
      "type": "ferry_terminal",
      "subtype": null,
      "name": "神浦港",
      "nameKana": null,
      "nameEn": "Kounoura Port",
      "operator": null,
      "network": null,
      "ref": null,
      "latitude": 33.9496612,
      "longitude": 132.6039774,
      "countryCode": "jp",
      "rawTags": {
        "amenity": "ferry_terminal",
        "ferry": "yes",
        "name": "神浦港",
        "name:en": "Kounoura Port",
        "public_transport": "station"
      }
    },
    {
      "id": "ehime_ferry_terminal_9132388572",
      "osmId": 9132388572,
      "osmType": "node",
      "prefectureId": "ehime",
      "type": "ferry_terminal",
      "subtype": null,
      "name": "津和地港",
      "nameKana": null,
      "nameEn": "Tsuwaji Port",
      "operator": null,
      "network": null,
      "ref": null,
      "latitude": 33.9831164,
      "longitude": 132.5162696,
      "countryCode": "jp",
      "rawTags": {
        "amenity": "ferry_terminal",
        "ferry": "yes",
        "name": "津和地港",
        "name:en": "Tsuwaji Port",
        "public_transport": "station"
      }
    },
    {
      "id": "ehime_ferry_terminal_9132388601",
      "osmId": 9132388601,
      "osmType": "node",
      "prefectureId": "ehime",
      "type": "ferry_terminal",
      "subtype": null,
      "name": "元怒和港",
      "nameKana": null,
      "nameEn": "Motonuwa Port",
      "operator": null,
      "network": null,
      "ref": null,
      "latitude": 33.9747749,
      "longitude": 132.5405515,
      "countryCode": "jp",
      "rawTags": {
        "amenity": "ferry_terminal",
        "ferry": "yes",
        "name": "元怒和港",
        "name:en": "Motonuwa Port",
        "public_transport": "station"
      }
    },
    {
      "id": "ehime_ferry_terminal_9132388674",
      "osmId": 9132388674,
      "osmType": "node",
      "prefectureId": "ehime",
      "type": "ferry_terminal",
      "subtype": null,
      "name": "上怒和港",
      "nameKana": null,
      "nameEn": "Kaminuwa Port",
      "operator": null,
      "network": null,
      "ref": null,
      "latitude": 33.9866332,
      "longitude": 132.5574798,
      "countryCode": "jp",
      "rawTags": {
        "amenity": "ferry_terminal",
        "ferry": "yes",
        "name": "上怒和港",
        "name:en": "Kaminuwa Port",
        "public_transport": "station"
      }
    },
    {
      "id": "ehime_ferry_terminal_9132388745",
      "osmId": 9132388745,
      "osmType": "node",
      "prefectureId": "ehime",
      "type": "ferry_terminal",
      "subtype": null,
      "name": "西中港",
      "nameKana": null,
      "nameEn": "Nishinaka Port",
      "operator": null,
      "network": null,
      "ref": null,
      "latitude": 33.9843074,
      "longitude": 132.6047861,
      "countryCode": "jp",
      "rawTags": {
        "amenity": "ferry_terminal",
        "ferry": "yes",
        "name": "西中港",
        "name:en": "Nishinaka Port",
        "public_transport": "station"
      }
    },
    {
      "id": "ehime_ferry_terminal_9138570175",
      "osmId": 9138570175,
      "osmType": "node",
      "prefectureId": "ehime",
      "type": "ferry_terminal",
      "subtype": null,
      "name": "睦月港",
      "nameKana": null,
      "nameEn": "Muzuki Port",
      "operator": null,
      "network": null,
      "ref": null,
      "latitude": 33.9564423,
      "longitude": 132.6655152,
      "countryCode": "jp",
      "rawTags": {
        "amenity": "ferry_terminal",
        "ferry": "yes",
        "name": "睦月港",
        "name:en": "Muzuki Port",
        "public_transport": "station"
      }
    },
    {
      "id": "ehime_ferry_terminal_9138574873",
      "osmId": 9138574873,
      "osmType": "node",
      "prefectureId": "ehime",
      "type": "ferry_terminal",
      "subtype": null,
      "name": "野忽那港",
      "nameKana": null,
      "nameEn": "Nogutsuna Port",
      "operator": null,
      "network": null,
      "ref": null,
      "latitude": 33.9754243,
      "longitude": 132.6882468,
      "countryCode": "jp",
      "rawTags": {
        "amenity": "ferry_terminal",
        "ferry": "yes",
        "name": "野忽那港",
        "name:en": "Nogutsuna Port",
        "public_transport": "station"
      }
    },
    {
      "id": "ehime_station_10594574788",
      "osmId": 10594574788,
      "osmType": "node",
      "prefectureId": "ehime",
      "type": "station",
      "subtype": "private",
      "name": "冒険ステーション",
      "nameKana": null,
      "nameEn": null,
      "operator": null,
      "network": null,
      "ref": null,
      "latitude": 33.7589139,
      "longitude": 132.7939767,
      "countryCode": "jp",
      "rawTags": {
        "name": "冒険ステーション",
        "public_transport": "station",
        "railway": "station",
        "train": "yes"
      }
    },
    {
      "id": "ehime_station_10594575218",
      "osmId": 10594575218,
      "osmType": "node",
      "prefectureId": "ehime",
      "type": "station",
      "subtype": "private",
      "name": "てっぺんとりで",
      "nameKana": null,
      "nameEn": null,
      "operator": null,
      "network": null,
      "ref": null,
      "latitude": 33.7588938,
      "longitude": 132.7971336,
      "countryCode": "jp",
      "rawTags": {
        "name": "てっぺんとりで",
        "public_transport": "station",
        "railway": "station",
        "train": "yes"
      }
    },
    {
      "id": "ehime_station_12326877638",
      "osmId": 12326877638,
      "osmType": "node",
      "prefectureId": "ehime",
      "type": "station",
      "subtype": "jr",
      "name": "出目",
      "nameKana": null,
      "nameEn": "Izume",
      "operator": "四国旅客鉄道",
      "network": null,
      "ref": null,
      "latitude": 33.2519589,
      "longitude": 132.691701,
      "countryCode": "jp",
      "rawTags": {
        "KSJ2:LIN": "予土線",
        "KSJ2:STN": "出目",
        "name": "出目",
        "name:en": "Izume",
        "name:ja": "出目",
        "name:ko": "이즈메",
        "note": "National-Land Numerical Information (Railway) 2007, MLIT Japan",
        "note:ja": "国土数値情報（鉄道データ）平成19年　国土交通省",
        "operator": "四国旅客鉄道",
        "public_transport": "station",
        "railway": "station",
        "source": "KSJ2",
        "source_ref": "http://nlftp.mlit.go.jp/ksj/jpgis/datalist/KsjTmplt-N02-v1_1.html",
        "wikidata": "Q4388378",
        "wikipedia": "ja:出目駅"
      }
    },
    {
      "id": "ehime_airport_50557531",
      "osmId": 50557531,
      "osmType": "way",
      "prefectureId": "ehime",
      "type": "airport",
      "subtype": "domestic",
      "name": "松山空港",
      "nameKana": null,
      "nameEn": "Matsuyama Airport",
      "operator": null,
      "network": null,
      "ref": "MYJ",
      "latitude": 33.8273404,
      "longitude": 132.6999473,
      "countryCode": "jp",
      "rawTags": {
        "KSJ2:AAC": "38201",
        "KSJ2:AAC_label": "愛媛県松山市",
        "KSJ2:AD2": "1",
        "KSJ2:AD2_label": "国土交通大臣",
        "KSJ2:ARP": "33.8272222222 132.6997222222",
        "KSJ2:ATB": "33.8287777800 132.7041111000",
        "KSJ2:CLT": "21 30",
        "KSJ2:COA": "空港整備法に基づく第二種空港",
        "KSJ2:CompositeCurve": "cv63Airport",
        "KSJ2:DSA": "周辺整備空港に指定されていない特定飛行場",
        "KSJ2:INP": "1",
        "KSJ2:INP_label": "国土交通大臣",
        "KSJ2:IUC": "供用中",
        "KSJ2:NA3": "松山空港",
        "KSJ2:OPT": "07 30",
        "KSJ2:REF": "1",
        "KSJ2:REF_label": "ジェット定期便が就航している場合",
        "KSJ2:airport_id": "cf02_52",
        "KSJ2:runways": "2500 45",
        "KSJ2:survey_year_LFD_NPD": "1987 29 4725,1988 32 4782,1989 33 5163,1990 34 5384,1991 29 5885,1992 29 6349,1993 29 6599,1994 31 6697,1995 33 6702,1996 34 31,1997 34 7642,1998 36 7530,1999 35 7642,2000 34 7597,2001 33 7635,2002 32 7363,2003 36 7300,2004 37 7364,2005 43 7322",
        "aeroway": "aerodrome",
        "fenced": "yes",
        "iata": "MYJ",
        "icao": "RJOM",
        "layer": "1",
        "name": "松山空港",
        "name:en": "Matsuyama Airport",
        "name:ja": "松山空港",
        "name:ja_rm": "Matsuyama kūkō",
        "name:ko": "마쓰야마공항",
        "name:zh": "松山机场",
        "note": "National-Land Numerical Information (Airport) 2007, MLIT Japan",
        "note:ja": "国土数値情報（空港データ）平成19年　国土交通省",
        "ref": "MYJ",
        "source": "KSJ2",
        "source_ref": "http://nlftp.mlit.go.jp/ksj/jpgis/datalist/KsjTmplt-C28-v1_1.html",
        "wikidata": "Q255345"
      }
    },
    {
      "id": "ehime_ferry_terminal_184883613",
      "osmId": 184883613,
      "osmType": "way",
      "prefectureId": "ehime",
      "type": "ferry_terminal",
      "subtype": null,
      "name": "旧八幡浜港旅客ターミナル（移転・廃止）",
      "nameKana": null,
      "nameEn": null,
      "operator": null,
      "network": null,
      "ref": null,
      "latitude": 33.4576082,
      "longitude": 132.4175549,
      "countryCode": "jp",
      "rawTags": {
        "amenity": "ferry_terminal",
        "building": "yes",
        "ferry": "yes",
        "name": "旧八幡浜港旅客ターミナル（移転・廃止）",
        "public_transport": "station",
        "source": "Bing"
      }
    },
    {
      "id": "ehime_ferry_terminal_216700494",
      "osmId": 216700494,
      "osmType": "way",
      "prefectureId": "ehime",
      "type": "ferry_terminal",
      "subtype": null,
      "name": "松山観光港",
      "nameKana": null,
      "nameEn": "Tourist Ferry Terminal Matsuyama",
      "operator": null,
      "network": null,
      "ref": null,
      "latitude": 33.8886603,
      "longitude": 132.7043266,
      "countryCode": "jp",
      "rawTags": {
        "amenity": "ferry_terminal",
        "building": "yes",
        "ferry": "yes",
        "name": "松山観光港",
        "name:en": "Tourist Ferry Terminal Matsuyama",
        "public_transport": "station"
      }
    },
    {
      "id": "ehime_bus_terminal_290820832",
      "osmId": 290820832,
      "osmType": "way",
      "prefectureId": "ehime",
      "type": "bus_terminal",
      "subtype": null,
      "name": "伊予鉄バス 川内バスターミナル",
      "nameKana": null,
      "nameEn": null,
      "operator": null,
      "network": null,
      "ref": null,
      "latitude": 33.7983705,
      "longitude": 132.9122406,
      "countryCode": "jp",
      "rawTags": {
        "amenity": "bus_station",
        "building": "yes",
        "name": "伊予鉄バス 川内バスターミナル",
        "source": "Bing"
      }
    },
    {
      "id": "ehime_ferry_terminal_310257995",
      "osmId": 310257995,
      "osmType": "way",
      "prefectureId": "ehime",
      "type": "ferry_terminal",
      "subtype": null,
      "name": "松山港三津浜旅客待合所",
      "nameKana": null,
      "nameEn": null,
      "operator": null,
      "network": null,
      "ref": null,
      "latitude": 33.865058,
      "longitude": 132.7094932,
      "countryCode": "jp",
      "rawTags": {
        "amenity": "ferry_terminal",
        "building": "yes",
        "ferry": "yes",
        "name": "松山港三津浜旅客待合所",
        "public_transport": "station"
      }
    },
    {
      "id": "ehime_bus_terminal_311140488",
      "osmId": 311140488,
      "osmType": "way",
      "prefectureId": "ehime",
      "type": "bus_terminal",
      "subtype": null,
      "name": "伊予鉄バス 森松営業所",
      "nameKana": null,
      "nameEn": null,
      "operator": null,
      "network": null,
      "ref": null,
      "latitude": 33.7903984,
      "longitude": 132.7889253,
      "countryCode": "jp",
      "rawTags": {
        "amenity": "bus_station",
        "building": "yes",
        "name": "伊予鉄バス 森松営業所"
      }
    },
    {
      "id": "ehime_bus_terminal_311424984",
      "osmId": 311424984,
      "osmType": "way",
      "prefectureId": "ehime",
      "type": "bus_terminal",
      "subtype": null,
      "name": "伊予鉄バス 大街道バスターミナル",
      "nameKana": null,
      "nameEn": null,
      "operator": null,
      "network": null,
      "ref": null,
      "latitude": 33.8415029,
      "longitude": 132.7709271,
      "countryCode": "jp",
      "rawTags": {
        "amenity": "bus_station",
        "building": "yes",
        "name": "伊予鉄バス 大街道バスターミナル"
      }
    },
    {
      "id": "ehime_bus_terminal_317987226",
      "osmId": 317987226,
      "osmType": "way",
      "prefectureId": "ehime",
      "type": "bus_terminal",
      "subtype": null,
      "name": "伊予鉄南予バス 八幡浜本社営業所",
      "nameKana": null,
      "nameEn": null,
      "operator": null,
      "network": null,
      "ref": null,
      "latitude": 33.4583092,
      "longitude": 132.4347124,
      "countryCode": "jp",
      "rawTags": {
        "amenity": "bus_station",
        "building": "yes",
        "name": "伊予鉄南予バス 八幡浜本社営業所"
      }
    },
    {
      "id": "ehime_bus_terminal_317987228",
      "osmId": 317987228,
      "osmType": "way",
      "prefectureId": "ehime",
      "type": "bus_terminal",
      "subtype": null,
      "name": "伊予鉄南予バス 大洲営業所",
      "nameKana": null,
      "nameEn": null,
      "operator": null,
      "network": null,
      "ref": null,
      "latitude": 33.5043393,
      "longitude": 132.5244168,
      "countryCode": "jp",
      "rawTags": {
        "amenity": "bus_station",
        "building": "yes",
        "name": "伊予鉄南予バス 大洲営業所"
      }
    },
    {
      "id": "ehime_ferry_terminal_409296333",
      "osmId": 409296333,
      "osmType": "way",
      "prefectureId": "ehime",
      "type": "ferry_terminal",
      "subtype": null,
      "name": "宇和島新内港駅",
      "nameKana": null,
      "nameEn": "Uwajima Port",
      "operator": "盛運汽船",
      "network": "日振島、戸島、嘉島方面",
      "ref": null,
      "latitude": 33.2212012,
      "longitude": 132.5579103,
      "countryCode": "jp",
      "rawTags": {
        "amenity": "ferry_terminal",
        "building": "yes",
        "cargo": "vehicle",
        "name": "宇和島新内港駅",
        "name:en": "Uwajima Port",
        "network": "日振島、戸島、嘉島方面",
        "operator": "盛運汽船"
      }
    },
    {
      "id": "ehime_bus_terminal_415726141",
      "osmId": 415726141,
      "osmType": "way",
      "prefectureId": "ehime",
      "type": "bus_terminal",
      "subtype": null,
      "name": "三島川之江ICバス停",
      "nameKana": null,
      "nameEn": null,
      "operator": null,
      "network": null,
      "ref": null,
      "latitude": 33.9815198,
      "longitude": 133.576356,
      "countryCode": "jp",
      "rawTags": {
        "amenity": "bus_station",
        "building": "yes",
        "name": "三島川之江ICバス停"
      }
    },
    {
      "id": "ehime_bus_terminal_558713355",
      "osmId": 558713355,
      "osmType": "way",
      "prefectureId": "ehime",
      "type": "bus_terminal",
      "subtype": null,
      "name": "宇和島バスセンター",
      "nameKana": null,
      "nameEn": "Uwajima Bus Center",
      "operator": null,
      "network": null,
      "ref": null,
      "latitude": 33.220001,
      "longitude": 132.5663206,
      "countryCode": "jp",
      "rawTags": {
        "addr:city": "宇和島市",
        "addr:housenumber": "3-20",
        "addr:neighbourhood": "1丁目",
        "addr:postcode": "798-0060",
        "addr:province": "愛媛県",
        "addr:quarter": "丸之内",
        "amenity": "bus_station",
        "bus": "yes",
        "name": "宇和島バスセンター",
        "name:en": "Uwajima Bus Center",
        "public_transport": "station"
      }
    },
    {
      "id": "ehime_ferry_terminal_585247703",
      "osmId": 585247703,
      "osmType": "way",
      "prefectureId": "ehime",
      "type": "ferry_terminal",
      "subtype": null,
      "name": "鹿島渡船待合所",
      "nameKana": null,
      "nameEn": null,
      "operator": null,
      "network": null,
      "ref": null,
      "latitude": 33.9747253,
      "longitude": 132.7698668,
      "countryCode": "jp",
      "rawTags": {
        "amenity": "ferry_terminal",
        "building": "yes",
        "cargo": "passengers",
        "name": "鹿島渡船待合所"
      }
    },
    {
      "id": "ehime_ferry_terminal_618245644",
      "osmId": 618245644,
      "osmType": "way",
      "prefectureId": "ehime",
      "type": "ferry_terminal",
      "subtype": null,
      "name": "東予港フェリーターミナルビル",
      "nameKana": null,
      "nameEn": "Toyo Port Ferry Terminal",
      "operator": null,
      "network": null,
      "ref": null,
      "latitude": 33.9298916,
      "longitude": 133.1183522,
      "countryCode": "jp",
      "rawTags": {
        "amenity": "ferry_terminal",
        "building": "yes",
        "building:levels": "4",
        "cargo": "passengers;vehicle",
        "name": "東予港フェリーターミナルビル",
        "name:en": "Toyo Port Ferry Terminal"
      }
    },
    {
      "id": "ehime_bus_terminal_669192526",
      "osmId": 669192526,
      "osmType": "way",
      "prefectureId": "ehime",
      "type": "bus_terminal",
      "subtype": null,
      "name": "伊予鉄南予バス 長浜営業所",
      "nameKana": null,
      "nameEn": null,
      "operator": null,
      "network": null,
      "ref": null,
      "latitude": 33.6161594,
      "longitude": 132.4809169,
      "countryCode": "jp",
      "rawTags": {
        "amenity": "bus_station",
        "building": "yes",
        "name": "伊予鉄南予バス 長浜営業所"
      }
    },
    {
      "id": "ehime_ferry_terminal_699204393",
      "osmId": 699204393,
      "osmType": "way",
      "prefectureId": "ehime",
      "type": "ferry_terminal",
      "subtype": null,
      "name": "井ノ口港",
      "nameKana": null,
      "nameEn": null,
      "operator": null,
      "network": null,
      "ref": null,
      "latitude": 34.2658956,
      "longitude": 133.0429894,
      "countryCode": "jp",
      "rawTags": {
        "amenity": "ferry_terminal",
        "building": "yes",
        "ferry": "yes",
        "name": "井ノ口港",
        "public_transport": "station"
      }
    },
    {
      "id": "ehime_ferry_terminal_699347530",
      "osmId": 699347530,
      "osmType": "way",
      "prefectureId": "ehime",
      "type": "ferry_terminal",
      "subtype": null,
      "name": "宮浦港",
      "nameKana": null,
      "nameEn": null,
      "operator": null,
      "network": null,
      "ref": null,
      "latitude": 34.2490441,
      "longitude": 132.9947035,
      "countryCode": "jp",
      "rawTags": {
        "amenity": "ferry_terminal",
        "building": "yes",
        "ferry": "yes",
        "name": "宮浦港",
        "public_transport": "station"
      }
    },
    {
      "id": "ehime_ferry_terminal_699488569",
      "osmId": 699488569,
      "osmType": "way",
      "prefectureId": "ehime",
      "type": "ferry_terminal",
      "subtype": null,
      "name": "宗方港務所",
      "nameKana": null,
      "nameEn": null,
      "operator": null,
      "network": null,
      "ref": null,
      "latitude": 34.2035648,
      "longitude": 132.9435059,
      "countryCode": "jp",
      "rawTags": {
        "amenity": "ferry_terminal",
        "building": "yes",
        "name": "宗方港務所"
      }
    },
    {
      "id": "ehime_ferry_terminal_699930637",
      "osmId": 699930637,
      "osmType": "way",
      "prefectureId": "ehime",
      "type": "ferry_terminal",
      "subtype": null,
      "name": "盛港務所(フェリー待合所)",
      "nameKana": null,
      "nameEn": null,
      "operator": null,
      "network": null,
      "ref": null,
      "latitude": 34.2935048,
      "longitude": 133.0278906,
      "countryCode": "jp",
      "rawTags": {
        "amenity": "ferry_terminal",
        "building": "yes",
        "ferry": "yes",
        "name": "盛港務所(フェリー待合所)",
        "public_transport": "station"
      }
    },
    {
      "id": "ehime_bus_terminal_881733361",
      "osmId": 881733361,
      "osmType": "way",
      "prefectureId": "ehime",
      "type": "bus_terminal",
      "subtype": null,
      "name": "今治駅前",
      "nameKana": null,
      "nameEn": null,
      "operator": null,
      "network": null,
      "ref": null,
      "latitude": 34.0645859,
      "longitude": 132.9943727,
      "countryCode": "jp",
      "rawTags": {
        "amenity": "bus_station",
        "building": "roof",
        "bus": "yes",
        "layer": "1",
        "name": "今治駅前",
        "public_transport": "station"
      }
    },
    {
      "id": "ehime_ferry_terminal_987595379",
      "osmId": 987595379,
      "osmType": "way",
      "prefectureId": "ehime",
      "type": "ferry_terminal",
      "subtype": null,
      "name": "高浜港",
      "nameKana": null,
      "nameEn": null,
      "operator": null,
      "network": null,
      "ref": null,
      "latitude": 33.8835388,
      "longitude": 132.7016223,
      "countryCode": "jp",
      "rawTags": {
        "amenity": "ferry_terminal",
        "building": "yes",
        "ferry": "yes",
        "name": "高浜港",
        "public_transport": "station"
      }
    },
    {
      "id": "ehime_ferry_terminal_987595387",
      "osmId": 987595387,
      "osmType": "way",
      "prefectureId": "ehime",
      "type": "ferry_terminal",
      "subtype": null,
      "name": "泊港",
      "nameKana": null,
      "nameEn": "Tomari Port",
      "operator": null,
      "network": null,
      "ref": null,
      "latitude": 33.8821317,
      "longitude": 132.680514,
      "countryCode": "jp",
      "rawTags": {
        "amenity": "ferry_terminal",
        "building": "yes",
        "ferry": "yes",
        "name": "泊港",
        "name:en": "Tomari Port",
        "public_transport": "station"
      }
    },
    {
      "id": "ehime_ferry_terminal_987595406",
      "osmId": 987595406,
      "osmType": "way",
      "prefectureId": "ehime",
      "type": "ferry_terminal",
      "subtype": null,
      "name": "由良港",
      "nameKana": null,
      "nameEn": "Yura Port",
      "operator": null,
      "network": null,
      "ref": null,
      "latitude": 33.902807,
      "longitude": 132.6816449,
      "countryCode": "jp",
      "rawTags": {
        "amenity": "ferry_terminal",
        "building": "yes",
        "ferry": "yes",
        "name": "由良港",
        "name:en": "Yura Port",
        "public_transport": "station"
      }
    },
    {
      "id": "ehime_ferry_terminal_988027602",
      "osmId": 988027602,
      "osmType": "way",
      "prefectureId": "ehime",
      "type": "ferry_terminal",
      "subtype": null,
      "name": "二神港",
      "nameKana": null,
      "nameEn": null,
      "operator": null,
      "network": null,
      "ref": null,
      "latitude": 33.9334189,
      "longitude": 132.5371554,
      "countryCode": "jp",
      "rawTags": {
        "amenity": "ferry_terminal",
        "building": "yes",
        "ferry": "yes",
        "name": "二神港",
        "public_transport": "station"
      }
    },
    {
      "id": "ehime_ferry_terminal_988708911",
      "osmId": 988708911,
      "osmType": "way",
      "prefectureId": "ehime",
      "type": "ferry_terminal",
      "subtype": null,
      "name": "中島港(大浦港)",
      "nameKana": null,
      "nameEn": null,
      "operator": null,
      "network": null,
      "ref": null,
      "latitude": 33.9730659,
      "longitude": 132.63013,
      "countryCode": "jp",
      "rawTags": {
        "amenity": "ferry_terminal",
        "building": "yes",
        "ferry": "yes",
        "name": "中島港(大浦港)",
        "public_transport": "station"
      }
    },
    {
      "id": "ehime_ferry_terminal_1040718749",
      "osmId": 1040718749,
      "osmType": "way",
      "prefectureId": "ehime",
      "type": "ferry_terminal",
      "subtype": null,
      "name": "八幡浜港フェリーセンター",
      "nameKana": null,
      "nameEn": null,
      "operator": null,
      "network": null,
      "ref": null,
      "latitude": 33.458518,
      "longitude": 132.4152661,
      "countryCode": "jp",
      "rawTags": {
        "amenity": "ferry_terminal",
        "building": "transportation",
        "ferry": "yes",
        "name": "八幡浜港フェリーセンター",
        "public_transport": "station"
      }
    },
    {
      "id": "ehime_ferry_terminal_1057790643",
      "osmId": 1057790643,
      "osmType": "way",
      "prefectureId": "ehime",
      "type": "ferry_terminal",
      "subtype": null,
      "name": "大島行き定期船乗り場",
      "nameKana": null,
      "nameEn": "Oshima-bound liner terminal",
      "operator": "田中輸送有限会社",
      "network": null,
      "ref": null,
      "latitude": 33.4595239,
      "longitude": 132.4181183,
      "countryCode": "jp",
      "rawTags": {
        "amenity": "ferry_terminal",
        "building": "yes",
        "ferry": "yes",
        "name": "大島行き定期船乗り場",
        "name:en": "Oshima-bound liner terminal",
        "name:ja": "大島行き定期船乗り場",
        "operator": "田中輸送有限会社",
        "public_transport": "station"
      }
    },
    {
      "id": "ehime_ferry_terminal_1141560374",
      "osmId": 1141560374,
      "osmType": "way",
      "prefectureId": "ehime",
      "type": "ferry_terminal",
      "subtype": null,
      "name": "黒島",
      "nameKana": null,
      "nameEn": null,
      "operator": "新居浜市",
      "network": "新居浜市営渡海船（大島 ～ 黒島）",
      "ref": null,
      "latitude": 33.9838652,
      "longitude": 133.3465777,
      "countryCode": "jp",
      "rawTags": {
        "amenity": "ferry_terminal",
        "ferry": "yes",
        "name": "黒島",
        "network": "新居浜市営渡海船（大島 ～ 黒島）",
        "operator": "新居浜市",
        "public_transport": "station"
      }
    },
    {
      "id": "ehime_ferry_terminal_1141560377",
      "osmId": 1141560377,
      "osmType": "way",
      "prefectureId": "ehime",
      "type": "ferry_terminal",
      "subtype": null,
      "name": "大島",
      "nameKana": null,
      "nameEn": null,
      "operator": "新居浜市",
      "network": "新居浜市営渡海船（大島 ～ 黒島）",
      "ref": null,
      "latitude": 33.993625,
      "longitude": 133.3643993,
      "countryCode": "jp",
      "rawTags": {
        "amenity": "ferry_terminal",
        "ferry": "yes",
        "name": "大島",
        "network": "新居浜市営渡海船（大島 ～ 黒島）",
        "operator": "新居浜市",
        "public_transport": "station"
      }
    },
    {
      "id": "ehime_ferry_terminal_1141572797",
      "osmId": 1141572797,
      "osmType": "way",
      "prefectureId": "ehime",
      "type": "ferry_terminal",
      "subtype": null,
      "name": "新居浜東港",
      "nameKana": null,
      "nameEn": null,
      "operator": null,
      "network": null,
      "ref": null,
      "latitude": 33.9873553,
      "longitude": 133.3322515,
      "countryCode": "jp",
      "rawTags": {
        "amenity": "ferry_terminal",
        "building": "yes",
        "ferry": "yes",
        "name": "新居浜東港",
        "public_transport": "station"
      }
    }
  ]
}