{
  "fetchedAt": "2025-12-12T05:25:56.517Z",
  "prefectureId": "fukui",
  "prefectureName": "福井県",
  "stats": {
    "station": 128,
    "airport": 1,
    "ferry_terminal": 2,
    "bus_terminal": 0,
    "total": 131
  },
  "data": [
    {
      "id": "fukui_station_264457629",
      "osmId": 264457629,
      "osmType": "node",
      "prefectureId": "fukui",
      "type": "station",
      "subtype": "private",
      "name": "西長田ゆりの里",
      "nameKana": "にしながたゆりのさと",
      "nameEn": "Nishinagata-Yurinosato",
      "operator": null,
      "network": null,
      "ref": "E35",
      "latitude": 36.1538195,
      "longitude": 136.2065032,
      "countryCode": "jp",
      "rawTags": {
        "light_rail": "yes",
        "name": "西長田ゆりの里",
        "name:en": "Nishinagata-Yurinosato",
        "name:ja": "西長田ゆりの里",
        "name:ja-Hira": "にしながたゆりのさと",
        "name:ko": "니시나가타",
        "public_transport": "station",
        "railway": "station",
        "ref": "E35",
        "wikidata": "Q7040381",
        "wikipedia": "ja:西長田ゆりの里駅"
      }
    },
    {
      "id": "fukui_station_264457633",
      "osmId": 264457633,
      "osmType": "node",
      "prefectureId": "fukui",
      "type": "station",
      "subtype": "private",
      "name": "鷲塚針原",
      "nameKana": "わしづかはりばら",
      "nameEn": "Washizuka-Haribara",
      "operator": null,
      "network": null,
      "ref": null,
      "latitude": 36.1206712,
      "longitude": 136.2048999,
      "countryCode": "jp",
      "rawTags": {
        "light_rail": "yes",
        "name": "鷲塚針原",
        "name:en": "Washizuka-Haribara",
        "name:ja": "鷲塚針原",
        "name:ja-Hira": "わしづかはりばら",
        "name:ko": "와시즈카하리바라",
        "public_transport": "station",
        "railway": "station",
        "source": "KSJ2",
        "station": "light_rail",
        "train": "yes",
        "wikidata": "Q7972612",
        "wikipedia": "ja:鷲塚針原駅"
      }
    },
    {
      "id": "fukui_station_264457651",
      "osmId": 264457651,
      "osmType": "node",
      "prefectureId": "fukui",
      "type": "station",
      "subtype": "private",
      "name": "三国神社",
      "nameKana": null,
      "nameEn": "Mikuni-Jinja",
      "operator": null,
      "network": null,
      "ref": "E42",
      "latitude": 36.2148339,
      "longitude": 136.1580565,
      "countryCode": "jp",
      "rawTags": {
        "alt_name:ko": "미쿠니진자",
        "name": "三国神社",
        "name:en": "Mikuni-Jinja",
        "name:ja": "三国神社",
        "name:ko": "미쿠니신사",
        "public_transport": "station",
        "railway": "station",
        "ref": "E42",
        "source": "KSJ2",
        "train": "yes",
        "wikidata": "Q6850276",
        "wikipedia": "ja:三国神社駅"
      }
    },
    {
      "id": "fukui_station_264457741",
      "osmId": 264457741,
      "osmType": "node",
      "prefectureId": "fukui",
      "type": "station",
      "subtype": "private",
      "name": "西別院",
      "nameKana": null,
      "nameEn": "Nishi-Betsuin",
      "operator": null,
      "network": null,
      "ref": null,
      "latitude": 36.0752259,
      "longitude": 136.2227161,
      "countryCode": "jp",
      "rawTags": {
        "name": "西別院",
        "name:en": "Nishi-Betsuin",
        "name:ja": "西別院",
        "name:ko": "니시베쓰인",
        "public_transport": "station",
        "railway": "station",
        "source": "KSJ2",
        "wikidata": "Q7040312",
        "wikipedia": "ja:西別院駅"
      }
    },
    {
      "id": "fukui_station_264457761",
      "osmId": 264457761,
      "osmType": "node",
      "prefectureId": "fukui",
      "type": "station",
      "subtype": "private",
      "name": "中角",
      "nameKana": "なかつの",
      "nameEn": "Nakatsuno",
      "operator": null,
      "network": null,
      "ref": "E31",
      "latitude": 36.1013999,
      "longitude": 136.2045105,
      "countryCode": "jp",
      "rawTags": {
        "name": "中角",
        "name:en": "Nakatsuno",
        "name:ja": "中角",
        "name:ja-Hira": "なかつの",
        "name:ko": "나카쓰노",
        "public_transport": "station",
        "railway": "station",
        "ref": "E31",
        "source": "KSJ2",
        "wikidata": "Q6960361",
        "wikipedia": "ja:中角駅"
      }
    },
    {
      "id": "fukui_station_264457767",
      "osmId": 264457767,
      "osmType": "node",
      "prefectureId": "fukui",
      "type": "station",
      "subtype": "private",
      "name": "新田塚",
      "nameKana": "にったづか",
      "nameEn": "Nittazuka",
      "operator": null,
      "network": null,
      "ref": "E30",
      "latitude": 36.0923432,
      "longitude": 136.2054239,
      "countryCode": "jp",
      "rawTags": {
        "light_rail": "yes",
        "name": "新田塚",
        "name:en": "Nittazuka",
        "name:ja": "新田塚",
        "name:ja-Hira": "にったづか",
        "name:ko": "닛타즈카",
        "public_transport": "station",
        "railway": "station",
        "ref": "E30",
        "source": "KSJ2",
        "station": "light_rail",
        "wikidata": "Q7041560",
        "wikipedia": "ja:新田塚駅"
      }
    },
    {
      "id": "fukui_station_264457777",
      "osmId": 264457777,
      "osmType": "node",
      "prefectureId": "fukui",
      "type": "station",
      "subtype": "private",
      "name": "三国",
      "nameKana": null,
      "nameEn": "Mikuni",
      "operator": null,
      "network": null,
      "ref": "E43",
      "latitude": 36.217131,
      "longitude": 136.1495747,
      "countryCode": "jp",
      "rawTags": {
        "name": "三国",
        "name:en": "Mikuni",
        "name:ja": "三国",
        "name:ko": "미쿠니",
        "public_transport": "station",
        "railway": "station",
        "ref": "E43",
        "source": "KSJ2",
        "train": "yes",
        "wikidata": "Q6850282",
        "wikipedia": "ja:三国駅 (福井県)"
      }
    },
    {
      "id": "fukui_station_264457781",
      "osmId": 264457781,
      "osmType": "node",
      "prefectureId": "fukui",
      "type": "station",
      "subtype": "private",
      "name": "番田",
      "nameKana": "ばんでん",
      "nameEn": "Banden",
      "operator": null,
      "network": null,
      "ref": "E39",
      "latitude": 36.2124196,
      "longitude": 136.2024226,
      "countryCode": "jp",
      "rawTags": {
        "name": "番田",
        "name:en": "Banden",
        "name:ja": "番田",
        "name:ja-Hira": "ばんでん",
        "name:ja-Latn": "Banden",
        "name:ko": "반덴",
        "public_transport": "station",
        "railway": "station",
        "ref": "E39",
        "source": "KSJ2",
        "wikidata": "Q4854517",
        "wikipedia": "ja:番田駅 (福井県)"
      }
    },
    {
      "id": "fukui_station_264457837",
      "osmId": 264457837,
      "osmType": "node",
      "prefectureId": "fukui",
      "type": "station",
      "subtype": "private",
      "name": "太郎丸エンゼルランド",
      "nameKana": "たろうまるえんぜるらんど",
      "nameEn": "Taromaru Angelland",
      "operator": null,
      "network": null,
      "ref": "E33",
      "latitude": 36.1313034,
      "longitude": 136.2057006,
      "countryCode": "jp",
      "rawTags": {
        "name": "太郎丸エンゼルランド",
        "name:en": "Taromaru Angelland",
        "name:ja": "太郎丸エンゼルランド",
        "name:ja-Hira": "たろうまるえんぜるらんど",
        "name:ko": "다로마루",
        "public_transport": "station",
        "railway": "station",
        "ref": "E33",
        "wikidata": "Q7687069",
        "wikipedia": "ja:太郎丸エンゼルランド駅"
      }
    },
    {
      "id": "fukui_station_264457860",
      "osmId": 264457860,
      "osmType": "node",
      "prefectureId": "fukui",
      "type": "station",
      "subtype": "private",
      "name": "本荘",
      "nameKana": "ほんじょう",
      "nameEn": "Honjyo",
      "operator": null,
      "network": null,
      "ref": "E38",
      "latitude": 36.2049767,
      "longitude": 136.2030539,
      "countryCode": "jp",
      "rawTags": {
        "name": "本荘",
        "name:en": "Honjyo",
        "name:ja": "本荘",
        "name:ja-Hira": "ほんじょう",
        "name:ja-Latn": "Honjō",
        "name:ko": "혼조",
        "public_transport": "station",
        "railway": "station",
        "ref": "E38",
        "source": "KSJ2",
        "wikidata": "Q1027848",
        "wikipedia": "ja:本荘駅"
      }
    },
    {
      "id": "fukui_station_264457866",
      "osmId": 264457866,
      "osmType": "node",
      "prefectureId": "fukui",
      "type": "station",
      "subtype": "private",
      "name": "あわら湯のまち",
      "nameKana": "あわらゆのまち",
      "nameEn": "Awara-Yunomachi",
      "operator": null,
      "network": null,
      "ref": "E40",
      "latitude": 36.22306,
      "longitude": 136.1936755,
      "countryCode": "jp",
      "rawTags": {
        "name": "あわら湯のまち",
        "name:en": "Awara-Yunomachi",
        "name:ja": "あわら湯のまち",
        "name:ja-Hira": "あわらゆのまち",
        "name:ja-Latn": "Awara-Yunomachi",
        "name:ko": "아와라유노마치",
        "old_name:1911-1972": "芦原",
        "old_name:1972-2003": "芦原湯町",
        "public_transport": "station",
        "railway": "station",
        "ref": "E40",
        "source": "KSJ2",
        "wikidata": "Q4829818",
        "wikipedia": "ja:あわら湯のまち駅"
      }
    },
    {
      "id": "fukui_station_264457867",
      "osmId": 264457867,
      "osmType": "node",
      "prefectureId": "fukui",
      "type": "station",
      "subtype": "private",
      "name": "大関",
      "nameKana": "おおぜき",
      "nameEn": "Ozeki",
      "operator": null,
      "network": null,
      "ref": "E37",
      "latitude": 36.1868248,
      "longitude": 136.2038163,
      "countryCode": "jp",
      "rawTags": {
        "name": "大関",
        "name:en": "Ozeki",
        "name:ja": "大関",
        "name:ja-Hira": "おおぜき",
        "name:ja-Latn": "Ōzeki",
        "name:ko": "오제키",
        "public_transport": "station",
        "railway": "station",
        "ref": "E37",
        "source": "KSJ2",
        "wikidata": "Q8081820",
        "wikipedia": "ja:大関駅"
      }
    },
    {
      "id": "fukui_station_264457925",
      "osmId": 264457925,
      "osmType": "node",
      "prefectureId": "fukui",
      "type": "station",
      "subtype": "private",
      "name": "水居",
      "nameKana": null,
      "nameEn": "Mizui",
      "operator": null,
      "network": null,
      "ref": "E41",
      "latitude": 36.2191018,
      "longitude": 136.1719061,
      "countryCode": "jp",
      "rawTags": {
        "name": "水居",
        "name:en": "Mizui",
        "name:ja": "水居",
        "name:ko": "미즈이",
        "public_transport": "station",
        "railway": "station",
        "ref": "E41",
        "source": "KSJ2",
        "train": "yes",
        "wikidata": "Q6884809",
        "wikipedia": "ja:水居駅"
      }
    },
    {
      "id": "fukui_station_264457935",
      "osmId": 264457935,
      "osmType": "node",
      "prefectureId": "fukui",
      "type": "station",
      "subtype": "private",
      "name": "下兵庫こうふく",
      "nameKana": "しもひょうごこうふく",
      "nameEn": "Shimohyogo-Kofuku",
      "operator": null,
      "network": null,
      "ref": "E36",
      "latitude": 36.1701167,
      "longitude": 136.2025396,
      "countryCode": "jp",
      "rawTags": {
        "name": "下兵庫こうふく",
        "name:en": "Shimohyogo-Kofuku",
        "name:ja": "下兵庫こうふく",
        "name:ja-Hira": "しもひょうごこうふく",
        "name:ko": "시모효고",
        "public_transport": "station",
        "railway": "station",
        "ref": "E36",
        "wikidata": "Q7496919",
        "wikipedia": "ja:下兵庫こうふく駅"
      }
    },
    {
      "id": "fukui_station_264457970",
      "osmId": 264457970,
      "osmType": "node",
      "prefectureId": "fukui",
      "type": "station",
      "subtype": "private",
      "name": "八ツ島",
      "nameKana": "やつしま",
      "nameEn": "Yatsushima",
      "operator": "えちぜん鉄道",
      "network": null,
      "ref": "E29",
      "latitude": 36.0863414,
      "longitude": 136.2060103,
      "countryCode": "jp",
      "rawTags": {
        "light_rail": "yes",
        "name": "八ツ島",
        "name:en": "Yatsushima",
        "name:ja": "八ツ島",
        "name:ja-Hira": "やつしま",
        "operator": "えちぜん鉄道",
        "public_transport": "station",
        "railway": "station",
        "ref": "E29",
        "source": "KSJ2",
        "station": "light_rail",
        "wikidata": "Q8050281",
        "wikipedia": "ja:八ツ島駅"
      }
    },
    {
      "id": "fukui_station_264458454",
      "osmId": 264458454,
      "osmType": "node",
      "prefectureId": "fukui",
      "type": "station",
      "subtype": "private",
      "name": "志比堺",
      "nameKana": null,
      "nameEn": "Shiizakai",
      "operator": null,
      "network": null,
      "ref": null,
      "latitude": 36.0979842,
      "longitude": 136.3112661,
      "countryCode": "jp",
      "rawTags": {
        "KSJ2:LIN": "勝山永平寺線",
        "name": "志比堺",
        "name:en": "Shiizakai",
        "name:ja": "志比堺",
        "name:ko": "시이자카이",
        "note": "National-Land Numerical Information (Railway) 2007, MLIT Japan",
        "note:ja": "国土数値情報（鉄道データ）平成19年　国土交通省",
        "public_transport": "station",
        "railway": "station",
        "source": "KSJ2",
        "source_ref": "http://nlftp.mlit.go.jp/ksj/jpgis/datalist/KsjTmplt-N02-v1_1.html",
        "wikidata": "Q7496501",
        "wikipedia": "ja:志比堺駅"
      }
    },
    {
      "id": "fukui_station_264458482",
      "osmId": 264458482,
      "osmType": "node",
      "prefectureId": "fukui",
      "type": "station",
      "subtype": "private",
      "name": "越前新保",
      "nameKana": null,
      "nameEn": "Echizen-Shinbo",
      "operator": null,
      "network": null,
      "ref": null,
      "latitude": 36.0803809,
      "longitude": 136.2511027,
      "countryCode": "jp",
      "rawTags": {
        "name": "越前新保",
        "name:en": "Echizen-Shinbo",
        "name:ja": "越前新保",
        "name:ko": "이치젠신보",
        "public_transport": "station",
        "railway": "station",
        "source": "KSJ2",
        "wikidata": "Q5332621",
        "wikipedia": "ja:越前新保駅"
      }
    },
    {
      "id": "fukui_station_264458485",
      "osmId": 264458485,
      "osmType": "node",
      "prefectureId": "fukui",
      "type": "station",
      "subtype": "private",
      "name": "追分口",
      "nameKana": null,
      "nameEn": "Oiwakeguchi",
      "operator": null,
      "network": null,
      "ref": null,
      "latitude": 36.08268,
      "longitude": 136.261708,
      "countryCode": "jp",
      "rawTags": {
        "name": "追分口",
        "name:en": "Oiwakeguchi",
        "name:ja": "追分口",
        "name:ko": "오이와케구치",
        "public_transport": "station",
        "railway": "station",
        "source": "KSJ2",
        "wikidata": "Q7081574",
        "wikipedia": "ja:追分口駅"
      }
    },
    {
      "id": "fukui_station_264458516",
      "osmId": 264458516,
      "osmType": "node",
      "prefectureId": "fukui",
      "type": "station",
      "subtype": "private",
      "name": "下志比",
      "nameKana": null,
      "nameEn": "Shimoshii",
      "operator": null,
      "network": null,
      "ref": null,
      "latitude": 36.0907156,
      "longitude": 136.3362477,
      "countryCode": "jp",
      "rawTags": {
        "KSJ2:LIN": "勝山永平寺線",
        "name": "下志比",
        "name:en": "Shimoshii",
        "name:ja": "下志比",
        "name:ko": "시모시이",
        "note": "National-Land Numerical Information (Railway) 2007, MLIT Japan",
        "note:ja": "国土数値情報（鉄道データ）平成19年　国土交通省",
        "public_transport": "station",
        "railway": "station",
        "source": "KSJ2",
        "source_ref": "http://nlftp.mlit.go.jp/ksj/jpgis/datalist/KsjTmplt-N02-v1_1.html",
        "wikidata": "Q7497012",
        "wikipedia": "ja:下志比駅"
      }
    },
    {
      "id": "fukui_station_264458526",
      "osmId": 264458526,
      "osmType": "node",
      "prefectureId": "fukui",
      "type": "station",
      "subtype": "private",
      "name": "光明寺",
      "nameKana": "こうみょうじ",
      "nameEn": "Kōmyōji",
      "operator": null,
      "network": null,
      "ref": null,
      "latitude": 36.0885598,
      "longitude": 136.3442476,
      "countryCode": "jp",
      "rawTags": {
        "KSJ2:LIN": "勝山永平寺線",
        "name": "光明寺",
        "name:en": "Kōmyōji",
        "name:ja": "光明寺",
        "name:ja-Hira": "こうみょうじ",
        "name:ko": "고묘지",
        "note": "National-Land Numerical Information (Railway) 2007, MLIT Japan",
        "note:ja": "国土数値情報（鉄道データ）平成19年　国土交通省",
        "public_transport": "station",
        "railway": "station",
        "source": "KSJ2",
        "source_ref": "http://nlftp.mlit.go.jp/ksj/jpgis/datalist/KsjTmplt-N02-v1_1.html",
        "wikidata": "Q6455218",
        "wikipedia": "ja:光明寺駅"
      }
    },
    {
      "id": "fukui_station_264458550",
      "osmId": 264458550,
      "osmType": "node",
      "prefectureId": "fukui",
      "type": "station",
      "subtype": "private",
      "name": "轟",
      "nameKana": null,
      "nameEn": "Domeki",
      "operator": null,
      "network": null,
      "ref": null,
      "latitude": 36.0868404,
      "longitude": 136.3609869,
      "countryCode": "jp",
      "rawTags": {
        "KSJ2:LIN": "勝山永平寺線",
        "name": "轟",
        "name:en": "Domeki",
        "name:ja": "轟",
        "name:ko": "도메키",
        "note": "National-Land Numerical Information (Railway) 2007, MLIT Japan",
        "note:ja": "国土数値情報（鉄道データ）平成19年　国土交通省",
        "public_transport": "station",
        "railway": "station",
        "source": "KSJ2",
        "source_ref": "http://nlftp.mlit.go.jp/ksj/jpgis/datalist/KsjTmplt-N02-v1_1.html",
        "wikidata": "Q5290030",
        "wikipedia": "ja:轟駅"
      }
    },
    {
      "id": "fukui_station_264458555",
      "osmId": 264458555,
      "osmType": "node",
      "prefectureId": "fukui",
      "type": "station",
      "subtype": "private",
      "name": "越前開発",
      "nameKana": null,
      "nameEn": "Echizen-Kaihotsu",
      "operator": null,
      "network": null,
      "ref": null,
      "latitude": 36.075143,
      "longitude": 136.240963,
      "countryCode": "jp",
      "rawTags": {
        "name": "越前開発",
        "name:en": "Echizen-Kaihotsu",
        "name:ja": "越前開発",
        "name:ko": "이치젠카이호쓰",
        "public_transport": "station",
        "railway": "station",
        "source": "KSJ2",
        "wikidata": "Q5332618",
        "wikipedia": "ja:越前開発駅"
      }
    },
    {
      "id": "fukui_station_264458631",
      "osmId": 264458631,
      "osmType": "node",
      "prefectureId": "fukui",
      "type": "station",
      "subtype": "private",
      "name": "永平寺口",
      "nameKana": null,
      "nameEn": "Eiheijiguchi",
      "operator": null,
      "network": null,
      "ref": null,
      "latitude": 36.0958797,
      "longitude": 136.3266649,
      "countryCode": "jp",
      "rawTags": {
        "KSJ2:LIN": "勝山永平寺線",
        "name": "永平寺口",
        "name:en": "Eiheijiguchi",
        "name:ja": "永平寺口",
        "name:ko": "에이헤이지구치",
        "note": "National-Land Numerical Information (Railway) 2007, MLIT Japan",
        "note:ja": "国土数値情報（鉄道データ）平成19年　国土交通省",
        "public_transport": "station",
        "railway": "station",
        "source": "KSJ2",
        "source_ref": "http://nlftp.mlit.go.jp/ksj/jpgis/datalist/KsjTmplt-N02-v1_1.html",
        "wikidata": "Q5349181",
        "wikipedia": "ja:永平寺口駅"
      }
    },
    {
      "id": "fukui_station_264458643",
      "osmId": 264458643,
      "osmType": "node",
      "prefectureId": "fukui",
      "type": "station",
      "subtype": "private",
      "name": "小舟渡",
      "nameKana": null,
      "nameEn": "Kobunato",
      "operator": null,
      "network": null,
      "ref": null,
      "latitude": 36.0755223,
      "longitude": 136.4340138,
      "countryCode": "jp",
      "rawTags": {
        "name": "小舟渡",
        "name:en": "Kobunato",
        "name:ja": "小舟渡",
        "name:ko": "고부나토",
        "note": "National-Land Numerical Information (Railway) 2007, MLIT Japan",
        "note:ja": "国土数値情報（鉄道データ）平成19年　国土交通省",
        "public_transport": "station",
        "railway": "station",
        "source": "KSJ2",
        "source_ref": "http://nlftp.mlit.go.jp/ksj/jpgis/datalist/KsjTmplt-N02-v1_1.html",
        "wikidata": "Q6424516",
        "wikipedia": "ja:小舟渡駅"
      }
    },
    {
      "id": "fukui_station_264458709",
      "osmId": 264458709,
      "osmType": "node",
      "prefectureId": "fukui",
      "type": "station",
      "subtype": "private",
      "name": "松岡",
      "nameKana": null,
      "nameEn": "Matsuoka",
      "operator": null,
      "network": null,
      "ref": null,
      "latitude": 36.0939788,
      "longitude": 136.3018447,
      "countryCode": "jp",
      "rawTags": {
        "KSJ2:LIN": "勝山永平寺線",
        "KSJ2:STN": "松岡",
        "name": "松岡",
        "name:en": "Matsuoka",
        "name:ja": "松岡",
        "name:ko": "마쓰오카",
        "note": "National-Land Numerical Information (Railway) 2007, MLIT Japan",
        "note:ja": "国土数値情報（鉄道データ）平成19年　国土交通省",
        "public_transport": "station",
        "railway": "station",
        "source": "KSJ2",
        "source_ref": "http://nlftp.mlit.go.jp/ksj/jpgis/datalist/KsjTmplt-N02-v1_1.html",
        "wikidata": "Q6788189",
        "wikipedia": "ja:松岡駅"
      }
    },
    {
      "id": "fukui_station_264458788",
      "osmId": 264458788,
      "osmType": "node",
      "prefectureId": "fukui",
      "type": "station",
      "subtype": "private",
      "name": "発坂",
      "nameKana": null,
      "nameEn": "Hossaka",
      "operator": null,
      "network": null,
      "ref": null,
      "latitude": 36.0726192,
      "longitude": 136.4657594,
      "countryCode": "jp",
      "rawTags": {
        "name": "発坂",
        "name:en": "Hossaka",
        "name:ja": "発坂",
        "name:ko": "홋사카",
        "note": "National-Land Numerical Information (Railway) 2007, MLIT Japan",
        "note:ja": "国土数値情報（鉄道データ）平成19年　国土交通省",
        "public_transport": "station",
        "railway": "station",
        "source": "KSJ2",
        "source_ref": "http://nlftp.mlit.go.jp/ksj/jpgis/datalist/KsjTmplt-N02-v1_1.html",
        "wikidata": "Q5908938",
        "wikipedia": "ja:発坂駅"
      }
    },
    {
      "id": "fukui_station_264458809",
      "osmId": 264458809,
      "osmType": "node",
      "prefectureId": "fukui",
      "type": "station",
      "subtype": "private",
      "name": "越前野中",
      "nameKana": null,
      "nameEn": "Echizen-Nonaka",
      "operator": null,
      "network": null,
      "ref": null,
      "latitude": 36.0829283,
      "longitude": 136.3767745,
      "countryCode": "jp",
      "rawTags": {
        "KSJ2:LIN": "勝山永平寺線",
        "name": "越前野中",
        "name:en": "Echizen-Nonaka",
        "name:ja": "越前野中",
        "name:ko": "이치젠노나카",
        "note": "National-Land Numerical Information (Railway) 2007, MLIT Japan",
        "note:ja": "国土数値情報（鉄道データ）平成19年　国土交通省",
        "public_transport": "station",
        "railway": "station",
        "source": "KSJ2",
        "source_ref": "http://nlftp.mlit.go.jp/ksj/jpgis/datalist/KsjTmplt-N02-v1_1.html",
        "wikidata": "Q5332619",
        "wikipedia": "ja:越前野中駅"
      }
    },
    {
      "id": "fukui_station_264458958",
      "osmId": 264458958,
      "osmType": "node",
      "prefectureId": "fukui",
      "type": "station",
      "subtype": "private",
      "name": "観音町",
      "nameKana": null,
      "nameEn": "Kannonmachi",
      "operator": null,
      "network": null,
      "ref": null,
      "latitude": 36.0917593,
      "longitude": 136.2900808,
      "countryCode": "jp",
      "rawTags": {
        "KSJ2:LIN": "勝山永平寺線",
        "name": "観音町",
        "name:en": "Kannonmachi",
        "name:ja": "観音町",
        "name:ko": "간논마치",
        "note": "National-Land Numerical Information (Railway) 2007, MLIT Japan",
        "note:ja": "国土数値情報（鉄道データ）平成19年　国土交通省",
        "public_transport": "station",
        "railway": "station",
        "source": "KSJ2",
        "source_ref": "http://nlftp.mlit.go.jp/ksj/jpgis/datalist/KsjTmplt-N02-v1_1.html",
        "wikidata": "Q11630658",
        "wikipedia": "ja:観音町駅"
      }
    },
    {
      "id": "fukui_station_264458968",
      "osmId": 264458968,
      "osmType": "node",
      "prefectureId": "fukui",
      "type": "station",
      "subtype": "private",
      "name": "越前島橋",
      "nameKana": null,
      "nameEn": "Echizen-Shimabashi",
      "operator": null,
      "network": null,
      "ref": null,
      "latitude": 36.0900612,
      "longitude": 136.2771814,
      "countryCode": "jp",
      "rawTags": {
        "KSJ2:LIN": "勝山永平寺線",
        "name": "越前島橋",
        "name:en": "Echizen-Shimabashi",
        "name:ja": "越前島橋",
        "name:ko": "이치젠시마바시",
        "note": "National-Land Numerical Information (Railway) 2007, MLIT Japan",
        "note:ja": "国土数値情報（鉄道データ）平成19年　国土交通省",
        "public_transport": "station",
        "railway": "station",
        "source": "KSJ2",
        "source_ref": "http://nlftp.mlit.go.jp/ksj/jpgis/datalist/KsjTmplt-N02-v1_1.html",
        "wikidata": "Q5332620",
        "wikipedia": "ja:越前島橋駅"
      }
    },
    {
      "id": "fukui_station_264458987",
      "osmId": 264458987,
      "osmType": "node",
      "prefectureId": "fukui",
      "type": "station",
      "subtype": "private",
      "name": "山王",
      "nameKana": null,
      "nameEn": "Sannō",
      "operator": null,
      "network": null,
      "ref": null,
      "latitude": 36.0792111,
      "longitude": 136.3924928,
      "countryCode": "jp",
      "rawTags": {
        "KSJ2:LIN": "勝山永平寺線",
        "name": "山王",
        "name:en": "Sannō",
        "name:ja": "山王",
        "name:ko": "산노",
        "note": "National-Land Numerical Information (Railway) 2007, MLIT Japan",
        "note:ja": "国土数値情報（鉄道データ）平成19年　国土交通省",
        "public_transport": "station",
        "railway": "station",
        "source": "KSJ2",
        "source_ref": "http://nlftp.mlit.go.jp/ksj/jpgis/datalist/KsjTmplt-N02-v1_1.html",
        "wikidata": "Q7418868",
        "wikipedia": "ja:山王駅 (福井県)"
      }
    },
    {
      "id": "fukui_station_264458989",
      "osmId": 264458989,
      "osmType": "node",
      "prefectureId": "fukui",
      "type": "station",
      "subtype": "private",
      "name": "東藤島",
      "nameKana": null,
      "nameEn": "Higashi-Fujishima",
      "operator": null,
      "network": null,
      "ref": null,
      "latitude": 36.0866145,
      "longitude": 136.2698858,
      "countryCode": "jp",
      "rawTags": {
        "KSJ2:LIN": "勝山永平寺線",
        "name": "東藤島",
        "name:en": "Higashi-Fujishima",
        "name:ja": "東藤島",
        "name:ko": "히가시후지시마",
        "note": "National-Land Numerical Information (Railway) 2007, MLIT Japan",
        "note:ja": "国土数値情報（鉄道データ）平成19年　国土交通省",
        "public_transport": "station",
        "railway": "station",
        "source": "KSJ2",
        "source_ref": "http://nlftp.mlit.go.jp/ksj/jpgis/datalist/KsjTmplt-N02-v1_1.html",
        "wikidata": "Q5753494",
        "wikipedia": "ja:東藤島駅"
      }
    },
    {
      "id": "fukui_station_264459036",
      "osmId": 264459036,
      "osmType": "node",
      "prefectureId": "fukui",
      "type": "station",
      "subtype": "private",
      "name": "越前竹原",
      "nameKana": null,
      "nameEn": "Echizen-Takehara",
      "operator": null,
      "network": null,
      "ref": null,
      "latitude": 36.0741138,
      "longitude": 136.4130339,
      "countryCode": "jp",
      "rawTags": {
        "KSJ2:LIN": "勝山永平寺線",
        "name": "越前竹原",
        "name:en": "Echizen-Takehara",
        "name:ja": "越前竹原",
        "name:ko": "이치젠타케하라",
        "note": "National-Land Numerical Information (Railway) 2007, MLIT Japan",
        "note:ja": "国土数値情報（鉄道データ）平成19年　国土交通省",
        "public_transport": "station",
        "railway": "station",
        "source": "KSJ2",
        "source_ref": "http://nlftp.mlit.go.jp/ksj/jpgis/datalist/KsjTmplt-N02-v1_1.html",
        "wikidata": "Q5332624",
        "wikipedia": "ja:越前竹原駅"
      }
    },
    {
      "id": "fukui_station_264459080",
      "osmId": 264459080,
      "osmType": "node",
      "prefectureId": "fukui",
      "type": "station",
      "subtype": "private",
      "name": "保田",
      "nameKana": null,
      "nameEn": "Hota",
      "operator": null,
      "network": null,
      "ref": null,
      "latitude": 36.0698779,
      "longitude": 136.4515005,
      "countryCode": "jp",
      "rawTags": {
        "name": "保田",
        "name:en": "Hota",
        "name:ja": "保田",
        "name:ko": "호타",
        "note": "National-Land Numerical Information (Railway) 2007, MLIT Japan",
        "note:ja": "国土数値情報（鉄道データ）平成19年　国土交通省",
        "public_transport": "station",
        "railway": "station",
        "source": "KSJ2",
        "source_ref": "http://nlftp.mlit.go.jp/ksj/jpgis/datalist/KsjTmplt-N02-v1_1.html",
        "wikidata": "Q5910923",
        "wikipedia": "ja:保田駅 (福井県)"
      }
    },
    {
      "id": "fukui_station_264459082",
      "osmId": 264459082,
      "osmType": "node",
      "prefectureId": "fukui",
      "type": "station",
      "subtype": "private",
      "name": "新福井",
      "nameKana": null,
      "nameEn": "Shin-Fukui",
      "operator": null,
      "network": null,
      "ref": null,
      "latitude": 36.0649526,
      "longitude": 136.2268999,
      "countryCode": "jp",
      "rawTags": {
        "name": "新福井",
        "name:en": "Shin-Fukui",
        "name:ja": "新福井",
        "name:ko": "신후쿠이",
        "public_transport": "station",
        "railway": "station",
        "source": "KSJ2",
        "wikidata": "Q7497086",
        "wikipedia": "ja:新福井駅"
      }
    },
    {
      "id": "fukui_station_267307472",
      "osmId": 267307472,
      "osmType": "node",
      "prefectureId": "fukui",
      "type": "station",
      "subtype": "private",
      "name": "森田",
      "nameKana": null,
      "nameEn": "Morita",
      "operator": null,
      "network": null,
      "ref": null,
      "latitude": 36.1096441,
      "longitude": 136.2226333,
      "countryCode": "jp",
      "rawTags": {
        "name": "森田",
        "name:en": "Morita",
        "name:ja": "森田",
        "name:ko": "모리타",
        "note": "National-Land Numerical Information (Railway) 2007, MLIT Japan",
        "railway": "station",
        "source": "KSJ2",
        "wikidata": "Q5359882",
        "wikipedia": "ja:森田駅"
      }
    },
    {
      "id": "fukui_station_267307813",
      "osmId": 267307813,
      "osmType": "node",
      "prefectureId": "fukui",
      "type": "station",
      "subtype": "private",
      "name": "北鯖江",
      "nameKana": "きたさばえ",
      "nameEn": "Kita-Sabae",
      "operator": null,
      "network": null,
      "ref": null,
      "latitude": 35.9717597,
      "longitude": 136.1984943,
      "countryCode": "jp",
      "rawTags": {
        "name": "北鯖江",
        "name:en": "Kita-Sabae",
        "name:ja": "北鯖江",
        "name:ja_kana": "きたさばえ",
        "name:ja_rm": "Kita-Sabae",
        "name:ko": "기타사바에",
        "note": "National-Land Numerical Information (Railway) 2007, MLIT Japan",
        "railway": "station",
        "source": "KSJ2",
        "wikidata": "Q5359902",
        "wikipedia": "ja:北鯖江駅"
      }
    },
    {
      "id": "fukui_station_267308141",
      "osmId": 267308141,
      "osmType": "node",
      "prefectureId": "fukui",
      "type": "station",
      "subtype": "private",
      "name": "牛ノ谷",
      "nameKana": null,
      "nameEn": "Ushinoya",
      "operator": null,
      "network": null,
      "ref": null,
      "latitude": 36.2587248,
      "longitude": 136.2814036,
      "countryCode": "jp",
      "rawTags": {
        "name": "牛ノ谷",
        "name:en": "Ushinoya",
        "name:ja": "牛ノ谷",
        "name:ko": "우시노야",
        "note": "National-Land Numerical Information (Railway) 2007, MLIT Japan",
        "railway": "station",
        "source": "KSJ2",
        "wikidata": "Q5359834",
        "wikipedia": "ja:牛ノ谷駅"
      }
    },
    {
      "id": "fukui_station_267308354",
      "osmId": 267308354,
      "osmType": "node",
      "prefectureId": "fukui",
      "type": "station",
      "subtype": "private",
      "name": "大土呂",
      "nameKana": null,
      "nameEn": "Odoro",
      "operator": null,
      "network": null,
      "ref": null,
      "latitude": 36.0100795,
      "longitude": 136.2164472,
      "countryCode": "jp",
      "rawTags": {
        "name": "大土呂",
        "name:en": "Odoro",
        "name:ja": "大土呂",
        "name:ko": "오도로",
        "note": "National-Land Numerical Information (Railway) 2007, MLIT Japan",
        "railway": "station",
        "source": "KSJ2",
        "wikidata": "Q5359873",
        "wikipedia": "ja:大土呂駅"
      }
    },
    {
      "id": "fukui_station_267308425",
      "osmId": 267308425,
      "osmType": "node",
      "prefectureId": "fukui",
      "type": "station",
      "subtype": "private",
      "name": "湯尾",
      "nameKana": null,
      "nameEn": "Yunoo",
      "operator": null,
      "network": null,
      "ref": null,
      "latitude": 35.8033098,
      "longitude": 136.1929708,
      "countryCode": "jp",
      "rawTags": {
        "name": "湯尾",
        "name:en": "Yunoo",
        "name:ja": "湯尾",
        "name:ko": "유노오",
        "note": "National-Land Numerical Information (Railway) 2007, MLIT Japan",
        "public_transport": "station",
        "railway": "station",
        "source": "KSJ2",
        "wikidata": "Q5359995",
        "wikipedia": "ja:湯尾駅"
      }
    },
    {
      "id": "fukui_station_267308895",
      "osmId": 267308895,
      "osmType": "node",
      "prefectureId": "fukui",
      "type": "station",
      "subtype": "private",
      "name": "南条",
      "nameKana": "なんじょう",
      "nameEn": "Nanjo",
      "operator": null,
      "network": null,
      "ref": null,
      "latitude": 35.8321987,
      "longitude": 136.1930839,
      "countryCode": "jp",
      "rawTags": {
        "name": "南条",
        "name:en": "Nanjo",
        "name:ja": "南条",
        "name:ja_kana": "なんじょう",
        "name:ja_rm": "Nanjō",
        "name:ko": "난조",
        "note": "National-Land Numerical Information (Railway) 2007, MLIT Japan",
        "railway": "station",
        "source": "KSJ2",
        "wikidata": "Q5360318",
        "wikipedia": "ja:南条駅"
      }
    },
    {
      "id": "fukui_station_267309039",
      "osmId": 267309039,
      "osmType": "node",
      "prefectureId": "fukui",
      "type": "station",
      "subtype": "private",
      "name": "南今庄",
      "nameKana": null,
      "nameEn": "Minami-Imajō",
      "operator": null,
      "network": null,
      "ref": null,
      "latitude": 35.7575581,
      "longitude": 136.1845839,
      "countryCode": "jp",
      "rawTags": {
        "name": "南今庄",
        "name:en": "Minami-Imajō",
        "name:ja": "南今庄",
        "name:ko": "미나미이마조",
        "note": "National-Land Numerical Information (Railway) 2007, MLIT Japan",
        "public_transport": "station",
        "railway": "station",
        "source": "KSJ2",
        "wikidata": "Q5359879",
        "wikipedia": "ja:南今庄駅"
      }
    },
    {
      "id": "fukui_station_267309136",
      "osmId": 267309136,
      "osmType": "node",
      "prefectureId": "fukui",
      "type": "station",
      "subtype": "private",
      "name": "今庄",
      "nameKana": null,
      "nameEn": "Imajō",
      "operator": null,
      "network": null,
      "ref": null,
      "latitude": 35.7735746,
      "longitude": 136.19854,
      "countryCode": "jp",
      "rawTags": {
        "name": "今庄",
        "name:en": "Imajō",
        "name:ja": "今庄",
        "name:ko": "이마조",
        "note": "National-Land Numerical Information (Railway) 2007, MLIT Japan",
        "railway": "station",
        "source": "KSJ2",
        "wikidata": "Q5359962",
        "wikipedia": "ja:今庄駅"
      }
    },
    {
      "id": "fukui_station_267309305",
      "osmId": 267309305,
      "osmType": "node",
      "prefectureId": "fukui",
      "type": "station",
      "subtype": "private",
      "name": "王子保",
      "nameKana": null,
      "nameEn": "Oshio",
      "operator": null,
      "network": null,
      "ref": null,
      "latitude": 35.8663178,
      "longitude": 136.1655707,
      "countryCode": "jp",
      "rawTags": {
        "name": "王子保",
        "name:en": "Oshio",
        "name:ja": "王子保",
        "name:ko": "오시오",
        "note": "National-Land Numerical Information (Railway) 2007, MLIT Japan",
        "public_transport": "station",
        "railway": "station",
        "source": "KSJ2",
        "wikidata": "Q5359890",
        "wikipedia": "ja:王子保駅"
      }
    },
    {
      "id": "fukui_station_267448890",
      "osmId": 267448890,
      "osmType": "node",
      "prefectureId": "fukui",
      "type": "station",
      "subtype": "jr",
      "name": "牛ケ原",
      "nameKana": "うしがはら",
      "nameEn": "Ushigahara",
      "operator": "西日本旅客鉄道",
      "network": null,
      "ref": null,
      "latitude": 35.9986582,
      "longitude": 136.4676954,
      "countryCode": "jp",
      "rawTags": {
        "name": "牛ケ原",
        "name:en": "Ushigahara",
        "name:ja": "牛ケ原",
        "name:ja_kana": "うしがはら",
        "name:ja_rm": "Ushigahara",
        "name:ko": "우시가하라",
        "operator": "西日本旅客鉄道",
        "operator:en": "West Japan Railway Company",
        "public_transport": "station",
        "railway": "station",
        "source": "GSImaps/ort",
        "wikidata": "Q3611209",
        "wikipedia": "ja:牛ケ原駅"
      }
    },
    {
      "id": "fukui_station_267448953",
      "osmId": 267448953,
      "osmType": "node",
      "prefectureId": "fukui",
      "type": "station",
      "subtype": "jr",
      "name": "越前田野",
      "nameKana": "えちぜんたの",
      "nameEn": "Echizen-Tano",
      "operator": "西日本旅客鉄道",
      "network": null,
      "ref": null,
      "latitude": 35.9870211,
      "longitude": 136.5266892,
      "countryCode": "jp",
      "rawTags": {
        "name": "越前田野",
        "name:en": "Echizen-Tano",
        "name:ja": "越前田野",
        "name:ja_kana": "えちぜんたの",
        "name:ja_rm": "Echizen-Tano",
        "name:ko": "에치젠타노",
        "operator": "西日本旅客鉄道",
        "public_transport": "station",
        "railway": "station",
        "source": "KSJ2",
        "train": "yes",
        "wikidata": "Q5332625",
        "wikipedia": "ja:越前田野駅"
      }
    },
    {
      "id": "fukui_station_267448955",
      "osmId": 267448955,
      "osmType": "node",
      "prefectureId": "fukui",
      "type": "station",
      "subtype": "jr",
      "name": "越前富田",
      "nameKana": "えちぜんとみだ",
      "nameEn": "Echizen-Tomida",
      "operator": "西日本旅客鉄道",
      "network": null,
      "ref": null,
      "latitude": 35.991227,
      "longitude": 136.5411772,
      "countryCode": "jp",
      "rawTags": {
        "name": "越前富田",
        "name:en": "Echizen-Tomida",
        "name:ja": "越前富田",
        "name:ja_kana": "えちぜんとみだ",
        "name:ja_rm": "Echizen-Tomida",
        "name:ko": "에치젠토미다",
        "operator": "西日本旅客鉄道",
        "public_transport": "station",
        "railway": "station",
        "source": "KSJ2",
        "train": "yes",
        "wikidata": "Q5332626",
        "wikipedia": "ja:越前富田駅"
      }
    },
    {
      "id": "fukui_station_267448957",
      "osmId": 267448957,
      "osmType": "node",
      "prefectureId": "fukui",
      "type": "station",
      "subtype": "jr",
      "name": "計石",
      "nameKana": "はかりいし",
      "nameEn": "Hakariishi",
      "operator": "西日本旅客鉄道",
      "network": null,
      "ref": null,
      "latitude": 35.9976236,
      "longitude": 136.434484,
      "countryCode": "jp",
      "rawTags": {
        "KSJ2:LIN": "越美北線",
        "KSJ2:STN": "計石",
        "name": "計石",
        "name:en": "Hakariishi",
        "name:ja": "計石",
        "name:ja_kana": "はかりいし",
        "name:ja_rm": "Hakariishi",
        "name:ko": "하카리이시",
        "note": "National-Land Numerical Information (Railway) 2007, MLIT Japan",
        "note:ja": "国土数値情報（鉄道データ）平成19年　国土交通省",
        "operator": "西日本旅客鉄道",
        "public_transport": "station",
        "railway": "station",
        "source": "KSJ2",
        "source_ref": "http://nlftp.mlit.go.jp/ksj/jpgis/datalist/KsjTmplt-N02-v1_1.html",
        "wikidata": "Q5640348",
        "wikipedia": "ja:計石駅"
      }
    },
    {
      "id": "fukui_station_267448985",
      "osmId": 267448985,
      "osmType": "node",
      "prefectureId": "fukui",
      "type": "station",
      "subtype": "jr",
      "name": "越前花堂",
      "nameKana": null,
      "nameEn": "Echizen-Hanandō",
      "operator": "西日本旅客鉄道",
      "network": null,
      "ref": null,
      "latitude": 36.0390984,
      "longitude": 136.2185477,
      "countryCode": "jp",
      "rawTags": {
        "KSJ2:LIN": "越美北線",
        "KSJ2:STN": "越前花堂",
        "name": "越前花堂",
        "name:en": "Echizen-Hanandō",
        "name:ja": "越前花堂",
        "name:ko": "에치젠하난도",
        "note": "National-Land Numerical Information (Railway) 2007, MLIT Japan",
        "note:ja": "国土数値情報（鉄道データ）平成19年　国土交通省",
        "operator": "西日本旅客鉄道",
        "public_transport": "station",
        "railway": "station",
        "source": "KSJ2",
        "source_ref": "http://nlftp.mlit.go.jp/ksj/jpgis/datalist/KsjTmplt-N02-v1_1.html",
        "wikidata": "Q898457",
        "wikipedia": "ja:越前花堂駅"
      }
    },
    {
      "id": "fukui_station_267448986",
      "osmId": 267448986,
      "osmType": "node",
      "prefectureId": "fukui",
      "type": "station",
      "subtype": "jr",
      "name": "足羽",
      "nameKana": null,
      "nameEn": "Asuwa",
      "operator": "西日本旅客鉄道",
      "network": null,
      "ref": null,
      "latitude": 36.020829,
      "longitude": 136.253535,
      "countryCode": "jp",
      "rawTags": {
        "KSJ2:LIN": "越美北線",
        "KSJ2:STN": "足羽",
        "name": "足羽",
        "name:en": "Asuwa",
        "name:ja": "足羽",
        "name:ko": "아스와",
        "note": "National-Land Numerical Information (Railway) 2007, MLIT Japan",
        "note:ja": "国土数値情報（鉄道データ）平成19年　国土交通省",
        "operator": "西日本旅客鉄道",
        "public_transport": "station",
        "railway": "station",
        "source": "KSJ2",
        "source_ref": "http://nlftp.mlit.go.jp/ksj/jpgis/datalist/KsjTmplt-N02-v1_1.html",
        "wikidata": "Q4811964",
        "wikipedia": "ja:足羽駅"
      }
    },
    {
      "id": "fukui_station_267448990",
      "osmId": 267448990,
      "osmType": "node",
      "prefectureId": "fukui",
      "type": "station",
      "subtype": "jr",
      "name": "六条",
      "nameKana": null,
      "nameEn": "Rokujō",
      "operator": "西日本旅客鉄道",
      "network": null,
      "ref": null,
      "latitude": 36.028026,
      "longitude": 136.239973,
      "countryCode": "jp",
      "rawTags": {
        "KSJ2:LIN": "越美北線",
        "KSJ2:STN": "六条",
        "name": "六条",
        "name:en": "Rokujō",
        "name:ja": "六条",
        "name:ko": "로쿠조",
        "note": "National-Land Numerical Information (Railway) 2007, MLIT Japan",
        "note:ja": "国土数値情報（鉄道データ）平成19年　国土交通省",
        "operator": "西日本旅客鉄道",
        "public_transport": "station",
        "railway": "station",
        "source": "KSJ2",
        "source_ref": "http://nlftp.mlit.go.jp/ksj/jpgis/datalist/KsjTmplt-N02-v1_1.html",
        "wikidata": "Q7360105",
        "wikipedia": "ja:六条駅"
      }
    },
    {
      "id": "fukui_station_267449013",
      "osmId": 267449013,
      "osmType": "node",
      "prefectureId": "fukui",
      "type": "station",
      "subtype": "jr",
      "name": "小和清水",
      "nameKana": null,
      "nameEn": "Kowashōzu",
      "operator": "西日本旅客鉄道",
      "network": null,
      "ref": null,
      "latitude": 36.017426,
      "longitude": 136.350708,
      "countryCode": "jp",
      "rawTags": {
        "KSJ2:LIN": "越美北線",
        "KSJ2:STN": "小和清水",
        "name": "小和清水",
        "name:en": "Kowashōzu",
        "name:ja": "小和清水",
        "name:ko": "고와쇼즈",
        "note": "National-Land Numerical Information (Railway) 2007, MLIT Japan",
        "note:ja": "国土数値情報（鉄道データ）平成19年　国土交通省",
        "operator": "西日本旅客鉄道",
        "public_transport": "station",
        "railway": "station",
        "source": "KSJ2",
        "source_ref": "http://nlftp.mlit.go.jp/ksj/jpgis/datalist/KsjTmplt-N02-v1_1.html",
        "wikidata": "Q6435014",
        "wikipedia": "ja:小和清水駅"
      }
    },
    {
      "id": "fukui_station_267449030",
      "osmId": 267449030,
      "osmType": "node",
      "prefectureId": "fukui",
      "type": "station",
      "subtype": "jr",
      "name": "下唯野",
      "nameKana": "しもゆいの",
      "nameEn": "Shimo-Yuino",
      "operator": "西日本旅客鉄道",
      "network": null,
      "ref": null,
      "latitude": 35.9740208,
      "longitude": 136.5604723,
      "countryCode": "jp",
      "rawTags": {
        "KSJ2:LIN": "越美北線",
        "KSJ2:STN": "下唯野",
        "name": "下唯野",
        "name:en": "Shimo-Yuino",
        "name:ja": "下唯野",
        "name:ja_kana": "しもゆいの",
        "name:ja_rm": "Shimo-Yuino",
        "name:ko": "시모유이노",
        "note": "National-Land Numerical Information (Railway) 2007, MLIT Japan",
        "note:ja": "国土数値情報（鉄道データ）平成19年　国土交通省",
        "operator": "西日本旅客鉄道",
        "public_transport": "station",
        "railway": "station",
        "source": "KSJ2",
        "source_ref": "http://nlftp.mlit.go.jp/ksj/jpgis/datalist/KsjTmplt-N02-v1_1.html",
        "wikidata": "Q7496939",
        "wikipedia": "ja:下唯野駅"
      }
    },
    {
      "id": "fukui_station_267449031",
      "osmId": 267449031,
      "osmType": "node",
      "prefectureId": "fukui",
      "type": "station",
      "subtype": "jr",
      "name": "越前薬師",
      "nameKana": null,
      "nameEn": "Echizen-Yakushi",
      "operator": "西日本旅客鉄道",
      "network": null,
      "ref": null,
      "latitude": 36.0053162,
      "longitude": 136.3843061,
      "countryCode": "jp",
      "rawTags": {
        "KSJ2:LIN": "越美北線",
        "KSJ2:STN": "越前薬師",
        "name": "越前薬師",
        "name:en": "Echizen-Yakushi",
        "name:ja": "越前薬師",
        "name:ko": "에치젠야쿠시",
        "note": "National-Land Numerical Information (Railway) 2007, MLIT Japan",
        "note:ja": "国土数値情報（鉄道データ）平成19年　国土交通省",
        "operator": "西日本旅客鉄道",
        "public_transport": "station",
        "railway": "station",
        "source": "KSJ2",
        "source_ref": "http://nlftp.mlit.go.jp/ksj/jpgis/datalist/KsjTmplt-N02-v1_1.html",
        "wikidata": "Q5332627",
        "wikipedia": "ja:越前薬師駅"
      }
    },
    {
      "id": "fukui_station_267449124",
      "osmId": 267449124,
      "osmType": "node",
      "prefectureId": "fukui",
      "type": "station",
      "subtype": "jr",
      "name": "北大野",
      "nameKana": "きたおおの",
      "nameEn": "Kita-Ono",
      "operator": "西日本旅客鉄道",
      "network": null,
      "ref": null,
      "latitude": 35.9979595,
      "longitude": 136.4882674,
      "countryCode": "jp",
      "rawTags": {
        "name": "北大野",
        "name:en": "Kita-Ono",
        "name:ja": "北大野",
        "name:ja_kana": "きたおおの",
        "name:ja_rm": "Kita-Ōno",
        "name:ko": "기타오노",
        "operator": "西日本旅客鉄道",
        "operator:en": "West Japan Railway Company",
        "public_transport": "station",
        "railway": "station",
        "source": "GSImaps/ort",
        "wikidata": "Q6417642",
        "wikipedia": "ja:北大野駅"
      }
    },
    {
      "id": "fukui_station_267449139",
      "osmId": 267449139,
      "osmType": "node",
      "prefectureId": "fukui",
      "type": "station",
      "subtype": "jr",
      "name": "越前東郷",
      "nameKana": null,
      "nameEn": "Echizen-Tōgō",
      "operator": "西日本旅客鉄道",
      "network": null,
      "ref": null,
      "latitude": 36.0182871,
      "longitude": 136.2735924,
      "countryCode": "jp",
      "rawTags": {
        "KSJ2:LIN": "越美北線",
        "KSJ2:STN": "越前東郷",
        "name": "越前東郷",
        "name:en": "Echizen-Tōgō",
        "name:ja": "越前東郷",
        "name:ko": "에치젠토고",
        "note": "National-Land Numerical Information (Railway) 2007, MLIT Japan",
        "note:ja": "国土数値情報（鉄道データ）平成19年　国土交通省",
        "operator": "西日本旅客鉄道",
        "public_transport": "station",
        "railway": "station",
        "source": "KSJ2",
        "source_ref": "http://nlftp.mlit.go.jp/ksj/jpgis/datalist/KsjTmplt-N02-v1_1.html",
        "wikidata": "Q3701451",
        "wikipedia": "ja:越前東郷駅"
      }
    },
    {
      "id": "fukui_station_267449183",
      "osmId": 267449183,
      "osmType": "node",
      "prefectureId": "fukui",
      "type": "station",
      "subtype": "jr",
      "name": "市波",
      "nameKana": null,
      "nameEn": "Ichinami",
      "operator": "西日本旅客鉄道",
      "network": null,
      "ref": null,
      "latitude": 36.02,
      "longitude": 136.33015,
      "countryCode": "jp",
      "rawTags": {
        "KSJ2:LIN": "越美北線",
        "KSJ2:STN": "市波",
        "name": "市波",
        "name:en": "Ichinami",
        "name:ja": "市波",
        "name:ko": "이치나미",
        "note": "National-Land Numerical Information (Railway) 2007, MLIT Japan",
        "note:ja": "国土数値情報（鉄道データ）平成19年　国土交通省",
        "operator": "西日本旅客鉄道",
        "public_transport": "station",
        "railway": "station",
        "source": "KSJ2",
        "source_ref": "http://nlftp.mlit.go.jp/ksj/jpgis/datalist/KsjTmplt-N02-v1_1.html",
        "wikidata": "Q5986228",
        "wikipedia": "ja:市波駅"
      }
    },
    {
      "id": "fukui_station_267449283",
      "osmId": 267449283,
      "osmType": "node",
      "prefectureId": "fukui",
      "type": "station",
      "subtype": "jr",
      "name": "越前高田",
      "nameKana": null,
      "nameEn": "Echizen-Takada",
      "operator": "西日本旅客鉄道",
      "network": null,
      "ref": null,
      "latitude": 36.024837,
      "longitude": 136.3187875,
      "countryCode": "jp",
      "rawTags": {
        "KSJ2:LIN": "越美北線",
        "KSJ2:STN": "越前高田",
        "name": "越前高田",
        "name:en": "Echizen-Takada",
        "name:ja": "越前高田",
        "name:ko": "에치젠타카다",
        "note": "National-Land Numerical Information (Railway) 2007, MLIT Japan",
        "note:ja": "国土数値情報（鉄道データ）平成19年　国土交通省",
        "operator": "西日本旅客鉄道",
        "public_transport": "station",
        "railway": "station",
        "source": "KSJ2",
        "source_ref": "http://nlftp.mlit.go.jp/ksj/jpgis/datalist/KsjTmplt-N02-v1_1.html",
        "wikidata": "Q5332622",
        "wikipedia": "ja:越前高田駅"
      }
    },
    {
      "id": "fukui_station_267449284",
      "osmId": 267449284,
      "osmType": "node",
      "prefectureId": "fukui",
      "type": "station",
      "subtype": "jr",
      "name": "越前大野",
      "nameKana": "えちぜんおおの",
      "nameEn": "Echizen-Ono",
      "operator": "西日本旅客鉄道",
      "network": null,
      "ref": null,
      "latitude": 35.9832744,
      "longitude": 136.4969352,
      "countryCode": "jp",
      "rawTags": {
        "name": "越前大野",
        "name:en": "Echizen-Ono",
        "name:ja": "越前大野",
        "name:ja_kana": "えちぜんおおの",
        "name:ja_rm": "Echizen-Ōno",
        "name:ko": "에치젠오노",
        "operator": "西日本旅客鉄道",
        "public_transport": "station",
        "railway": "station",
        "source": "KSJ2",
        "train": "yes",
        "wikidata": "Q2815910",
        "wikipedia": "ja:越前大野駅"
      }
    },
    {
      "id": "fukui_station_267449875",
      "osmId": 267449875,
      "osmType": "node",
      "prefectureId": "fukui",
      "type": "station",
      "subtype": "jr",
      "name": "柿ケ島",
      "nameKana": "かきがしま",
      "nameEn": "Kakigashima",
      "operator": "西日本旅客鉄道",
      "network": null,
      "ref": null,
      "latitude": 35.9725606,
      "longitude": 136.5713305,
      "countryCode": "jp",
      "rawTags": {
        "KSJ2:LIN": "越美北線",
        "KSJ2:STN": "柿ケ島",
        "name": "柿ケ島",
        "name:en": "Kakigashima",
        "name:ja": "柿ケ島",
        "name:ja_kana": "かきがしま",
        "name:ja_rm": "Kakigashima",
        "name:ko": "가키가시마",
        "note": "National-Land Numerical Information (Railway) 2007, MLIT Japan",
        "note:ja": "国土数値情報（鉄道データ）平成19年　国土交通省",
        "operator": "西日本旅客鉄道",
        "public_transport": "station",
        "railway": "station",
        "source": "KSJ2",
        "source_ref": "http://nlftp.mlit.go.jp/ksj/jpgis/datalist/KsjTmplt-N02-v1_1.html",
        "wikidata": "Q6349439",
        "wikipedia": "ja:柿ケ島駅"
      }
    },
    {
      "id": "fukui_station_267450570",
      "osmId": 267450570,
      "osmType": "node",
      "prefectureId": "fukui",
      "type": "station",
      "subtype": "jr",
      "name": "一乗谷",
      "nameKana": null,
      "nameEn": "Ichijōdani",
      "operator": "西日本旅客鉄道",
      "network": null,
      "ref": null,
      "latitude": 36.0137208,
      "longitude": 136.29745,
      "countryCode": "jp",
      "rawTags": {
        "KSJ2:LIN": "越美北線",
        "KSJ2:STN": "一乗谷",
        "name": "一乗谷",
        "name:en": "Ichijōdani",
        "name:ja": "一乗谷",
        "name:ko": "이치조다니",
        "note": "National-Land Numerical Information (Railway) 2007, MLIT Japan",
        "note:ja": "国土数値情報（鉄道データ）平成19年　国土交通省",
        "operator": "西日本旅客鉄道",
        "public_transport": "station",
        "railway": "station",
        "source": "KSJ2",
        "source_ref": "http://nlftp.mlit.go.jp/ksj/jpgis/datalist/KsjTmplt-N02-v1_1.html",
        "wikidata": "Q3611096",
        "wikipedia": "ja:一乗谷駅"
      }
    },
    {
      "id": "fukui_station_267450574",
      "osmId": 267450574,
      "osmType": "node",
      "prefectureId": "fukui",
      "type": "station",
      "subtype": "jr",
      "name": "越前大宮",
      "nameKana": null,
      "nameEn": "Echizen-Ōmiya",
      "operator": "西日本旅客鉄道",
      "network": null,
      "ref": null,
      "latitude": 35.9999944,
      "longitude": 136.4102194,
      "countryCode": "jp",
      "rawTags": {
        "KSJ2:LIN": "越美北線",
        "KSJ2:STN": "越前大宮",
        "name": "越前大宮",
        "name:en": "Echizen-Ōmiya",
        "name:ja": "越前大宮",
        "name:ko": "에치젠오미야",
        "note": "National-Land Numerical Information (Railway) 2007, MLIT Japan",
        "note:ja": "国土数値情報（鉄道データ）平成19年　国土交通省",
        "operator": "西日本旅客鉄道",
        "public_transport": "station",
        "railway": "station",
        "source": "KSJ2",
        "source_ref": "http://nlftp.mlit.go.jp/ksj/jpgis/datalist/KsjTmplt-N02-v1_1.html",
        "wikidata": "Q5332628",
        "wikipedia": "ja:越前大宮駅"
      }
    },
    {
      "id": "fukui_station_267451324",
      "osmId": 267451324,
      "osmType": "node",
      "prefectureId": "fukui",
      "type": "station",
      "subtype": "private",
      "name": "越前下山",
      "nameKana": "越前下山",
      "nameEn": "Echizen-Shimoyama",
      "operator": null,
      "network": null,
      "ref": null,
      "latitude": 35.9205882,
      "longitude": 136.6347769,
      "countryCode": "jp",
      "rawTags": {
        "name": "越前下山",
        "name:en": "Echizen-Shimoyama",
        "name:ja": "越前下山",
        "name:ja_kana": "越前下山",
        "name:ja_rm": "Echizen-Shimoyama",
        "name:ko": "에치젠시모야마",
        "public_transport": "station",
        "railway": "station",
        "source": "KSJ2",
        "train": "yes",
        "wikidata": "Q3701403",
        "wikipedia": "ja:越前下山駅"
      }
    },
    {
      "id": "fukui_station_267451487",
      "osmId": 267451487,
      "osmType": "node",
      "prefectureId": "fukui",
      "type": "station",
      "subtype": "jr",
      "name": "勝原",
      "nameKana": "かどはら",
      "nameEn": "Kadohara",
      "operator": "西日本旅客鉄道",
      "network": null,
      "ref": null,
      "latitude": 35.96738,
      "longitude": 136.597601,
      "countryCode": "jp",
      "rawTags": {
        "KSJ2:LIN": "越美北線",
        "KSJ2:STN": "勝原",
        "name": "勝原",
        "name:en": "Kadohara",
        "name:ja": "勝原",
        "name:ja_kana": "かどはら",
        "name:ja_rm": "Kadohara",
        "name:ko": "가도하라",
        "note": "National-Land Numerical Information (Railway) 2007, MLIT Japan",
        "note:ja": "国土数値情報（鉄道データ）平成19年　国土交通省",
        "operator": "西日本旅客鉄道",
        "public_transport": "station",
        "railway": "station",
        "source": "KSJ2",
        "source_ref": "http://nlftp.mlit.go.jp/ksj/jpgis/datalist/KsjTmplt-N02-v1_1.html",
        "wikidata": "Q11400191",
        "wikipedia": "ja:勝原駅"
      }
    },
    {
      "id": "fukui_station_822973023",
      "osmId": 822973023,
      "osmType": "node",
      "prefectureId": "fukui",
      "type": "station",
      "subtype": "private",
      "name": "たけふ新",
      "nameKana": "たけふしん",
      "nameEn": "Takefu-shin",
      "operator": null,
      "network": null,
      "ref": null,
      "latitude": 35.9061222,
      "longitude": 136.1702578,
      "countryCode": "jp",
      "rawTags": {
        "KSJ2:LIN": "福武線",
        "KSJ2:RAS": "eb03_9045",
        "KSJ2:segment": "eb02_19276",
        "light_rail": "yes",
        "name": "たけふ新",
        "name:en": "Takefu-shin",
        "name:ja": "たけふ新",
        "name:ja-Hira": "たけふしん",
        "name:ko": "에치젠타케후",
        "note": "National-Land Numerical Information (Railway) 2007, MLIT Japan",
        "note:ja": "国土数値情報（鉄道データ）平成19年　国土交通省",
        "old_name": "越前武生",
        "old_name:en": "Echizen-takefu",
        "public_transport": "station",
        "railway": "station",
        "source": "KSJ2",
        "source_ref": "http://nlftp.mlit.go.jp/ksj/jpgis/datalist/KsjTmplt-N02-v1_1.html",
        "station": "light_rail",
        "wikidata": "Q5332623",
        "wikipedia": "ja:たけふ新駅"
      }
    },
    {
      "id": "fukui_station_822973253",
      "osmId": 822973253,
      "osmType": "node",
      "prefectureId": "fukui",
      "type": "station",
      "subtype": "private",
      "name": "西鯖江",
      "nameKana": null,
      "nameEn": "Nishi-Sabae",
      "operator": null,
      "network": null,
      "ref": null,
      "latitude": 35.94665,
      "longitude": 136.1818127,
      "countryCode": "jp",
      "rawTags": {
        "KSJ2:LIN": "福武線",
        "KSJ2:RAS": "eb03_9047",
        "KSJ2:segment": "eb02_19278",
        "light_rail": "yes",
        "name": "西鯖江",
        "name:en": "Nishi-Sabae",
        "name:ja": "西鯖江",
        "name:ko": "니시사바에",
        "note": "National-Land Numerical Information (Railway) 2007, MLIT Japan",
        "note:ja": "国土数値情報（鉄道データ）平成19年　国土交通省",
        "opening_hours": "06:00-22:00",
        "phone": "0778-51-8215",
        "public_transport": "station",
        "railway": "station",
        "source": "KSJ2",
        "source_ref": "http://nlftp.mlit.go.jp/ksj/jpgis/datalist/KsjTmplt-N02-v1_1.html",
        "station": "light_rail",
        "wheelchair": "limited",
        "wikidata": "Q11630017",
        "wikipedia": "ja:西鯖江駅"
      }
    },
    {
      "id": "fukui_station_822973292",
      "osmId": 822973292,
      "osmType": "node",
      "prefectureId": "fukui",
      "type": "station",
      "subtype": "private",
      "name": "ハーモニーホール",
      "nameKana": null,
      "nameEn": "Harmony Hall",
      "operator": null,
      "network": null,
      "ref": null,
      "latitude": 36.0139597,
      "longitude": 136.205317,
      "countryCode": "jp",
      "rawTags": {
        "KSJ2:LIN": "福武線",
        "KSJ2:RAS": "eb03_9055",
        "KSJ2:segment": "eb02_19267",
        "light_rail": "yes",
        "name": "ハーモニーホール",
        "name:en": "Harmony Hall",
        "name:ja": "ハーモニーホール",
        "name:ko": "하모니홀",
        "note": "National-Land Numerical Information (Railway) 2007, MLIT Japan",
        "note:ja": "国土数値情報（鉄道データ）平成19年　国土交通省",
        "public_transport": "station",
        "railway": "station",
        "source": "KSJ2",
        "source_ref": "http://nlftp.mlit.go.jp/ksj/jpgis/datalist/KsjTmplt-N02-v1_1.html",
        "station": "light_rail",
        "wikidata": "Q5659535",
        "wikipedia": "ja:ハーモニーホール駅"
      }
    },
    {
      "id": "fukui_station_822975155",
      "osmId": 822975155,
      "osmType": "node",
      "prefectureId": "fukui",
      "type": "station",
      "subtype": "private",
      "name": "三十八社",
      "nameKana": null,
      "nameEn": "Sanjūhassha",
      "operator": null,
      "network": null,
      "ref": null,
      "latitude": 35.9890791,
      "longitude": 136.1937667,
      "countryCode": "jp",
      "rawTags": {
        "KSJ2:LIN": "福武線",
        "KSJ2:RAS": "eb03_9049",
        "KSJ2:segment": "eb02_19250",
        "light_rail": "yes",
        "name": "三十八社",
        "name:en": "Sanjūhassha",
        "name:ja": "三十八社",
        "name:ko": "산주핫샤",
        "note": "National-Land Numerical Information (Railway) 2007, MLIT Japan",
        "note:ja": "国土数値情報（鉄道データ）平成19年　国土交通省",
        "public_transport": "station",
        "railway": "station",
        "source": "KSJ2",
        "source_ref": "http://nlftp.mlit.go.jp/ksj/jpgis/datalist/KsjTmplt-N02-v1_1.html",
        "station": "light_rail",
        "wikidata": "Q7418608",
        "wikipedia": "ja:三十八社駅"
      }
    },
    {
      "id": "fukui_station_822975506",
      "osmId": 822975506,
      "osmType": "node",
      "prefectureId": "fukui",
      "type": "station",
      "subtype": "private",
      "name": "鳥羽中",
      "nameKana": null,
      "nameEn": "Tobanaka",
      "operator": null,
      "network": null,
      "ref": null,
      "latitude": 35.9815657,
      "longitude": 136.1873429,
      "countryCode": "jp",
      "rawTags": {
        "KSJ2:LIN": "福武線",
        "KSJ2:RAS": "eb03_9062",
        "KSJ2:segment": "eb02_19247",
        "light_rail": "yes",
        "name": "鳥羽中",
        "name:en": "Tobanaka",
        "name:ja": "鳥羽中",
        "name:ko": "도바나카",
        "note": "National-Land Numerical Information (Railway) 2007, MLIT Japan",
        "note:ja": "国土数値情報（鉄道データ）平成19年　国土交通省",
        "public_transport": "station",
        "railway": "station",
        "source": "KSJ2",
        "source_ref": "http://nlftp.mlit.go.jp/ksj/jpgis/datalist/KsjTmplt-N02-v1_1.html",
        "station": "light_rail",
        "wikidata": "Q7811544",
        "wikipedia": "ja:鳥羽中駅"
      }
    },
    {
      "id": "fukui_station_822976815",
      "osmId": 822976815,
      "osmType": "node",
      "prefectureId": "fukui",
      "type": "station",
      "subtype": "private",
      "name": "浅水",
      "nameKana": null,
      "nameEn": "Asōzu",
      "operator": null,
      "network": null,
      "ref": null,
      "latitude": 36.00671,
      "longitude": 136.2017231,
      "countryCode": "jp",
      "rawTags": {
        "KSJ2:LIN": "福武線",
        "KSJ2:RAS": "eb03_9056",
        "KSJ2:segment": "eb02_19265",
        "light_rail": "yes",
        "name": "浅水",
        "name:en": "Asōzu",
        "name:ja": "浅水",
        "name:ko": "아소즈",
        "note": "National-Land Numerical Information (Railway) 2007, MLIT Japan",
        "note:ja": "国土数値情報（鉄道データ）平成19年　国土交通省",
        "public_transport": "station",
        "railway": "station",
        "source": "KSJ2",
        "source_ref": "http://nlftp.mlit.go.jp/ksj/jpgis/datalist/KsjTmplt-N02-v1_1.html",
        "station": "light_rail",
        "wikidata": "Q4812261",
        "wikipedia": "ja:浅水駅"
      }
    },
    {
      "id": "fukui_station_822977846",
      "osmId": 822977846,
      "osmType": "node",
      "prefectureId": "fukui",
      "type": "station",
      "subtype": "private",
      "name": "北府",
      "nameKana": "きたご",
      "nameEn": "Kitago",
      "operator": "福井鉄道",
      "network": "福武線",
      "ref": null,
      "latitude": 35.9100647,
      "longitude": 136.1665861,
      "countryCode": "jp",
      "rawTags": {
        "KSJ2:LIN": "福武線",
        "KSJ2:RAS": "eb03_9057",
        "KSJ2:segment": "eb02_19277",
        "light_rail": "yes",
        "name": "北府",
        "name:en": "Kitago",
        "name:ja": "北府",
        "name:ja-Hira": "きたご",
        "name:ko": "기타고",
        "network": "福武線",
        "note": "National-Land Numerical Information (Railway) 2007, MLIT Japan",
        "note:ja": "国土数値情報（鉄道データ）平成19年　国土交通省",
        "old_name": "西武生",
        "operator": "福井鉄道",
        "public_transport": "station",
        "railway": "station",
        "source": "KSJ2",
        "source_ref": "http://nlftp.mlit.go.jp/ksj/jpgis/datalist/KsjTmplt-N02-v1_1.html",
        "station": "light_rail",
        "wikidata": "Q6417707",
        "wikipedia": "ja:北府駅"
      }
    },
    {
      "id": "fukui_station_822977949",
      "osmId": 822977949,
      "osmType": "node",
      "prefectureId": "fukui",
      "type": "station",
      "subtype": "private",
      "name": "江端",
      "nameKana": null,
      "nameEn": "Ebata",
      "operator": null,
      "network": null,
      "ref": null,
      "latitude": 36.028123,
      "longitude": 136.212321,
      "countryCode": "jp",
      "rawTags": {
        "KSJ2:LIN": "福武線",
        "KSJ2:RAS": "eb03_9060",
        "KSJ2:STN": "江端",
        "KSJ2:segment": "eb02_19258",
        "light_rail": "yes",
        "name": "江端",
        "name:en": "Ebata",
        "name:ja": "江端",
        "name:ko": "에바타",
        "note": "National-Land Numerical Information (Railway) 2007, MLIT Japan",
        "note:ja": "国土数値情報（鉄道データ）平成19年　国土交通省",
        "public_transport": "station",
        "railway": "station",
        "source": "KSJ2",
        "source_ref": "http://nlftp.mlit.go.jp/ksj/jpgis/datalist/KsjTmplt-N02-v1_1.html",
        "station": "light_rail",
        "wikidata": "Q5331504",
        "wikipedia": "ja:江端駅"
      }
    },
    {
      "id": "fukui_station_822977967",
      "osmId": 822977967,
      "osmType": "node",
      "prefectureId": "fukui",
      "type": "station",
      "subtype": "private",
      "name": "ベル前",
      "nameKana": null,
      "nameEn": "Bell-mae",
      "operator": null,
      "network": null,
      "ref": null,
      "latitude": 36.0338314,
      "longitude": 136.2139144,
      "countryCode": "jp",
      "rawTags": {
        "KSJ2:LIN": "福武線",
        "KSJ2:RAS": "eb03_9052",
        "KSJ2:STN": "ベル前",
        "KSJ2:segment": "eb02_19255;eb02_19256",
        "alt_name:ko": "벨마에",
        "light_rail": "yes",
        "name": "ベル前",
        "name:en": "Bell-mae",
        "name:ja": "ベル前",
        "name:ko": "벨앞",
        "note": "National-Land Numerical Information (Railway) 2007, MLIT Japan",
        "note:ja": "国土数値情報（鉄道データ）平成19年　国土交通省",
        "public_transport": "station",
        "railway": "station",
        "source": "KSJ2",
        "source_ref": "http://nlftp.mlit.go.jp/ksj/jpgis/datalist/KsjTmplt-N02-v1_1.html",
        "station": "light_rail",
        "wikidata": "Q4883087",
        "wikipedia": "ja:ベル前駅"
      }
    },
    {
      "id": "fukui_station_822978083",
      "osmId": 822978083,
      "osmType": "node",
      "prefectureId": "fukui",
      "type": "station",
      "subtype": "private",
      "name": "サンドーム西",
      "nameKana": "さんどーむにし",
      "nameEn": "Sundome Nishi",
      "operator": "福井鉄道",
      "network": null,
      "ref": null,
      "latitude": 35.9364062,
      "longitude": 136.1805346,
      "countryCode": "jp",
      "rawTags": {
        "KSJ2:LIN": "福武線",
        "KSJ2:RAS": "eb03_9065",
        "KSJ2:segment": "eb02_19285",
        "light_rail": "yes",
        "name": "サンドーム西",
        "name:en": "Sundome Nishi",
        "name:ja": "サンドーム西",
        "name:ja-Hira": "さんどーむにし",
        "name:ko": "선돔니시",
        "note": "National-Land Numerical Information (Railway) 2007, MLIT Japan",
        "note:ja": "国土数値情報（鉄道データ）平成19年　国土交通省",
        "old_name": "上鯖江",
        "operator": "福井鉄道",
        "public_transport": "station",
        "railway": "station",
        "source": "KSJ2",
        "source_ref": "http://nlftp.mlit.go.jp/ksj/jpgis/datalist/KsjTmplt-N02-v1_1.html",
        "station": "light_rail",
        "wikidata": "Q7639801",
        "wikipedia": "ja:サンドーム西駅"
      }
    },
    {
      "id": "fukui_station_822978245",
      "osmId": 822978245,
      "osmType": "node",
      "prefectureId": "fukui",
      "type": "station",
      "subtype": "private",
      "name": "家久",
      "nameKana": null,
      "nameEn": "Iehisa",
      "operator": null,
      "network": null,
      "ref": null,
      "latitude": 35.9257938,
      "longitude": 136.1703452,
      "countryCode": "jp",
      "rawTags": {
        "KSJ2:LIN": "福武線",
        "KSJ2:RAS": "eb03_9061",
        "KSJ2:segment": "eb02_19280",
        "light_rail": "yes",
        "name": "家久",
        "name:en": "Iehisa",
        "name:ja": "家久",
        "name:ko": "이에히사",
        "note": "National-Land Numerical Information (Railway) 2007, MLIT Japan",
        "note:ja": "国土数値情報（鉄道データ）平成19年　国土交通省",
        "public_transport": "station",
        "railway": "station",
        "source": "KSJ2",
        "source_ref": "http://nlftp.mlit.go.jp/ksj/jpgis/datalist/KsjTmplt-N02-v1_1.html",
        "station": "light_rail",
        "wikidata": "Q11455373",
        "wikipedia": "ja:家久駅"
      }
    },
    {
      "id": "fukui_station_2290387538",
      "osmId": 2290387538,
      "osmType": "node",
      "prefectureId": "fukui",
      "type": "station",
      "subtype": "private",
      "name": "西山公園",
      "nameKana": null,
      "nameEn": "Nishiyama-Kōen",
      "operator": null,
      "network": null,
      "ref": null,
      "latitude": 35.9519313,
      "longitude": 136.1857283,
      "countryCode": "jp",
      "rawTags": {
        "KSJ2:LIN": "福武線",
        "KSJ2:RAS": "eb03_9063",
        "KSJ2:segment": "eb02_19286",
        "alt_name:ko": "니시야마코엔",
        "light_rail": "yes",
        "name": "西山公園",
        "name:en": "Nishiyama-Kōen",
        "name:ja": "西山公園",
        "name:ko": "니시야마공원",
        "note": "National-Land Numerical Information (Railway) 2007, MLIT Japan",
        "note:ja": "国土数値情報（鉄道データ）平成19年　国土交通省",
        "public_transport": "station",
        "railway": "station",
        "source": "KSJ2",
        "source_ref": "http://nlftp.mlit.go.jp/ksj/jpgis/datalist/KsjTmplt-N02-v1_1.html",
        "station": "light_rail",
        "wheelchair": "yes",
        "wikidata": "Q4982279",
        "wikipedia": "ja:西山公園駅"
      }
    },
    {
      "id": "fukui_station_3893067539",
      "osmId": 3893067539,
      "osmType": "node",
      "prefectureId": "fukui",
      "type": "station",
      "subtype": "private",
      "name": "まつもと町屋",
      "nameKana": "まつもとまちや",
      "nameEn": "Matsumoto-Machiya",
      "operator": null,
      "network": null,
      "ref": null,
      "latitude": 36.0769726,
      "longitude": 136.2292889,
      "countryCode": "jp",
      "rawTags": {
        "name": "まつもと町屋",
        "name:en": "Matsumoto-Machiya",
        "name:ja-Hira": "まつもとまちや",
        "public_transport": "station",
        "railway": "station",
        "wikidata": "Q22120396",
        "wikipedia": "ja:まつもと町屋駅"
      }
    },
    {
      "id": "fukui_station_3893073351",
      "osmId": 3893073351,
      "osmType": "node",
      "prefectureId": "fukui",
      "type": "station",
      "subtype": "private",
      "name": "日華化学前",
      "nameKana": "にっかかがくまえ",
      "nameEn": "Nikkakagaku-Mae",
      "operator": "えちぜん鉄道",
      "network": null,
      "ref": "E28",
      "latitude": 36.0806198,
      "longitude": 136.2065864,
      "countryCode": "jp",
      "rawTags": {
        "light_rail": "yes",
        "name": "日華化学前",
        "name:en": "Nikkakagaku-Mae",
        "name:ja-Hira": "にっかかがくまえ",
        "name:ja-Latn": "Nikkakagaku-Mae",
        "operator": "えちぜん鉄道",
        "operator:en": "Echizen Railway",
        "public_transport": "station",
        "railway": "station",
        "ref": "E28",
        "station": "light_rail",
        "wikidata": "Q7035158",
        "wikipedia": "ja:日華化学前駅"
      }
    },
    {
      "id": "fukui_station_4164240966",
      "osmId": 4164240966,
      "osmType": "node",
      "prefectureId": "fukui",
      "type": "station",
      "subtype": "private",
      "name": "泰澄の里",
      "nameKana": null,
      "nameEn": "Taichōnosato",
      "operator": null,
      "network": null,
      "ref": null,
      "latitude": 35.9992437,
      "longitude": 136.1983583,
      "countryCode": "jp",
      "rawTags": {
        "light_rail": "yes",
        "name": "泰澄の里",
        "name:en": "Taichōnosato",
        "public_transport": "station",
        "railway": "station",
        "source": "GSImaps/std",
        "station": "light_rail",
        "wikidata": "Q11555719",
        "wikipedia": "ja:泰澄の里駅"
      }
    },
    {
      "id": "fukui_station_4164240967",
      "osmId": 4164240967,
      "osmType": "node",
      "prefectureId": "fukui",
      "type": "station",
      "subtype": "private",
      "name": "清明",
      "nameKana": null,
      "nameEn": null,
      "operator": null,
      "network": null,
      "ref": null,
      "latitude": 36.0222188,
      "longitude": 136.2095015,
      "countryCode": "jp",
      "rawTags": {
        "light_rail": "yes",
        "name": "清明",
        "public_transport": "station",
        "railway": "station",
        "source": "GSImaps/std",
        "station": "light_rail",
        "wikidata": "Q11560658",
        "wikipedia": "ja:清明駅"
      }
    },
    {
      "id": "fukui_station_4164240968",
      "osmId": 4164240968,
      "osmType": "node",
      "prefectureId": "fukui",
      "type": "station",
      "subtype": "private",
      "name": "福井駅",
      "nameKana": null,
      "nameEn": "Fukui",
      "operator": null,
      "network": null,
      "ref": null,
      "latitude": 36.0621411,
      "longitude": 136.2221908,
      "countryCode": "jp",
      "rawTags": {
        "KSJ2:LIN": "福武線",
        "KSJ2:RAS": "eb03_9050",
        "KSJ2:segment": "eb02_19253",
        "alt_name": "福井駅",
        "alt_name:en": "Fukui-eki",
        "light_rail": "yes",
        "name": "福井駅",
        "name:en": "Fukui",
        "name:ja": "福井駅",
        "note": "福井駅停留所なのでnameに含まれる「駅」は削除しないこと",
        "public_transport": "station",
        "railway": "station",
        "source": "GSImaps/std",
        "station": "light_rail",
        "wikidata": "Q867992",
        "wikipedia": "ja:福井駅 (福井県)"
      }
    },
    {
      "id": "fukui_station_4213475362",
      "osmId": 4213475362,
      "osmType": "node",
      "prefectureId": "fukui",
      "type": "station",
      "subtype": "private",
      "name": "勝山",
      "nameKana": "かつやま",
      "nameEn": "Katsuyama",
      "operator": null,
      "network": null,
      "ref": null,
      "latitude": 36.0561896,
      "longitude": 136.4920532,
      "countryCode": "jp",
      "rawTags": {
        "name": "勝山",
        "name:en": "Katsuyama",
        "name:ja": "勝山",
        "name:ja_kana": "かつやま",
        "name:ja_rm": "Katsuyama",
        "name:ko": "가쓰야마",
        "public_transport": "station",
        "railway": "station",
        "source": "GSImaps/std",
        "wikidata": "Q11400269",
        "wikipedia": "ja:勝山駅"
      }
    },
    {
      "id": "fukui_station_4213475371",
      "osmId": 4213475371,
      "osmType": "node",
      "prefectureId": "fukui",
      "type": "station",
      "subtype": "private",
      "name": "福井口",
      "nameKana": null,
      "nameEn": "Fukuiguchi",
      "operator": null,
      "network": null,
      "ref": null,
      "latitude": 36.0705156,
      "longitude": 136.2330685,
      "countryCode": "jp",
      "rawTags": {
        "name": "福井口",
        "name:en": "Fukuiguchi",
        "name:ja": "福井口",
        "name:ko": "후쿠이구치",
        "public_transport": "station",
        "railway": "station",
        "source": "KSJ2",
        "wikidata": "Q5507660",
        "wikipedia": "ja:福井口駅"
      }
    },
    {
      "id": "fukui_station_4398558721",
      "osmId": 4398558721,
      "osmType": "node",
      "prefectureId": "fukui",
      "type": "station",
      "subtype": "private",
      "name": "福大前西福井",
      "nameKana": null,
      "nameEn": "Fukudaimae-Nishi-Fukui",
      "operator": null,
      "network": null,
      "ref": "E27",
      "latitude": 36.0741897,
      "longitude": 136.2104762,
      "countryCode": "jp",
      "rawTags": {
        "light_rail": "yes",
        "name": "福大前西福井",
        "name:en": "Fukudaimae-Nishi-Fukui",
        "name:ja": "福大前西福井",
        "name:ko": "후쿠다이마에니시후쿠이",
        "public_transport": "station",
        "railway": "station",
        "ref": "E27",
        "source": "KSJ2",
        "station": "light_rail",
        "wikidata": "Q5507621",
        "wikipedia": "ja:福大前西福井駅"
      }
    },
    {
      "id": "fukui_station_4921417492",
      "osmId": 4921417492,
      "osmType": "node",
      "prefectureId": "fukui",
      "type": "station",
      "subtype": "private",
      "name": "芦原温泉",
      "nameKana": "あわらおんせん",
      "nameEn": "Awaraonsen",
      "operator": null,
      "network": null,
      "ref": null,
      "latitude": 36.2146024,
      "longitude": 136.2350566,
      "countryCode": "jp",
      "rawTags": {
        "name": "芦原温泉",
        "name:de": "Awaraonsen",
        "name:en": "Awaraonsen",
        "name:ja": "芦原温泉",
        "name:ja_kana": "あわらおんせん",
        "name:ja_rm": "Awaraonsen",
        "name:ko": "아와라온센",
        "public_transport": "station",
        "railway": "station",
        "wikidata": "Q4829830",
        "wikipedia": "ja:芦原温泉駅"
      }
    },
    {
      "id": "fukui_ferry_terminal_5612669803",
      "osmId": 5612669803,
      "osmType": "node",
      "prefectureId": "fukui",
      "type": "ferry_terminal",
      "subtype": null,
      "name": "東尋坊乗り場",
      "nameKana": null,
      "nameEn": null,
      "operator": "東尋坊観光遊覧船",
      "network": "東尋坊観光遊覧船",
      "ref": null,
      "latitude": 36.2379255,
      "longitude": 136.1258483,
      "countryCode": "jp",
      "rawTags": {
        "amenity": "ferry_terminal",
        "name": "東尋坊乗り場",
        "network": "東尋坊観光遊覧船",
        "operator": "東尋坊観光遊覧船"
      }
    },
    {
      "id": "fukui_station_5834446514",
      "osmId": 5834446514,
      "osmType": "node",
      "prefectureId": "fukui",
      "type": "station",
      "subtype": "private",
      "name": "福井",
      "nameKana": null,
      "nameEn": "Fukui",
      "operator": "えちぜん鉄道",
      "network": null,
      "ref": null,
      "latitude": 36.0621497,
      "longitude": 136.2239821,
      "countryCode": "jp",
      "rawTags": {
        "name": "福井",
        "name:en": "Fukui",
        "name:ja": "福井",
        "name:ko": "후쿠이",
        "operator": "えちぜん鉄道",
        "operator:en": "Echizen Railway",
        "public_transport": "station",
        "railway": "station",
        "source": "KSJ2",
        "wikidata": "Q867992",
        "wikipedia": "ja:福井駅 (福井県)"
      }
    },
    {
      "id": "fukui_station_6051747165",
      "osmId": 6051747165,
      "osmType": "node",
      "prefectureId": "fukui",
      "type": "station",
      "subtype": "private",
      "name": "細呂木",
      "nameKana": null,
      "nameEn": "Hosorogi",
      "operator": null,
      "network": null,
      "ref": null,
      "latitude": 36.2412052,
      "longitude": 136.2571111,
      "countryCode": "jp",
      "rawTags": {
        "name": "細呂木",
        "name:en": "Hosorogi",
        "name:ja": "細呂木",
        "note": "National-Land Numerical Information (Railway) 2007, MLIT Japan",
        "public_transport": "station",
        "railway": "station",
        "wikipedia": "ja:細呂木駅"
      }
    },
    {
      "id": "fukui_station_6641834257",
      "osmId": 6641834257,
      "osmType": "node",
      "prefectureId": "fukui",
      "type": "station",
      "subtype": "private",
      "name": "武生",
      "nameKana": "たけふ",
      "nameEn": "Takefu",
      "operator": null,
      "network": null,
      "ref": null,
      "latitude": 35.9031163,
      "longitude": 136.1710672,
      "countryCode": "jp",
      "rawTags": {
        "name": "武生",
        "name:de": "Takefu",
        "name:en": "Takefu",
        "name:ja": "武生",
        "name:ja_kana": "たけふ",
        "name:ja_rm": "Takefu",
        "name:ko": "다케후",
        "note": "National-Land Numerical Information (Railway) 2007, MLIT Japan",
        "railway": "station",
        "source": "KSJ2",
        "wikidata": "Q2815926",
        "wikipedia": "ja:武生駅"
      }
    },
    {
      "id": "fukui_station_6641834270",
      "osmId": 6641834270,
      "osmType": "node",
      "prefectureId": "fukui",
      "type": "station",
      "subtype": "private",
      "name": "鯖江",
      "nameKana": "さばえ",
      "nameEn": "Sabae",
      "operator": null,
      "network": null,
      "ref": null,
      "latitude": 35.9435986,
      "longitude": 136.1889388,
      "countryCode": "jp",
      "rawTags": {
        "name": "鯖江",
        "name:de": "Sabae",
        "name:en": "Sabae",
        "name:ja": "鯖江",
        "name:ja_kana": "さばえ",
        "name:ja_rm": "Sabae",
        "name:ko": "사바에",
        "note": "National-Land Numerical Information (Railway) 2007, MLIT Japan",
        "phone": "0778-51-0102",
        "public_transport": "station",
        "railway": "station",
        "source": "KSJ2",
        "wheelchair": "yes",
        "wikidata": "Q5359863",
        "wikipedia": "ja:鯖江駅"
      }
    },
    {
      "id": "fukui_station_6641842107",
      "osmId": 6641842107,
      "osmType": "node",
      "prefectureId": "fukui",
      "type": "station",
      "subtype": "private",
      "name": "丸岡",
      "nameKana": "まるおか",
      "nameEn": "Maruoka",
      "operator": null,
      "network": null,
      "ref": null,
      "latitude": 36.1627729,
      "longitude": 136.2335466,
      "countryCode": "jp",
      "rawTags": {
        "name": "丸岡",
        "name:en": "Maruoka",
        "name:ja": "丸岡",
        "name:ja_kana": "まるおか",
        "name:ja_rm": "Maruoka",
        "name:ko": "마루오카",
        "note": "National-Land Numerical Information (Railway) 2007, MLIT Japan",
        "railway": "station",
        "source": "KSJ2",
        "wikidata": "Q5359723",
        "wikipedia": "ja:丸岡駅"
      }
    },
    {
      "id": "fukui_station_6641842113",
      "osmId": 6641842113,
      "osmType": "node",
      "prefectureId": "fukui",
      "type": "station",
      "subtype": "private",
      "name": "春江",
      "nameKana": "はるえ",
      "nameEn": "Harue",
      "operator": null,
      "network": null,
      "ref": null,
      "latitude": 36.1294122,
      "longitude": 136.2287293,
      "countryCode": "jp",
      "rawTags": {
        "name": "春江",
        "name:en": "Harue",
        "name:ja": "春江",
        "name:ja_kana": "はるえ",
        "name:ja_rm": "Harue",
        "name:ko": "하루에",
        "note": "National-Land Numerical Information (Railway) 2007, MLIT Japan",
        "railway": "station",
        "source": "KSJ2",
        "wikidata": "Q5359897",
        "wikipedia": "ja:春江駅"
      }
    },
    {
      "id": "fukui_station_6966993327",
      "osmId": 6966993327,
      "osmType": "node",
      "prefectureId": "fukui",
      "type": "station",
      "subtype": "private",
      "name": "仁愛女子高校",
      "nameKana": null,
      "nameEn": "Jin'ai Joshikōkō",
      "operator": null,
      "network": null,
      "ref": null,
      "latitude": 36.0695513,
      "longitude": 136.2180585,
      "countryCode": "jp",
      "rawTags": {
        "KSJ2:LIN": "福武線",
        "KSJ2:RAS": "eb03_9064",
        "KSJ2:segment": "eb02_19274",
        "light_rail": "yes",
        "name": "仁愛女子高校",
        "name:en": "Jin'ai Joshikōkō",
        "name:ja": "仁愛女子高校",
        "note": "National-Land Numerical Information (Railway) 2007, MLIT Japan",
        "note:ja": "国土数値情報（鉄道データ）平成19年　国土交通省",
        "public_transport": "station",
        "railway": "station",
        "source": "KSJ2",
        "source_ref": "http://nlftp.mlit.go.jp/ksj/jpgis/datalist/KsjTmplt-N02-v1_1.html",
        "station": "light_rail",
        "tram": "yes",
        "wikidata": "Q6201756",
        "wikipedia": "ja:仁愛女子高校駅"
      }
    },
    {
      "id": "fukui_station_6966993337",
      "osmId": 6966993337,
      "osmType": "node",
      "prefectureId": "fukui",
      "type": "station",
      "subtype": "private",
      "name": "田原町",
      "nameKana": null,
      "nameEn": "Tawaramachi",
      "operator": null,
      "network": null,
      "ref": null,
      "latitude": 36.0748461,
      "longitude": 136.2173409,
      "countryCode": "jp",
      "rawTags": {
        "KSJ2:LIN": "福武線",
        "KSJ2:RAS": "eb03_9046",
        "KSJ2:segment": "eb02_19246",
        "light_rail": "yes",
        "name": "田原町",
        "name:en": "Tawaramachi",
        "name:ja": "田原町",
        "note": "National-Land Numerical Information (Railway) 2007, MLIT Japan",
        "note:ja": "国土数値情報（鉄道データ）平成19年　国土交通省",
        "public_transport": "station",
        "railway": "station",
        "source": "KSJ2",
        "source_ref": "http://nlftp.mlit.go.jp/ksj/jpgis/datalist/KsjTmplt-N02-v1_1.html",
        "station": "light_rail",
        "train": "yes",
        "tram": "yes",
        "wheelchair": "yes"
      }
    },
    {
      "id": "fukui_station_6967028749",
      "osmId": 6967028749,
      "osmType": "node",
      "prefectureId": "fukui",
      "type": "station",
      "subtype": "private",
      "name": "福井城址大名町",
      "nameKana": "ふくいじょうしだいみょうまち",
      "nameEn": "Fukuijousidaimyoumachi",
      "operator": null,
      "network": null,
      "ref": null,
      "latitude": 36.0638701,
      "longitude": 136.2176007,
      "countryCode": "jp",
      "rawTags": {
        "KSJ2:LIN": "福武線",
        "KSJ2:RAS": "eb03_9048",
        "KSJ2:segment": "eb02_19273",
        "description": "旧 市役所前",
        "light_rail": "yes",
        "name": "福井城址大名町",
        "name:en": "Fukuijousidaimyoumachi",
        "name:ja": "福井城址大名町",
        "name:ja-Hira": "ふくいじょうしだいみょうまち",
        "note": "National-Land Numerical Information (Railway) 2007, MLIT Japan",
        "note:ja": "国土数値情報（鉄道データ）平成19年　国土交通省",
        "public_transport": "station",
        "railway": "station",
        "source": "KSJ2",
        "source_ref": "http://nlftp.mlit.go.jp/ksj/jpgis/datalist/KsjTmplt-N02-v1_1.html",
        "station": "light_rail",
        "tram": "yes",
        "wikidata": "Q7499456",
        "wikipedia": "ja:福井城址大名町駅"
      }
    },
    {
      "id": "fukui_station_6967046718",
      "osmId": 6967046718,
      "osmType": "node",
      "prefectureId": "fukui",
      "type": "station",
      "subtype": "private",
      "name": "足羽山公園口",
      "nameKana": null,
      "nameEn": "Asuwayama-Kōenguchi",
      "operator": null,
      "network": null,
      "ref": null,
      "latitude": 36.057999,
      "longitude": 136.2151405,
      "countryCode": "jp",
      "rawTags": {
        "KSJ2:LIN": "福武線",
        "KSJ2:RAS": "eb03_9058",
        "KSJ2:segment": "eb02_19268",
        "light_rail": "yes",
        "name": "足羽山公園口",
        "name:en": "Asuwayama-Kōenguchi",
        "name:ja": "足羽山公園口",
        "note": "National-Land Numerical Information (Railway) 2007, MLIT Japan",
        "note:ja": "国土数値情報（鉄道データ）平成19年　国土交通省",
        "public_transport": "station",
        "railway": "station",
        "source": "KSJ2",
        "source_ref": "http://nlftp.mlit.go.jp/ksj/jpgis/datalist/KsjTmplt-N02-v1_1.html",
        "station": "light_rail",
        "tram": "yes",
        "wikidata": "Q6455102",
        "wikipedia": "ja:足羽山公園口駅"
      }
    },
    {
      "id": "fukui_station_6967046720",
      "osmId": 6967046720,
      "osmType": "node",
      "prefectureId": "fukui",
      "type": "station",
      "subtype": "private",
      "name": "商工会議所前",
      "nameKana": null,
      "nameEn": "Shokokaigisho-mae",
      "operator": null,
      "network": null,
      "ref": null,
      "latitude": 36.0539603,
      "longitude": 136.2149335,
      "countryCode": "jp",
      "rawTags": {
        "KSJ2:LIN": "福武線",
        "light_rail": "yes",
        "name": "商工会議所前",
        "name:en": "Shokokaigisho-mae",
        "name:ja": "商工会議所前",
        "note": "National-Land Numerical Information (Railway) 2007, MLIT Japan",
        "note:ja": "国土数値情報（鉄道データ）平成19年　国土交通省",
        "public_transport": "station",
        "railway": "station",
        "source": "KSJ2",
        "source_ref": "http://nlftp.mlit.go.jp/ksj/jpgis/datalist/KsjTmplt-N02-v1_1.html",
        "station": "light_rail",
        "tram": "yes",
        "wikidata": "Q11519292"
      }
    },
    {
      "id": "fukui_station_6967046729",
      "osmId": 6967046729,
      "osmType": "node",
      "prefectureId": "fukui",
      "type": "station",
      "subtype": "private",
      "name": "赤十字前",
      "nameKana": "せきじゅうじまえ",
      "nameEn": "Sekijūjimae",
      "operator": null,
      "network": null,
      "ref": null,
      "latitude": 36.0486073,
      "longitude": 136.2166649,
      "countryCode": "jp",
      "rawTags": {
        "KSJ2:LIN": "福武線",
        "KSJ2:RAS": "eb03_9053",
        "KSJ2:segment": "eb02_19261",
        "alt_name:ko": "세키주지마에",
        "light_rail": "yes",
        "name": "赤十字前",
        "name:en": "Sekijūjimae",
        "name:ja": "赤十字前",
        "name:ja-Hira": "せきじゅうじまえ",
        "name:ko": "세키주지앞",
        "note": "National-Land Numerical Information (Railway) 2007, MLIT Japan",
        "note:ja": "国土数値情報（鉄道データ）平成19年　国土交通省",
        "old_name": "福井新",
        "public_transport": "station",
        "railway": "station",
        "source": "KSJ2",
        "source_ref": "http://nlftp.mlit.go.jp/ksj/jpgis/datalist/KsjTmplt-N02-v1_1.html",
        "station": "light_rail",
        "wikidata": "Q7447201",
        "wikipedia": "ja:赤十字前駅"
      }
    },
    {
      "id": "fukui_station_6967062511",
      "osmId": 6967062511,
      "osmType": "node",
      "prefectureId": "fukui",
      "type": "station",
      "subtype": "private",
      "name": "花堂",
      "nameKana": null,
      "nameEn": "Hanandō",
      "operator": null,
      "network": null,
      "ref": null,
      "latitude": 36.0408812,
      "longitude": 136.2152198,
      "countryCode": "jp",
      "rawTags": {
        "KSJ2:LIN": "福武線",
        "KSJ2:RAS": "eb03_9044",
        "KSJ2:segment": "eb02_19245",
        "light_rail": "yes",
        "name": "花堂",
        "name:en": "Hanandō",
        "name:ja": "花堂",
        "name:ko": "하난도",
        "note": "National-Land Numerical Information (Railway) 2007, MLIT Japan",
        "note:ja": "国土数値情報（鉄道データ）平成19年　国土交通省",
        "public_transport": "station",
        "railway": "station",
        "source": "KSJ2",
        "source_ref": "http://nlftp.mlit.go.jp/ksj/jpgis/datalist/KsjTmplt-N02-v1_1.html",
        "station": "light_rail",
        "wikidata": "Q3701536",
        "wikipedia": "ja:花堂駅"
      }
    },
    {
      "id": "fukui_station_6967067865",
      "osmId": 6967067865,
      "osmType": "node",
      "prefectureId": "fukui",
      "type": "station",
      "subtype": "private",
      "name": "神明",
      "nameKana": null,
      "nameEn": "Shinmei",
      "operator": null,
      "network": null,
      "ref": null,
      "latitude": 35.9730558,
      "longitude": 136.1818674,
      "countryCode": "jp",
      "rawTags": {
        "KSJ2:LIN": "福武線",
        "KSJ2:RAS": "eb03_9059",
        "KSJ2:segment": "eb02_19269",
        "light_rail": "yes",
        "name": "神明",
        "name:en": "Shinmei",
        "name:ja": "神明",
        "name:ko": "신메이",
        "note": "National-Land Numerical Information (Railway) 2007, MLIT Japan",
        "note:ja": "国土数値情報（鉄道データ）平成19年　国土交通省",
        "public_transport": "station",
        "railway": "station",
        "source": "KSJ2",
        "source_ref": "http://nlftp.mlit.go.jp/ksj/jpgis/datalist/KsjTmplt-N02-v1_1.html",
        "station": "light_rail",
        "wikidata": "Q11590326",
        "wikipedia": "ja:神明駅 (福井県)"
      }
    },
    {
      "id": "fukui_station_6967067867",
      "osmId": 6967067867,
      "osmType": "node",
      "prefectureId": "fukui",
      "type": "station",
      "subtype": "private",
      "name": "水落",
      "nameKana": "みずおち",
      "nameEn": "Mizuochi",
      "operator": null,
      "network": null,
      "ref": null,
      "latitude": 35.9624547,
      "longitude": 136.1831422,
      "countryCode": "jp",
      "rawTags": {
        "KSJ2:LIN": "福武線",
        "KSJ2:RAS": "eb03_9051",
        "KSJ2:segment": "eb02_19279",
        "light_rail": "yes",
        "name": "水落",
        "name:en": "Mizuochi",
        "name:ja": "水落",
        "name:ja-Hira": "みずおち",
        "name:ko": "미즈오치",
        "note": "National-Land Numerical Information (Railway) 2007, MLIT Japan",
        "note:ja": "国土数値情報（鉄道データ）平成19年　国土交通省",
        "public_transport": "station",
        "railway": "station",
        "source": "KSJ2",
        "source_ref": "http://nlftp.mlit.go.jp/ksj/jpgis/datalist/KsjTmplt-N02-v1_1.html",
        "station": "light_rail",
        "wikidata": "Q6884897",
        "wikipedia": "ja:水落駅"
      }
    },
    {
      "id": "fukui_station_7097070689",
      "osmId": 7097070689,
      "osmType": "node",
      "prefectureId": "fukui",
      "type": "station",
      "subtype": "jr",
      "name": "美山",
      "nameKana": null,
      "nameEn": "Miyama",
      "operator": "西日本旅客鉄道",
      "network": null,
      "ref": null,
      "latitude": 35.9986162,
      "longitude": 136.3648246,
      "countryCode": "jp",
      "rawTags": {
        "KSJ2:LIN": "越美北線",
        "KSJ2:STN": "美山",
        "name": "美山",
        "name:en": "Miyama",
        "name:ja": "美山",
        "name:ko": "미야마",
        "operator": "西日本旅客鉄道",
        "public_transport": "station",
        "railway": "station",
        "wikidata": "Q6884307",
        "wikipedia": "ja:美山駅"
      }
    },
    {
      "id": "fukui_station_7802402435",
      "osmId": 7802402435,
      "osmType": "node",
      "prefectureId": "fukui",
      "type": "station",
      "subtype": "jr",
      "name": "九頭竜湖",
      "nameKana": "くずりゅうこ",
      "nameEn": "Kuzuryuko",
      "operator": "西日本旅客鉄道",
      "network": null,
      "ref": null,
      "latitude": 35.9044816,
      "longitude": 136.6615446,
      "countryCode": "jp",
      "rawTags": {
        "KSJ2:LIN": "越美北線",
        "KSJ2:STN": "九頭竜湖",
        "name": "九頭竜湖",
        "name:en": "Kuzuryuko",
        "name:ja": "九頭竜湖",
        "name:ja_kana": "くずりゅうこ",
        "name:ja_rm": "Kuzuryūko",
        "name:ko": "구즈류코",
        "note": "National-Land Numerical Information (Railway) 2007, MLIT Japan",
        "note:ja": "国土数値情報（鉄道データ）平成19年　国土交通省",
        "operator": "西日本旅客鉄道",
        "public_transport": "station",
        "railway": "station",
        "source": "KSJ2",
        "source_ref": "http://nlftp.mlit.go.jp/ksj/jpgis/datalist/KsjTmplt-N02-v1_1.html",
        "wikidata": "Q3611337",
        "wikipedia": "ja:九頭竜湖駅"
      }
    },
    {
      "id": "fukui_station_9393411139",
      "osmId": 9393411139,
      "osmType": "node",
      "prefectureId": "fukui",
      "type": "station",
      "subtype": "private",
      "name": "西春江ハートピア",
      "nameKana": "にしはるえはーとぴあ",
      "nameEn": "Nishiharue Heartpia",
      "operator": null,
      "network": null,
      "ref": "E34",
      "latitude": 36.1391847,
      "longitude": 136.2062859,
      "countryCode": "jp",
      "rawTags": {
        "light_rail": "yes",
        "name": "西春江ハートピア",
        "name:en": "Nishiharue Heartpia",
        "name:ja": "西春江ハートピア",
        "name:ja-Hira": "にしはるえはーとぴあ",
        "name:ko": "니시하루에",
        "public_transport": "station",
        "railway": "station",
        "ref": "E34",
        "station": "light_rail",
        "wikidata": "Q7040344",
        "wikipedia": "ja:西春江ハートピア駅"
      }
    },
    {
      "id": "fukui_station_9440614433",
      "osmId": 9440614433,
      "osmType": "node",
      "prefectureId": "fukui",
      "type": "station",
      "subtype": "private",
      "name": "三国港",
      "nameKana": null,
      "nameEn": "Mikuni-Minato",
      "operator": null,
      "network": null,
      "ref": "E44",
      "latitude": 36.2201961,
      "longitude": 136.140066,
      "countryCode": "jp",
      "rawTags": {
        "name": "三国港",
        "name:en": "Mikuni-Minato",
        "name:ja": "三国港",
        "name:ko": "미쿠니미나토",
        "public_transport": "station",
        "railway": "station",
        "ref": "E44",
        "source": "KSJ2",
        "train": "yes",
        "wikidata": "Q6850275",
        "wikipedia": "ja:三国港駅"
      }
    },
    {
      "id": "fukui_station_11652998666",
      "osmId": 11652998666,
      "osmType": "node",
      "prefectureId": "fukui",
      "type": "station",
      "subtype": "private",
      "name": "越前たけふ",
      "nameKana": null,
      "nameEn": "Echizen-Takefu",
      "operator": null,
      "network": null,
      "ref": null,
      "latitude": 35.8955139,
      "longitude": 136.1989052,
      "countryCode": "jp",
      "rawTags": {
        "name": "越前たけふ",
        "name:de": "Echizen-Takefu",
        "name:en": "Echizen-Takefu",
        "name:ja": "越前たけふ",
        "name:zh-Hant": "越前武生",
        "public_transport": "station",
        "railway": "station",
        "wikidata": "Q6962163",
        "wikipedia": "ja:越前たけふ駅"
      }
    },
    {
      "id": "fukui_station_11737552735",
      "osmId": 11737552735,
      "osmType": "node",
      "prefectureId": "fukui",
      "type": "station",
      "subtype": "private",
      "name": "新疋田",
      "nameKana": null,
      "nameEn": "Shin-Hikida",
      "operator": null,
      "network": null,
      "ref": "JR-A02;JR-B09",
      "latitude": 35.594533,
      "longitude": 136.1004752,
      "countryCode": "jp",
      "rawTags": {
        "contact:website": "https://www.jr-odekake.net/eki/top?id=0541411",
        "name": "新疋田",
        "name:en": "Shin-Hikida",
        "name:ja": "新疋田",
        "name:ko": "신히키다",
        "note": "National-Land Numerical Information (Railway) 2007, MLIT Japan",
        "public_transport": "station",
        "railway": "station",
        "ref": "JR-A02;JR-B09",
        "source": "KSJ2",
        "wikidata": "Q5364073",
        "wikipedia": "ja:新疋田駅"
      }
    },
    {
      "id": "fukui_station_12630331004",
      "osmId": 12630331004,
      "osmType": "node",
      "prefectureId": "fukui",
      "type": "station",
      "subtype": "private",
      "name": "比島",
      "nameKana": null,
      "nameEn": "Hishima",
      "operator": null,
      "network": null,
      "ref": null,
      "latitude": 36.0659942,
      "longitude": 136.4835694,
      "countryCode": "jp",
      "rawTags": {
        "name": "比島",
        "name:en": "Hishima",
        "name:ja": "比島",
        "name:ko": "히시마",
        "public_transport": "station",
        "railway": "station",
        "wikidata": "Q8190738",
        "wikipedia": "ja:比島駅"
      }
    },
    {
      "id": "fukui_station_12821280111",
      "osmId": 12821280111,
      "osmType": "node",
      "prefectureId": "fukui",
      "type": "station",
      "subtype": "private",
      "name": "西敦賀",
      "nameKana": null,
      "nameEn": "Nishi-Tsuruga",
      "operator": null,
      "network": null,
      "ref": null,
      "latitude": 35.618117,
      "longitude": 136.0676624,
      "countryCode": "jp",
      "rawTags": {
        "KSJ2:LIN": "小浜線",
        "KSJ2:STN": "西敦賀",
        "name": "西敦賀",
        "name:en": "Nishi-Tsuruga",
        "name:ja": "西敦賀",
        "name:ko": "니시쓰루가",
        "note": "National-Land Numerical Information (Railway) 2007, MLIT Japan",
        "note:ja": "国土数値情報（鉄道データ）平成19年　国土交通省",
        "public_transport": "station",
        "railway": "station",
        "source": "KSJ2",
        "source_ref": "http://nlftp.mlit.go.jp/ksj/jpgis/datalist/KsjTmplt-N02-v1_1.html",
        "wikidata": "Q7040437",
        "wikipedia": "ja:西敦賀駅"
      }
    },
    {
      "id": "fukui_station_12821280132",
      "osmId": 12821280132,
      "osmType": "node",
      "prefectureId": "fukui",
      "type": "station",
      "subtype": "private",
      "name": "粟野",
      "nameKana": null,
      "nameEn": "Awano",
      "operator": null,
      "network": null,
      "ref": null,
      "latitude": 35.61731,
      "longitude": 136.0271426,
      "countryCode": "jp",
      "rawTags": {
        "KSJ2:LIN": "小浜線",
        "KSJ2:STN": "粟野",
        "name": "粟野",
        "name:en": "Awano",
        "name:ja": "粟野",
        "name:ko": "아와노",
        "note": "National-Land Numerical Information (Railway) 2007, MLIT Japan",
        "note:ja": "国土数値情報（鉄道データ）平成19年　国土交通省",
        "public_transport": "station",
        "railway": "station",
        "source": "KSJ2",
        "source_ref": "http://nlftp.mlit.go.jp/ksj/jpgis/datalist/KsjTmplt-N02-v1_1.html",
        "wikidata": "Q4829804",
        "wikipedia": "ja:粟野駅"
      }
    },
    {
      "id": "fukui_station_12821280169",
      "osmId": 12821280169,
      "osmType": "node",
      "prefectureId": "fukui",
      "type": "station",
      "subtype": "private",
      "name": "東美浜",
      "nameKana": null,
      "nameEn": "Higashi-Mihama",
      "operator": null,
      "network": null,
      "ref": null,
      "latitude": 35.6141142,
      "longitude": 135.9859207,
      "countryCode": "jp",
      "rawTags": {
        "KSJ2:LIN": "小浜線",
        "KSJ2:STN": "東美浜",
        "name": "東美浜",
        "name:en": "Higashi-Mihama",
        "name:ja": "東美浜",
        "name:ko": "히가시미하마",
        "note": "National-Land Numerical Information (Railway) 2007, MLIT Japan",
        "note:ja": "国土数値情報（鉄道データ）平成19年　国土交通省",
        "public_transport": "station",
        "railway": "station",
        "source": "KSJ2",
        "source_ref": "http://nlftp.mlit.go.jp/ksj/jpgis/datalist/KsjTmplt-N02-v1_1.html",
        "wheelchair": "yes",
        "wikidata": "Q5753699",
        "wikipedia": "ja:東美浜駅"
      }
    },
    {
      "id": "fukui_station_12821280179",
      "osmId": 12821280179,
      "osmType": "node",
      "prefectureId": "fukui",
      "type": "station",
      "subtype": "private",
      "name": "美浜",
      "nameKana": "みはま",
      "nameEn": "Mihama",
      "operator": null,
      "network": null,
      "ref": null,
      "latitude": 35.605297,
      "longitude": 135.936825,
      "countryCode": "jp",
      "rawTags": {
        "KSJ2:LIN": "小浜線",
        "KSJ2:STN": "美浜",
        "name": "美浜",
        "name:en": "Mihama",
        "name:ja": "美浜",
        "name:ja-Hira": "みはま",
        "name:ja-Latn": "Mihama",
        "name:ko": "미하마",
        "note": "National-Land Numerical Information (Railway) 2007, MLIT Japan",
        "note:ja": "国土数値情報（鉄道データ）平成19年 国土交通省",
        "public_transport": "station",
        "railway": "station",
        "source": "KSJ2",
        "source_ref": "http://nlftp.mlit.go.jp/ksj/jpgis/datalist/KsjTmplt-N02-v1_1.html",
        "wikidata": "Q6845246",
        "wikipedia": "ja:美浜駅"
      }
    },
    {
      "id": "fukui_station_12821280199",
      "osmId": 12821280199,
      "osmType": "node",
      "prefectureId": "fukui",
      "type": "station",
      "subtype": "private",
      "name": "気山",
      "nameKana": null,
      "nameEn": "Kiyama",
      "operator": null,
      "network": null,
      "ref": null,
      "latitude": 35.5845052,
      "longitude": 135.9095398,
      "countryCode": "jp",
      "rawTags": {
        "KSJ2:LIN": "小浜線",
        "KSJ2:STN": "気山",
        "name": "気山",
        "name:en": "Kiyama",
        "name:ja": "気山",
        "name:ja-Kana": "きやま",
        "name:ko": "기야마",
        "note": "National-Land Numerical Information (Railway) 2007, MLIT Japan",
        "note:ja": "国土数値情報（鉄道データ）平成19年　国土交通省",
        "public_transport": "station",
        "railway": "station",
        "source": "KSJ2",
        "source_ref": "http://nlftp.mlit.go.jp/ksj/jpgis/datalist/KsjTmplt-N02-v1_1.html",
        "wikidata": "Q6418955",
        "wikipedia": "ja:気山駅"
      }
    },
    {
      "id": "fukui_station_12821280200",
      "osmId": 12821280200,
      "osmType": "node",
      "prefectureId": "fukui",
      "type": "station",
      "subtype": "private",
      "name": "三方",
      "nameKana": null,
      "nameEn": "Mikata",
      "operator": null,
      "network": null,
      "ref": null,
      "latitude": 35.5557425,
      "longitude": 135.9094244,
      "countryCode": "jp",
      "rawTags": {
        "KSJ2:LIN": "小浜線",
        "KSJ2:STN": "三方",
        "name": "三方",
        "name:en": "Mikata",
        "name:ja": "三方",
        "name:ja-Kana": "みかた",
        "name:ja-Latn": "Mikata",
        "name:ko": "미카타",
        "note": "National-Land Numerical Information (Railway) 2007, MLIT Japan",
        "note:ja": "国土数値情報（鉄道データ）平成19年　国土交通省",
        "public_transport": "station",
        "railway": "station",
        "source": "KSJ2",
        "source_ref": "http://nlftp.mlit.go.jp/ksj/jpgis/datalist/KsjTmplt-N02-v1_1.html",
        "train": "yes",
        "wikidata": "Q6845725",
        "wikipedia": "ja:三方駅"
      }
    },
    {
      "id": "fukui_station_12821280601",
      "osmId": 12821280601,
      "osmType": "node",
      "prefectureId": "fukui",
      "type": "station",
      "subtype": "private",
      "name": "藤井",
      "nameKana": null,
      "nameEn": "Fujii",
      "operator": null,
      "network": null,
      "ref": null,
      "latitude": 35.5321995,
      "longitude": 135.9064022,
      "countryCode": "jp",
      "rawTags": {
        "KSJ2:LIN": "小浜線",
        "KSJ2:STN": "藤井",
        "name": "藤井",
        "name:en": "Fujii",
        "name:ja": "藤井",
        "name:ja-Kana": "ふじい",
        "name:ja-Latn": "Fujii",
        "name:ko": "후지이",
        "note": "National-Land Numerical Information (Railway) 2007, MLIT Japan",
        "note:ja": "国土数値情報（鉄道データ）平成19年　国土交通省",
        "public_transport": "station",
        "railway": "station",
        "source": "KSJ2",
        "source_ref": "http://nlftp.mlit.go.jp/ksj/jpgis/datalist/KsjTmplt-N02-v1_1.html",
        "wheelchair": "yes",
        "wikidata": "Q5507417",
        "wikipedia": "ja:藤井駅"
      }
    },
    {
      "id": "fukui_station_12821280603",
      "osmId": 12821280603,
      "osmType": "node",
      "prefectureId": "fukui",
      "type": "station",
      "subtype": "private",
      "name": "十村",
      "nameKana": null,
      "nameEn": "Tomura",
      "operator": null,
      "network": null,
      "ref": null,
      "latitude": 35.5162926,
      "longitude": 135.8969858,
      "countryCode": "jp",
      "rawTags": {
        "KSJ2:LIN": "小浜線",
        "KSJ2:STN": "十村",
        "contact:website": "https://www.jr-odekake.net/eki/top?id=0541306",
        "name": "十村",
        "name:en": "Tomura",
        "name:ja": "十村",
        "name:ja-Kana": "とむら",
        "name:ja-Latn": "Tomura",
        "name:ko": "도무라",
        "note": "National-Land Numerical Information (Railway) 2007, MLIT Japan",
        "note:ja": "国土数値情報（鉄道データ）平成19年　国土交通省",
        "public_transport": "station",
        "railway": "station",
        "source": "KSJ2",
        "source_ref": "http://nlftp.mlit.go.jp/ksj/jpgis/datalist/KsjTmplt-N02-v1_1.html",
        "wheelchair": "yes",
        "wikidata": "Q7820418",
        "wikipedia": "ja:十村駅"
      }
    },
    {
      "id": "fukui_station_12821280604",
      "osmId": 12821280604,
      "osmType": "node",
      "prefectureId": "fukui",
      "type": "station",
      "subtype": "private",
      "name": "大鳥羽",
      "nameKana": null,
      "nameEn": "Otaba",
      "operator": null,
      "network": null,
      "ref": null,
      "latitude": 35.5047153,
      "longitude": 135.867015,
      "countryCode": "jp",
      "rawTags": {
        "KSJ2:LIN": "小浜線",
        "KSJ2:STN": "大鳥羽",
        "name": "大鳥羽",
        "name:en": "Otaba",
        "name:ja": "大鳥羽",
        "name:ja-Kana": "おおとば",
        "name:ja-Latn": "Ōtoba",
        "name:ko": "오토바",
        "note": "National-Land Numerical Information (Railway) 2007, MLIT Japan",
        "note:ja": "国土数値情報（鉄道データ）平成19年　国土交通省",
        "public_transport": "station",
        "railway": "station",
        "source": "KSJ2",
        "source_ref": "http://nlftp.mlit.go.jp/ksj/jpgis/datalist/KsjTmplt-N02-v1_1.html",
        "wikidata": "Q8081764",
        "wikipedia": "ja:大鳥羽駅"
      }
    },
    {
      "id": "fukui_station_12821280613",
      "osmId": 12821280613,
      "osmType": "node",
      "prefectureId": "fukui",
      "type": "station",
      "subtype": "private",
      "name": "若狭有田",
      "nameKana": null,
      "nameEn": "Wakasa-Arita",
      "operator": null,
      "network": null,
      "ref": null,
      "latitude": 35.4856631,
      "longitude": 135.8683839,
      "countryCode": "jp",
      "rawTags": {
        "KSJ2:LIN": "小浜線",
        "KSJ2:STN": "若狭有田",
        "name": "若狭有田",
        "name:en": "Wakasa-Arita",
        "name:ja": "若狭有田",
        "name:ja-Kana": "わかさありた",
        "name:ja-Latn": "Wakasa-Arita",
        "name:ko": "와카사아리타",
        "note": "National-Land Numerical Information (Railway) 2007, MLIT Japan",
        "note:ja": "国土数値情報（鉄道データ）平成19年　国土交通省",
        "public_transport": "station",
        "railway": "station",
        "source": "KSJ2",
        "source_ref": "http://nlftp.mlit.go.jp/ksj/jpgis/datalist/KsjTmplt-N02-v1_1.html",
        "wikidata": "Q4982270",
        "wikipedia": "ja:若狭有田駅"
      }
    },
    {
      "id": "fukui_station_12821280626",
      "osmId": 12821280626,
      "osmType": "node",
      "prefectureId": "fukui",
      "type": "station",
      "subtype": "private",
      "name": "上中",
      "nameKana": null,
      "nameEn": "Kaminaka",
      "operator": null,
      "network": null,
      "ref": null,
      "latitude": 35.4637667,
      "longitude": 135.8554778,
      "countryCode": "jp",
      "rawTags": {
        "KSJ2:LIN": "小浜線",
        "KSJ2:STN": "上中",
        "contact:website": "https://www.jr-odekake.net/eki/top?id=0541307",
        "name": "上中",
        "name:en": "Kaminaka",
        "name:ja": "上中",
        "name:ja-Kana": "かみなか",
        "name:ja-Latn": "Kaminaka",
        "name:ko": "가미나카",
        "note": "National-Land Numerical Information (Railway) 2007, MLIT Japan",
        "note:ja": "国土数値情報（鉄道データ）平成19年　国土交通省",
        "public_transport": "station",
        "railway": "station",
        "source": "KSJ2",
        "source_ref": "http://nlftp.mlit.go.jp/ksj/jpgis/datalist/KsjTmplt-N02-v1_1.html",
        "wikidata": "Q11358411",
        "wikipedia": "ja:上中駅"
      }
    },
    {
      "id": "fukui_station_12821280645",
      "osmId": 12821280645,
      "osmType": "node",
      "prefectureId": "fukui",
      "type": "station",
      "subtype": "private",
      "name": "新平野",
      "nameKana": null,
      "nameEn": "Shin-Hirano",
      "operator": null,
      "network": null,
      "ref": null,
      "latitude": 35.4731117,
      "longitude": 135.8075531,
      "countryCode": "jp",
      "rawTags": {
        "KSJ2:LIN": "小浜線",
        "KSJ2:STN": "新平野",
        "name": "新平野",
        "name:en": "Shin-Hirano",
        "name:ja": "新平野",
        "name:ko": "신히라노",
        "note": "National-Land Numerical Information (Railway) 2007, MLIT Japan",
        "note:ja": "国土数値情報（鉄道データ）平成19年　国土交通省",
        "public_transport": "station",
        "railway": "station",
        "source": "KSJ2",
        "source_ref": "http://nlftp.mlit.go.jp/ksj/jpgis/datalist/KsjTmplt-N02-v1_1.html",
        "wikidata": "Q7497091",
        "wikipedia": "ja:新平野駅"
      }
    },
    {
      "id": "fukui_station_12821280646",
      "osmId": 12821280646,
      "osmType": "node",
      "prefectureId": "fukui",
      "type": "station",
      "subtype": "private",
      "name": "東小浜",
      "nameKana": null,
      "nameEn": "Higashi-Obama",
      "operator": null,
      "network": null,
      "ref": null,
      "latitude": 35.4852107,
      "longitude": 135.7812128,
      "countryCode": "jp",
      "rawTags": {
        "KSJ2:LIN": "小浜線",
        "KSJ2:STN": "東小浜",
        "name": "東小浜",
        "name:en": "Higashi-Obama",
        "name:ja": "東小浜",
        "name:ko": "히가시오바마",
        "note": "National-Land Numerical Information (Railway) 2007, MLIT Japan",
        "note:ja": "国土数値情報（鉄道データ）平成19年　国土交通省",
        "public_transport": "station",
        "railway": "station",
        "source": "KSJ2",
        "source_ref": "http://nlftp.mlit.go.jp/ksj/jpgis/datalist/KsjTmplt-N02-v1_1.html",
        "wikidata": "Q11526659",
        "wikipedia": "ja:東小浜駅"
      }
    },
    {
      "id": "fukui_station_12821280649",
      "osmId": 12821280649,
      "osmType": "node",
      "prefectureId": "fukui",
      "type": "station",
      "subtype": "private",
      "name": "小浜",
      "nameKana": "おばま",
      "nameEn": "Obama",
      "operator": null,
      "network": null,
      "ref": null,
      "latitude": 35.4916659,
      "longitude": 135.7454315,
      "countryCode": "jp",
      "rawTags": {
        "KSJ2:LIN": "小浜線",
        "KSJ2:STN": "小浜",
        "contact:website": "https://www.jr-odekake.net/eki/top?id=0541310",
        "name": "小浜",
        "name:en": "Obama",
        "name:ja": "小浜",
        "name:ja-Hira": "おばま",
        "name:ja-Latn": "Obama",
        "name:ko": "오바마",
        "note": "National-Land Numerical Information (Railway) 2007, MLIT Japan",
        "note:ja": "国土数値情報（鉄道データ）平成19年 国土交通省",
        "public_transport": "station",
        "railway": "station",
        "source": "KSJ2",
        "source_ref": "http://nlftp.mlit.go.jp/ksj/jpgis/datalist/KsjTmplt-N02-v1_1.html",
        "wheelchair": "yes",
        "wikidata": "Q7074612",
        "wikipedia": "ja:小浜駅"
      }
    },
    {
      "id": "fukui_station_12821280650",
      "osmId": 12821280650,
      "osmType": "node",
      "prefectureId": "fukui",
      "type": "station",
      "subtype": "private",
      "name": "勢浜",
      "nameKana": null,
      "nameEn": "Seihama",
      "operator": null,
      "network": null,
      "ref": null,
      "latitude": 35.4811265,
      "longitude": 135.7082943,
      "countryCode": "jp",
      "rawTags": {
        "KSJ2:LIN": "小浜線",
        "KSJ2:STN": "勢浜",
        "name": "勢浜",
        "name:en": "Seihama",
        "name:ja": "勢浜",
        "name:ko": "세이하마",
        "note": "National-Land Numerical Information (Railway) 2007, MLIT Japan",
        "note:ja": "国土数値情報（鉄道データ）平成19年　国土交通省",
        "public_transport": "station",
        "railway": "station",
        "source": "KSJ2",
        "source_ref": "http://nlftp.mlit.go.jp/ksj/jpgis/datalist/KsjTmplt-N02-v1_1.html",
        "wikidata": "Q7446696",
        "wikipedia": "ja:勢浜駅"
      }
    },
    {
      "id": "fukui_station_12821280651",
      "osmId": 12821280651,
      "osmType": "node",
      "prefectureId": "fukui",
      "type": "station",
      "subtype": "private",
      "name": "加斗",
      "nameKana": null,
      "nameEn": "Kato",
      "operator": null,
      "network": null,
      "ref": null,
      "latitude": 35.4806162,
      "longitude": 135.66602,
      "countryCode": "jp",
      "rawTags": {
        "KSJ2:LIN": "小浜線",
        "KSJ2:STN": "加斗",
        "name": "加斗",
        "name:en": "Kato",
        "name:ja": "加斗",
        "name:ko": "가토",
        "note": "National-Land Numerical Information (Railway) 2007, MLIT Japan",
        "note:ja": "国土数値情報（鉄道データ）平成19年　国土交通省",
        "public_transport": "station",
        "railway": "station",
        "source": "KSJ2",
        "source_ref": "http://nlftp.mlit.go.jp/ksj/jpgis/datalist/KsjTmplt-N02-v1_1.html",
        "wikidata": "Q6377755",
        "wikipedia": "ja:加斗駅"
      }
    },
    {
      "id": "fukui_station_12821280652",
      "osmId": 12821280652,
      "osmType": "node",
      "prefectureId": "fukui",
      "type": "station",
      "subtype": "private",
      "name": "若狭本郷",
      "nameKana": "わかさほんごう",
      "nameEn": "Wakasa-Hongo",
      "operator": null,
      "network": null,
      "ref": null,
      "latitude": 35.4827291,
      "longitude": 135.6194173,
      "countryCode": "jp",
      "rawTags": {
        "KSJ2:LIN": "小浜線",
        "KSJ2:STN": "若狭本郷",
        "contact:website": "https://www.jr-odekake.net/eki/top?id=0541312",
        "name": "若狭本郷",
        "name:en": "Wakasa-Hongo",
        "name:ja": "若狭本郷",
        "name:ja-Hira": "わかさほんごう",
        "name:ja-Latn": "Wakasa-Hongō",
        "name:ko": "와카사혼고",
        "note": "National-Land Numerical Information (Railway) 2007, MLIT Japan",
        "note:ja": "国土数値情報（鉄道データ）平成19年 国土交通省",
        "public_transport": "station",
        "railway": "station",
        "source": "KSJ2",
        "source_ref": "http://nlftp.mlit.go.jp/ksj/jpgis/datalist/KsjTmplt-N02-v1_1.html",
        "wikidata": "Q7960831",
        "wikipedia": "ja:若狭本郷駅"
      }
    },
    {
      "id": "fukui_station_12821280658",
      "osmId": 12821280658,
      "osmType": "node",
      "prefectureId": "fukui",
      "type": "station",
      "subtype": "private",
      "name": "若狭和田",
      "nameKana": null,
      "nameEn": "Wakasa-Wada",
      "operator": null,
      "network": null,
      "ref": null,
      "latitude": 35.4888481,
      "longitude": 135.5808961,
      "countryCode": "jp",
      "rawTags": {
        "KSJ2:LIN": "小浜線",
        "KSJ2:STN": "若狭和田",
        "name": "若狭和田",
        "name:en": "Wakasa-Wada",
        "name:ja": "若狭和田",
        "name:ko": "와카사와다",
        "note": "National-Land Numerical Information (Railway) 2007, MLIT Japan",
        "note:ja": "国土数値情報（鉄道データ）平成19年　国土交通省",
        "public_transport": "station",
        "railway": "station",
        "source": "KSJ2",
        "source_ref": "http://nlftp.mlit.go.jp/ksj/jpgis/datalist/KsjTmplt-N02-v1_1.html",
        "wikidata": "Q7960834",
        "wikipedia": "ja:若狭和田駅"
      }
    },
    {
      "id": "fukui_station_12821280661",
      "osmId": 12821280661,
      "osmType": "node",
      "prefectureId": "fukui",
      "type": "station",
      "subtype": "private",
      "name": "若狭高浜",
      "nameKana": "わかさたかはま",
      "nameEn": "Wakasa-Takahama",
      "operator": null,
      "network": null,
      "ref": null,
      "latitude": 35.4862716,
      "longitude": 135.5475119,
      "countryCode": "jp",
      "rawTags": {
        "KSJ2:LIN": "小浜線",
        "KSJ2:STN": "若狭高浜",
        "contact:website": "https://www.jr-odekake.net/eki/top?id=0541314",
        "name": "若狭高浜",
        "name:en": "Wakasa-Takahama",
        "name:ja": "若狭高浜",
        "name:ja-Hira": "わかさたかはま",
        "name:ja-Latn": "Wakasa-Takahama",
        "name:ko": "와카사타카하마",
        "note": "National-Land Numerical Information (Railway) 2007, MLIT Japan",
        "note:ja": "国土数値情報（鉄道データ）平成19年 国土交通省",
        "public_transport": "station",
        "railway": "station",
        "source": "KSJ2",
        "source_ref": "http://nlftp.mlit.go.jp/ksj/jpgis/datalist/KsjTmplt-N02-v1_1.html",
        "wikidata": "Q7960833",
        "wikipedia": "ja:若狭高浜駅"
      }
    },
    {
      "id": "fukui_station_12821280662",
      "osmId": 12821280662,
      "osmType": "node",
      "prefectureId": "fukui",
      "type": "station",
      "subtype": "private",
      "name": "三松",
      "nameKana": null,
      "nameEn": "Mitsumatsu",
      "operator": null,
      "network": null,
      "ref": null,
      "latitude": 35.488803,
      "longitude": 135.5204634,
      "countryCode": "jp",
      "rawTags": {
        "KSJ2:LIN": "小浜線",
        "KSJ2:STN": "三松",
        "name": "三松",
        "name:en": "Mitsumatsu",
        "name:ja": "三松",
        "name:ko": "미쓰마쓰",
        "note": "National-Land Numerical Information (Railway) 2007, MLIT Japan",
        "note:ja": "国土数値情報（鉄道データ）平成19年　国土交通省",
        "public_transport": "station",
        "railway": "station",
        "source": "KSJ2",
        "source_ref": "http://nlftp.mlit.go.jp/ksj/jpgis/datalist/KsjTmplt-N02-v1_1.html",
        "wheelchair": "yes",
        "wikidata": "Q6883302",
        "wikipedia": "ja:三松駅"
      }
    },
    {
      "id": "fukui_station_12821280663",
      "osmId": 12821280663,
      "osmType": "node",
      "prefectureId": "fukui",
      "type": "station",
      "subtype": "private",
      "name": "青郷",
      "nameKana": null,
      "nameEn": "Aonogō",
      "operator": null,
      "network": null,
      "ref": null,
      "latitude": 35.4815532,
      "longitude": 135.499681,
      "countryCode": "jp",
      "rawTags": {
        "KSJ2:LIN": "小浜線",
        "KSJ2:STN": "青郷",
        "name": "青郷",
        "name:en": "Aonogō",
        "name:ja": "青郷",
        "name:ko": "아오노고",
        "note": "National-Land Numerical Information (Railway) 2007, MLIT Japan",
        "note:ja": "国土数値情報（鉄道データ）平成19年　国土交通省",
        "public_transport": "station",
        "railway": "station",
        "source": "KSJ2",
        "source_ref": "http://nlftp.mlit.go.jp/ksj/jpgis/datalist/KsjTmplt-N02-v1_1.html",
        "wheelchair": "yes",
        "wikidata": "Q4778709",
        "wikipedia": "ja:青郷駅"
      }
    },
    {
      "id": "fukui_station_12823282271",
      "osmId": 12823282271,
      "osmType": "node",
      "prefectureId": "fukui",
      "type": "station",
      "subtype": "private",
      "name": "敦賀",
      "nameKana": "つるが",
      "nameEn": "Tsuruga",
      "operator": null,
      "network": null,
      "ref": null,
      "latitude": 35.6450434,
      "longitude": 136.0780639,
      "countryCode": "jp",
      "rawTags": {
        "layer": "2",
        "level": "2",
        "name": "敦賀",
        "name:en": "Tsuruga",
        "name:ja": "敦賀",
        "name:ja-Hira": "つるが",
        "name:ja-Latn": "Tsuruga",
        "name:ko": "쓰루가",
        "note": "National-Land Numerical Information (Railway) 2007, MLIT Japan",
        "public_transport": "station",
        "railway": "station",
        "source": "KSJ2",
        "wikidata": "Q5364670",
        "wikipedia": "ja:敦賀駅"
      }
    },
    {
      "id": "fukui_airport_57007496",
      "osmId": 57007496,
      "osmType": "way",
      "prefectureId": "fukui",
      "type": "airport",
      "subtype": "domestic",
      "name": "福井空港",
      "nameKana": null,
      "nameEn": null,
      "operator": null,
      "network": null,
      "ref": "FKJ",
      "latitude": 36.1431611,
      "longitude": 136.2230916,
      "countryCode": "jp",
      "rawTags": {
        "KSJ2:AAC": "18210",
        "KSJ2:AAC_label": "福井県, *",
        "KSJ2:AD2": "5",
        "KSJ2:AD2_label": "都道府県",
        "KSJ2:ARP": "36.1427777778 136.2238888889",
        "KSJ2:ATB": "36.1399444400 136.2219444000",
        "KSJ2:CLT": "17 00",
        "KSJ2:COA": "空港整備法に基づく第三種空港",
        "KSJ2:CompositeCurve": "cv33Airport",
        "KSJ2:DSA": "特定飛行場以外",
        "KSJ2:INP": "5",
        "KSJ2:INP_label": "都道府県",
        "KSJ2:IUC": "供用中",
        "KSJ2:NA3": "福井空港",
        "KSJ2:OPT": "09 00",
        "KSJ2:REF": "3",
        "KSJ2:REF_label": "定期便が就航していない場合",
        "KSJ2:airport_id": "cf02_71",
        "KSJ2:runways": "1200 30",
        "KSJ2:survey_year_LFD_NPD": "1981 14 15,1982 15 10,1983 12 0,1984 17 0,1985 14 0,1986 14 0,1987 15 0,1988 13 0,1989 11 0,1990 14 0,1991 14 0,1992 11 0,1993 17 0,1994 19 0,1995 17 0,1996 17 19,1997 21 0,1998 18 0,1999 17 0,2000 16 0,2001 17 0,2002 13 0,2003 13 0,2004 15 0,2005 10 0",
        "aeroway": "aerodrome",
        "barrier": "fence",
        "iata": "FKJ",
        "icao": "RJNF",
        "layer": "-3",
        "name": "福井空港",
        "note": "National-Land Numerical Information (Airport) 2007, MLIT Japan",
        "note:ja": "国土数値情報（空港データ）平成19年　国土交通省",
        "source": "KSJ2",
        "source_ref": "http://nlftp.mlit.go.jp/ksj/jpgis/datalist/KsjTmplt-C28-v1_1.html",
        "wikidata": "Q3273365",
        "wikipedia": "ja:福井空港"
      }
    },
    {
      "id": "fukui_ferry_terminal_502540705",
      "osmId": 502540705,
      "osmType": "way",
      "prefectureId": "fukui",
      "type": "ferry_terminal",
      "subtype": null,
      "name": "敦賀新港 新日本海フェリーターミナル",
      "nameKana": null,
      "nameEn": null,
      "operator": null,
      "network": null,
      "ref": null,
      "latitude": 35.6786179,
      "longitude": 136.0722935,
      "countryCode": "jp",
      "rawTags": {
        "amenity": "ferry_terminal",
        "building": "yes",
        "ferry": "yes",
        "name": "敦賀新港 新日本海フェリーターミナル",
        "name:ja": "敦賀新港 新日本海フェリーターミナル",
        "public_transport": "station"
      }
    }
  ]
}