{
  "fetchedAt": "2025-12-12T05:23:38.411Z",
  "prefectureId": "gunma",
  "prefectureName": "群馬県",
  "stats": {
    "station": 134,
    "airport": 0,
    "ferry_terminal": 1,
    "bus_terminal": 9,
    "total": 144
  },
  "data": [
    {
      "id": "gunma_station_264415788",
      "osmId": 264415788,
      "osmType": "node",
      "prefectureId": "gunma",
      "type": "station",
      "subtype": "private",
      "name": "駒形",
      "nameKana": null,
      "nameEn": "Komagata",
      "operator": null,
      "network": null,
      "ref": null,
      "latitude": 36.3541169,
      "longitude": 139.1397662,
      "countryCode": "jp",
      "rawTags": {
        "KSJ2:LIN": "両毛線",
        "KSJ2:STN": "駒形",
        "name": "駒形",
        "name:en": "Komagata",
        "name:ja": "駒形",
        "name:ja_rm": "Komagata",
        "name:ko": "고마가타",
        "note": "National-Land Numerical Information (Railway) 2007, MLIT Japan",
        "note:ja": "国土数値情報（鉄道データ）平成19年　国土交通省",
        "public_transport": "station",
        "railway": "station",
        "source": "KSJ2",
        "source_ref": "http://nlftp.mlit.go.jp/ksj/jpgis/datalist/KsjTmplt-N02-v1_1.html",
        "wikidata": "Q6428058",
        "wikipedia": "ja:駒形駅"
      }
    },
    {
      "id": "gunma_station_264415837",
      "osmId": 264415837,
      "osmType": "node",
      "prefectureId": "gunma",
      "type": "station",
      "subtype": "private",
      "name": "前橋大島",
      "nameKana": null,
      "nameEn": "Maebashi-Oshima",
      "operator": null,
      "network": null,
      "ref": null,
      "latitude": 36.3705515,
      "longitude": 139.1096721,
      "countryCode": "jp",
      "rawTags": {
        "KSJ2:LIN": "両毛線",
        "KSJ2:STN": "前橋大島",
        "name": "前橋大島",
        "name:en": "Maebashi-Oshima",
        "name:ja": "前橋大島",
        "name:ja_rm": "Maebashi-Ōshima",
        "name:ko": "마에바시오시마",
        "note": "National-Land Numerical Information (Railway) 2007, MLIT Japan",
        "note:ja": "国土数値情報（鉄道データ）平成19年　国土交通省",
        "public_transport": "station",
        "railway": "station",
        "source": "KSJ2",
        "source_ref": "http://nlftp.mlit.go.jp/ksj/jpgis/datalist/KsjTmplt-N02-v1_1.html",
        "wikidata": "Q6729071",
        "wikipedia": "ja:前橋大島駅"
      }
    },
    {
      "id": "gunma_station_264460730",
      "osmId": 264460730,
      "osmType": "node",
      "prefectureId": "gunma",
      "type": "station",
      "subtype": "private",
      "name": "神戸",
      "nameKana": null,
      "nameEn": "Godo",
      "operator": null,
      "network": null,
      "ref": null,
      "latitude": 36.5374168,
      "longitude": 139.3563436,
      "countryCode": "jp",
      "rawTags": {
        "KSJ2:LIN": "わたらせ渓谷線",
        "KSJ2:STN": "神戸",
        "name": "神戸",
        "name:en": "Godo",
        "name:ja": "神戸",
        "name:ja_rm": "Godo",
        "name:ko": "고도",
        "note": "National-Land Numerical Information (Railway) 2007, MLIT Japan",
        "note:ja": "国土数値情報（鉄道データ）平成19年　国土交通省",
        "public_transport": "station",
        "railway": "station",
        "source": "KSJ2",
        "source_ref": "http://nlftp.mlit.go.jp/ksj/jpgis/datalist/KsjTmplt-N02-v1_1.html",
        "wikidata": "Q5627753",
        "wikipedia": "ja:神戸駅 (群馬県)"
      }
    },
    {
      "id": "gunma_station_264461214",
      "osmId": 264461214,
      "osmType": "node",
      "prefectureId": "gunma",
      "type": "station",
      "subtype": "private",
      "name": "沢入",
      "nameKana": null,
      "nameEn": "Sori",
      "operator": null,
      "network": null,
      "ref": null,
      "latitude": 36.5807535,
      "longitude": 139.3962433,
      "countryCode": "jp",
      "rawTags": {
        "KSJ2:LIN": "わたらせ渓谷線",
        "KSJ2:STN": "沢入",
        "name": "沢入",
        "name:en": "Sori",
        "name:ja": "沢入",
        "name:ja_rm": "Sori",
        "name:ko": "소리",
        "note": "National-Land Numerical Information (Railway) 2007, MLIT Japan",
        "note:ja": "国土数値情報（鉄道データ）平成19年　国土交通省",
        "public_transport": "station",
        "railway": "station",
        "source": "KSJ2",
        "source_ref": "http://nlftp.mlit.go.jp/ksj/jpgis/datalist/KsjTmplt-N02-v1_1.html",
        "wikidata": "Q7667614",
        "wikipedia": "ja:沢入駅"
      }
    },
    {
      "id": "gunma_station_264461336",
      "osmId": 264461336,
      "osmType": "node",
      "prefectureId": "gunma",
      "type": "station",
      "subtype": "private",
      "name": "水沼",
      "nameKana": null,
      "nameEn": "Mizunuma",
      "operator": null,
      "network": null,
      "ref": null,
      "latitude": 36.4997652,
      "longitude": 139.2773051,
      "countryCode": "jp",
      "rawTags": {
        "KSJ2:LIN": "わたらせ渓谷線",
        "KSJ2:STN": "水沼",
        "name": "水沼",
        "name:en": "Mizunuma",
        "name:ja": "水沼",
        "name:ja_rm": "Mizunuma",
        "name:ko": "미즈누마",
        "note": "National-Land Numerical Information (Railway) 2007, MLIT Japan",
        "note:ja": "国土数値情報（鉄道データ）平成19年　国土交通省",
        "public_transport": "station",
        "railway": "station",
        "source": "KSJ2",
        "source_ref": "http://nlftp.mlit.go.jp/ksj/jpgis/datalist/KsjTmplt-N02-v1_1.html",
        "wikidata": "Q6884893",
        "wikipedia": "ja:水沼駅"
      }
    },
    {
      "id": "gunma_station_264461777",
      "osmId": 264461777,
      "osmType": "node",
      "prefectureId": "gunma",
      "type": "station",
      "subtype": "private",
      "name": "小中",
      "nameKana": null,
      "nameEn": "Konaka",
      "operator": null,
      "network": null,
      "ref": null,
      "latitude": 36.5356866,
      "longitude": 139.3378794,
      "countryCode": "jp",
      "rawTags": {
        "KSJ2:LIN": "わたらせ渓谷線",
        "KSJ2:STN": "小中",
        "name": "小中",
        "name:en": "Konaka",
        "name:ja": "小中",
        "name:ja_rm": "Konaka",
        "name:ko": "고나카",
        "note": "National-Land Numerical Information (Railway) 2007, MLIT Japan",
        "note:ja": "国土数値情報（鉄道データ）平成19年　国土交通省",
        "public_transport": "station",
        "railway": "station",
        "source": "KSJ2",
        "source_ref": "http://nlftp.mlit.go.jp/ksj/jpgis/datalist/KsjTmplt-N02-v1_1.html",
        "wikidata": "Q6428729",
        "wikipedia": "ja:小中駅"
      }
    },
    {
      "id": "gunma_station_264461907",
      "osmId": 264461907,
      "osmType": "node",
      "prefectureId": "gunma",
      "type": "station",
      "subtype": "private",
      "name": "中野",
      "nameKana": null,
      "nameEn": "Nakano",
      "operator": null,
      "network": null,
      "ref": null,
      "latitude": 36.5242606,
      "longitude": 139.3171799,
      "countryCode": "jp",
      "rawTags": {
        "KSJ2:LIN": "わたらせ渓谷線",
        "KSJ2:STN": "中野",
        "name": "中野",
        "name:en": "Nakano",
        "name:ja": "中野",
        "name:ja_rm": "Nakano",
        "name:ko": "나카노",
        "note": "National-Land Numerical Information (Railway) 2007, MLIT Japan",
        "note:ja": "国土数値情報（鉄道データ）平成19年　国土交通省",
        "public_transport": "station",
        "railway": "station",
        "source": "KSJ2",
        "source_ref": "http://nlftp.mlit.go.jp/ksj/jpgis/datalist/KsjTmplt-N02-v1_1.html",
        "wikidata": "Q6960274",
        "wikipedia": "ja:中野駅 (群馬県)"
      }
    },
    {
      "id": "gunma_station_264462300",
      "osmId": 264462300,
      "osmType": "node",
      "prefectureId": "gunma",
      "type": "station",
      "subtype": "private",
      "name": "大間々",
      "nameKana": null,
      "nameEn": "Omama",
      "operator": null,
      "network": null,
      "ref": null,
      "latitude": 36.4346091,
      "longitude": 139.2774321,
      "countryCode": "jp",
      "rawTags": {
        "KSJ2:LIN": "わたらせ渓谷線",
        "KSJ2:STN": "大間々",
        "name": "大間々",
        "name:en": "Omama",
        "name:ja": "大間々",
        "name:ja_rm": "Omama",
        "name:ko": "오마마",
        "note": "National-Land Numerical Information (Railway) 2007, MLIT Japan",
        "note:ja": "国土数値情報（鉄道データ）平成19年　国土交通省",
        "public_transport": "station",
        "railway": "station",
        "source": "KSJ2",
        "source_ref": "http://nlftp.mlit.go.jp/ksj/jpgis/datalist/KsjTmplt-N02-v1_1.html",
        "wikidata": "Q8081605",
        "wikipedia": "ja:大間々駅"
      }
    },
    {
      "id": "gunma_station_264814419",
      "osmId": 264814419,
      "osmType": "node",
      "prefectureId": "gunma",
      "type": "station",
      "subtype": "private",
      "name": "水上",
      "nameKana": null,
      "nameEn": "Minakami",
      "operator": null,
      "network": null,
      "ref": null,
      "latitude": 36.7786135,
      "longitude": 138.9689414,
      "countryCode": "jp",
      "rawTags": {
        "KSJ2:LIN": "上越線",
        "KSJ2:STN": "水上",
        "name": "水上",
        "name:en": "Minakami",
        "name:ja": "水上",
        "name:ja_rm": "Minakami",
        "name:ko": "미나카미",
        "note": "National-Land Numerical Information (Railway) 2007, MLIT Japan",
        "note:ja": "国土数値情報（鉄道データ）平成19年　国土交通省",
        "public_transport": "station",
        "railway": "station",
        "source": "KSJ2",
        "source_ref": "http://nlftp.mlit.go.jp/ksj/jpgis/datalist/KsjTmplt-N02-v1_1.html",
        "wikidata": "Q1770451",
        "wikipedia": "ja:水上駅"
      }
    },
    {
      "id": "gunma_station_264814632",
      "osmId": 264814632,
      "osmType": "node",
      "prefectureId": "gunma",
      "type": "station",
      "subtype": "private",
      "name": "上牧",
      "nameKana": null,
      "nameEn": "Kamimoku",
      "operator": null,
      "network": null,
      "ref": null,
      "latitude": 36.7354657,
      "longitude": 138.9845777,
      "countryCode": "jp",
      "rawTags": {
        "KSJ2:LIN": "上越線",
        "KSJ2:STN": "上牧",
        "name": "上牧",
        "name:en": "Kamimoku",
        "name:ja": "上牧",
        "name:ja_rm": "Kamimoku",
        "name:ko": "가미모쿠",
        "note": "National-Land Numerical Information (Railway) 2007, MLIT Japan",
        "note:ja": "国土数値情報（鉄道データ）平成19年　国土交通省",
        "public_transport": "station",
        "railway": "station",
        "source": "KSJ2",
        "source_ref": "http://nlftp.mlit.go.jp/ksj/jpgis/datalist/KsjTmplt-N02-v1_1.html",
        "wikidata": "Q1770591",
        "wikipedia": "ja:上牧駅 (群馬県)"
      }
    },
    {
      "id": "gunma_station_264815149",
      "osmId": 264815149,
      "osmType": "node",
      "prefectureId": "gunma",
      "type": "station",
      "subtype": "private",
      "name": "後閑",
      "nameKana": null,
      "nameEn": "Gokan",
      "operator": null,
      "network": null,
      "ref": null,
      "latitude": 36.6792522,
      "longitude": 139.0005798,
      "countryCode": "jp",
      "rawTags": {
        "KSJ2:LIN": "上越線",
        "KSJ2:STN": "後閑",
        "name": "後閑",
        "name:en": "Gokan",
        "name:ja": "後閑",
        "name:ja_rm": "Gokan",
        "name:ko": "고칸",
        "note": "National-Land Numerical Information (Railway) 2007, MLIT Japan",
        "note:ja": "国土数値情報（鉄道データ）平成19年　国土交通省",
        "public_transport": "station",
        "railway": "station",
        "source": "KSJ2",
        "source_ref": "http://nlftp.mlit.go.jp/ksj/jpgis/datalist/KsjTmplt-N02-v1_1.html",
        "wikidata": "Q1770583",
        "wikipedia": "ja:後閑駅"
      }
    },
    {
      "id": "gunma_station_264817858",
      "osmId": 264817858,
      "osmType": "node",
      "prefectureId": "gunma",
      "type": "station",
      "subtype": "private",
      "name": "井野",
      "nameKana": null,
      "nameEn": "Ino",
      "operator": null,
      "network": null,
      "ref": null,
      "latitude": 36.3570844,
      "longitude": 139.0230202,
      "countryCode": "jp",
      "rawTags": {
        "name": "井野",
        "name:en": "Ino",
        "name:ja": "井野",
        "name:ja-Latn": "Ino",
        "public_transport": "station",
        "railway": "station",
        "source": "KSJ2",
        "source_ref": "http://nlftp.mlit.go.jp/ksj/jpgis/datalist/KsjTmplt-N02-v1_1.html",
        "wikidata": "Q1652443",
        "wikipedia": "ja:井野駅 (群馬県)"
      }
    },
    {
      "id": "gunma_station_308840211",
      "osmId": 308840211,
      "osmType": "node",
      "prefectureId": "gunma",
      "type": "station",
      "subtype": "private",
      "name": "川俣",
      "nameKana": null,
      "nameEn": "Kawamata",
      "operator": null,
      "network": null,
      "ref": null,
      "latitude": 36.2088339,
      "longitude": 139.5264678,
      "countryCode": "jp",
      "rawTags": {
        "KSJ2:LIN": "伊勢崎線",
        "KSJ2:RAS": "eb03_8501",
        "KSJ2:STN": "川俣",
        "KSJ2:segment": "eb02_18159",
        "name": "川俣",
        "name:en": "Kawamata",
        "name:ja": "川俣",
        "name:ja_rm": "Kawamata",
        "name:ko": "가와마타",
        "note": "National-Land Numerical Information (Railway) 2007, MLIT Japan",
        "note:ja": "国土数値情報（鉄道データ）平成19年　国土交通省",
        "public_transport": "station",
        "railway": "station",
        "source": "KSJ2",
        "source_ref": "http://nlftp.mlit.go.jp/ksj/jpgis/datalist/KsjTmplt-N02-v1_1.html",
        "wikidata": "Q6379607",
        "wikipedia": "ja:川俣駅"
      }
    },
    {
      "id": "gunma_station_335660626",
      "osmId": 335660626,
      "osmType": "node",
      "prefectureId": "gunma",
      "type": "station",
      "subtype": "private",
      "name": "丸山下",
      "nameKana": null,
      "nameEn": "Maruyama-shita",
      "operator": null,
      "network": null,
      "ref": null,
      "latitude": 36.4168086,
      "longitude": 139.3216927,
      "countryCode": "jp",
      "rawTags": {
        "name": "丸山下",
        "name:en": "Maruyama-shita",
        "name:ja_rm": "Maruyamashita",
        "name:ko": "마루야마시타",
        "public_transport": "station",
        "railway": "station",
        "source": "KSJ2",
        "wikidata": "Q6778056",
        "wikipedia": "ja:丸山下駅"
      }
    },
    {
      "id": "gunma_station_335660644",
      "osmId": 335660644,
      "osmType": "node",
      "prefectureId": "gunma",
      "type": "station",
      "subtype": "private",
      "name": "樋越",
      "nameKana": null,
      "nameEn": "Higoshi",
      "operator": null,
      "network": null,
      "ref": null,
      "latitude": 36.4155327,
      "longitude": 139.1735854,
      "countryCode": "jp",
      "rawTags": {
        "name": "樋越",
        "name:en": "Higoshi",
        "name:ja-Latn": "Higoshi",
        "name:ko": "히고시",
        "public_transport": "station",
        "railway": "station",
        "source": "KSJ2",
        "wikidata": "Q5760164",
        "wikipedia": "ja:樋越駅"
      }
    },
    {
      "id": "gunma_station_335661082",
      "osmId": 335661082,
      "osmType": "node",
      "prefectureId": "gunma",
      "type": "station",
      "subtype": "private",
      "name": "江木",
      "nameKana": null,
      "nameEn": "Egi",
      "operator": null,
      "network": null,
      "ref": null,
      "latitude": 36.4073386,
      "longitude": 139.1337267,
      "countryCode": "jp",
      "rawTags": {
        "name": "江木",
        "name:en": "Egi",
        "name:ja-Latn": "Egi",
        "name:ko": "에기",
        "public_transport": "station",
        "railway": "station",
        "source": "KSJ2",
        "wikidata": "Q5347958",
        "wikipedia": "ja:江木駅"
      }
    },
    {
      "id": "gunma_station_335661322",
      "osmId": 335661322,
      "osmType": "node",
      "prefectureId": "gunma",
      "type": "station",
      "subtype": "private",
      "name": "赤坂",
      "nameKana": null,
      "nameEn": "Akasaka",
      "operator": null,
      "network": null,
      "ref": null,
      "latitude": 36.3975191,
      "longitude": 139.1175449,
      "countryCode": "jp",
      "rawTags": {
        "name": "赤坂",
        "name:en": "Akasaka",
        "name:ja-Latn": "Akasaka",
        "name:ko": "아카사카",
        "public_transport": "station",
        "railway": "station",
        "source": "KSJ2",
        "wikidata": "Q4700319",
        "wikipedia": "ja:赤坂駅 (群馬県)"
      }
    },
    {
      "id": "gunma_station_335661607",
      "osmId": 335661607,
      "osmType": "node",
      "prefectureId": "gunma",
      "type": "station",
      "subtype": "private",
      "name": "大胡",
      "nameKana": null,
      "nameEn": "Ogo",
      "operator": null,
      "network": null,
      "ref": null,
      "latitude": 36.4130012,
      "longitude": 139.1566521,
      "countryCode": "jp",
      "rawTags": {
        "name": "大胡",
        "name:en": "Ogo",
        "name:ja_rm": "Ōgo",
        "name:ko": "오고",
        "public_transport": "station",
        "railway": "station",
        "source": "KSJ2",
        "train": "yes",
        "wikidata": "Q11438553",
        "wikipedia": "ja:大胡駅"
      }
    },
    {
      "id": "gunma_station_335661612",
      "osmId": 335661612,
      "osmType": "node",
      "prefectureId": "gunma",
      "type": "station",
      "subtype": "private",
      "name": "城東",
      "nameKana": null,
      "nameEn": "Joto",
      "operator": null,
      "network": null,
      "ref": null,
      "latitude": 36.3911926,
      "longitude": 139.0810836,
      "countryCode": "jp",
      "rawTags": {
        "name": "城東",
        "name:en": "Joto",
        "name:ja": "城東",
        "name:ja-Latn": "Jōtō",
        "name:ko": "조토",
        "public_transport": "station",
        "railway": "station",
        "source": "KSJ2",
        "wikidata": "Q11426223",
        "wikipedia": "ja:城東駅"
      }
    },
    {
      "id": "gunma_station_335661871",
      "osmId": 335661871,
      "osmType": "node",
      "prefectureId": "gunma",
      "type": "station",
      "subtype": "private",
      "name": "心臓血管センター",
      "nameKana": null,
      "nameEn": "Shinzo-Kekkan Center",
      "operator": null,
      "network": null,
      "ref": null,
      "latitude": 36.405169,
      "longitude": 139.1288142,
      "countryCode": "jp",
      "rawTags": {
        "name": "心臓血管センター",
        "name:en": "Shinzo-Kekkan Center",
        "name:ja-Latn": "Shinzō-Kekkan Center",
        "name:ko": "신조켓칸센터",
        "public_transport": "station",
        "railway": "station",
        "source": "KSJ2",
        "wikidata": "Q7497852",
        "wikipedia": "ja:心臓血管センター駅"
      }
    },
    {
      "id": "gunma_station_355840576",
      "osmId": 355840576,
      "osmType": "node",
      "prefectureId": "gunma",
      "type": "station",
      "subtype": "private",
      "name": "中之条",
      "nameKana": null,
      "nameEn": "Nakanojo",
      "operator": null,
      "network": null,
      "ref": null,
      "latitude": 36.5853523,
      "longitude": 138.8521738,
      "countryCode": "jp",
      "rawTags": {
        "KSJ2:LIN": "吾妻線",
        "KSJ2:STN": "中之条",
        "name": "中之条",
        "name:en": "Nakanojo",
        "name:ja": "中之条",
        "name:ja_rm": "Nakanojō",
        "name:ko": "나카노조",
        "note": "National-Land Numerical Information (Railway) 2007, MLIT Japan",
        "note:ja": "国土数値情報（鉄道データ）平成19年　国土交通省",
        "public_transport": "station",
        "railway": "station",
        "source": "KSJ2",
        "source_ref": "http://nlftp.mlit.go.jp/ksj/jpgis/datalist/KsjTmplt-N02-v1_1.html",
        "wikidata": "Q6960282",
        "wikipedia": "ja:中之条駅"
      }
    },
    {
      "id": "gunma_station_355840633",
      "osmId": 355840633,
      "osmType": "node",
      "prefectureId": "gunma",
      "type": "station",
      "subtype": "private",
      "name": "金島",
      "nameKana": null,
      "nameEn": "Kanashima",
      "operator": null,
      "network": null,
      "ref": null,
      "latitude": 36.5294462,
      "longitude": 138.9765506,
      "countryCode": "jp",
      "rawTags": {
        "KSJ2:LIN": "吾妻線",
        "KSJ2:STN": "金島",
        "name": "金島",
        "name:en": "Kanashima",
        "name:ja": "金島",
        "name:ja_rm": "Kanashima",
        "name:ko": "가나시마",
        "note": "National-Land Numerical Information (Railway) 2007, MLIT Japan",
        "note:ja": "国土数値情報（鉄道データ）平成19年　国土交通省",
        "public_transport": "station",
        "railway": "station",
        "source": "KSJ2",
        "source_ref": "http://nlftp.mlit.go.jp/ksj/jpgis/datalist/KsjTmplt-N02-v1_1.html",
        "train": "yes",
        "wikidata": "Q6360686",
        "wikipedia": "ja:金島駅 (群馬県)"
      }
    },
    {
      "id": "gunma_station_355840643",
      "osmId": 355840643,
      "osmType": "node",
      "prefectureId": "gunma",
      "type": "station",
      "subtype": "private",
      "name": "郷原",
      "nameKana": null,
      "nameEn": "Gobara",
      "operator": null,
      "network": null,
      "ref": null,
      "latitude": 36.5488198,
      "longitude": 138.8011866,
      "countryCode": "jp",
      "rawTags": {
        "KSJ2:LIN": "吾妻線",
        "KSJ2:STN": "郷原",
        "name": "郷原",
        "name:en": "Gobara",
        "name:ja": "郷原",
        "name:ja_rm": "Gōbara",
        "name:ko": "고바라",
        "note": "National-Land Numerical Information (Railway) 2007, MLIT Japan",
        "note:ja": "国土数値情報（鉄道データ）平成19年　国土交通省",
        "public_transport": "station",
        "railway": "station",
        "source": "KSJ2",
        "source_ref": "http://nlftp.mlit.go.jp/ksj/jpgis/datalist/KsjTmplt-N02-v1_1.html",
        "wikidata": "Q5627747",
        "wikipedia": "ja:郷原駅"
      }
    },
    {
      "id": "gunma_station_355840761",
      "osmId": 355840761,
      "osmType": "node",
      "prefectureId": "gunma",
      "type": "station",
      "subtype": "private",
      "name": "矢倉",
      "nameKana": null,
      "nameEn": "Yagura",
      "operator": null,
      "network": null,
      "ref": null,
      "latitude": 36.552654,
      "longitude": 138.784543,
      "countryCode": "jp",
      "rawTags": {
        "KSJ2:LIN": "吾妻線",
        "KSJ2:STN": "矢倉",
        "name": "矢倉",
        "name:en": "Yagura",
        "name:ja": "矢倉",
        "name:ja_rm": "Yagura",
        "name:ko": "야구라",
        "note": "National-Land Numerical Information (Railway) 2007, MLIT Japan",
        "note:ja": "国土数値情報（鉄道データ）平成19年　国土交通省",
        "public_transport": "station",
        "railway": "station",
        "source": "KSJ2",
        "source_ref": "http://nlftp.mlit.go.jp/ksj/jpgis/datalist/KsjTmplt-N02-v1_1.html",
        "wikidata": "Q8046763",
        "wikipedia": "ja:矢倉駅"
      }
    },
    {
      "id": "gunma_station_355840762",
      "osmId": 355840762,
      "osmType": "node",
      "prefectureId": "gunma",
      "type": "station",
      "subtype": "private",
      "name": "群馬原町",
      "nameKana": null,
      "nameEn": "Gunma-Haramachi",
      "operator": null,
      "network": null,
      "ref": null,
      "latitude": 36.5718153,
      "longitude": 138.8243718,
      "countryCode": "jp",
      "rawTags": {
        "KSJ2:LIN": "吾妻線",
        "KSJ2:STN": "群馬原町",
        "name": "群馬原町",
        "name:en": "Gunma-Haramachi",
        "name:ja": "群馬原町",
        "name:ja_rm": "Gunma-Haramachi",
        "name:ko": "군마하라마치",
        "note": "National-Land Numerical Information (Railway) 2007, MLIT Japan",
        "note:ja": "国土数値情報（鉄道データ）平成19年　国土交通省",
        "public_transport": "station",
        "railway": "station",
        "source": "KSJ2",
        "source_ref": "http://nlftp.mlit.go.jp/ksj/jpgis/datalist/KsjTmplt-N02-v1_1.html",
        "wikidata": "Q5618867",
        "wikipedia": "ja:群馬原町駅"
      }
    },
    {
      "id": "gunma_station_355840764",
      "osmId": 355840764,
      "osmType": "node",
      "prefectureId": "gunma",
      "type": "station",
      "subtype": "private",
      "name": "小野上温泉",
      "nameKana": null,
      "nameEn": "Onogami-Onsen",
      "operator": null,
      "network": null,
      "ref": null,
      "latitude": 36.556897,
      "longitude": 138.904724,
      "countryCode": "jp",
      "rawTags": {
        "KSJ2:LIN": "吾妻線",
        "KSJ2:STN": "小野上温泉",
        "alt_name:ko": "오노가미온센",
        "name": "小野上温泉",
        "name:en": "Onogami-Onsen",
        "name:ja": "小野上温泉",
        "name:ja_rm": "Onogami-Onsen",
        "name:ko": "오노가미온천",
        "note": "National-Land Numerical Information (Railway) 2007, MLIT Japan",
        "note:ja": "国土数値情報（鉄道データ）平成19年　国土交通省",
        "public_transport": "station",
        "railway": "station",
        "source": "KSJ2",
        "source_ref": "http://nlftp.mlit.go.jp/ksj/jpgis/datalist/KsjTmplt-N02-v1_1.html",
        "wikidata": "Q7094463",
        "wikipedia": "ja:小野上温泉駅"
      }
    },
    {
      "id": "gunma_station_355841473",
      "osmId": 355841473,
      "osmType": "node",
      "prefectureId": "gunma",
      "type": "station",
      "subtype": "private",
      "name": "祖母島",
      "nameKana": null,
      "nameEn": "Ubashima",
      "operator": null,
      "network": null,
      "ref": null,
      "latitude": 36.5406141,
      "longitude": 138.9570394,
      "countryCode": "jp",
      "rawTags": {
        "KSJ2:LIN": "吾妻線",
        "KSJ2:STN": "祖母島",
        "name": "祖母島",
        "name:en": "Ubashima",
        "name:ja": "祖母島",
        "name:ja_rm": "Ubashima",
        "name:ko": "우바시마",
        "note": "National-Land Numerical Information (Railway) 2007, MLIT Japan",
        "note:ja": "国土数値情報（鉄道データ）平成19年　国土交通省",
        "public_transport": "station",
        "railway": "station",
        "source": "KSJ2",
        "source_ref": "http://nlftp.mlit.go.jp/ksj/jpgis/datalist/KsjTmplt-N02-v1_1.html",
        "train": "yes",
        "wikidata": "Q7876424",
        "wikipedia": "ja:祖母島駅"
      }
    },
    {
      "id": "gunma_station_355841574",
      "osmId": 355841574,
      "osmType": "node",
      "prefectureId": "gunma",
      "type": "station",
      "subtype": "private",
      "name": "小野上",
      "nameKana": null,
      "nameEn": "Onogami",
      "operator": null,
      "network": null,
      "ref": null,
      "latitude": 36.5525161,
      "longitude": 138.9222773,
      "countryCode": "jp",
      "rawTags": {
        "KSJ2:LIN": "吾妻線",
        "KSJ2:STN": "小野上",
        "name": "小野上",
        "name:en": "Onogami",
        "name:ja": "小野上",
        "name:ja_rm": "Onogami",
        "name:ko": "오노가미",
        "note": "National-Land Numerical Information (Railway) 2007, MLIT Japan",
        "note:ja": "国土数値情報（鉄道データ）平成19年　国土交通省",
        "public_transport": "station",
        "railway": "station",
        "source": "KSJ2",
        "source_ref": "http://nlftp.mlit.go.jp/ksj/jpgis/datalist/KsjTmplt-N02-v1_1.html",
        "train": "yes",
        "wikidata": "Q7094460",
        "wikipedia": "ja:小野上駅"
      }
    },
    {
      "id": "gunma_station_355841781",
      "osmId": 355841781,
      "osmType": "node",
      "prefectureId": "gunma",
      "type": "station",
      "subtype": "private",
      "name": "市城",
      "nameKana": null,
      "nameEn": "Ichishiro",
      "operator": null,
      "network": null,
      "ref": null,
      "latitude": 36.570457,
      "longitude": 138.882592,
      "countryCode": "jp",
      "rawTags": {
        "KSJ2:LIN": "吾妻線",
        "KSJ2:STN": "市城",
        "name": "市城",
        "name:en": "Ichishiro",
        "name:ja": "市城",
        "name:ja_rm": "Ichishiro",
        "name:ko": "이치시로",
        "note": "National-Land Numerical Information (Railway) 2007, MLIT Japan",
        "note:ja": "国土数値情報（鉄道データ）平成19年　国土交通省",
        "public_transport": "station",
        "railway": "station",
        "source": "KSJ2",
        "source_ref": "http://nlftp.mlit.go.jp/ksj/jpgis/datalist/KsjTmplt-N02-v1_1.html",
        "wikidata": "Q5986324",
        "wikipedia": "ja:市城駅"
      }
    },
    {
      "id": "gunma_station_355842284",
      "osmId": 355842284,
      "osmType": "node",
      "prefectureId": "gunma",
      "type": "station",
      "subtype": "private",
      "name": "群馬大津",
      "nameKana": null,
      "nameEn": "Gunma-Otsu",
      "operator": null,
      "network": null,
      "ref": null,
      "latitude": 36.5537582,
      "longitude": 138.6278307,
      "countryCode": "jp",
      "rawTags": {
        "KSJ2:LIN": "吾妻線",
        "KSJ2:STN": "群馬大津",
        "name": "群馬大津",
        "name:en": "Gunma-Otsu",
        "name:ja": "群馬大津",
        "name:ja_rm": "Gunma-Ōtsu",
        "name:ko": "군마오쓰",
        "note": "National-Land Numerical Information (Railway) 2007, MLIT Japan",
        "note:ja": "国土数値情報（鉄道データ）平成19年　国土交通省",
        "public_transport": "station",
        "railway": "station",
        "source": "KSJ2",
        "source_ref": "http://nlftp.mlit.go.jp/ksj/jpgis/datalist/KsjTmplt-N02-v1_1.html",
        "wikidata": "Q5618868",
        "wikipedia": "ja:群馬大津駅"
      }
    },
    {
      "id": "gunma_station_355842296",
      "osmId": 355842296,
      "osmType": "node",
      "prefectureId": "gunma",
      "type": "station",
      "subtype": "private",
      "name": "大前",
      "nameKana": null,
      "nameEn": "Omae",
      "operator": null,
      "network": null,
      "ref": null,
      "latitude": 36.5137508,
      "longitude": 138.5291273,
      "countryCode": "jp",
      "rawTags": {
        "KSJ2:LIN": "吾妻線",
        "KSJ2:STN": "大前",
        "name": "大前",
        "name:en": "Omae",
        "name:ja": "大前",
        "name:ja_rm": "Ōmae",
        "name:ko": "오마에",
        "note": "National-Land Numerical Information (Railway) 2007, MLIT Japan",
        "note:ja": "国土数値情報（鉄道データ）平成19年　国土交通省",
        "public_transport": "station",
        "railway": "station",
        "source": "KSJ2",
        "source_ref": "http://nlftp.mlit.go.jp/ksj/jpgis/datalist/KsjTmplt-N02-v1_1.html",
        "wikidata": "Q3971398",
        "wikipedia": "ja:大前駅"
      }
    },
    {
      "id": "gunma_station_355842392",
      "osmId": 355842392,
      "osmType": "node",
      "prefectureId": "gunma",
      "type": "station",
      "subtype": "private",
      "name": "羽根尾",
      "nameKana": null,
      "nameEn": "Haneo",
      "operator": null,
      "network": null,
      "ref": null,
      "latitude": 36.550006,
      "longitude": 138.6053878,
      "countryCode": "jp",
      "rawTags": {
        "KSJ2:LIN": "吾妻線",
        "KSJ2:STN": "羽根尾",
        "name": "羽根尾",
        "name:en": "Haneo",
        "name:ja": "羽根尾",
        "name:ja_rm": "Haneo",
        "name:ko": "하네오",
        "note": "National-Land Numerical Information (Railway) 2007, MLIT Japan",
        "note:ja": "国土数値情報（鉄道データ）平成19年　国土交通省",
        "public_transport": "station",
        "railway": "station",
        "source": "KSJ2",
        "source_ref": "http://nlftp.mlit.go.jp/ksj/jpgis/datalist/KsjTmplt-N02-v1_1.html",
        "wikidata": "Q11610220",
        "wikipedia": "ja:羽根尾駅"
      }
    },
    {
      "id": "gunma_station_355842393",
      "osmId": 355842393,
      "osmType": "node",
      "prefectureId": "gunma",
      "type": "station",
      "subtype": "private",
      "name": "袋倉",
      "nameKana": null,
      "nameEn": "Fukurogura",
      "operator": null,
      "network": null,
      "ref": null,
      "latitude": 36.5440674,
      "longitude": 138.5788983,
      "countryCode": "jp",
      "rawTags": {
        "KSJ2:LIN": "吾妻線",
        "KSJ2:STN": "袋倉",
        "name": "袋倉",
        "name:en": "Fukurogura",
        "name:ja": "袋倉",
        "name:ja_rm": "Fukurogura",
        "name:ko": "후쿠로구라",
        "note": "National-Land Numerical Information (Railway) 2007, MLIT Japan",
        "note:ja": "国土数値情報（鉄道データ）平成19年　国土交通省",
        "public_transport": "station",
        "railway": "station",
        "source": "KSJ2",
        "source_ref": "http://nlftp.mlit.go.jp/ksj/jpgis/datalist/KsjTmplt-N02-v1_1.html",
        "wikidata": "Q5507710",
        "wikipedia": "ja:袋倉駅"
      }
    },
    {
      "id": "gunma_station_355842579",
      "osmId": 355842579,
      "osmType": "node",
      "prefectureId": "gunma",
      "type": "station",
      "subtype": "private",
      "name": "万座・鹿沢口",
      "nameKana": null,
      "nameEn": "Manza-Kazawaguchi",
      "operator": null,
      "network": null,
      "ref": null,
      "latitude": 36.5320685,
      "longitude": 138.5511714,
      "countryCode": "jp",
      "rawTags": {
        "KSJ2:LIN": "吾妻線",
        "KSJ2:STN": "万座・鹿沢口",
        "name": "万座・鹿沢口",
        "name:en": "Manza-Kazawaguchi",
        "name:ja": "万座・鹿沢口",
        "name:ja_rm": "Manza-Kazawaguchi",
        "name:ko": "만자·카자와구치",
        "note": "National-Land Numerical Information (Railway) 2007, MLIT Japan",
        "note:ja": "国土数値情報（鉄道データ）平成19年　国土交通省",
        "public_transport": "station",
        "railway": "station",
        "source": "KSJ2",
        "source_ref": "http://nlftp.mlit.go.jp/ksj/jpgis/datalist/KsjTmplt-N02-v1_1.html",
        "wikidata": "Q6753421",
        "wikipedia": "ja:万座・鹿沢口駅"
      }
    },
    {
      "id": "gunma_station_355842669",
      "osmId": 355842669,
      "osmType": "node",
      "prefectureId": "gunma",
      "type": "station",
      "subtype": "private",
      "name": "岩島",
      "nameKana": null,
      "nameEn": "Iwashima",
      "operator": null,
      "network": null,
      "ref": null,
      "latitude": 36.5632327,
      "longitude": 138.7599489,
      "countryCode": "jp",
      "rawTags": {
        "name": "岩島",
        "name:en": "Iwashima",
        "name:ja": "岩島",
        "name:ja_rm": "Iwashima",
        "name:ko": "이와시마",
        "public_transport": "station",
        "railway": "station",
        "source": "KSJ2",
        "wikidata": "Q6100736",
        "wikipedia": "ja:岩島駅"
      }
    },
    {
      "id": "gunma_station_355842841",
      "osmId": 355842841,
      "osmType": "node",
      "prefectureId": "gunma",
      "type": "station",
      "subtype": "private",
      "name": "吾妻峡八ッ場",
      "nameKana": null,
      "nameEn": null,
      "operator": "東吾妻町役場 まちづくり推進課",
      "network": null,
      "ref": null,
      "latitude": 36.5592332,
      "longitude": 138.7150316,
      "countryCode": "jp",
      "rawTags": {
        "name": "吾妻峡八ッ場",
        "operator": "東吾妻町役場 まちづくり推進課",
        "public_transport": "station",
        "railway": "station",
        "source": "KSJ2"
      }
    },
    {
      "id": "gunma_station_2620776337",
      "osmId": 2620776337,
      "osmType": "node",
      "prefectureId": "gunma",
      "type": "station",
      "subtype": "jr",
      "name": "安中榛名",
      "nameKana": "あんなかはるな",
      "nameEn": "Annaka-Haruna",
      "operator": "東日本旅客鉄道株式会社",
      "network": null,
      "ref": null,
      "latitude": 36.3625792,
      "longitude": 138.8493964,
      "countryCode": "jp",
      "rawTags": {
        "highspeed": "yes",
        "name": "安中榛名",
        "name:en": "Annaka-Haruna",
        "name:ja": "安中榛名",
        "name:ja_kana": "あんなかはるな",
        "name:ja_rm": "Annaka-Haruna",
        "name:ko": "안나카하루나",
        "operator": "東日本旅客鉄道株式会社",
        "public_transport": "station",
        "railway": "station",
        "source": "Bing",
        "wikidata": "Q1138259",
        "wikipedia": "ja:安中榛名駅"
      }
    },
    {
      "id": "gunma_station_3032951488",
      "osmId": 3032951488,
      "osmType": "node",
      "prefectureId": "gunma",
      "type": "station",
      "subtype": "jr",
      "name": "上毛高原",
      "nameKana": "じょうもうこうげん",
      "nameEn": "Jomo-Kogen",
      "operator": "東日本旅客鉄道",
      "network": null,
      "ref": null,
      "latitude": 36.6931647,
      "longitude": 138.9775973,
      "countryCode": "jp",
      "rawTags": {
        "highspeed": "yes",
        "name": "上毛高原",
        "name:de": "Jōmō-Kōgen",
        "name:en": "Jomo-Kogen",
        "name:ja": "上毛高原",
        "name:ja_kana": "じょうもうこうげん",
        "name:ja_rm": "Jōmō-Kōgen",
        "name:ko": "조모코겐",
        "name:ru": "Дзёмо-Коген",
        "operator": "東日本旅客鉄道",
        "public_transport": "station",
        "railway": "station",
        "wikidata": "Q1138087",
        "wikipedia": "ja:上毛高原駅"
      }
    },
    {
      "id": "gunma_station_3110550365",
      "osmId": 3110550365,
      "osmType": "node",
      "prefectureId": "gunma",
      "type": "station",
      "subtype": "jr",
      "name": "川原湯温泉",
      "nameKana": null,
      "nameEn": "Kawarayu-Onsen",
      "operator": "東日本旅客鉄道",
      "network": null,
      "ref": null,
      "latitude": 36.5451,
      "longitude": 138.6974453,
      "countryCode": "jp",
      "rawTags": {
        "alt_name:ko": "가와라유온센",
        "end_date": "2014-9-24",
        "name": "川原湯温泉",
        "name:en": "Kawarayu-Onsen",
        "name:ja": "川原湯温泉",
        "name:ja_rm": "Kawarayu-Onsen",
        "name:ko": "가와라유온천",
        "operator": "東日本旅客鉄道",
        "public_transport": "station",
        "railway": "station",
        "train": "yes",
        "wikidata": "Q6379693",
        "wikipedia": "ja:川原湯温泉駅"
      }
    },
    {
      "id": "gunma_station_3402240963",
      "osmId": 3402240963,
      "osmType": "node",
      "prefectureId": "gunma",
      "type": "station",
      "subtype": "private",
      "name": "高崎問屋町",
      "nameKana": null,
      "nameEn": "Takasaki-Tonyamachi",
      "operator": null,
      "network": null,
      "ref": null,
      "latitude": 36.3460185,
      "longitude": 139.0170821,
      "countryCode": "jp",
      "rawTags": {
        "name": "高崎問屋町",
        "name:en": "Takasaki-Tonyamachi",
        "name:ja": "高崎問屋町",
        "name:ja_rm": "Takasaki-Tonyamachi",
        "public_transport": "station",
        "railway": "station",
        "source": "survey",
        "wikidata": "Q1652478",
        "wikipedia": "ja:高崎問屋町駅"
      }
    },
    {
      "id": "gunma_station_3402288118",
      "osmId": 3402288118,
      "osmType": "node",
      "prefectureId": "gunma",
      "type": "station",
      "subtype": "jr",
      "name": "高崎",
      "nameKana": null,
      "nameEn": "Takasaki",
      "operator": "東日本旅客鉄道",
      "network": null,
      "ref": null,
      "latitude": 36.3223804,
      "longitude": 139.0127191,
      "countryCode": "jp",
      "rawTags": {
        "highspeed": "yes",
        "name": "高崎",
        "name:de": "Takasaki",
        "name:en": "Takasaki",
        "name:ja": "高崎",
        "name:ja_rm": "Takasaki",
        "name:ko": "다카사키",
        "name:ru": "Такасаки",
        "operator": "東日本旅客鉄道",
        "public_transport": "station",
        "railway": "station",
        "wikidata": "Q801505",
        "wikipedia": "ja:高崎駅"
      }
    },
    {
      "id": "gunma_station_3416345762",
      "osmId": 3416345762,
      "osmType": "node",
      "prefectureId": "gunma",
      "type": "station",
      "subtype": "private",
      "name": "敷島",
      "nameKana": null,
      "nameEn": "Shikishima",
      "operator": null,
      "network": null,
      "ref": null,
      "latitude": 36.5379451,
      "longitude": 139.0338524,
      "countryCode": "jp",
      "rawTags": {
        "name": "敷島",
        "name:en": "Shikishima",
        "name:ja": "敷島",
        "name:ja_rm": "Shikishima",
        "name:ko": "시키시마",
        "public_transport": "station",
        "railway": "station",
        "source": "Bing 2013",
        "wikidata": "Q1705823",
        "wikipedia": "ja:敷島駅"
      }
    },
    {
      "id": "gunma_station_3416345763",
      "osmId": 3416345763,
      "osmType": "node",
      "prefectureId": "gunma",
      "type": "station",
      "subtype": "private",
      "name": "津久田",
      "nameKana": null,
      "nameEn": "Tsukuda",
      "operator": null,
      "network": null,
      "ref": null,
      "latitude": 36.5611315,
      "longitude": 139.0428322,
      "countryCode": "jp",
      "rawTags": {
        "name": "津久田",
        "name:en": "Tsukuda",
        "name:ja": "津久田",
        "name:ja_rm": "Tsukuda",
        "name:ko": "쓰쿠다",
        "public_transport": "station",
        "railway": "station",
        "wikidata": "Q1705789",
        "wikipedia": "ja:津久田駅"
      }
    },
    {
      "id": "gunma_station_3442398476",
      "osmId": 3442398476,
      "osmType": "node",
      "prefectureId": "gunma",
      "type": "station",
      "subtype": "jr",
      "name": "群馬八幡",
      "nameKana": null,
      "nameEn": "Gunma-Yawata",
      "operator": "東日本旅客鉄道",
      "network": null,
      "ref": null,
      "latitude": 36.3377009,
      "longitude": 138.9574688,
      "countryCode": "jp",
      "rawTags": {
        "name": "群馬八幡",
        "name:en": "Gunma-Yawata",
        "name:ja": "群馬八幡",
        "name:ja_rm": "Gunma-Yawata",
        "name:ko": "군마야와타",
        "operator": "東日本旅客鉄道",
        "public_transport": "station",
        "railway": "station",
        "wikidata": "Q899937"
      }
    },
    {
      "id": "gunma_station_3505733714",
      "osmId": 3505733714,
      "osmType": "node",
      "prefectureId": "gunma",
      "type": "station",
      "subtype": "private",
      "name": "岩本",
      "nameKana": null,
      "nameEn": "Iwamoto",
      "operator": null,
      "network": null,
      "ref": null,
      "latitude": 36.6030654,
      "longitude": 139.0470124,
      "countryCode": "jp",
      "rawTags": {
        "name": "岩本",
        "name:en": "Iwamoto",
        "name:ja": "岩本",
        "name:ja_rm": "Iwamoto",
        "name:ko": "이와모토",
        "public_transport": "station",
        "railway": "station",
        "source_ref": "http://nlftp.mlit.go.jp/ksj/jpgis/datalist/KsjTmplt-N02-v1_1.html",
        "wikidata": "Q775068",
        "wikipedia": "ja:岩本駅"
      }
    },
    {
      "id": "gunma_station_3548915148",
      "osmId": 3548915148,
      "osmType": "node",
      "prefectureId": "gunma",
      "type": "station",
      "subtype": "private",
      "name": "土合",
      "nameKana": null,
      "nameEn": "Doai",
      "operator": null,
      "network": null,
      "ref": null,
      "latitude": 36.8304169,
      "longitude": 138.964686,
      "countryCode": "jp",
      "rawTags": {
        "KSJ2:LIN": "上越線",
        "KSJ2:STN": "土合",
        "name": "土合",
        "name:en": "Doai",
        "name:ja": "土合",
        "name:ja_rm": "Doai",
        "name:ko": "도아이",
        "note": "National-Land Numerical Information (Railway) 2007, MLIT Japan",
        "note:ja": "国土数値情報（鉄道データ）平成19年　国土交通省",
        "public_transport": "station",
        "railway": "station",
        "source": "KSJ2",
        "source_ref": "http://nlftp.mlit.go.jp/ksj/jpgis/datalist/KsjTmplt-N02-v1_1.html",
        "wikidata": "Q5286466",
        "wikipedia": "ja:土合駅"
      }
    },
    {
      "id": "gunma_station_3548915151",
      "osmId": 3548915151,
      "osmType": "node",
      "prefectureId": "gunma",
      "type": "station",
      "subtype": "private",
      "name": "群馬総社",
      "nameKana": null,
      "nameEn": "Gunma-Sōja",
      "operator": null,
      "network": null,
      "ref": null,
      "latitude": 36.4155807,
      "longitude": 139.0322835,
      "countryCode": "jp",
      "rawTags": {
        "KSJ2:LIN": "上越線",
        "KSJ2:STN": "群馬総社",
        "name": "群馬総社",
        "name:en": "Gunma-Sōja",
        "name:ja": "群馬総社",
        "name:ja_rm": "Gumma-Sōja",
        "name:ko": "군마소자",
        "note": "National-Land Numerical Information (Railway) 2007, MLIT Japan",
        "note:ja": "国土数値情報（鉄道データ）平成19年　国土交通省",
        "public_transport": "station",
        "railway": "station",
        "source": "KSJ2",
        "source_ref": "http://nlftp.mlit.go.jp/ksj/jpgis/datalist/KsjTmplt-N02-v1_1.html",
        "wikidata": "Q1705804",
        "wikipedia": "ja:群馬総社駅"
      }
    },
    {
      "id": "gunma_station_3548915154",
      "osmId": 3548915154,
      "osmType": "node",
      "prefectureId": "gunma",
      "type": "station",
      "subtype": "private",
      "name": "沼田",
      "nameKana": null,
      "nameEn": "Numata",
      "operator": null,
      "network": null,
      "ref": null,
      "latitude": 36.6424053,
      "longitude": 139.0356609,
      "countryCode": "jp",
      "rawTags": {
        "KSJ2:LIN": "上越線",
        "KSJ2:STN": "沼田",
        "name": "沼田",
        "name:en": "Numata",
        "name:ja": "沼田",
        "name:ja_rm": "Numata",
        "name:ko": "누마타",
        "note": "National-Land Numerical Information (Railway) 2007, MLIT Japan",
        "note:ja": "国土数値情報（鉄道データ）平成19年　国土交通省",
        "public_transport": "station",
        "railway": "station",
        "source": "KSJ2",
        "source_ref": "http://nlftp.mlit.go.jp/ksj/jpgis/datalist/KsjTmplt-N02-v1_1.html",
        "wikidata": "Q1706459",
        "wikipedia": "ja:沼田駅"
      }
    },
    {
      "id": "gunma_station_3548915155",
      "osmId": 3548915155,
      "osmType": "node",
      "prefectureId": "gunma",
      "type": "station",
      "subtype": "jr",
      "name": "渋川",
      "nameKana": "しぶかわ",
      "nameEn": "Shibukawa",
      "operator": "東日本旅客鉄道",
      "network": null,
      "ref": null,
      "latitude": 36.4906867,
      "longitude": 139.0085523,
      "countryCode": "jp",
      "rawTags": {
        "building": "yes",
        "name": "渋川",
        "name:en": "Shibukawa",
        "name:ja-Hira": "しぶかわ",
        "name:ja_rm": "Shibukawa",
        "operator": "東日本旅客鉄道",
        "public_transport": "station",
        "railway": "station",
        "train": "yes",
        "wikidata": "Q864146",
        "wikipedia": "ja:渋川駅"
      }
    },
    {
      "id": "gunma_station_3548915156",
      "osmId": 3548915156,
      "osmType": "node",
      "prefectureId": "gunma",
      "type": "station",
      "subtype": "private",
      "name": "新前橋",
      "nameKana": "しんまえばし",
      "nameEn": "Shin-Maebashi",
      "operator": null,
      "network": null,
      "ref": null,
      "latitude": 36.3788486,
      "longitude": 139.0471407,
      "countryCode": "jp",
      "rawTags": {
        "KSJ2:LIN": "両毛線",
        "KSJ2:STN": "新前橋",
        "name": "新前橋",
        "name:en": "Shin-Maebashi",
        "name:ja": "新前橋",
        "name:ja-Hira": "しんまえばし",
        "name:ja_rm": "Shin-Maebashi",
        "name:ko": "신마에바시",
        "note": "National-Land Numerical Information (Railway) 2007, MLIT Japan",
        "note:ja": "国土数値情報（鉄道データ）平成19年　国土交通省",
        "public_transport": "station",
        "railway": "station",
        "source": "KSJ2",
        "source_ref": "http://nlftp.mlit.go.jp/ksj/jpgis/datalist/KsjTmplt-N02-v1_1.html",
        "wikidata": "Q1652844",
        "wikipedia": "ja:新前橋駅"
      }
    },
    {
      "id": "gunma_station_3548915158",
      "osmId": 3548915158,
      "osmType": "node",
      "prefectureId": "gunma",
      "type": "station",
      "subtype": "private",
      "name": "八木原",
      "nameKana": null,
      "nameEn": "Yagihara",
      "operator": null,
      "network": null,
      "ref": null,
      "latitude": 36.4635849,
      "longitude": 139.0192379,
      "countryCode": "jp",
      "rawTags": {
        "KSJ2:LIN": "上越線",
        "KSJ2:STN": "八木原",
        "name": "八木原",
        "name:en": "Yagihara",
        "name:ja": "八木原",
        "name:ja_rm": "Yagihara",
        "name:ko": "야기하라",
        "note": "National-Land Numerical Information (Railway) 2007, MLIT Japan",
        "note:ja": "国土数値情報（鉄道データ）平成19年　国土交通省",
        "public_transport": "station",
        "railway": "station",
        "source": "KSJ2",
        "source_ref": "http://nlftp.mlit.go.jp/ksj/jpgis/datalist/KsjTmplt-N02-v1_1.html",
        "wikidata": "Q1706435",
        "wikipedia": "ja:八木原駅"
      }
    },
    {
      "id": "gunma_station_3548915159",
      "osmId": 3548915159,
      "osmType": "node",
      "prefectureId": "gunma",
      "type": "station",
      "subtype": "private",
      "name": "湯檜曽",
      "nameKana": null,
      "nameEn": "Yubiso",
      "operator": null,
      "network": null,
      "ref": null,
      "latitude": 36.8027175,
      "longitude": 138.9865728,
      "countryCode": "jp",
      "rawTags": {
        "KSJ2:LIN": "上越線",
        "KSJ2:STN": "湯檜曽",
        "name": "湯檜曽",
        "name:en": "Yubiso",
        "name:ja": "湯檜曽",
        "name:ja_rm": "Yubiso",
        "name:ko": "유비소",
        "note": "National-Land Numerical Information (Railway) 2007, MLIT Japan",
        "note:ja": "国土数値情報（鉄道データ）平成19年　国土交通省",
        "public_transport": "station",
        "railway": "station",
        "source": "KSJ2",
        "source_ref": "http://nlftp.mlit.go.jp/ksj/jpgis/datalist/KsjTmplt-N02-v1_1.html",
        "wikidata": "Q3527453",
        "wikipedia": "ja:湯檜曽駅"
      }
    },
    {
      "id": "gunma_station_3556466289",
      "osmId": 3556466289,
      "osmType": "node",
      "prefectureId": "gunma",
      "type": "station",
      "subtype": "private",
      "name": "群馬藤岡",
      "nameKana": null,
      "nameEn": "Gunma-Fujioka",
      "operator": null,
      "network": null,
      "ref": null,
      "latitude": 36.2501545,
      "longitude": 139.083422,
      "countryCode": "jp",
      "rawTags": {
        "name": "群馬藤岡",
        "name:en": "Gunma-Fujioka",
        "name:ja": "群馬藤岡",
        "name:ja_rm": "Gunma-Fujioka",
        "name:ko": "군마후지오카",
        "railway": "station",
        "wikidata": "Q845730",
        "wikipedia": "ja:群馬藤岡駅"
      }
    },
    {
      "id": "gunma_station_3556466291",
      "osmId": 3556466291,
      "osmType": "node",
      "prefectureId": "gunma",
      "type": "station",
      "subtype": "jr",
      "name": "倉賀野",
      "nameKana": null,
      "nameEn": "Kuragano",
      "operator": "東日本旅客鉄道",
      "network": null,
      "ref": null,
      "latitude": 36.3002099,
      "longitude": 139.049137,
      "countryCode": "jp",
      "rawTags": {
        "name": "倉賀野",
        "name:en": "Kuragano",
        "name:ja": "倉賀野",
        "name:ja_rm": "Kuragano",
        "name:ko": "구라가노",
        "operator": "東日本旅客鉄道",
        "operator:ja": "東日本旅客鉄道",
        "public_transport": "station",
        "railway": "station",
        "source": "GSI/KIBAN 2500; NARO",
        "wikidata": "Q910582",
        "wikipedia": "ja:倉賀野駅"
      }
    },
    {
      "id": "gunma_station_3558006062",
      "osmId": 3558006062,
      "osmType": "node",
      "prefectureId": "gunma",
      "type": "station",
      "subtype": "private",
      "name": "前橋",
      "nameKana": null,
      "nameEn": "Maebashi",
      "operator": null,
      "network": null,
      "ref": null,
      "latitude": 36.3832125,
      "longitude": 139.0726408,
      "countryCode": "jp",
      "rawTags": {
        "KSJ2:LIN": "両毛線",
        "KSJ2:STN": "前橋",
        "name": "前橋",
        "name:en": "Maebashi",
        "name:ja": "前橋",
        "name:ja_rm": "Maebashi",
        "name:ko": "마에바시",
        "note": "National-Land Numerical Information (Railway) 2007, MLIT Japan",
        "note:ja": "国土数値情報（鉄道データ）平成19年　国土交通省",
        "public_transport": "station",
        "railway": "station",
        "source": "KSJ2",
        "source_ref": "http://nlftp.mlit.go.jp/ksj/jpgis/datalist/KsjTmplt-N02-v1_1.html",
        "wikidata": "Q1062416",
        "wikipedia": "ja:前橋駅"
      }
    },
    {
      "id": "gunma_station_3558006066",
      "osmId": 3558006066,
      "osmType": "node",
      "prefectureId": "gunma",
      "type": "station",
      "subtype": "jr",
      "name": "新町",
      "nameKana": null,
      "nameEn": "Shimmachi",
      "operator": "東日本旅客鉄道",
      "network": null,
      "ref": null,
      "latitude": 36.2730572,
      "longitude": 139.1053121,
      "countryCode": "jp",
      "rawTags": {
        "name": "新町",
        "name:en": "Shimmachi",
        "name:ja": "新町",
        "name:ja-Latn": "Shimmachi",
        "name:ko": "산마치",
        "operator": "東日本旅客鉄道",
        "public_transport": "station",
        "railway": "station",
        "wikidata": "Q845085",
        "wikipedia": "ja:新町駅 (群馬県)"
      }
    },
    {
      "id": "gunma_station_3705316801",
      "osmId": 3705316801,
      "osmType": "node",
      "prefectureId": "gunma",
      "type": "station",
      "subtype": "jr",
      "name": "北高崎",
      "nameKana": null,
      "nameEn": "Kita-Takasaki",
      "operator": "東日本旅客鉄道",
      "network": null,
      "ref": null,
      "latitude": 36.3386912,
      "longitude": 139.0013003,
      "countryCode": "jp",
      "rawTags": {
        "name": "北高崎",
        "name:en": "Kita-Takasaki",
        "name:ja": "北高崎",
        "name:ko": "기타타카사키",
        "operator": "東日本旅客鉄道",
        "public_transport": "station",
        "railway": "station",
        "train": "yes",
        "website": "https://www.jreast.co.jp/estation/station/info.aspx?StationCd=574",
        "wikidata": "Q900663",
        "wikipedia": "ja:北高崎駅"
      }
    },
    {
      "id": "gunma_station_3721641449",
      "osmId": 3721641449,
      "osmType": "node",
      "prefectureId": "gunma",
      "type": "station",
      "subtype": "private",
      "name": "桐生",
      "nameKana": null,
      "nameEn": "Kiryu",
      "operator": null,
      "network": null,
      "ref": null,
      "latitude": 36.4113225,
      "longitude": 139.3326744,
      "countryCode": "jp",
      "rawTags": {
        "name": "桐生",
        "name:en": "Kiryu",
        "name:ja": "桐生",
        "name:ja_rm": "Kiryu",
        "name:ko": "기류",
        "public_transport": "station",
        "railway": "station",
        "wikidata": "Q6416343",
        "wikipedia": "ja:桐生駅"
      }
    },
    {
      "id": "gunma_station_3721667220",
      "osmId": 3721667220,
      "osmType": "node",
      "prefectureId": "gunma",
      "type": "station",
      "subtype": "jr",
      "name": "伊勢崎",
      "nameKana": null,
      "nameEn": "Isesaki",
      "operator": "東日本旅客鉄道;東武鉄道",
      "network": null,
      "ref": null,
      "latitude": 36.3268395,
      "longitude": 139.1942704,
      "countryCode": "jp",
      "rawTags": {
        "KSJ2:LIN": "両毛線;伊勢崎線",
        "KSJ2:RAS": "eb03_8498",
        "KSJ2:STN": "伊勢崎",
        "KSJ2:segment": "eb02_18228",
        "name": "伊勢崎",
        "name:en": "Isesaki",
        "name:ja": "伊勢崎",
        "name:ja_rm": "Isesaki",
        "name:ko": "이세사키",
        "note": "National-Land Numerical Information (Railway) 2007, MLIT Japan",
        "note:ja": "国土数値情報（鉄道データ）平成19年　国土交通省",
        "operator": "東日本旅客鉄道;東武鉄道",
        "public_transport": "station",
        "railway": "station",
        "source": "KSJ2",
        "source_ref": "http://nlftp.mlit.go.jp/ksj/jpgis/datalist/KsjTmplt-N02-v1_1.html",
        "wheelchair": "yes",
        "wikidata": "Q5963232",
        "wikipedia": "ja:伊勢崎駅"
      }
    },
    {
      "id": "gunma_station_3781558468",
      "osmId": 3781558468,
      "osmType": "node",
      "prefectureId": "gunma",
      "type": "station",
      "subtype": "private",
      "name": "赤城",
      "nameKana": null,
      "nameEn": "Akagi",
      "operator": null,
      "network": null,
      "ref": null,
      "latitude": 36.4257745,
      "longitude": 139.2762898,
      "countryCode": "jp",
      "rawTags": {
        "historic:name": "新大間々",
        "historic:name:en": "Shin-Omama",
        "name": "赤城",
        "name:en": "Akagi",
        "name:ja": "赤城",
        "name:ja-Latn": "Akagi",
        "name:ja_rm": "Akagi",
        "name:ko": "아카기",
        "public_transport": "station",
        "railway": "station",
        "source": "KSJ2",
        "wikidata": "Q4700146",
        "wikipedia": "ja:赤城駅"
      }
    },
    {
      "id": "gunma_station_3781603406",
      "osmId": 3781603406,
      "osmType": "node",
      "prefectureId": "gunma",
      "type": "station",
      "subtype": "private",
      "name": "中央前橋",
      "nameKana": null,
      "nameEn": "Chuo-Maebashi",
      "operator": null,
      "network": null,
      "ref": null,
      "latitude": 36.3911832,
      "longitude": 139.0749235,
      "countryCode": "jp",
      "rawTags": {
        "name": "中央前橋",
        "name:en": "Chuo-Maebashi",
        "name:ja": "中央前橋",
        "name:ja_rm": "Chūō-Maebashi",
        "name:ko": "주오마에바시",
        "public_transport": "station",
        "railway": "station",
        "source": "KSJ2",
        "wikidata": "Q5119036",
        "wikipedia": "ja:中央前橋駅"
      }
    },
    {
      "id": "gunma_station_3781603409",
      "osmId": 3781603409,
      "osmType": "node",
      "prefectureId": "gunma",
      "type": "station",
      "subtype": "private",
      "name": "上泉",
      "nameKana": null,
      "nameEn": "Kamiizumi",
      "operator": null,
      "network": null,
      "ref": null,
      "latitude": 36.3942753,
      "longitude": 139.1065811,
      "countryCode": "jp",
      "rawTags": {
        "name": "上泉",
        "name:en": "Kamiizumi",
        "name:ja-Latn": "Kamiizumi",
        "name:ko": "가미이즈미",
        "public_transport": "station",
        "railway": "station",
        "source": "KSJ2",
        "wikidata": "Q6357816",
        "wikipedia": "ja:上泉駅"
      }
    },
    {
      "id": "gunma_station_3781603410",
      "osmId": 3781603410,
      "osmType": "node",
      "prefectureId": "gunma",
      "type": "station",
      "subtype": "private",
      "name": "片貝",
      "nameKana": null,
      "nameEn": "Katakai",
      "operator": null,
      "network": null,
      "ref": null,
      "latitude": 36.3939498,
      "longitude": 139.0955133,
      "countryCode": "jp",
      "rawTags": {
        "name": "片貝",
        "name:en": "Katakai",
        "name:ja-Latn": "Katakai",
        "name:ko": "가타카이",
        "public_transport": "station",
        "railway": "station",
        "source": "KSJ2",
        "train": "yes",
        "wikidata": "Q6375029",
        "wikipedia": "ja:片貝駅"
      }
    },
    {
      "id": "gunma_station_3781603411",
      "osmId": 3781603411,
      "osmType": "node",
      "prefectureId": "gunma",
      "type": "station",
      "subtype": "private",
      "name": "三俣",
      "nameKana": null,
      "nameEn": "Mitsumata",
      "operator": null,
      "network": null,
      "ref": null,
      "latitude": 36.3937327,
      "longitude": 139.0890263,
      "countryCode": "jp",
      "rawTags": {
        "name": "三俣",
        "name:en": "Mitsumata",
        "name:ja": "三俣",
        "name:ja-Latn": "Mitsumata",
        "name:ko": "미쓰마타",
        "public_transport": "station",
        "railway": "station",
        "source": "KSJ2",
        "wikidata": "Q6883299",
        "wikipedia": "ja:三俣駅"
      }
    },
    {
      "id": "gunma_station_3781603413",
      "osmId": 3781603413,
      "osmType": "node",
      "prefectureId": "gunma",
      "type": "station",
      "subtype": "private",
      "name": "西桐生",
      "nameKana": null,
      "nameEn": "Nishi-Kiryu",
      "operator": null,
      "network": null,
      "ref": null,
      "latitude": 36.4139311,
      "longitude": 139.3338152,
      "countryCode": "jp",
      "rawTags": {
        "name": "西桐生",
        "name:en": "Nishi-Kiryu",
        "name:ja": "西桐生",
        "name:ja_rm": "Nishi-Kiryū",
        "name:ko": "니시키류",
        "public_transport": "station",
        "railway": "station",
        "wikidata": "Q7040364",
        "wikipedia": "ja:西桐生駅"
      }
    },
    {
      "id": "gunma_ferry_terminal_3781753473",
      "osmId": 3781753473,
      "osmType": "node",
      "prefectureId": "gunma",
      "type": "ferry_terminal",
      "subtype": null,
      "name": "赤岩渡船",
      "nameKana": "あかいわとせん",
      "nameEn": "Akaiwa Tosen",
      "operator": null,
      "network": null,
      "ref": null,
      "latitude": 36.2061196,
      "longitude": 139.4345654,
      "countryCode": "jp",
      "rawTags": {
        "addr:province": "群馬県",
        "amenity": "ferry_terminal",
        "ele": "28",
        "ferry": "yes",
        "name": "赤岩渡船",
        "name:en": "Akaiwa Tosen",
        "name:ja_kana": "あかいわとせん",
        "note": "The elevation may contain an error as it was captured by GPS logger.",
        "public_transport": "station",
        "source:position": "GPS (averaged waypoint)",
        "wikidata": "Q11635547",
        "wikipedia": "ja:赤岩渡船"
      }
    },
    {
      "id": "gunma_station_3824450761",
      "osmId": 3824450761,
      "osmType": "node",
      "prefectureId": "gunma",
      "type": "station",
      "subtype": "jr",
      "name": "横川",
      "nameKana": null,
      "nameEn": "Yokokawa",
      "operator": "東日本旅客鉄道",
      "network": null,
      "ref": null,
      "latitude": 36.336178,
      "longitude": 138.7372548,
      "countryCode": "jp",
      "rawTags": {
        "name": "横川",
        "name:en": "Yokokawa",
        "name:ja": "横川",
        "name:ja_rm": "Yokokawa",
        "name:ko": "요코카와",
        "operator": "東日本旅客鉄道",
        "public_transport": "station",
        "railway": "station",
        "wikidata": "Q5357064",
        "wikipedia": "ja:横川駅 (群馬県)"
      }
    },
    {
      "id": "gunma_station_3824505339",
      "osmId": 3824505339,
      "osmType": "node",
      "prefectureId": "gunma",
      "type": "station",
      "subtype": "jr",
      "name": "安中",
      "nameKana": "あんなか",
      "nameEn": "Annaka",
      "operator": "東日本旅客鉄道",
      "network": null,
      "ref": null,
      "latitude": 36.3316945,
      "longitude": 138.9145889,
      "countryCode": "jp",
      "rawTags": {
        "name": "安中",
        "name:en": "Annaka",
        "name:ja": "安中",
        "name:ja-Hira": "あんなか",
        "name:ja_rm": "Annaka",
        "name:ko": "안나카",
        "operator": "東日本旅客鉄道",
        "public_transport": "station",
        "railway": "station",
        "wikidata": "Q861538",
        "wikipedia": "ja:安中駅"
      }
    },
    {
      "id": "gunma_station_3824505341",
      "osmId": 3824505341,
      "osmType": "node",
      "prefectureId": "gunma",
      "type": "station",
      "subtype": "jr",
      "name": "松井田",
      "nameKana": null,
      "nameEn": "Matsuida",
      "operator": "東日本旅客鉄道",
      "network": null,
      "ref": null,
      "latitude": 36.3094214,
      "longitude": 138.797336,
      "countryCode": "jp",
      "rawTags": {
        "name": "松井田",
        "name:en": "Matsuida",
        "name:ja": "松井田",
        "name:ja_rm": "Matsuida",
        "name:ko": "마쓰이다",
        "operator": "東日本旅客鉄道",
        "public_transport": "station",
        "railway": "station",
        "wikidata": "Q5357126",
        "wikipedia": "ja:松井田駅"
      }
    },
    {
      "id": "gunma_station_3824505344",
      "osmId": 3824505344,
      "osmType": "node",
      "prefectureId": "gunma",
      "type": "station",
      "subtype": "jr",
      "name": "磯部",
      "nameKana": null,
      "nameEn": "Isobe",
      "operator": "東日本旅客鉄道",
      "network": null,
      "ref": null,
      "latitude": 36.2983921,
      "longitude": 138.8497966,
      "countryCode": "jp",
      "rawTags": {
        "name": "磯部",
        "name:en": "Isobe",
        "name:ja": "磯部",
        "name:ja_rm": "Isobe",
        "name:ko": "이소베",
        "operator": "東日本旅客鉄道",
        "public_transport": "station",
        "railway": "station",
        "wikidata": "Q900685"
      }
    },
    {
      "id": "gunma_station_3824505347",
      "osmId": 3824505347,
      "osmType": "node",
      "prefectureId": "gunma",
      "type": "station",
      "subtype": "jr",
      "name": "西松井田",
      "nameKana": null,
      "nameEn": "Nishi-Matsuida",
      "operator": "東日本旅客鉄道",
      "network": null,
      "ref": null,
      "latitude": 36.3162627,
      "longitude": 138.7863809,
      "countryCode": "jp",
      "rawTags": {
        "name": "西松井田",
        "name:en": "Nishi-Matsuida",
        "name:ja": "西松井田",
        "name:ja_rm": "Nishi-Matsuida",
        "name:ko": "니시마쓰이다",
        "operator": "東日本旅客鉄道",
        "public_transport": "station",
        "railway": "station",
        "wikidata": "Q5356946"
      }
    },
    {
      "id": "gunma_station_3830528959",
      "osmId": 3830528959,
      "osmType": "node",
      "prefectureId": "gunma",
      "type": "station",
      "subtype": "private",
      "name": "国定",
      "nameKana": null,
      "nameEn": "Kunisada",
      "operator": null,
      "network": null,
      "ref": null,
      "latitude": 36.3587439,
      "longitude": 139.2421072,
      "countryCode": "jp",
      "rawTags": {
        "name": "国定",
        "name:en": "Kunisada",
        "name:ja": "国定",
        "name:ja_rm": "Kunisada",
        "name:ko": "구니사다",
        "public_transport": "station",
        "railway": "station",
        "wikidata": "Q426096",
        "wikipedia": "ja:国定駅"
      }
    },
    {
      "id": "gunma_bus_terminal_3837325008",
      "osmId": 3837325008,
      "osmType": "node",
      "prefectureId": "gunma",
      "type": "bus_terminal",
      "subtype": null,
      "name": "室田営業所",
      "nameKana": null,
      "nameEn": null,
      "operator": null,
      "network": null,
      "ref": null,
      "latitude": 36.3848875,
      "longitude": 138.8799653,
      "countryCode": "jp",
      "rawTags": {
        "amenity": "bus_station",
        "name": "室田営業所"
      }
    },
    {
      "id": "gunma_station_3879947894",
      "osmId": 3879947894,
      "osmType": "node",
      "prefectureId": "gunma",
      "type": "station",
      "subtype": "private",
      "name": "北藤岡",
      "nameKana": null,
      "nameEn": "Kita-Fujioka",
      "operator": null,
      "network": null,
      "ref": null,
      "latitude": 36.2824282,
      "longitude": 139.0809068,
      "countryCode": "jp",
      "rawTags": {
        "name": "北藤岡",
        "name:en": "Kita-Fujioka",
        "name:ja": "北藤岡",
        "name:ja-Latn": "Kita-Fujioka",
        "name:ko": "기타후지오카",
        "public_transport": "station",
        "railway": "station",
        "source": "Bing 2013",
        "source_ref": "http://nlftp.mlit.go.jp/ksj/jpgis/datalist/KsjTmplt-N02-v1_1.html",
        "wikidata": "Q844853",
        "wikipedia": "ja:北藤岡駅"
      }
    },
    {
      "id": "gunma_station_3893494792",
      "osmId": 3893494792,
      "osmType": "node",
      "prefectureId": "gunma",
      "type": "station",
      "subtype": "private",
      "name": "南高崎",
      "nameKana": null,
      "nameEn": "Minami-Takasaki",
      "operator": "上信電鉄",
      "network": "上信線",
      "ref": null,
      "latitude": 36.3123827,
      "longitude": 139.0122646,
      "countryCode": "jp",
      "rawTags": {
        "name": "南高崎",
        "name:en": "Minami-Takasaki",
        "name:ja": "南高崎",
        "name:ja_rm": "Minami-Takasaki",
        "name:ko": "미나미타카사키",
        "network": "上信線",
        "operator": "上信電鉄",
        "operator:en": "Jōshin Dentetsu",
        "operator:ja": "上信電鉄",
        "public_transport": "station",
        "railway": "station",
        "source": "Bing 2013",
        "train": "yes",
        "wikidata": "Q11408788"
      }
    },
    {
      "id": "gunma_station_3893504438",
      "osmId": 3893504438,
      "osmType": "node",
      "prefectureId": "gunma",
      "type": "station",
      "subtype": "private",
      "name": "佐野のわたし",
      "nameKana": null,
      "nameEn": "Sano-no-Watashi",
      "operator": "上信電鉄",
      "network": "上信線",
      "ref": null,
      "latitude": 36.3025866,
      "longitude": 139.0182837,
      "countryCode": "jp",
      "rawTags": {
        "name": "佐野のわたし",
        "name:en": "Sano-no-Watashi",
        "name:ja": "佐野のわたし",
        "name:ja_rm": "Sano-no-Watashi",
        "name:ko": "사노노와타시",
        "network": "上信線",
        "operator": "上信電鉄",
        "operator:en": "Jōshin Dentetsu",
        "operator:ja": "上信電鉄",
        "public_transport": "station",
        "railway": "station",
        "train": "yes",
        "wikidata": "Q17220552",
        "wikipedia": "ja:佐野のわたし駅"
      }
    },
    {
      "id": "gunma_station_3894565570",
      "osmId": 3894565570,
      "osmType": "node",
      "prefectureId": "gunma",
      "type": "station",
      "subtype": "private",
      "name": "根小屋",
      "nameKana": null,
      "nameEn": "Negoya",
      "operator": "上信電鉄",
      "network": "上信線",
      "ref": null,
      "latitude": 36.2914111,
      "longitude": 139.018774,
      "countryCode": "jp",
      "rawTags": {
        "name": "根小屋",
        "name:en": "Negoya",
        "name:ja": "根小屋",
        "name:ja_rm": "Negoya",
        "name:ko": "네고야",
        "network": "上信線",
        "operator": "上信電鉄",
        "public_transport": "station",
        "railway": "station",
        "wikidata": "Q11536283",
        "wikipedia": "ja:根小屋駅"
      }
    },
    {
      "id": "gunma_station_3894565571",
      "osmId": 3894565571,
      "osmType": "node",
      "prefectureId": "gunma",
      "type": "station",
      "subtype": "private",
      "name": "高崎商科大学前",
      "nameKana": null,
      "nameEn": "Takasaki-Shoka-Daigaku-mae",
      "operator": null,
      "network": null,
      "ref": null,
      "latitude": 36.2843094,
      "longitude": 139.029513,
      "countryCode": "jp",
      "rawTags": {
        "alt_name:ko": "다카사키쇼카다이가쿠마에",
        "name": "高崎商科大学前",
        "name:en": "Takasaki-Shoka-Daigaku-mae",
        "name:ja": "高崎商科大学前",
        "name:ja_rm": "Takasaki-Shōka-Daigaku-mae",
        "name:ko": "다카사키상과대학앞",
        "public_transport": "station",
        "railway": "station",
        "source": "Bing 2013",
        "wikidata": "Q11669741",
        "wikipedia": "ja:高崎商科大学前駅"
      }
    },
    {
      "id": "gunma_station_3895228695",
      "osmId": 3895228695,
      "osmType": "node",
      "prefectureId": "gunma",
      "type": "station",
      "subtype": "private",
      "name": "山名",
      "nameKana": null,
      "nameEn": "Yamana",
      "operator": "上信電鉄",
      "network": "上信線",
      "ref": null,
      "latitude": 36.277639,
      "longitude": 139.0381956,
      "countryCode": "jp",
      "rawTags": {
        "name": "山名",
        "name:en": "Yamana",
        "name:ja": "山名",
        "name:ja_rm": "Yamana",
        "name:ko": "야마나",
        "network": "上信線",
        "operator": "上信電鉄",
        "public_transport": "station",
        "railway": "station",
        "wikidata": "Q11467648",
        "wikipedia": "ja:山名駅"
      }
    },
    {
      "id": "gunma_station_3934184665",
      "osmId": 3934184665,
      "osmType": "node",
      "prefectureId": "gunma",
      "type": "station",
      "subtype": "private",
      "name": "新桐生",
      "nameKana": null,
      "nameEn": "Shin-Kiryu",
      "operator": null,
      "network": null,
      "ref": null,
      "latitude": 36.3951077,
      "longitude": 139.3202394,
      "countryCode": "jp",
      "rawTags": {
        "KSJ2:LIN": "桐生線",
        "KSJ2:RAS": "eb03_8585",
        "KSJ2:STN": "新桐生",
        "KSJ2:segment": "eb02_18312",
        "name": "新桐生",
        "name:en": "Shin-Kiryu",
        "name:ja": "新桐生",
        "name:ja_rm": "Shin-kiryū",
        "name:ko": "신키류",
        "public_transport": "station",
        "railway": "station",
        "source": "Bing 2012",
        "wikidata": "Q7497107",
        "wikipedia": "ja:新桐生駅"
      }
    },
    {
      "id": "gunma_station_3936038295",
      "osmId": 3936038295,
      "osmType": "node",
      "prefectureId": "gunma",
      "type": "station",
      "subtype": "private",
      "name": "阿左美",
      "nameKana": null,
      "nameEn": "Azami",
      "operator": null,
      "network": null,
      "ref": null,
      "latitude": 36.3869917,
      "longitude": 139.3083378,
      "countryCode": "jp",
      "rawTags": {
        "KSJ2:LIN": "桐生線",
        "KSJ2:RAS": "eb03_8582",
        "KSJ2:STN": "阿左美",
        "KSJ2:segment": "eb02_18308",
        "name": "阿左美",
        "name:en": "Azami",
        "name:ja": "阿左美",
        "name:ja_rm": "Azami",
        "note": "The station moved 300m north in March 2020.",
        "public_transport": "station",
        "railway": "station",
        "source": "KSJ2",
        "source_ref": "http://nlftp.mlit.go.jp/ksj/jpgis/datalist/KsjTmplt-N02-v1_1.html",
        "train": "yes",
        "wikidata": "Q289670",
        "wikipedia": "ja:阿左美駅"
      }
    },
    {
      "id": "gunma_station_4068930993",
      "osmId": 4068930993,
      "osmType": "node",
      "prefectureId": "gunma",
      "type": "station",
      "subtype": "private",
      "name": "境町",
      "nameKana": null,
      "nameEn": "Sakaimachi",
      "operator": null,
      "network": null,
      "ref": null,
      "latitude": 36.2772141,
      "longitude": 139.2563411,
      "countryCode": "jp",
      "rawTags": {
        "name": "境町",
        "name:en": "Sakaimachi",
        "name:ja": "境町",
        "name:ja_rm": "Sakaimachi",
        "name:ko": "사카이마치",
        "public_transport": "station",
        "railway": "station",
        "source": "KSJ2",
        "wikidata": "Q258709",
        "wikipedia": "ja:境町駅"
      }
    },
    {
      "id": "gunma_station_4239204667",
      "osmId": 4239204667,
      "osmType": "node",
      "prefectureId": "gunma",
      "type": "station",
      "subtype": "private",
      "name": "上神梅",
      "nameKana": null,
      "nameEn": "Kami-Kambai",
      "operator": null,
      "network": null,
      "ref": null,
      "latitude": 36.4700531,
      "longitude": 139.2576786,
      "countryCode": "jp",
      "rawTags": {
        "KSJ2:LIN": "わたらせ渓谷線",
        "KSJ2:STN": "上神梅",
        "name": "上神梅",
        "name:en": "Kami-Kambai",
        "name:ja": "上神梅",
        "name:ja_rm": "Kami-Kambai",
        "name:ko": "가미칸바이",
        "public_transport": "station",
        "railway": "station",
        "source_ref": "http://nlftp.mlit.go.jp/ksj/jpgis/datalist/KsjTmplt-N02-v1_1.html",
        "wikidata": "Q6357152",
        "wikipedia": "ja:上神梅駅"
      }
    },
    {
      "id": "gunma_station_4339418745",
      "osmId": 4339418745,
      "osmType": "node",
      "prefectureId": "gunma",
      "type": "station",
      "subtype": "private",
      "name": "岩宿",
      "nameKana": null,
      "nameEn": "Iwajuku",
      "operator": null,
      "network": null,
      "ref": null,
      "latitude": 36.3958165,
      "longitude": 139.2967609,
      "countryCode": "jp",
      "rawTags": {
        "KSJ2:LIN": "両毛線",
        "KSJ2:STN": "岩宿",
        "name": "岩宿",
        "name:en": "Iwajuku",
        "name:ja": "岩宿",
        "name:ja_rm": "Iwajuku",
        "name:ko": "이와주쿠",
        "note": "National-Land Numerical Information (Railway) 2007, MLIT Japan",
        "note:ja": "国土数値情報（鉄道データ）平成19年　国土交通省",
        "public_transport": "station",
        "railway": "station",
        "source": "KSJ2",
        "source_ref": "http://nlftp.mlit.go.jp/ksj/jpgis/datalist/KsjTmplt-N02-v1_1.html",
        "wikidata": "Q6100339",
        "wikipedia": "ja:岩宿駅"
      }
    },
    {
      "id": "gunma_station_4351338272",
      "osmId": 4351338272,
      "osmType": "node",
      "prefectureId": "gunma",
      "type": "station",
      "subtype": "private",
      "name": "東富岡",
      "nameKana": null,
      "nameEn": "Higashi-Tomioka",
      "operator": null,
      "network": null,
      "ref": null,
      "latitude": 36.2608367,
      "longitude": 138.901902,
      "countryCode": "jp",
      "rawTags": {
        "KSJ2:LIN": "上信線",
        "KSJ2:STN": "東富岡",
        "name": "東富岡",
        "name:en": "Higashi-Tomioka",
        "name:ja": "東富岡",
        "name:ja_rm": "Higashi-Tomioka",
        "name:ko": "히가시토미오카",
        "note": "National-Land Numerical Information (Railway) 2007, MLIT Japan",
        "note:ja": "国土数値情報（鉄道データ）平成19年　国土交通省",
        "public_transport": "station",
        "railway": "station",
        "source": "KSJ2",
        "source_ref": "http://nlftp.mlit.go.jp/ksj/jpgis/datalist/KsjTmplt-N02-v1_1.html",
        "wikidata": "Q11526643",
        "wikipedia": "ja:東富岡駅"
      }
    },
    {
      "id": "gunma_station_4351338273",
      "osmId": 4351338273,
      "osmType": "node",
      "prefectureId": "gunma",
      "type": "station",
      "subtype": "private",
      "name": "上州福島",
      "nameKana": null,
      "nameEn": "Joshu-Fukushima",
      "operator": null,
      "network": null,
      "ref": null,
      "latitude": 36.25629,
      "longitude": 138.9296803,
      "countryCode": "jp",
      "rawTags": {
        "KSJ2:LIN": "上信線",
        "KSJ2:STN": "上州福島",
        "name": "上州福島",
        "name:en": "Joshu-Fukushima",
        "name:ja": "上州福島",
        "name:ja_rm": "Jōshū-Fukushima",
        "name:ko": "조슈후쿠시마",
        "note": "National-Land Numerical Information (Railway) 2007, MLIT Japan",
        "note:ja": "国土数値情報（鉄道データ）平成19年　国土交通省",
        "public_transport": "station",
        "railway": "station",
        "source": "KSJ2",
        "source_ref": "http://nlftp.mlit.go.jp/ksj/jpgis/datalist/KsjTmplt-N02-v1_1.html",
        "wikidata": "Q11358979",
        "wikipedia": "ja:上州福島駅"
      }
    },
    {
      "id": "gunma_station_4351338274",
      "osmId": 4351338274,
      "osmType": "node",
      "prefectureId": "gunma",
      "type": "station",
      "subtype": "private",
      "name": "上州一ノ宮",
      "nameKana": null,
      "nameEn": "Joshu-Ichinomiya",
      "operator": null,
      "network": null,
      "ref": null,
      "latitude": 36.2530369,
      "longitude": 138.8637154,
      "countryCode": "jp",
      "rawTags": {
        "KSJ2:LIN": "上信線",
        "KSJ2:STN": "上州一ノ宮",
        "name": "上州一ノ宮",
        "name:en": "Joshu-Ichinomiya",
        "name:ja": "上州一ノ宮",
        "name:ja_rm": "Jōshū-Ichinomiya",
        "name:ko": "조슈이치노미야",
        "note": "National-Land Numerical Information (Railway) 2007, MLIT Japan",
        "note:ja": "国土数値情報（鉄道データ）平成19年　国土交通省",
        "public_transport": "station",
        "railway": "station",
        "source": "KSJ2",
        "source_ref": "http://nlftp.mlit.go.jp/ksj/jpgis/datalist/KsjTmplt-N02-v1_1.html",
        "wikidata": "Q11358969",
        "wikipedia": "ja:上州一ノ宮駅"
      }
    },
    {
      "id": "gunma_station_4351338275",
      "osmId": 4351338275,
      "osmType": "node",
      "prefectureId": "gunma",
      "type": "station",
      "subtype": "private",
      "name": "上州七日市",
      "nameKana": null,
      "nameEn": "Joshu-Nanokaichi",
      "operator": null,
      "network": null,
      "ref": null,
      "latitude": 36.258802,
      "longitude": 138.8748834,
      "countryCode": "jp",
      "rawTags": {
        "KSJ2:LIN": "上信線",
        "KSJ2:STN": "上州七日市",
        "name": "上州七日市",
        "name:en": "Joshu-Nanokaichi",
        "name:ja": "上州七日市",
        "name:ja_rm": "Jōshū-Nanokaichi",
        "name:ko": "조슈나노카이치",
        "note": "National-Land Numerical Information (Railway) 2007, MLIT Japan",
        "note:ja": "国土数値情報（鉄道データ）平成19年　国土交通省",
        "public_transport": "station",
        "railway": "station",
        "source": "KSJ2",
        "source_ref": "http://nlftp.mlit.go.jp/ksj/jpgis/datalist/KsjTmplt-N02-v1_1.html",
        "wikidata": "Q11358971",
        "wikipedia": "ja:上州七日市駅"
      }
    },
    {
      "id": "gunma_station_4351338276",
      "osmId": 4351338276,
      "osmType": "node",
      "prefectureId": "gunma",
      "type": "station",
      "subtype": "private",
      "name": "上州新屋",
      "nameKana": null,
      "nameEn": "Joshu-Niiya",
      "operator": null,
      "network": null,
      "ref": null,
      "latitude": 36.2559546,
      "longitude": 138.9516222,
      "countryCode": "jp",
      "rawTags": {
        "KSJ2:LIN": "上信線",
        "KSJ2:STN": "上州新屋",
        "name": "上州新屋",
        "name:en": "Joshu-Niiya",
        "name:ja": "上州新屋",
        "name:ja_rm": "Jōshū-Niiya",
        "name:ko": "조슈니야",
        "note": "National-Land Numerical Information (Railway) 2007, MLIT Japan",
        "note:ja": "国土数値情報（鉄道データ）平成19年　国土交通省",
        "public_transport": "station",
        "railway": "station",
        "source": "KSJ2",
        "source_ref": "http://nlftp.mlit.go.jp/ksj/jpgis/datalist/KsjTmplt-N02-v1_1.html",
        "wikidata": "Q11358976",
        "wikipedia": "ja:上州新屋駅"
      }
    },
    {
      "id": "gunma_station_4351338277",
      "osmId": 4351338277,
      "osmType": "node",
      "prefectureId": "gunma",
      "type": "station",
      "subtype": "private",
      "name": "上州富岡",
      "nameKana": null,
      "nameEn": "Joshu-Tomioka",
      "operator": "上信電鉄",
      "network": "上信線",
      "ref": null,
      "latitude": 36.2604237,
      "longitude": 138.8919038,
      "countryCode": "jp",
      "rawTags": {
        "name": "上州富岡",
        "name:en": "Joshu-Tomioka",
        "name:ja": "上州富岡",
        "name:ja_rm": "Jōshū-Tomioka",
        "name:ko": "조슈토미오카",
        "network": "上信線",
        "operator": "上信電鉄",
        "operator:en": "Jōshin Dentetsu",
        "operator:ja": "上信電鉄",
        "public_transport": "station",
        "railway": "station",
        "source": "survey 2014",
        "wikidata": "Q11358973"
      }
    },
    {
      "id": "gunma_station_4351338278",
      "osmId": 4351338278,
      "osmType": "node",
      "prefectureId": "gunma",
      "type": "station",
      "subtype": "private",
      "name": "神農原",
      "nameKana": null,
      "nameEn": "Kanohara",
      "operator": null,
      "network": null,
      "ref": null,
      "latitude": 36.2426671,
      "longitude": 138.8435266,
      "countryCode": "jp",
      "rawTags": {
        "KSJ2:LIN": "上信線",
        "KSJ2:STN": "神農原",
        "name": "神農原",
        "name:en": "Kanohara",
        "name:ja": "神農原",
        "name:ja_rm": "Kanohara",
        "name:ko": "가노하라",
        "note": "National-Land Numerical Information (Railway) 2007, MLIT Japan",
        "note:ja": "国土数値情報（鉄道データ）平成19年　国土交通省",
        "public_transport": "station",
        "railway": "station",
        "source": "KSJ2",
        "source_ref": "http://nlftp.mlit.go.jp/ksj/jpgis/datalist/KsjTmplt-N02-v1_1.html",
        "wikidata": "Q11590900",
        "wikipedia": "ja:神農原駅"
      }
    },
    {
      "id": "gunma_station_4351338279",
      "osmId": 4351338279,
      "osmType": "node",
      "prefectureId": "gunma",
      "type": "station",
      "subtype": "private",
      "name": "馬庭",
      "nameKana": null,
      "nameEn": "Maniwa",
      "operator": null,
      "network": null,
      "ref": null,
      "latitude": 36.2614153,
      "longitude": 139.0092091,
      "countryCode": "jp",
      "rawTags": {
        "name": "馬庭",
        "name:en": "Maniwa",
        "name:ja": "馬庭",
        "name:ja_rm": "Maniwa",
        "name:ko": "마니와",
        "public_transport": "station",
        "railway": "station",
        "source": "Bing 2013",
        "wikidata": "Q11667961",
        "wikipedia": "ja:馬庭駅"
      }
    },
    {
      "id": "gunma_station_4351338280",
      "osmId": 4351338280,
      "osmType": "node",
      "prefectureId": "gunma",
      "type": "station",
      "subtype": "private",
      "name": "南蛇井",
      "nameKana": null,
      "nameEn": "Nanjai",
      "operator": null,
      "network": null,
      "ref": null,
      "latitude": 36.2380765,
      "longitude": 138.8138092,
      "countryCode": "jp",
      "rawTags": {
        "KSJ2:LIN": "上信線",
        "KSJ2:STN": "南蛇井",
        "name": "南蛇井",
        "name:en": "Nanjai",
        "name:ja": "南蛇井",
        "name:ja_rm": "Nanjai",
        "name:ko": "난자이",
        "note": "National-Land Numerical Information (Railway) 2007, MLIT Japan",
        "note:ja": "国土数値情報（鉄道データ）平成19年　国土交通省",
        "public_transport": "station",
        "railway": "station",
        "source": "KSJ2",
        "source_ref": "http://nlftp.mlit.go.jp/ksj/jpgis/datalist/KsjTmplt-N02-v1_1.html",
        "wikidata": "Q11408406",
        "wikipedia": "ja:南蛇井駅"
      }
    },
    {
      "id": "gunma_station_4351338281",
      "osmId": 4351338281,
      "osmType": "node",
      "prefectureId": "gunma",
      "type": "station",
      "subtype": "private",
      "name": "西富岡",
      "nameKana": null,
      "nameEn": "Nishi-Tomioka",
      "operator": null,
      "network": null,
      "ref": null,
      "latitude": 36.2601721,
      "longitude": 138.8831631,
      "countryCode": "jp",
      "rawTags": {
        "name": "西富岡",
        "name:en": "Nishi-Tomioka",
        "name:ja": "西富岡",
        "name:ja_rm": "Nishi-Tomioka",
        "name:ko": "니시토미오카",
        "public_transport": "station",
        "railway": "station",
        "source": "Bing 2011",
        "wikidata": "Q11627679",
        "wikipedia": "ja:西富岡駅"
      }
    },
    {
      "id": "gunma_station_4351338282",
      "osmId": 4351338282,
      "osmType": "node",
      "prefectureId": "gunma",
      "type": "station",
      "subtype": "private",
      "name": "西山名",
      "nameKana": null,
      "nameEn": "Nishi-Yamana",
      "operator": null,
      "network": null,
      "ref": null,
      "latitude": 36.2710412,
      "longitude": 139.0323515,
      "countryCode": "jp",
      "rawTags": {
        "name": "西山名",
        "name:en": "Nishi-Yamana",
        "name:ja": "西山名",
        "name:ja_rm": "Nishi-Yamana",
        "name:ko": "니시야마나",
        "public_transport": "station",
        "railway": "station",
        "source": "Bing 2013",
        "source_ref": "http://nlftp.mlit.go.jp/ksj/jpgis/datalist/KsjTmplt-N02-v1_1.html",
        "wikidata": "Q11627819",
        "wikipedia": "ja:西山名駅"
      }
    },
    {
      "id": "gunma_station_4351338283",
      "osmId": 4351338283,
      "osmType": "node",
      "prefectureId": "gunma",
      "type": "station",
      "subtype": "private",
      "name": "西吉井",
      "nameKana": null,
      "nameEn": "Nishi-Yoshii",
      "operator": null,
      "network": null,
      "ref": null,
      "latitude": 36.2557231,
      "longitude": 138.9663303,
      "countryCode": "jp",
      "rawTags": {
        "KSJ2:LIN": "上信線",
        "KSJ2:STN": "西吉井",
        "name": "西吉井",
        "name:en": "Nishi-Yoshii",
        "name:ja": "西吉井",
        "name:ja_rm": "Nishi-Yoshii",
        "name:ko": "니시요시이",
        "note": "National-Land Numerical Information (Railway) 2007, MLIT Japan",
        "note:ja": "国土数値情報（鉄道データ）平成19年　国土交通省",
        "public_transport": "station",
        "railway": "station",
        "source": "KSJ2",
        "source_ref": "http://nlftp.mlit.go.jp/ksj/jpgis/datalist/KsjTmplt-N02-v1_1.html",
        "wikidata": "Q11627403",
        "wikipedia": "ja:西吉井駅"
      }
    },
    {
      "id": "gunma_station_4351338284",
      "osmId": 4351338284,
      "osmType": "node",
      "prefectureId": "gunma",
      "type": "station",
      "subtype": "private",
      "name": "千平",
      "nameKana": null,
      "nameEn": "Sendaira",
      "operator": null,
      "network": null,
      "ref": null,
      "latitude": 36.2301987,
      "longitude": 138.7988431,
      "countryCode": "jp",
      "rawTags": {
        "KSJ2:LIN": "上信線",
        "KSJ2:STN": "千平",
        "name": "千平",
        "name:en": "Sendaira",
        "name:ja": "千平",
        "name:ja_rm": "Sendaira",
        "name:ko": "센다이라",
        "note": "National-Land Numerical Information (Railway) 2007, MLIT Japan",
        "note:ja": "国土数値情報（鉄道データ）平成19年　国土交通省",
        "public_transport": "station",
        "railway": "station",
        "source": "KSJ2",
        "source_ref": "http://nlftp.mlit.go.jp/ksj/jpgis/datalist/KsjTmplt-N02-v1_1.html",
        "wikidata": "Q7450197",
        "wikipedia": "ja:千平駅"
      }
    },
    {
      "id": "gunma_station_4351338286",
      "osmId": 4351338286,
      "osmType": "node",
      "prefectureId": "gunma",
      "type": "station",
      "subtype": "private",
      "name": "下仁田",
      "nameKana": null,
      "nameEn": "Shimonita",
      "operator": null,
      "network": null,
      "ref": null,
      "latitude": 36.2104653,
      "longitude": 138.7864082,
      "countryCode": "jp",
      "rawTags": {
        "KSJ2:LIN": "上信線",
        "KSJ2:STN": "下仁田",
        "name": "下仁田",
        "name:en": "Shimonita",
        "name:ja": "下仁田",
        "name:ja_rm": "Shimonita",
        "name:ko": "시모니타",
        "note": "National-Land Numerical Information (Railway) 2007, MLIT Japan",
        "note:ja": "国土数値情報（鉄道データ）平成19年　国土交通省",
        "public_transport": "station",
        "railway": "station",
        "source": "KSJ2",
        "source_ref": "http://nlftp.mlit.go.jp/ksj/jpgis/datalist/KsjTmplt-N02-v1_1.html",
        "wikidata": "Q7497006",
        "wikipedia": "ja:下仁田駅"
      }
    },
    {
      "id": "gunma_station_4351338287",
      "osmId": 4351338287,
      "osmType": "node",
      "prefectureId": "gunma",
      "type": "station",
      "subtype": "private",
      "name": "吉井",
      "nameKana": null,
      "nameEn": "Yoshii",
      "operator": null,
      "network": null,
      "ref": null,
      "latitude": 36.2560542,
      "longitude": 138.9842924,
      "countryCode": "jp",
      "rawTags": {
        "KSJ2:LIN": "上信線",
        "KSJ2:STN": "吉井",
        "name": "吉井",
        "name:en": "Yoshii",
        "name:ja": "吉井",
        "name:ja_rm": "Yoshii",
        "name:ko": "요시이",
        "note": "National-Land Numerical Information (Railway) 2007, MLIT Japan",
        "note:ja": "国土数値情報（鉄道データ）平成19年　国土交通省",
        "public_transport": "station",
        "railway": "station",
        "source": "KSJ2",
        "source_ref": "http://nlftp.mlit.go.jp/ksj/jpgis/datalist/KsjTmplt-N02-v1_1.html",
        "wikidata": "Q11412619",
        "wikipedia": "ja:吉井駅 (群馬県)"
      }
    },
    {
      "id": "gunma_station_4703818697",
      "osmId": 4703818697,
      "osmType": "node",
      "prefectureId": "gunma",
      "type": "station",
      "subtype": "private",
      "name": "多々良",
      "nameKana": null,
      "nameEn": "Tatara",
      "operator": null,
      "network": null,
      "ref": null,
      "latitude": 36.2734012,
      "longitude": 139.5005392,
      "countryCode": "jp",
      "rawTags": {
        "KSJ2:LIN": "伊勢崎線",
        "KSJ2:RAS": "eb03_8505",
        "KSJ2:STN": "多々良",
        "KSJ2:segment": "eb02_18170",
        "name": "多々良",
        "name:en": "Tatara",
        "name:ja": "多々良",
        "name:ja_rm": "Tatara",
        "name:ko": "다타라",
        "note": "National-Land Numerical Information (Railway) 2007, MLIT Japan",
        "note:ja": "国土数値情報（鉄道データ）平成19年　国土交通省",
        "public_transport": "station",
        "railway": "station",
        "source": "KSJ2",
        "source_ref": "http://nlftp.mlit.go.jp/ksj/jpgis/datalist/KsjTmplt-N02-v1_1.html",
        "wikidata": "Q7687888",
        "wikipedia": "ja:多々良駅"
      }
    },
    {
      "id": "gunma_station_4707087114",
      "osmId": 4707087114,
      "osmType": "node",
      "prefectureId": "gunma",
      "type": "station",
      "subtype": "private",
      "name": "長野原草津口",
      "nameKana": null,
      "nameEn": "Naganohara-Kusatsuguchi",
      "operator": null,
      "network": null,
      "ref": null,
      "latitude": 36.5463186,
      "longitude": 138.6497771,
      "countryCode": "jp",
      "rawTags": {
        "name": "長野原草津口",
        "name:en": "Naganohara-Kusatsuguchi",
        "name:ja": "長野原草津口",
        "name:ja_rm": "Naganohara-Kusatsuguchi",
        "name:ko": "나가노하라쿠사쓰구치",
        "public_transport": "station",
        "railway": "station",
        "source": "KSJ2",
        "wikidata": "Q6958449",
        "wikipedia": "ja:長野原草津口駅"
      }
    },
    {
      "id": "gunma_station_4708704149",
      "osmId": 4708704149,
      "osmType": "node",
      "prefectureId": "gunma",
      "type": "station",
      "subtype": "private",
      "name": "板倉東洋大前",
      "nameKana": null,
      "nameEn": "Itakura Toyodai-mae",
      "operator": null,
      "network": null,
      "ref": null,
      "latitude": 36.2221334,
      "longitude": 139.648542,
      "countryCode": "jp",
      "rawTags": {
        "alt_name:ko": "이타쿠라토요다이마에",
        "name": "板倉東洋大前",
        "name:en": "Itakura Toyodai-mae",
        "name:ja": "板倉東洋大前",
        "name:ja_rm": "Itakura Tōyōdai Mae",
        "name:ko": "이타쿠라토요대앞",
        "note": "National-Land Numerical Information (Railway) 2007, MLIT Japan",
        "public_transport": "station",
        "railway": "station",
        "source": "KSJ2",
        "source_ref": "http://nlftp.mlit.go.jp/ksj/jpgis/datalist/KsjTmplt-N02-v1_1.html",
        "wikidata": "Q6092530",
        "wikipedia": "ja:板倉東洋大前駅"
      }
    },
    {
      "id": "gunma_station_5021413969",
      "osmId": 5021413969,
      "osmType": "node",
      "prefectureId": "gunma",
      "type": "station",
      "subtype": "private",
      "name": "木崎",
      "nameKana": null,
      "nameEn": "Kizaki",
      "operator": null,
      "network": null,
      "ref": null,
      "latitude": 36.2711282,
      "longitude": 139.3125327,
      "countryCode": "jp",
      "rawTags": {
        "name": "木崎",
        "name:en": "Kizaki",
        "name:ja": "木崎",
        "name:ja-Latn": "Kizaki",
        "name:ko": "기자키",
        "public_transport": "station",
        "railway": "station",
        "wikidata": "Q6419173",
        "wikipedia": "ja:木崎駅"
      }
    },
    {
      "id": "gunma_station_6050938024",
      "osmId": 6050938024,
      "osmType": "node",
      "prefectureId": "gunma",
      "type": "station",
      "subtype": "private",
      "name": "下新田",
      "nameKana": null,
      "nameEn": "Shimo-Shinden",
      "operator": null,
      "network": null,
      "ref": null,
      "latitude": 36.4076202,
      "longitude": 139.31512,
      "countryCode": "jp",
      "rawTags": {
        "name": "下新田",
        "name:en": "Shimo-Shinden",
        "name:ja": "下新田",
        "name:ja_rm": "Shimo-Shinden",
        "public_transport": "station",
        "railway": "station",
        "wikidata": "Q7496933",
        "wikipedia": "ja:下新田駅"
      }
    },
    {
      "id": "gunma_station_6050989579",
      "osmId": 6050989579,
      "osmType": "node",
      "prefectureId": "gunma",
      "type": "station",
      "subtype": "private",
      "name": "世良田",
      "nameKana": null,
      "nameEn": "Serada",
      "operator": null,
      "network": null,
      "ref": "TI-21",
      "latitude": 36.2730451,
      "longitude": 139.2815566,
      "countryCode": "jp",
      "rawTags": {
        "name": "世良田",
        "name:en": "Serada",
        "name:ja": "世良田",
        "name:ja_rm": "Serada",
        "name:ko": "세라다",
        "public_transport": "station",
        "railway": "station",
        "ref": "TI-21",
        "wikidata": "Q7452609",
        "wikipedia": "ja:世良田駅"
      }
    },
    {
      "id": "gunma_station_6057440277",
      "osmId": 6057440277,
      "osmType": "node",
      "prefectureId": "gunma",
      "type": "station",
      "subtype": "private",
      "name": "富士山下",
      "nameKana": null,
      "nameEn": "Fujiyamashita",
      "operator": "上毛電気鉄道",
      "network": null,
      "ref": null,
      "latitude": 36.4141075,
      "longitude": 139.3159025,
      "countryCode": "jp",
      "rawTags": {
        "name": "富士山下",
        "name:en": "Fujiyamashita",
        "name:ja_rm": "Fujiyamashita",
        "name:ko": "후지야마시타",
        "note": "NOT the station for Mt Fuji..",
        "operator": "上毛電気鉄道",
        "public_transport": "station",
        "railway": "station",
        "source": "KSJ2",
        "wikidata": "Q5507553",
        "wikipedia": "ja:富士山下駅"
      }
    },
    {
      "id": "gunma_station_6057440278",
      "osmId": 6057440278,
      "osmType": "node",
      "prefectureId": "gunma",
      "type": "station",
      "subtype": "private",
      "name": "相老",
      "nameKana": "あいおい",
      "nameEn": "Aioi",
      "operator": null,
      "network": null,
      "ref": null,
      "latitude": 36.4104667,
      "longitude": 139.3044628,
      "countryCode": "jp",
      "rawTags": {
        "name": "相老",
        "name:en": "Aioi",
        "name:ja": "相老",
        "name:ja-Hira": "あいおい",
        "name:ja_rm": "Aioi",
        "name:ko": "아이오이",
        "public_transport": "station",
        "railway": "station",
        "wikidata": "Q4697556",
        "wikipedia": "ja:相老駅"
      }
    },
    {
      "id": "gunma_station_6057440279",
      "osmId": 6057440279,
      "osmType": "node",
      "prefectureId": "gunma",
      "type": "station",
      "subtype": "private",
      "name": "東新川",
      "nameKana": null,
      "nameEn": "Higashi-Nikkawa",
      "operator": null,
      "network": null,
      "ref": null,
      "latitude": 36.4220519,
      "longitude": 139.2676493,
      "countryCode": "jp",
      "rawTags": {
        "name": "東新川",
        "name:en": "Higashi-Nikkawa",
        "name:ja-Latn": "Higashi-Nikkawa",
        "name:ko": "히가시닛카와",
        "public_transport": "station",
        "railway": "station",
        "source": "KSJ2",
        "train": "yes",
        "wikidata": "Q11527073",
        "wikipedia": "ja:東新川駅 (群馬県)"
      }
    },
    {
      "id": "gunma_station_6571461520",
      "osmId": 6571461520,
      "osmType": "node",
      "prefectureId": "gunma",
      "type": "station",
      "subtype": "private",
      "name": "新里",
      "nameKana": null,
      "nameEn": "Niisato",
      "operator": null,
      "network": null,
      "ref": null,
      "latitude": 36.4185914,
      "longitude": 139.2377038,
      "countryCode": "jp",
      "rawTags": {
        "KSJ2:LIN": "上毛線",
        "KSJ2:STN": "新里",
        "name": "新里",
        "name:en": "Niisato",
        "name:ja": "新里",
        "name:ja_rm": "Niisato",
        "name:ko": "니이사토",
        "note": "National-Land Numerical Information (Railway) 2007, MLIT Japan",
        "note:ja": "国土数値情報（鉄道データ）平成19年　国土交通省",
        "public_transport": "station",
        "railway": "station",
        "source": "KSJ2",
        "source_ref": "http://nlftp.mlit.go.jp/ksj/jpgis/datalist/KsjTmplt-N02-v1_1.html",
        "wikidata": "Q7034481",
        "wikipedia": "ja:新里駅 (群馬県)"
      }
    },
    {
      "id": "gunma_station_6778376057",
      "osmId": 6778376057,
      "osmType": "node",
      "prefectureId": "gunma",
      "type": "station",
      "subtype": "private",
      "name": "新川",
      "nameKana": null,
      "nameEn": "Nikkawa",
      "operator": null,
      "network": null,
      "ref": null,
      "latitude": 36.41821,
      "longitude": 139.2578184,
      "countryCode": "jp",
      "rawTags": {
        "name": "新川",
        "name:en": "Nikkawa",
        "public_transport": "station",
        "railway": "station",
        "wikidata": "Q11502115",
        "wikipedia": "ja:新川駅 (群馬県)"
      }
    },
    {
      "id": "gunma_station_6804657899",
      "osmId": 6804657899,
      "osmType": "node",
      "prefectureId": "gunma",
      "type": "station",
      "subtype": "private",
      "name": "治良門橋",
      "nameKana": null,
      "nameEn": "Jiroembashi",
      "operator": null,
      "network": null,
      "ref": null,
      "latitude": 36.3329724,
      "longitude": 139.3411701,
      "countryCode": "jp",
      "rawTags": {
        "KSJ2:LIN": "桐生線",
        "KSJ2:RAS": "eb03_8584",
        "KSJ2:STN": "治良門橋",
        "KSJ2:segment": "eb02_18311",
        "name": "治良門橋",
        "name:en": "Jiroembashi",
        "name:ja": "治良門橋",
        "name:ja_rm": "Jiroembashi",
        "name:ko": "지로엔바시",
        "note": "National-Land Numerical Information (Railway) 2007, MLIT Japan",
        "note:ja": "国土数値情報（鉄道データ）平成19年　国土交通省",
        "public_transport": "station",
        "railway": "station",
        "source": "KSJ2",
        "source_ref": "http://nlftp.mlit.go.jp/ksj/jpgis/datalist/KsjTmplt-N02-v1_1.html",
        "wikidata": "Q6203113",
        "wikipedia": "ja:治良門橋駅"
      }
    },
    {
      "id": "gunma_station_7170805914",
      "osmId": 7170805914,
      "osmType": "node",
      "prefectureId": "gunma",
      "type": "station",
      "subtype": "private",
      "name": "成島",
      "nameKana": null,
      "nameEn": "Narushima",
      "operator": null,
      "network": null,
      "ref": null,
      "latitude": 36.2490518,
      "longitude": 139.5058384,
      "countryCode": "jp",
      "rawTags": {
        "KSJ2:LIN": "小泉線",
        "KSJ2:RAS": "eb03_8599",
        "KSJ2:STN": "成島",
        "KSJ2:segment": "eb02_18353",
        "name": "成島",
        "name:en": "Narushima",
        "name:ja": "成島",
        "name:ja_rm": "Narushima",
        "name:ko": "나루시마",
        "note": "National-Land Numerical Information (Railway) 2007, MLIT Japan",
        "note:ja": "国土数値情報（鉄道データ）平成19年　国土交通省",
        "public_transport": "station",
        "railway": "station",
        "source": "KSJ2",
        "source_ref": "http://nlftp.mlit.go.jp/ksj/jpgis/datalist/KsjTmplt-N02-v1_1.html",
        "wikidata": "Q6966471",
        "wikipedia": "ja:成島駅 (群馬県)"
      }
    },
    {
      "id": "gunma_station_7370513070",
      "osmId": 7370513070,
      "osmType": "node",
      "prefectureId": "gunma",
      "type": "station",
      "subtype": "private",
      "name": "本中野",
      "nameKana": null,
      "nameEn": "Hon-Nakano",
      "operator": null,
      "network": null,
      "ref": null,
      "latitude": 36.2585529,
      "longitude": 139.4697452,
      "countryCode": "jp",
      "rawTags": {
        "KSJ2:LIN": "小泉線",
        "KSJ2:RAS": "eb03_8603",
        "KSJ2:STN": "本中野",
        "KSJ2:segment": "eb02_18355",
        "name": "本中野",
        "name:en": "Hon-Nakano",
        "name:ja": "本中野",
        "name:ja_rm": "Hon-Nakano",
        "name:ko": "혼나카노",
        "note": "National-Land Numerical Information (Railway) 2007, MLIT Japan",
        "note:ja": "国土数値情報（鉄道データ）平成19年　国土交通省",
        "public_transport": "station",
        "railway": "station",
        "source": "KSJ2",
        "source_ref": "http://nlftp.mlit.go.jp/ksj/jpgis/datalist/KsjTmplt-N02-v1_1.html",
        "wikidata": "Q5891922",
        "wikipedia": "ja:本中野駅"
      }
    },
    {
      "id": "gunma_station_7370988890",
      "osmId": 7370988890,
      "osmType": "node",
      "prefectureId": "gunma",
      "type": "station",
      "subtype": "private",
      "name": "篠塚",
      "nameKana": null,
      "nameEn": "Shinozuka",
      "operator": null,
      "network": null,
      "ref": null,
      "latitude": 36.256655,
      "longitude": 139.44662,
      "countryCode": "jp",
      "rawTags": {
        "KSJ2:LIN": "小泉線",
        "KSJ2:RAS": "eb03_8605",
        "KSJ2:STN": "篠塚",
        "KSJ2:segment": "eb02_18359",
        "name": "篠塚",
        "name:en": "Shinozuka",
        "name:ja": "篠塚",
        "name:ja_rm": "Shinozuka",
        "name:ko": "시노즈카",
        "note": "National-Land Numerical Information (Railway) 2007, MLIT Japan",
        "note:ja": "国土数値情報（鉄道データ）平成19年　国土交通省",
        "public_transport": "station",
        "railway": "station",
        "source": "KSJ2",
        "source_ref": "http://nlftp.mlit.go.jp/ksj/jpgis/datalist/KsjTmplt-N02-v1_1.html",
        "wikidata": "Q7497734",
        "wikipedia": "ja:篠塚駅"
      }
    },
    {
      "id": "gunma_station_7371039190",
      "osmId": 7371039190,
      "osmType": "node",
      "prefectureId": "gunma",
      "type": "station",
      "subtype": "private",
      "name": "東小泉",
      "nameKana": null,
      "nameEn": "Higashi-Koizumi",
      "operator": null,
      "network": null,
      "ref": null,
      "latitude": 36.2594413,
      "longitude": 139.4290909,
      "countryCode": "jp",
      "rawTags": {
        "KSJ2:LIN": "小泉線",
        "KSJ2:RAS": "eb03_8598",
        "KSJ2:STN": "東小泉",
        "KSJ2:segment": "eb02_18342",
        "name": "東小泉",
        "name:en": "Higashi-Koizumi",
        "name:ja": "東小泉",
        "name:ja_rm": "Higashi-Koizumi",
        "name:ko": "히가시코이즈미",
        "note": "National-Land Numerical Information (Railway) 2007, MLIT Japan",
        "note:ja": "国土数値情報（鉄道データ）平成19年　国土交通省",
        "public_transport": "station",
        "railway": "station",
        "source": "KSJ2",
        "source_ref": "http://nlftp.mlit.go.jp/ksj/jpgis/datalist/KsjTmplt-N02-v1_1.html",
        "wikidata": "Q5753636",
        "wikipedia": "ja:東小泉駅"
      }
    },
    {
      "id": "gunma_station_7374373441",
      "osmId": 7374373441,
      "osmType": "node",
      "prefectureId": "gunma",
      "type": "station",
      "subtype": "private",
      "name": "西小泉",
      "nameKana": null,
      "nameEn": "Nishi-Koizumi",
      "operator": null,
      "network": null,
      "ref": null,
      "latitude": 36.2583064,
      "longitude": 139.4083142,
      "countryCode": "jp",
      "rawTags": {
        "KSJ2:LIN": "小泉線",
        "KSJ2:RAS": "eb03_8601",
        "KSJ2:STN": "西小泉",
        "KSJ2:segment": "eb02_18346",
        "name": "西小泉",
        "name:en": "Nishi-Koizumi",
        "name:ja": "西小泉",
        "name:ja_rm": "Nishi-Koizumi",
        "name:ko": "니시코이즈미",
        "name:pt": "Nishi-Koizumi",
        "note": "National-Land Numerical Information (Railway) 2007, MLIT Japan",
        "note:ja": "国土数値情報（鉄道データ）平成19年　国土交通省",
        "public_transport": "station",
        "railway": "station",
        "source": "KSJ2",
        "source_ref": "http://nlftp.mlit.go.jp/ksj/jpgis/datalist/KsjTmplt-N02-v1_1.html",
        "wikidata": "Q11627702",
        "wikipedia": "ja:西小泉駅"
      }
    },
    {
      "id": "gunma_station_7377453616",
      "osmId": 7377453616,
      "osmType": "node",
      "prefectureId": "gunma",
      "type": "station",
      "subtype": "private",
      "name": "小泉町",
      "nameKana": null,
      "nameEn": "Koizumi-machi",
      "operator": null,
      "network": null,
      "ref": null,
      "latitude": 36.2615161,
      "longitude": 139.4199121,
      "countryCode": "jp",
      "rawTags": {
        "KSJ2:LIN": "小泉線",
        "KSJ2:RAS": "eb03_8602",
        "KSJ2:STN": "小泉町",
        "KSJ2:segment": "eb02_18358",
        "name": "小泉町",
        "name:en": "Koizumi-machi",
        "name:ja": "小泉町",
        "name:ja_rm": "Koizumi-machi",
        "name:ko": "고이즈미마치",
        "note": "National-Land Numerical Information (Railway) 2007, MLIT Japan",
        "note:ja": "国土数値情報（鉄道データ）平成19年　国土交通省",
        "public_transport": "station",
        "railway": "station",
        "source": "KSJ2",
        "source_ref": "http://nlftp.mlit.go.jp/ksj/jpgis/datalist/KsjTmplt-N02-v1_1.html",
        "wikidata": "Q6426398",
        "wikipedia": "ja:小泉町駅 (群馬県)"
      }
    },
    {
      "id": "gunma_station_7379053850",
      "osmId": 7379053850,
      "osmType": "node",
      "prefectureId": "gunma",
      "type": "station",
      "subtype": "private",
      "name": "竜舞",
      "nameKana": null,
      "nameEn": "Ryumai",
      "operator": null,
      "network": null,
      "ref": null,
      "latitude": 36.2791804,
      "longitude": 139.4088764,
      "countryCode": "jp",
      "rawTags": {
        "KSJ2:LIN": "小泉線",
        "KSJ2:RAS": "eb03_8600",
        "KSJ2:STN": "竜舞",
        "KSJ2:segment": "eb02_18354",
        "name": "竜舞",
        "name:en": "Ryumai",
        "name:ja": "竜舞",
        "name:ja_rm": "Ryūmai",
        "name:ko": "류마이",
        "note": "National-Land Numerical Information (Railway) 2007, MLIT Japan",
        "note:ja": "国土数値情報（鉄道データ）平成19年　国土交通省",
        "public_transport": "station",
        "railway": "station",
        "source": "KSJ2",
        "source_ref": "http://nlftp.mlit.go.jp/ksj/jpgis/datalist/KsjTmplt-N02-v1_1.html",
        "wikidata": "Q7385630",
        "wikipedia": "ja:竜舞駅"
      }
    },
    {
      "id": "gunma_station_7392223332",
      "osmId": 7392223332,
      "osmType": "node",
      "prefectureId": "gunma",
      "type": "station",
      "subtype": "private",
      "name": "三枚橋",
      "nameKana": null,
      "nameEn": "Sammaibashi",
      "operator": null,
      "network": null,
      "ref": null,
      "latitude": 36.313581,
      "longitude": 139.3548272,
      "countryCode": "jp",
      "rawTags": {
        "KSJ2:LIN": "桐生線",
        "KSJ2:RAS": "eb03_8586",
        "KSJ2:STN": "三枚橋",
        "KSJ2:segment": "eb02_18317",
        "name": "三枚橋",
        "name:en": "Sammaibashi",
        "name:ja": "三枚橋",
        "name:ja_rm": "Sammaibashi",
        "name:ko": "산마이바시",
        "note": "National-Land Numerical Information (Railway) 2007, MLIT Japan",
        "note:ja": "国土数値情報（鉄道データ）平成19年　国土交通省",
        "public_transport": "station",
        "railway": "station",
        "source": "KSJ2",
        "source_ref": "http://nlftp.mlit.go.jp/ksj/jpgis/datalist/KsjTmplt-N02-v1_1.html",
        "wikidata": "Q7409638",
        "wikipedia": "ja:三枚橋駅"
      }
    },
    {
      "id": "gunma_station_7400598540",
      "osmId": 7400598540,
      "osmType": "node",
      "prefectureId": "gunma",
      "type": "station",
      "subtype": "private",
      "name": "藪塚",
      "nameKana": null,
      "nameEn": "Yabuzuka",
      "operator": null,
      "network": null,
      "ref": null,
      "latitude": 36.3589732,
      "longitude": 139.315266,
      "countryCode": "jp",
      "rawTags": {
        "KSJ2:LIN": "桐生線",
        "KSJ2:RAS": "eb03_8581",
        "KSJ2:STN": "藪塚",
        "KSJ2:segment": "eb02_18307",
        "name": "藪塚",
        "name:en": "Yabuzuka",
        "name:ja": "藪塚",
        "name:ja_rm": "Yabuzuka",
        "name:ko": "야부즈카",
        "note": "National-Land Numerical Information (Railway) 2007, MLIT Japan",
        "note:ja": "国土数値情報（鉄道データ）平成19年　国土交通省",
        "public_transport": "station",
        "railway": "station",
        "source": "KSJ2",
        "source_ref": "http://nlftp.mlit.go.jp/ksj/jpgis/datalist/KsjTmplt-N02-v1_1.html",
        "wikidata": "Q8046412",
        "wikipedia": "ja:藪塚駅"
      }
    },
    {
      "id": "gunma_station_7478301445",
      "osmId": 7478301445,
      "osmType": "node",
      "prefectureId": "gunma",
      "type": "station",
      "subtype": "private",
      "name": "太田",
      "nameKana": "おおた",
      "nameEn": "Ota",
      "operator": "東武鉄道",
      "network": null,
      "ref": null,
      "latitude": 36.294102,
      "longitude": 139.3787733,
      "countryCode": "jp",
      "rawTags": {
        "name": "太田",
        "name:en": "Ota",
        "name:ja": "太田",
        "name:ja-Hira": "おおた",
        "name:ja_rm": "Ota",
        "name:ko": "오타",
        "operator": "東武鉄道",
        "public_transport": "station",
        "railway": "station",
        "wikidata": "Q8081729",
        "wikipedia": "ja:太田駅 (群馬県)"
      }
    },
    {
      "id": "gunma_station_7967515039",
      "osmId": 7967515039,
      "osmType": "node",
      "prefectureId": "gunma",
      "type": "station",
      "subtype": "private",
      "name": "剛志",
      "nameKana": null,
      "nameEn": "Goshi",
      "operator": null,
      "network": null,
      "ref": null,
      "latitude": 36.2954884,
      "longitude": 139.2240882,
      "countryCode": "jp",
      "rawTags": {
        "KSJ2:LIN": "伊勢崎線",
        "KSJ2:RAS": "eb03_8509",
        "KSJ2:STN": "剛志",
        "KSJ2:segment": "eb02_18230",
        "name": "剛志",
        "name:en": "Goshi",
        "name:ja": "剛志",
        "name:ja_rm": "Gōshi",
        "name:ko": "고시",
        "note": "National-Land Numerical Information (Railway) 2007, MLIT Japan",
        "note:ja": "国土数値情報（鉄道データ）平成19年　国土交通省",
        "public_transport": "station",
        "railway": "station",
        "source": "KSJ2",
        "source_ref": "http://nlftp.mlit.go.jp/ksj/jpgis/datalist/KsjTmplt-N02-v1_1.html",
        "wikidata": "Q5627764",
        "wikipedia": "ja:剛志駅"
      }
    },
    {
      "id": "gunma_station_7967515045",
      "osmId": 7967515045,
      "osmType": "node",
      "prefectureId": "gunma",
      "type": "station",
      "subtype": "private",
      "name": "新伊勢崎",
      "nameKana": null,
      "nameEn": "Shin-Isesaki",
      "operator": null,
      "network": null,
      "ref": null,
      "latitude": 36.3181973,
      "longitude": 139.2018357,
      "countryCode": "jp",
      "rawTags": {
        "name": "新伊勢崎",
        "name:en": "Shin-Isesaki",
        "name:ja": "新伊勢崎",
        "name:ja_rm": "Shin-Isesaki",
        "name:ko": "신이세사키",
        "public_transport": "station",
        "railway": "station",
        "source": "Bing 2012",
        "wikidata": "Q7497100",
        "wikipedia": "ja:新伊勢崎駅"
      }
    },
    {
      "id": "gunma_station_7967910509",
      "osmId": 7967910509,
      "osmType": "node",
      "prefectureId": "gunma",
      "type": "station",
      "subtype": "private",
      "name": "茂林寺前",
      "nameKana": null,
      "nameEn": "Morinji-mae",
      "operator": "東武鉄道",
      "network": null,
      "ref": null,
      "latitude": 36.2254683,
      "longitude": 139.5269854,
      "countryCode": "jp",
      "rawTags": {
        "alt_name:ko": "모린지마에",
        "name": "茂林寺前",
        "name:en": "Morinji-mae",
        "name:ja": "茂林寺前",
        "name:ja_rm": "Morinji-mae",
        "name:ko": "모린지앞",
        "operator": "東武鉄道",
        "public_transport": "station",
        "railway": "station",
        "source": "KSJ2",
        "wikidata": "Q8190293",
        "wikipedia": "ja:茂林寺前駅"
      }
    },
    {
      "id": "gunma_station_7967910511",
      "osmId": 7967910511,
      "osmType": "node",
      "prefectureId": "gunma",
      "type": "station",
      "subtype": "private",
      "name": "館林",
      "nameKana": null,
      "nameEn": "Tatebayashi",
      "operator": null,
      "network": null,
      "ref": null,
      "latitude": 36.2465491,
      "longitude": 139.5277929,
      "countryCode": "jp",
      "rawTags": {
        "KSJ2:LIN": "小泉線;佐野線;伊勢崎線",
        "KSJ2:STN": "館林",
        "name": "館林",
        "name:en": "Tatebayashi",
        "name:ja": "館林",
        "name:ja_rm": "Tatebayashi",
        "name:ko": "다테바야시",
        "note": "National-Land Numerical Information (Railway) 2007, MLIT Japan",
        "note:ja": "国土数値情報（鉄道データ）平成19年　国土交通省",
        "public_transport": "station",
        "railway": "station",
        "source": "KSJ2",
        "source_ref": "http://nlftp.mlit.go.jp/ksj/jpgis/datalist/KsjTmplt-N02-v1_1.html",
        "wikidata": "Q865905",
        "wikipedia": "ja:館林駅"
      }
    },
    {
      "id": "gunma_station_7967910518",
      "osmId": 7967910518,
      "osmType": "node",
      "prefectureId": "gunma",
      "type": "station",
      "subtype": "private",
      "name": "韮川",
      "nameKana": null,
      "nameEn": "Niragawa",
      "operator": null,
      "network": null,
      "ref": null,
      "latitude": 36.3083277,
      "longitude": 139.4026154,
      "countryCode": "jp",
      "rawTags": {
        "KSJ2:LIN": "伊勢崎線",
        "KSJ2:RAS": "eb03_8500",
        "KSJ2:STN": "韮川",
        "KSJ2:segment": "eb02_18158",
        "name": "韮川",
        "name:en": "Niragawa",
        "name:ja": "韮川",
        "name:ja_rm": "Niragawa",
        "name:ko": "니라가와",
        "note": "National-Land Numerical Information (Railway) 2007, MLIT Japan",
        "note:ja": "国土数値情報（鉄道データ）平成19年　国土交通省",
        "public_transport": "station",
        "railway": "station",
        "source": "KSJ2",
        "source_ref": "http://nlftp.mlit.go.jp/ksj/jpgis/datalist/KsjTmplt-N02-v1_1.html",
        "wikidata": "Q8191297",
        "wikipedia": "ja:韮川駅"
      }
    },
    {
      "id": "gunma_station_7967910548",
      "osmId": 7967910548,
      "osmType": "node",
      "prefectureId": "gunma",
      "type": "station",
      "subtype": "private",
      "name": "細谷",
      "nameKana": null,
      "nameEn": "Hosoya",
      "operator": null,
      "network": null,
      "ref": null,
      "latitude": 36.2830305,
      "longitude": 139.3490785,
      "countryCode": "jp",
      "rawTags": {
        "KSJ2:LIN": "伊勢崎線",
        "KSJ2:RAS": "eb03_8499",
        "KSJ2:STN": "細谷",
        "KSJ2:segment": "eb02_18240",
        "name": "細谷",
        "name:en": "Hosoya",
        "name:ja": "細谷",
        "name:ja_rm": "Hosoya",
        "name:ko": "호소야",
        "note": "National-Land Numerical Information (Railway) 2007, MLIT Japan",
        "note:ja": "国土数値情報（鉄道データ）平成19年　国土交通省",
        "public_transport": "station",
        "railway": "station",
        "source": "KSJ2",
        "source_ref": "http://nlftp.mlit.go.jp/ksj/jpgis/datalist/KsjTmplt-N02-v1_1.html",
        "wikidata": "Q5908238",
        "wikipedia": "ja:細谷駅 (群馬県)"
      }
    },
    {
      "id": "gunma_station_8059380834",
      "osmId": 8059380834,
      "osmType": "node",
      "prefectureId": "gunma",
      "type": "station",
      "subtype": "private",
      "name": "天王宿",
      "nameKana": null,
      "nameEn": "Tennojuku",
      "operator": null,
      "network": null,
      "ref": null,
      "latitude": 36.4149335,
      "longitude": 139.3081896,
      "countryCode": "jp",
      "rawTags": {
        "name": "天王宿",
        "name:en": "Tennojuku",
        "name:ja": "天王宿",
        "name:ja-Latn": "Tennōjuku",
        "name:ko": "덴노주쿠",
        "public_transport": "station",
        "railway": "station",
        "source": "KSJ2",
        "wikidata": "Q7700534",
        "wikipedia": "ja:天王宿駅"
      }
    },
    {
      "id": "gunma_station_8059380836",
      "osmId": 8059380836,
      "osmType": "node",
      "prefectureId": "gunma",
      "type": "station",
      "subtype": "private",
      "name": "粕川",
      "nameKana": null,
      "nameEn": "Kasukawa",
      "operator": null,
      "network": null,
      "ref": null,
      "latitude": 36.4167109,
      "longitude": 139.2107507,
      "countryCode": "jp",
      "rawTags": {
        "name": "粕川",
        "name:en": "Kasukawa",
        "name:ja-Latn": "Kasukawa",
        "name:ko": "가스카와",
        "public_transport": "station",
        "railway": "station",
        "source": "KSJ2",
        "wikidata": "Q6374886",
        "wikipedia": "ja:粕川駅"
      }
    },
    {
      "id": "gunma_station_8059417355",
      "osmId": 8059417355,
      "osmType": "node",
      "prefectureId": "gunma",
      "type": "station",
      "subtype": "private",
      "name": "桐生球場前",
      "nameKana": null,
      "nameEn": "Kiryu-Kyujo-mae",
      "operator": null,
      "network": null,
      "ref": null,
      "latitude": 36.4192923,
      "longitude": 139.2981201,
      "countryCode": "jp",
      "rawTags": {
        "alt_name:ko": "기류큐조마에",
        "name": "桐生球場前",
        "name:en": "Kiryu-Kyujo-mae",
        "name:ja": "桐生球場前",
        "name:ja_rm": "Kiryū-Kyūjō-Mae",
        "name:ko": "기류구장앞",
        "public_transport": "station",
        "railway": "station",
        "source": "KSJ2",
        "wikidata": "Q6416345",
        "wikipedia": "ja:桐生球場前駅"
      }
    },
    {
      "id": "gunma_station_8062047206",
      "osmId": 8062047206,
      "osmType": "node",
      "prefectureId": "gunma",
      "type": "station",
      "subtype": "private",
      "name": "北原",
      "nameKana": null,
      "nameEn": "Kitahara",
      "operator": null,
      "network": null,
      "ref": null,
      "latitude": 36.413667,
      "longitude": 139.1848652,
      "countryCode": "jp",
      "rawTags": {
        "name": "北原",
        "name:en": "Kitahara",
        "name:ja-Latn": "Kitahara",
        "name:ko": "기타하라",
        "public_transport": "station",
        "railway": "station",
        "source": "KSJ2",
        "wikidata": "Q11401280",
        "wikipedia": "ja:北原駅"
      }
    },
    {
      "id": "gunma_station_8062047207",
      "osmId": 8062047207,
      "osmType": "node",
      "prefectureId": "gunma",
      "type": "station",
      "subtype": "private",
      "name": "新屋",
      "nameKana": null,
      "nameEn": "Araya",
      "operator": null,
      "network": null,
      "ref": null,
      "latitude": 36.4138103,
      "longitude": 139.1964359,
      "countryCode": "jp",
      "rawTags": {
        "name": "新屋",
        "name:en": "Araya",
        "name:ja-Latn": "Araya",
        "name:ko": "아라야",
        "public_transport": "station",
        "railway": "station",
        "source": "KSJ2",
        "wikidata": "Q4784551",
        "wikipedia": "ja:新屋駅 (群馬県)"
      }
    },
    {
      "id": "gunma_station_8062047208",
      "osmId": 8062047208,
      "osmType": "node",
      "prefectureId": "gunma",
      "type": "station",
      "subtype": "private",
      "name": "膳",
      "nameKana": "ぜん",
      "nameEn": "Zen",
      "operator": null,
      "network": null,
      "ref": null,
      "latitude": 36.4170901,
      "longitude": 139.221943,
      "countryCode": "jp",
      "rawTags": {
        "name": "膳",
        "name:en": "Zen",
        "name:ja": "膳",
        "name:ja-Hira": "ぜん",
        "name:ja-Latn": "Zen",
        "name:ko": "젠",
        "public_transport": "station",
        "railway": "station",
        "source": "KSJ2",
        "wikidata": "Q8192788",
        "wikipedia": "ja:膳駅"
      }
    },
    {
      "id": "gunma_station_8062667105",
      "osmId": 8062667105,
      "osmType": "node",
      "prefectureId": "gunma",
      "type": "station",
      "subtype": "private",
      "name": "渡瀬",
      "nameKana": null,
      "nameEn": "Watarase",
      "operator": null,
      "network": null,
      "ref": null,
      "latitude": 36.2616873,
      "longitude": 139.5371537,
      "countryCode": "jp",
      "rawTags": {
        "KSJ2:LIN": "佐野線",
        "KSJ2:RAS": "eb03_8589",
        "KSJ2:STN": "渡瀬",
        "KSJ2:segment": "eb02_18336",
        "name": "渡瀬",
        "name:en": "Watarase",
        "name:ja": "渡瀬",
        "name:ja_rm": "Watarase",
        "name:ko": "와타라세",
        "note": "National-Land Numerical Information (Railway) 2007, MLIT Japan",
        "note:ja": "国土数値情報（鉄道データ）平成19年　国土交通省",
        "public_transport": "station",
        "railway": "station",
        "source": "KSJ2",
        "source_ref": "http://nlftp.mlit.go.jp/ksj/jpgis/datalist/KsjTmplt-N02-v1_1.html",
        "wikidata": "Q7973000",
        "wikipedia": "ja:渡瀬駅 (群馬県)"
      }
    },
    {
      "id": "gunma_station_9658525913",
      "osmId": 9658525913,
      "osmType": "node",
      "prefectureId": "gunma",
      "type": "station",
      "subtype": "private",
      "name": "雁ヶ沢",
      "nameKana": null,
      "nameEn": null,
      "operator": "東吾妻町役場 まちづくり推進課",
      "network": null,
      "ref": null,
      "latitude": 36.573085,
      "longitude": 138.7345481,
      "countryCode": "jp",
      "rawTags": {
        "name": "雁ヶ沢",
        "operator": "東吾妻町役場 まちづくり推進課",
        "public_transport": "station",
        "railway": "station"
      }
    },
    {
      "id": "gunma_bus_terminal_11464556636",
      "osmId": 11464556636,
      "osmType": "node",
      "prefectureId": "gunma",
      "type": "bus_terminal",
      "subtype": null,
      "name": "戸倉(高速バス)",
      "nameKana": "とくら",
      "nameEn": "Tokura(Express Bus)",
      "operator": null,
      "network": null,
      "ref": null,
      "latitude": 36.8387995,
      "longitude": 139.2483707,
      "countryCode": "jp",
      "rawTags": {
        "amenity": "bus_station",
        "bus": "yes",
        "name": "戸倉(高速バス)",
        "name:en": "Tokura(Express Bus)",
        "name:ja-Hira": "とくら",
        "public_transport": "station",
        "source": "survey"
      }
    },
    {
      "id": "gunma_station_12597670270",
      "osmId": 12597670270,
      "osmType": "node",
      "prefectureId": "gunma",
      "type": "station",
      "subtype": "private",
      "name": "花輪",
      "nameKana": null,
      "nameEn": "Hanawa",
      "operator": null,
      "network": null,
      "ref": null,
      "latitude": 36.5208404,
      "longitude": 139.307863,
      "countryCode": "jp",
      "rawTags": {
        "KSJ2:LIN": "わたらせ渓谷線",
        "KSJ2:STN": "花輪",
        "name": "花輪",
        "name:en": "Hanawa",
        "name:ja": "花輪",
        "name:ja_rm": "Hanawa",
        "name:ko": "하나와",
        "public_transport": "station",
        "railway": "station",
        "train": "yes",
        "wikidata": "Q5646950",
        "wikipedia": "ja:花輪駅"
      }
    },
    {
      "id": "gunma_bus_terminal_370719967",
      "osmId": 370719967,
      "osmType": "way",
      "prefectureId": "gunma",
      "type": "bus_terminal",
      "subtype": null,
      "name": "バスくるこばな",
      "nameKana": null,
      "nameEn": null,
      "operator": null,
      "network": null,
      "ref": null,
      "latitude": 36.3464346,
      "longitude": 138.9781325,
      "countryCode": "jp",
      "rawTags": {
        "amenity": "bus_station",
        "building": "yes",
        "building:levels": "1",
        "bus": "yes",
        "name": "バスくるこばな",
        "public_transport": "station"
      }
    },
    {
      "id": "gunma_bus_terminal_604747036",
      "osmId": 604747036,
      "osmType": "way",
      "prefectureId": "gunma",
      "type": "bus_terminal",
      "subtype": null,
      "name": "草津温泉",
      "nameKana": null,
      "nameEn": "Kusatsu Bus Station",
      "operator": null,
      "network": null,
      "ref": null,
      "latitude": 36.6208033,
      "longitude": 138.5963918,
      "countryCode": "jp",
      "rawTags": {
        "amenity": "bus_station",
        "building": "yes",
        "building:levels": "3",
        "bus": "yes",
        "name": "草津温泉",
        "name:en": "Kusatsu Bus Station",
        "public_transport": "station",
        "wikidata": "Q11618186",
        "wikipedia": "ja:草津温泉駅"
      }
    },
    {
      "id": "gunma_bus_terminal_664307230",
      "osmId": 664307230,
      "osmType": "way",
      "prefectureId": "gunma",
      "type": "bus_terminal",
      "subtype": null,
      "name": "バスターミナルおおた",
      "nameKana": null,
      "nameEn": "Bus Terminal Ota",
      "operator": null,
      "network": null,
      "ref": null,
      "latitude": 36.2754201,
      "longitude": 139.3809656,
      "countryCode": "jp",
      "rawTags": {
        "alt_name:en": "Ota Bus Terminal",
        "alt_name:ja": "太田バスの駅",
        "amenity": "bus_station",
        "bus": "yes",
        "name": "バスターミナルおおた",
        "name:en": "Bus Terminal Ota",
        "name:ja": "バスターミナルおおた",
        "public_transport": "station"
      }
    },
    {
      "id": "gunma_bus_terminal_940671748",
      "osmId": 940671748,
      "osmType": "way",
      "prefectureId": "gunma",
      "type": "bus_terminal",
      "subtype": null,
      "name": "交通広場",
      "nameKana": null,
      "nameEn": null,
      "operator": null,
      "network": null,
      "ref": null,
      "latitude": 36.3059245,
      "longitude": 139.1207944,
      "countryCode": "jp",
      "rawTags": {
        "amenity": "bus_station",
        "bus": "yes",
        "name": "交通広場",
        "public_transport": "station"
      }
    },
    {
      "id": "gunma_bus_terminal_1099779154",
      "osmId": 1099779154,
      "osmType": "way",
      "prefectureId": "gunma",
      "type": "bus_terminal",
      "subtype": null,
      "name": "おうらバスターミナル",
      "nameKana": null,
      "nameEn": null,
      "operator": null,
      "network": null,
      "ref": null,
      "latitude": 36.2414588,
      "longitude": 139.4627989,
      "countryCode": "jp",
      "rawTags": {
        "amenity": "bus_station",
        "landuse": "garages",
        "name": "おうらバスターミナル"
      }
    },
    {
      "id": "gunma_bus_terminal_1200655689",
      "osmId": 1200655689,
      "osmType": "way",
      "prefectureId": "gunma",
      "type": "bus_terminal",
      "subtype": null,
      "name": "Gongentoge",
      "nameKana": null,
      "nameEn": null,
      "operator": null,
      "network": null,
      "ref": null,
      "latitude": 36.6343182,
      "longitude": 138.9891753,
      "countryCode": "jp",
      "rawTags": {
        "amenity": "bus_station",
        "bus": "yes",
        "name": "Gongentoge",
        "public_transport": "station"
      }
    },
    {
      "id": "gunma_bus_terminal_1424331586",
      "osmId": 1424331586,
      "osmType": "way",
      "prefectureId": "gunma",
      "type": "bus_terminal",
      "subtype": null,
      "name": "富岡市高速バスのりば",
      "nameKana": null,
      "nameEn": "Tomioka Highway Bus Station",
      "operator": null,
      "network": null,
      "ref": null,
      "latitude": 36.245043,
      "longitude": 138.8963157,
      "countryCode": "jp",
      "rawTags": {
        "amenity": "bus_station",
        "building": "roof",
        "bus": "yes",
        "name": "富岡市高速バスのりば",
        "name:en": "Tomioka Highway Bus Station",
        "public_transport": "station"
      }
    }
  ]
}