{
  "fetchedAt": "2025-12-12T05:22:31.667Z",
  "prefectureId": "ibaraki",
  "prefectureName": "茨城県",
  "stats": {
    "station": 132,
    "airport": 9,
    "ferry_terminal": 2,
    "bus_terminal": 13,
    "total": 156
  },
  "data": [
    {
      "id": "ibaraki_station_240509491",
      "osmId": 240509491,
      "osmType": "node",
      "prefectureId": "ibaraki",
      "type": "station",
      "subtype": "private",
      "name": "水戸",
      "nameKana": "みと",
      "nameEn": "Mito",
      "operator": null,
      "network": null,
      "ref": null,
      "latitude": 36.370781,
      "longitude": 140.4762395,
      "countryCode": "jp",
      "rawTags": {
        "name": "水戸",
        "name:en": "Mito",
        "name:ja": "水戸",
        "name:ja-Hira": "みと",
        "name:ja-Latn": "Mito",
        "public_transport": "station",
        "railway": "station",
        "source": "KSJ2",
        "wikidata": "Q909499",
        "wikipedia": "ja:水戸駅"
      }
    },
    {
      "id": "ibaraki_station_263168557",
      "osmId": 263168557,
      "osmType": "node",
      "prefectureId": "ibaraki",
      "type": "station",
      "subtype": "private",
      "name": "下野宮",
      "nameKana": "しものみや",
      "nameEn": "Shimonomiya",
      "operator": null,
      "network": null,
      "ref": null,
      "latitude": 36.8157926,
      "longitude": 140.3752434,
      "countryCode": "jp",
      "rawTags": {
        "name": "下野宮",
        "name:en": "Shimonomiya",
        "name:ja-Hira": "しものみや",
        "name:ja-Latn": "Shimonomiya",
        "public_transport": "station",
        "railway": "station",
        "source": "KSJ2",
        "train": "yes",
        "wikidata": "Q7497007",
        "wikipedia": "ja:下野宮駅"
      }
    },
    {
      "id": "ibaraki_station_263168723",
      "osmId": 263168723,
      "osmType": "node",
      "prefectureId": "ibaraki",
      "type": "station",
      "subtype": "private",
      "name": "常陸大子",
      "nameKana": "ひたちだいご",
      "nameEn": "Hitachi-Daigo",
      "operator": null,
      "network": null,
      "ref": null,
      "latitude": 36.7708676,
      "longitude": 140.3506722,
      "countryCode": "jp",
      "rawTags": {
        "name": "常陸大子",
        "name:en": "Hitachi-Daigo",
        "name:ja-Hira": "ひたちだいご",
        "name:ja-Latn": "Hitachi-Daigo",
        "public_transport": "station",
        "railway": "station",
        "source": "KSJ2",
        "train": "yes",
        "wikidata": "Q11481693",
        "wikipedia": "ja:常陸大子駅"
      }
    },
    {
      "id": "ibaraki_station_263171062",
      "osmId": 263171062,
      "osmType": "node",
      "prefectureId": "ibaraki",
      "type": "station",
      "subtype": "private",
      "name": "玉川村",
      "nameKana": "たまがわむら",
      "nameEn": "Tamagawamura",
      "operator": null,
      "network": null,
      "ref": null,
      "latitude": 36.579092,
      "longitude": 140.3744964,
      "countryCode": "jp",
      "rawTags": {
        "name": "玉川村",
        "name:en": "Tamagawamura",
        "name:ja-Hira": "たまがわむら",
        "name:ja-Latn": "Tamagawamura",
        "public_transport": "station",
        "railway": "station",
        "source": "KSJ2",
        "train": "yes",
        "wikidata": "Q7680541",
        "wikipedia": "ja:玉川村駅"
      }
    },
    {
      "id": "ibaraki_station_263173754",
      "osmId": 263173754,
      "osmType": "node",
      "prefectureId": "ibaraki",
      "type": "station",
      "subtype": "private",
      "name": "袋田",
      "nameKana": "ふくろだ",
      "nameEn": "Fukuroda",
      "operator": null,
      "network": null,
      "ref": null,
      "latitude": 36.7544103,
      "longitude": 140.3795927,
      "countryCode": "jp",
      "rawTags": {
        "name": "袋田",
        "name:en": "Fukuroda",
        "name:ja-Hira": "ふくろだ",
        "name:ja-Latn": "Fukuroda",
        "public_transport": "station",
        "railway": "station",
        "source": "KSJ2",
        "train": "yes",
        "wikidata": "Q5507709",
        "wikipedia": "ja:袋田駅"
      }
    },
    {
      "id": "ibaraki_station_264406055",
      "osmId": 264406055,
      "osmType": "node",
      "prefectureId": "ibaraki",
      "type": "station",
      "subtype": "private",
      "name": "常陸多賀",
      "nameKana": "ひたちたが",
      "nameEn": "Hitachi-Taga",
      "operator": null,
      "network": null,
      "ref": null,
      "latitude": 36.5520331,
      "longitude": 140.6325218,
      "countryCode": "jp",
      "rawTags": {
        "name": "常陸多賀",
        "name:en": "Hitachi-Taga",
        "name:ja": "常陸多賀",
        "name:ja-Hira": "ひたちたが",
        "name:ja-Latn": "Hitachitaga",
        "public_transport": "station",
        "railway": "station",
        "source": "GSImaps/ort",
        "wikidata": "Q40081",
        "wikipedia": "ja:常陸多賀駅"
      }
    },
    {
      "id": "ibaraki_station_264412594",
      "osmId": 264412594,
      "osmType": "node",
      "prefectureId": "ibaraki",
      "type": "station",
      "subtype": "private",
      "name": "笠間",
      "nameKana": null,
      "nameEn": "Kasama",
      "operator": null,
      "network": null,
      "ref": null,
      "latitude": 36.3733104,
      "longitude": 140.2460444,
      "countryCode": "jp",
      "rawTags": {
        "name": "笠間",
        "name:en": "Kasama",
        "name:ko": "가사마",
        "public_transport": "station",
        "railway": "station",
        "source": "KSJ2",
        "train": "yes",
        "wikidata": "Q6373988",
        "wikipedia": "ja:笠間駅"
      }
    },
    {
      "id": "ibaraki_station_264412596",
      "osmId": 264412596,
      "osmType": "node",
      "prefectureId": "ibaraki",
      "type": "station",
      "subtype": "private",
      "name": "稲田",
      "nameKana": null,
      "nameEn": "Inada",
      "operator": null,
      "network": null,
      "ref": null,
      "latitude": 36.3686231,
      "longitude": 140.2145322,
      "countryCode": "jp",
      "rawTags": {
        "name": "稲田",
        "name:en": "Inada",
        "name:ja": "稲田",
        "name:ko": "이나다",
        "public_transport": "station",
        "railway": "station",
        "source": "KSJ2",
        "train": "yes",
        "wikidata": "Q6013353",
        "wikipedia": "ja:稲田駅"
      }
    },
    {
      "id": "ibaraki_station_264412753",
      "osmId": 264412753,
      "osmType": "node",
      "prefectureId": "ibaraki",
      "type": "station",
      "subtype": "private",
      "name": "岩瀬",
      "nameKana": "いわせ",
      "nameEn": "Iwase",
      "operator": null,
      "network": null,
      "ref": null,
      "latitude": 36.3595968,
      "longitude": 140.1082972,
      "countryCode": "jp",
      "rawTags": {
        "name": "岩瀬",
        "name:en": "Iwase",
        "name:ja-Hira": "いわせ",
        "name:ja-Latn": "Iwase",
        "name:ko": "이와세",
        "public_transport": "station",
        "railway": "station",
        "source": "KSJ2",
        "train": "yes",
        "wikidata": "Q6100731",
        "wikipedia": "ja:岩瀬駅"
      }
    },
    {
      "id": "ibaraki_station_264412876",
      "osmId": 264412876,
      "osmType": "node",
      "prefectureId": "ibaraki",
      "type": "station",
      "subtype": "private",
      "name": "新治",
      "nameKana": "にいはり",
      "nameEn": "Niihari",
      "operator": null,
      "network": null,
      "ref": null,
      "latitude": 36.3282947,
      "longitude": 140.0396924,
      "countryCode": "jp",
      "rawTags": {
        "name": "新治",
        "name:en": "Niihari",
        "name:ja-Hira": "にいはり",
        "name:ja-Latn": "Niihari",
        "name:ko": "니하리",
        "public_transport": "station",
        "railway": "station",
        "source": "KSJ2",
        "train": "yes",
        "wikidata": "Q7034411",
        "wikipedia": "ja:新治駅"
      }
    },
    {
      "id": "ibaraki_station_264413093",
      "osmId": 264413093,
      "osmType": "node",
      "prefectureId": "ibaraki",
      "type": "station",
      "subtype": "private",
      "name": "福原",
      "nameKana": null,
      "nameEn": "Fukuhara",
      "operator": null,
      "network": null,
      "ref": null,
      "latitude": 36.3514905,
      "longitude": 140.1871949,
      "countryCode": "jp",
      "rawTags": {
        "name": "福原",
        "name:en": "Fukuhara",
        "name:ja": "福原",
        "name:ja_rm": "Fukuhara",
        "name:ko": "후쿠하라",
        "public_transport": "station",
        "railway": "station",
        "source": "KSJ2",
        "wikidata": "Q5507632",
        "wikipedia": "ja:福原駅"
      }
    },
    {
      "id": "ibaraki_station_264413239",
      "osmId": 264413239,
      "osmType": "node",
      "prefectureId": "ibaraki",
      "type": "station",
      "subtype": "private",
      "name": "大和",
      "nameKana": "やまと",
      "nameEn": "Yamato",
      "operator": null,
      "network": null,
      "ref": null,
      "latitude": 36.3454853,
      "longitude": 140.0730363,
      "countryCode": "jp",
      "rawTags": {
        "name": "大和",
        "name:en": "Yamato",
        "name:ja-Hira": "やまと",
        "name:ja-Latn": "Yamato",
        "name:ko": "야마토",
        "public_transport": "station",
        "railway": "station",
        "source": "KSJ2",
        "train": "yes",
        "wikidata": "Q8047989",
        "wikipedia": "ja:大和駅 (茨城県)"
      }
    },
    {
      "id": "ibaraki_station_264413243",
      "osmId": 264413243,
      "osmType": "node",
      "prefectureId": "ibaraki",
      "type": "station",
      "subtype": "private",
      "name": "宍戸",
      "nameKana": "ししど",
      "nameEn": "Shishido",
      "operator": null,
      "network": null,
      "ref": null,
      "latitude": 36.3447069,
      "longitude": 140.288646,
      "countryCode": "jp",
      "rawTags": {
        "name": "宍戸",
        "name:en": "Shishido",
        "name:ja": "宍戸",
        "name:ja_kana": "ししど",
        "name:ja_rm": "Shishido",
        "name:ko": "시시도",
        "note": "National-Land Numerical Information (Railway) 2007, MLIT Japan",
        "note:ja": "国土数値情報（鉄道データ）平成19年　国土交通省",
        "railway": "station",
        "source": "KSJ2",
        "source_ref": "http://nlftp.mlit.go.jp/ksj/jpgis/datalist/KsjTmplt-N02-v1_1.html",
        "wikidata": "Q7499075",
        "wikipedia": "ja:宍戸駅"
      }
    },
    {
      "id": "ibaraki_station_264413551",
      "osmId": 264413551,
      "osmType": "node",
      "prefectureId": "ibaraki",
      "type": "station",
      "subtype": "private",
      "name": "玉戸",
      "nameKana": null,
      "nameEn": "Tamado",
      "operator": null,
      "network": null,
      "ref": null,
      "latitude": 36.2986752,
      "longitude": 139.9390867,
      "countryCode": "jp",
      "rawTags": {
        "name": "玉戸",
        "name:en": "Tamado",
        "name:ja-Latn": "Tamado",
        "name:ko": "다마도",
        "public_transport": "station",
        "railway": "station",
        "source": "KSJ2",
        "train": "yes",
        "wikidata": "Q7680526",
        "wikipedia": "ja:玉戸駅"
      }
    },
    {
      "id": "ibaraki_station_264413560",
      "osmId": 264413560,
      "osmType": "node",
      "prefectureId": "ibaraki",
      "type": "station",
      "subtype": "private",
      "name": "結城",
      "nameKana": "ゆうき",
      "nameEn": "Yuki",
      "operator": null,
      "network": null,
      "ref": null,
      "latitude": 36.2981402,
      "longitude": 139.8724513,
      "countryCode": "jp",
      "rawTags": {
        "name": "結城",
        "name:en": "Yuki",
        "name:ja-Hira": "ゆうき",
        "name:ja-Latn": "Yūki",
        "name:ko": "유키",
        "public_transport": "station",
        "railway": "station",
        "source": "KSJ2",
        "train": "yes",
        "wikidata": "Q8062742",
        "wikipedia": "ja:結城駅"
      }
    },
    {
      "id": "ibaraki_station_264413561",
      "osmId": 264413561,
      "osmType": "node",
      "prefectureId": "ibaraki",
      "type": "station",
      "subtype": "private",
      "name": "小田林",
      "nameKana": "おだばやし",
      "nameEn": "Otabayashi",
      "operator": null,
      "network": null,
      "ref": null,
      "latitude": 36.3007515,
      "longitude": 139.8538126,
      "countryCode": "jp",
      "rawTags": {
        "name": "小田林",
        "name:en": "Otabayashi",
        "name:ja-Hira": "おだばやし",
        "name:ja-Latn": "Otabayashi",
        "name:ko": "오타바야시",
        "public_transport": "station",
        "railway": "station",
        "source": "KSJ2",
        "train": "yes",
        "wikidata": "Q7108331",
        "wikipedia": "ja:小田林駅"
      }
    },
    {
      "id": "ibaraki_station_264413610",
      "osmId": 264413610,
      "osmType": "node",
      "prefectureId": "ibaraki",
      "type": "station",
      "subtype": "private",
      "name": "川島",
      "nameKana": "かわしま",
      "nameEn": "Kawashima",
      "operator": null,
      "network": null,
      "ref": null,
      "latitude": 36.2959569,
      "longitude": 139.9158226,
      "countryCode": "jp",
      "rawTags": {
        "name": "川島",
        "name:en": "Kawashima",
        "name:ja-Hira": "かわしま",
        "name:ja-Latn": "Kawashima",
        "name:ko": "가와시마",
        "public_transport": "station",
        "railway": "station",
        "source": "KSJ2",
        "train": "yes",
        "wikidata": "Q6379871",
        "wikipedia": "ja:川島駅"
      }
    },
    {
      "id": "ibaraki_station_264413611",
      "osmId": 264413611,
      "osmType": "node",
      "prefectureId": "ibaraki",
      "type": "station",
      "subtype": "private",
      "name": "東結城",
      "nameKana": null,
      "nameEn": "Higashi-Yuki",
      "operator": null,
      "network": null,
      "ref": null,
      "latitude": 36.2966605,
      "longitude": 139.8912361,
      "countryCode": "jp",
      "rawTags": {
        "name": "東結城",
        "name:en": "Higashi-Yuki",
        "name:ja": "東結城",
        "name:ja_rm": "Higashi-Yūki",
        "name:ko": "히가시유키",
        "public_transport": "station",
        "railway": "station",
        "source": "KSJ2",
        "train": "yes",
        "wikidata": "Q11528183",
        "wikipedia": "ja:東結城駅"
      }
    },
    {
      "id": "ibaraki_station_270010636",
      "osmId": 270010636,
      "osmType": "node",
      "prefectureId": "ibaraki",
      "type": "station",
      "subtype": "private",
      "name": "鹿島灘",
      "nameKana": "かしまなだ",
      "nameEn": "Kashimanada",
      "operator": null,
      "network": null,
      "ref": null,
      "latitude": 36.0754357,
      "longitude": 140.5968525,
      "countryCode": "jp",
      "rawTags": {
        "name": "鹿島灘",
        "name:en": "Kashimanada",
        "name:ja": "鹿島灘",
        "name:ja-Hira": "かしまなだ",
        "name:ja-Latn": "Kashimanada",
        "public_transport": "station",
        "railway": "station",
        "source": "KSJ2",
        "wikidata": "Q6374320",
        "wikipedia": "ja:鹿島灘駅"
      }
    },
    {
      "id": "ibaraki_station_389738571",
      "osmId": 389738571,
      "osmType": "node",
      "prefectureId": "ibaraki",
      "type": "station",
      "subtype": "private",
      "name": "筑波山頂",
      "nameKana": "つくばさんちょう",
      "nameEn": "Tsukubasancho",
      "operator": null,
      "network": null,
      "ref": null,
      "latitude": 36.2258428,
      "longitude": 140.1008194,
      "countryCode": "jp",
      "rawTags": {
        "name": "筑波山頂",
        "name:en": "Tsukubasancho",
        "name:ja": "筑波山頂",
        "name:ja-Hira": "つくばさんちょう",
        "name:ja_kana": "筑波山頂",
        "name:ja_rm": "Tsukubasanchō",
        "name:ko": "쓰쿠바산초",
        "public_transport": "station",
        "railway": "station",
        "wikidata": "Q80170383",
        "wikipedia": "ja:筑波山頂駅"
      }
    },
    {
      "id": "ibaraki_station_389743340",
      "osmId": 389743340,
      "osmType": "node",
      "prefectureId": "ibaraki",
      "type": "station",
      "subtype": "private",
      "name": "宮脇",
      "nameKana": "みやわき",
      "nameEn": "Miyawaki",
      "operator": null,
      "network": null,
      "ref": null,
      "latitude": 36.2146042,
      "longitude": 140.1001185,
      "countryCode": "jp",
      "rawTags": {
        "name": "宮脇",
        "name:en": "Miyawaki",
        "name:ja": "宮脇",
        "name:ja_kana": "みやわき",
        "name:ja_rm": "Miyawaki",
        "name:ko": "미야와키",
        "public_transport": "station",
        "railway": "station",
        "wikidata": "Q80170381"
      }
    },
    {
      "id": "ibaraki_station_452827440",
      "osmId": 452827440,
      "osmType": "node",
      "prefectureId": "ibaraki",
      "type": "station",
      "subtype": "private",
      "name": "竜ヶ崎",
      "nameKana": "りゅうがさき",
      "nameEn": "Ryugasaki",
      "operator": null,
      "network": null,
      "ref": null,
      "latitude": 35.9084135,
      "longitude": 140.1793295,
      "countryCode": "jp",
      "rawTags": {
        "KSJ2:LIN": "竜ヶ崎線",
        "KSJ2:RAS": "eb03_611",
        "KSJ2:STN": "竜ヶ崎",
        "KSJ2:segment": "eb02_1140",
        "name": "竜ヶ崎",
        "name:en": "Ryugasaki",
        "name:ja": "竜ヶ崎",
        "name:ja-Hira": "りゅうがさき",
        "name:ja-Latn": "Ryūgasaki",
        "name:ko": "류가사키",
        "note": "National-Land Numerical Information (Railway) 2007, MLIT Japan",
        "note:ja": "国土数値情報（鉄道データ）平成19年　国土交通省",
        "public_transport": "station",
        "railway": "station",
        "source": "KSJ2;survey",
        "source_ref": "http://nlftp.mlit.go.jp/ksj/jpgis/datalist/KsjTmplt-N02-v1_1.html",
        "wikidata": "Q7385617",
        "wikipedia": "ja:竜ヶ崎駅"
      }
    },
    {
      "id": "ibaraki_station_452827512",
      "osmId": 452827512,
      "osmType": "node",
      "prefectureId": "ibaraki",
      "type": "station",
      "subtype": "private",
      "name": "入地",
      "nameKana": "いれじ",
      "nameEn": "Ireji",
      "operator": null,
      "network": null,
      "ref": null,
      "latitude": 35.9191689,
      "longitude": 140.157004,
      "countryCode": "jp",
      "rawTags": {
        "KSJ2:LIN": "竜ヶ崎線",
        "KSJ2:RAS": "eb03_610",
        "KSJ2:STN": "入地",
        "KSJ2:segment": "eb02_1138",
        "name": "入地",
        "name:en": "Ireji",
        "name:ja": "入地",
        "name:ja-Hira": "いれじ",
        "name:ja-Latn": "Ireji",
        "name:ko": "이레지",
        "note": "National-Land Numerical Information (Railway) 2007, MLIT Japan",
        "note:ja": "国土数値情報（鉄道データ）平成19年　国土交通省",
        "public_transport": "station",
        "railway": "station",
        "source": "KSJ2",
        "source_ref": "http://nlftp.mlit.go.jp/ksj/jpgis/datalist/KsjTmplt-N02-v1_1.html",
        "wikidata": "Q6068466",
        "wikipedia": "ja:入地駅"
      }
    },
    {
      "id": "ibaraki_station_823274682",
      "osmId": 823274682,
      "osmType": "node",
      "prefectureId": "ibaraki",
      "type": "station",
      "subtype": "private",
      "name": "下館二高前",
      "nameKana": null,
      "nameEn": "Shimodate-Nikomae",
      "operator": "真岡鐵道",
      "network": null,
      "ref": null,
      "latitude": 36.3193341,
      "longitude": 139.9720269,
      "countryCode": "jp",
      "rawTags": {
        "name": "下館二高前",
        "name:en": "Shimodate-Nikomae",
        "name:ja": "下館二高前",
        "name:ja_rm": "Shimodate-Nikōmae",
        "name:ko": "시모다테니코마에",
        "operator": "真岡鐵道",
        "operator:en": "Moka Railway",
        "public_transport": "station",
        "railway": "station",
        "source": "KSJ2",
        "wikidata": "Q7496950",
        "wikipedia": "ja:下館二高前駅"
      }
    },
    {
      "id": "ibaraki_station_823277290",
      "osmId": 823277290,
      "osmType": "node",
      "prefectureId": "ibaraki",
      "type": "station",
      "subtype": "private",
      "name": "ひぐち",
      "nameKana": null,
      "nameEn": "Higuchi",
      "operator": "真岡鐵道",
      "network": null,
      "ref": null,
      "latitude": 36.3584812,
      "longitude": 139.9704471,
      "countryCode": "jp",
      "rawTags": {
        "name": "ひぐち",
        "name:en": "Higuchi",
        "name:ja": "ひぐち",
        "name:ja_rm": "Higuchi",
        "name:ko": "히구치",
        "note": "National-Land Numerical Information (Railway) 2007, MLIT Japan",
        "operator": "真岡鐵道",
        "operator:en": "Moka Railway",
        "public_transport": "station",
        "railway": "station",
        "source": "KSJ2",
        "source_ref": "http://nlftp.mlit.go.jp/ksj/jpgis/datalist/KsjTmplt-N02-v1_1.html",
        "train": "yes",
        "wikidata": "Q5760181",
        "wikipedia": "ja:ひぐち駅"
      }
    },
    {
      "id": "ibaraki_station_823277434",
      "osmId": 823277434,
      "osmType": "node",
      "prefectureId": "ibaraki",
      "type": "station",
      "subtype": "private",
      "name": "折本",
      "nameKana": null,
      "nameEn": "Orimoto",
      "operator": "真岡鐵道",
      "network": null,
      "ref": null,
      "latitude": 36.3406151,
      "longitude": 139.9712357,
      "countryCode": "jp",
      "rawTags": {
        "name": "折本",
        "name:en": "Orimoto",
        "name:ja": "折本",
        "name:ja_rm": "Orimoto",
        "name:ko": "오리모토",
        "note": "National-Land Numerical Information (Railway) 2007, MLIT Japan",
        "operator": "真岡鐵道",
        "operator:en": "Moka Railway",
        "public_transport": "station",
        "railway": "station",
        "source": "KSJ2",
        "source_ref": "http://nlftp.mlit.go.jp/ksj/jpgis/datalist/KsjTmplt-N02-v1_1.html",
        "train": "yes",
        "wikidata": "Q7102680",
        "wikipedia": "ja:折本駅"
      }
    },
    {
      "id": "ibaraki_airport_1042055838",
      "osmId": 1042055838,
      "osmType": "node",
      "prefectureId": "ibaraki",
      "type": "airport",
      "subtype": "military",
      "name": "霞ヶ浦飛行場",
      "nameKana": null,
      "nameEn": "Kasumigaura Airport",
      "operator": "Japan Ground Self-Defense Force",
      "network": null,
      "ref": "RJAK",
      "latitude": 36.0348716,
      "longitude": 140.192832,
      "countryCode": "jp",
      "rawTags": {
        "aeroway": "aerodrome",
        "int_name": "kasumigaura",
        "landuse": "military",
        "military": "airfield",
        "name": "霞ヶ浦飛行場",
        "name:en": "Kasumigaura Airport",
        "operator": "Japan Ground Self-Defense Force",
        "ref": "RJAK",
        "source": "ourairports.com",
        "wikidata": "Q6374903",
        "wikipedia": "ja:霞ヶ浦駐屯地"
      }
    },
    {
      "id": "ibaraki_station_1668409338",
      "osmId": 1668409338,
      "osmType": "node",
      "prefectureId": "ibaraki",
      "type": "station",
      "subtype": "private",
      "name": "ゆめみ野",
      "nameKana": null,
      "nameEn": "Yumemino",
      "operator": null,
      "network": null,
      "ref": null,
      "latitude": 35.9210552,
      "longitude": 140.0352172,
      "countryCode": "jp",
      "rawTags": {
        "name": "ゆめみ野",
        "name:en": "Yumemino",
        "name:ja": "ゆめみ野",
        "public_transport": "station",
        "railway": "station",
        "source": "GSImaps/ort",
        "wikidata": "Q11280891",
        "wikipedia": "ja:ゆめみ野駅"
      }
    },
    {
      "id": "ibaraki_station_2398353601",
      "osmId": 2398353601,
      "osmType": "node",
      "prefectureId": "ibaraki",
      "type": "station",
      "subtype": "jr",
      "name": "内原",
      "nameKana": "うちはら",
      "nameEn": "Uchihara",
      "operator": "東日本旅客鉄道",
      "network": null,
      "ref": null,
      "latitude": 36.3704036,
      "longitude": 140.3533152,
      "countryCode": "jp",
      "rawTags": {
        "name": "内原",
        "name:en": "Uchihara",
        "name:ja": "内原",
        "name:ja-Hira": "うちはら",
        "name:ja-Latn": "Uchihara",
        "operator": "東日本旅客鉄道",
        "operator:ja": "東日本旅客鉄道",
        "public_transport": "station",
        "railway": "station",
        "source": "GSImaps/ort",
        "wikidata": "Q5365679",
        "wikipedia": "ja:内原駅"
      }
    },
    {
      "id": "ibaraki_station_2398353606",
      "osmId": 2398353606,
      "osmType": "node",
      "prefectureId": "ibaraki",
      "type": "station",
      "subtype": "jr",
      "name": "赤塚",
      "nameKana": "あかつか",
      "nameEn": "Akatsuka",
      "operator": "東日本旅客鉄道",
      "network": null,
      "ref": null,
      "latitude": 36.3819368,
      "longitude": 140.4152492,
      "countryCode": "jp",
      "rawTags": {
        "name": "赤塚",
        "name:en": "Akatsuka",
        "name:ja": "赤塚",
        "name:ja-Hira": "あかつか",
        "name:ja-Latn": "Akatsuka",
        "operator": "東日本旅客鉄道",
        "operator:ja": "東日本旅客鉄道",
        "public_transport": "station",
        "railway": "station",
        "source": "GSImaps/ort",
        "wikidata": "Q865269",
        "wikipedia": "ja:赤塚駅"
      }
    },
    {
      "id": "ibaraki_station_2398353607",
      "osmId": 2398353607,
      "osmType": "node",
      "prefectureId": "ibaraki",
      "type": "station",
      "subtype": "private",
      "name": "高浜",
      "nameKana": "たかはま",
      "nameEn": "Takahama",
      "operator": null,
      "network": null,
      "ref": null,
      "latitude": 36.1638097,
      "longitude": 140.2946609,
      "countryCode": "jp",
      "rawTags": {
        "name": "高浜",
        "name:en": "Takahama",
        "name:ja-Hira": "たかはま",
        "name:ja-Latn": "Takahama",
        "public_transport": "station",
        "railway": "station",
        "wikidata": "Q5365228",
        "wikipedia": "ja:高浜駅 (茨城県)"
      }
    },
    {
      "id": "ibaraki_station_2447142753",
      "osmId": 2447142753,
      "osmType": "node",
      "prefectureId": "ibaraki",
      "type": "station",
      "subtype": "private",
      "name": "北浦湖畔",
      "nameKana": "きたうらこはん",
      "nameEn": "Kitaurakohan",
      "operator": null,
      "network": null,
      "ref": null,
      "latitude": 36.1204749,
      "longitude": 140.5368768,
      "countryCode": "jp",
      "rawTags": {
        "name": "北浦湖畔",
        "name:en": "Kitaurakohan",
        "name:ja": "北浦湖畔",
        "name:ja-Hira": "きたうらこはん",
        "name:ja-Latn": "Kitaurakohan",
        "public_transport": "station",
        "railway": "station",
        "source": "KSJ2",
        "wikidata": "Q6417920",
        "wikipedia": "ja:北浦湖畔駅"
      }
    },
    {
      "id": "ibaraki_station_2493510748",
      "osmId": 2493510748,
      "osmType": "node",
      "prefectureId": "ibaraki",
      "type": "station",
      "subtype": "jr",
      "name": "偕楽園",
      "nameKana": "かいらくえん",
      "nameEn": "Kairakuen",
      "operator": "東日本旅客鉄道",
      "network": "常磐線",
      "ref": null,
      "latitude": 36.3730982,
      "longitude": 140.4562281,
      "countryCode": "jp",
      "rawTags": {
        "name": "偕楽園",
        "name:en": "Kairakuen",
        "name:fr": "Jardin Kairaku",
        "name:ja-Hira": "かいらくえん",
        "name:ja-Latn": "Kairakuen",
        "network": "常磐線",
        "operator": "東日本旅客鉄道",
        "operator:ja": "東日本旅客鉄道",
        "public_transport": "station",
        "railway": "station",
        "source": "GSImaps/ort",
        "wikidata": "Q6348234",
        "wikipedia": "ja:偕楽園駅"
      }
    },
    {
      "id": "ibaraki_station_2609141491",
      "osmId": 2609141491,
      "osmType": "node",
      "prefectureId": "ibaraki",
      "type": "station",
      "subtype": "private",
      "name": "神立",
      "nameKana": "かんだつ",
      "nameEn": "Kandatsu",
      "operator": null,
      "network": null,
      "ref": null,
      "latitude": 36.120317,
      "longitude": 140.2484767,
      "countryCode": "jp",
      "rawTags": {
        "name": "神立",
        "name:en": "Kandatsu",
        "name:ja-Hira": "かんだつ",
        "name:ja-Latn": "Kandatsu",
        "public_transport": "station",
        "railway": "station",
        "source": "GSImaps/ort",
        "wikidata": "Q5363063",
        "wikipedia": "ja:神立駅"
      }
    },
    {
      "id": "ibaraki_station_3012068698",
      "osmId": 3012068698,
      "osmType": "node",
      "prefectureId": "ibaraki",
      "type": "station",
      "subtype": "private",
      "name": "取手",
      "nameKana": "とりで",
      "nameEn": "Toride",
      "operator": null,
      "network": null,
      "ref": "JJ10;JL32",
      "latitude": 35.8963803,
      "longitude": 140.0632184,
      "countryCode": "jp",
      "rawTags": {
        "name": "取手",
        "name:en": "Toride",
        "name:ja-Hira": "とりで",
        "name:ja-Latn": "Toride",
        "public_transport": "station",
        "railway": "station",
        "ref": "JJ10;JL32",
        "source": "GSImaps/ort",
        "train": "yes",
        "wikidata": "Q847830",
        "wikipedia": "ja:取手駅"
      }
    },
    {
      "id": "ibaraki_station_3349564686",
      "osmId": 3349564686,
      "osmType": "node",
      "prefectureId": "ibaraki",
      "type": "station",
      "subtype": "private",
      "name": "万博記念公園",
      "nameKana": "ばんぱくきねんこうえん",
      "nameEn": "Bampaku-kinenkoen",
      "operator": "首都圏新都市鉄道",
      "network": null,
      "ref": "18",
      "latitude": 36.0583204,
      "longitude": 140.0594905,
      "countryCode": "jp",
      "rawTags": {
        "alt_name:ko": "반파쿠키넨코엔",
        "name": "万博記念公園",
        "name:en": "Bampaku-kinenkoen",
        "name:ja": "万博記念公園",
        "name:ja_kana": "ばんぱくきねんこうえん",
        "name:ja_rm": "Bampaku kinen kōen",
        "name:ko": "만박기념공원",
        "operator": "首都圏新都市鉄道",
        "public_transport": "station",
        "railway": "station",
        "ref": "18",
        "toilets:wheelchair": "yes",
        "train": "yes",
        "wheelchair": "yes",
        "wikidata": "Q4853524",
        "wikipedia": "ja:万博記念公園駅 (茨城県)"
      }
    },
    {
      "id": "ibaraki_station_3349564689",
      "osmId": 3349564689,
      "osmType": "node",
      "prefectureId": "ibaraki",
      "type": "station",
      "subtype": "private",
      "name": "研究学園",
      "nameKana": "けんきゅうがくえん",
      "nameEn": "Kenkyū-gakuen",
      "operator": "首都圏新都市鉄道",
      "network": null,
      "ref": "19",
      "latitude": 36.0821337,
      "longitude": 140.0824131,
      "countryCode": "jp",
      "rawTags": {
        "name": "研究学園",
        "name:en": "Kenkyū-gakuen",
        "name:ja": "研究学園",
        "name:ja_kana": "けんきゅうがくえん",
        "name:ja_rm": "Kenkyū gakuen",
        "name:ko": "연구학원",
        "operator": "首都圏新都市鉄道",
        "public_transport": "station",
        "railway": "station",
        "ref": "19",
        "toilets:wheelchair": "yes",
        "train": "yes",
        "wheelchair": "yes",
        "wikidata": "Q5366720",
        "wikipedia": "ja:研究学園駅"
      }
    },
    {
      "id": "ibaraki_station_3349564690",
      "osmId": 3349564690,
      "osmType": "node",
      "prefectureId": "ibaraki",
      "type": "station",
      "subtype": "private",
      "name": "みどりの",
      "nameKana": "みどりの",
      "nameEn": "Midorino",
      "operator": "首都圏新都市鉄道",
      "network": null,
      "ref": "17",
      "latitude": 36.0298606,
      "longitude": 140.0563392,
      "countryCode": "jp",
      "rawTags": {
        "name": "みどりの",
        "name:en": "Midorino",
        "name:es": "Midorino",
        "name:ja": "みどりの",
        "name:ja_kana": "みどりの",
        "name:ja_rm": "Midorino",
        "name:ko": "미도리노",
        "operator": "首都圏新都市鉄道",
        "public_transport": "station",
        "railway": "station",
        "ref": "17",
        "toilets:wheelchair": "yes",
        "wheelchair": "yes",
        "wikidata": "Q5366321",
        "wikipedia": "ja:みどりの駅"
      }
    },
    {
      "id": "ibaraki_station_3349564691",
      "osmId": 3349564691,
      "osmType": "node",
      "prefectureId": "ibaraki",
      "type": "station",
      "subtype": "private",
      "name": "みらい平",
      "nameKana": "みらいだいら",
      "nameEn": "Miraidaira",
      "operator": "首都圏新都市鉄道",
      "network": null,
      "ref": "16",
      "latitude": 35.9944506,
      "longitude": 140.038253,
      "countryCode": "jp",
      "rawTags": {
        "name": "みらい平",
        "name:en": "Miraidaira",
        "name:ja": "みらい平",
        "name:ja_kana": "みらいだいら",
        "name:ja_rm": "Miraidaira",
        "name:ko": "미라이다이라",
        "name:zh": "未来平",
        "name:zh-Hans": "未来平",
        "name:zh-Hant": "未來平",
        "operator": "首都圏新都市鉄道",
        "public_transport": "station",
        "railway": "station",
        "ref": "16",
        "toilets:wheelchair": "yes",
        "wheelchair": "yes",
        "wikidata": "Q5366385",
        "wikipedia": "ja:みらい平駅"
      }
    },
    {
      "id": "ibaraki_station_3349564692",
      "osmId": 3349564692,
      "osmType": "node",
      "prefectureId": "ibaraki",
      "type": "station",
      "subtype": "private",
      "name": "守谷",
      "nameKana": "もりや",
      "nameEn": "Moriya",
      "operator": "首都圏新都市鉄道",
      "network": null,
      "ref": "15",
      "latitude": 35.9501173,
      "longitude": 139.9919302,
      "countryCode": "jp",
      "rawTags": {
        "name": "守谷",
        "name:en": "Moriya",
        "name:ja": "守谷",
        "name:ja_kana": "もりや",
        "name:ja_rm": "Moriya",
        "name:ko": "모리야",
        "operator": "首都圏新都市鉄道",
        "platforms": "2",
        "public_transport": "station",
        "railway": "station",
        "ref": "15",
        "toilets:wheelchair": "yes",
        "train": "yes",
        "wheelchair": "yes",
        "wikidata": "Q5371869",
        "wikipedia": "ja:守谷駅"
      }
    },
    {
      "id": "ibaraki_station_3349564794",
      "osmId": 3349564794,
      "osmType": "node",
      "prefectureId": "ibaraki",
      "type": "station",
      "subtype": "private",
      "name": "つくば",
      "nameKana": "つくば",
      "nameEn": "Tsukuba",
      "operator": "首都圏新都市鉄道",
      "network": null,
      "ref": "20",
      "latitude": 36.0826496,
      "longitude": 140.1111943,
      "countryCode": "jp",
      "rawTags": {
        "name": "つくば",
        "name:en": "Tsukuba",
        "name:ja": "つくば",
        "name:ja_kana": "つくば",
        "name:ja_rm": "Tsukuba",
        "name:ko": "쓰쿠바",
        "name:zh": "筑波",
        "name:zh-Hans": "筑波",
        "name:zh-Hant": "筑波",
        "operator": "首都圏新都市鉄道",
        "public_transport": "station",
        "railway": "station",
        "ref": "20",
        "toilets:wheelchair": "yes",
        "wheelchair": "yes",
        "wikidata": "Q1069714",
        "wikipedia": "ja:つくば駅"
      }
    },
    {
      "id": "ibaraki_station_3730492328",
      "osmId": 3730492328,
      "osmType": "node",
      "prefectureId": "ibaraki",
      "type": "station",
      "subtype": "jr",
      "name": "羽黒",
      "nameKana": null,
      "nameEn": "Haguro",
      "operator": "東日本旅客鉄道",
      "network": null,
      "ref": null,
      "latitude": 36.355239,
      "longitude": 140.1434163,
      "countryCode": "jp",
      "rawTags": {
        "name": "羽黒",
        "name:en": "Haguro",
        "name:ja": "羽黒",
        "name:ja_rm": "Haguro",
        "name:ko": "하구로",
        "operator": "東日本旅客鉄道",
        "operator:en": "East Japan Railway Company",
        "railway": "station",
        "source": "KSJ2",
        "wikidata": "Q5638843",
        "wikipedia": "ja:羽黒駅 (茨城県)"
      }
    },
    {
      "id": "ibaraki_station_3730492329",
      "osmId": 3730492329,
      "osmType": "node",
      "prefectureId": "ibaraki",
      "type": "station",
      "subtype": "private",
      "name": "友部",
      "nameKana": "ともべ",
      "nameEn": "Tomobe",
      "operator": "東日本旅客鉃道",
      "network": null,
      "ref": null,
      "latitude": 36.3507978,
      "longitude": 140.3062895,
      "countryCode": "jp",
      "rawTags": {
        "name": "友部",
        "name:en": "Tomobe",
        "name:ja": "友部",
        "name:ja-Hira": "ともべ",
        "name:ja-Latn": "Tomobe",
        "operator": "東日本旅客鉃道",
        "operator:ja": "東日本旅客鉃道",
        "public_transport": "station",
        "railway": "station",
        "source": "GSImaps/ort",
        "wikidata": "Q5362908",
        "wikipedia": "ja:友部駅"
      }
    },
    {
      "id": "ibaraki_station_3730494267",
      "osmId": 3730494267,
      "osmType": "node",
      "prefectureId": "ibaraki",
      "type": "station",
      "subtype": "jr",
      "name": "下館",
      "nameKana": null,
      "nameEn": "Shimodate",
      "operator": "東日本旅客鉄道;関東鉄道;真岡鐵道",
      "network": null,
      "ref": null,
      "latitude": 36.3041716,
      "longitude": 139.9787036,
      "countryCode": "jp",
      "rawTags": {
        "name": "下館",
        "name:en": "Shimodate",
        "name:ja-Latn": "Shimodate",
        "operator": "東日本旅客鉄道;関東鉄道;真岡鐵道",
        "operator:en": "JR East;Kanto Railway;Mooka Railway",
        "public_transport": "station",
        "railway": "station",
        "source": "GSImaps/ort",
        "train": "yes",
        "wikidata": "Q7496954",
        "wikipedia": "ja:下館駅"
      }
    },
    {
      "id": "ibaraki_station_3799418501",
      "osmId": 3799418501,
      "osmType": "node",
      "prefectureId": "ibaraki",
      "type": "station",
      "subtype": "private",
      "name": "潮来",
      "nameKana": "いたこ",
      "nameEn": "Itako",
      "operator": null,
      "network": null,
      "ref": null,
      "latitude": 35.9370775,
      "longitude": 140.5495746,
      "countryCode": "jp",
      "rawTags": {
        "name": "潮来",
        "name:en": "Itako",
        "name:ja": "潮来",
        "name:ja-Hira": "いたこ",
        "name:ja_rm": "Itako",
        "name:ko": "이타코",
        "public_transport": "station",
        "railway": "station",
        "train": "yes",
        "wikidata": "Q11565715",
        "wikipedia": "ja:潮来駅"
      }
    },
    {
      "id": "ibaraki_station_3799418504",
      "osmId": 3799418504,
      "osmType": "node",
      "prefectureId": "ibaraki",
      "type": "station",
      "subtype": "private",
      "name": "鹿島サッカースタジアム",
      "nameKana": "かしまさっかーすたじあむ",
      "nameEn": "Kashima Soccer Stadium",
      "operator": null,
      "network": null,
      "ref": null,
      "latitude": 35.9922557,
      "longitude": 140.6362934,
      "countryCode": "jp",
      "rawTags": {
        "name": "鹿島サッカースタジアム",
        "name:en": "Kashima Soccer Stadium",
        "name:ja": "鹿島サッカースタジアム",
        "name:ja-Hira": "かしまさっかーすたじあむ",
        "name:ja-Latn": "Kashimasakkāsutajiamu",
        "public_transport": "station",
        "railway": "station",
        "source": "KSJ2",
        "wikidata": "Q6374316",
        "wikipedia": "ja:鹿島サッカースタジアム駅"
      }
    },
    {
      "id": "ibaraki_station_3799418506",
      "osmId": 3799418506,
      "osmType": "node",
      "prefectureId": "ibaraki",
      "type": "station",
      "subtype": "private",
      "name": "鹿島神宮",
      "nameKana": "かしまじんぐう",
      "nameEn": "Kashima-Jingu",
      "operator": null,
      "network": null,
      "ref": null,
      "latitude": 35.9706555,
      "longitude": 140.6260511,
      "countryCode": "jp",
      "rawTags": {
        "name": "鹿島神宮",
        "name:en": "Kashima-Jingu",
        "name:ja": "鹿島神宮",
        "name:ja-Hira": "かしまじんぐう",
        "name:ja-Latn": "Kashimajingū",
        "public_transport": "station",
        "railway": "station",
        "source": "KSJ2",
        "wikidata": "Q5359650",
        "wikipedia": "ja:鹿島神宮駅"
      }
    },
    {
      "id": "ibaraki_station_3799418511",
      "osmId": 3799418511,
      "osmType": "node",
      "prefectureId": "ibaraki",
      "type": "station",
      "subtype": "private",
      "name": "延方",
      "nameKana": "のぶかた",
      "nameEn": "Nobukata",
      "operator": null,
      "network": null,
      "ref": null,
      "latitude": 35.9581045,
      "longitude": 140.5888585,
      "countryCode": "jp",
      "rawTags": {
        "name": "延方",
        "name:en": "Nobukata",
        "name:ja": "延方",
        "name:ja-Hira": "のぶかた",
        "name:ja_rm": "Nobukata",
        "name:ko": "노부카타",
        "public_transport": "station",
        "railway": "station",
        "train": "yes",
        "wikidata": "Q11486582",
        "wikipedia": "ja:延方駅"
      }
    },
    {
      "id": "ibaraki_station_3799563057",
      "osmId": 3799563057,
      "osmType": "node",
      "prefectureId": "ibaraki",
      "type": "station",
      "subtype": "jr",
      "name": "勝田",
      "nameKana": "かつた",
      "nameEn": "Katsuta",
      "operator": "東日本旅客鉄道",
      "network": null,
      "ref": null,
      "latitude": 36.3944346,
      "longitude": 140.5242433,
      "countryCode": "jp",
      "rawTags": {
        "name": "勝田",
        "name:en": "Katsuta",
        "name:ja": "勝田",
        "name:ja-Hira": "かつた",
        "name:ja-Latn": "Katsuta",
        "operator": "東日本旅客鉄道",
        "operator:ja": "東日本旅客鉄道",
        "public_transport": "station",
        "railway": "station",
        "source": "GSImaps/ort",
        "wikidata": "Q859695",
        "wikipedia": "ja:勝田駅"
      }
    },
    {
      "id": "ibaraki_station_3800602941",
      "osmId": 3800602941,
      "osmType": "node",
      "prefectureId": "ibaraki",
      "type": "station",
      "subtype": "private",
      "name": "龍ケ崎市",
      "nameKana": "りゅうがさきし",
      "nameEn": "Ryugasakishi",
      "operator": null,
      "network": null,
      "ref": null,
      "latitude": 35.9300777,
      "longitude": 140.1382428,
      "countryCode": "jp",
      "rawTags": {
        "name": "龍ケ崎市",
        "name:en": "Ryugasakishi",
        "name:ja-Hira": "りゅうがさきし",
        "name:ja-Latn": "Ryūgasakishi",
        "public_transport": "station",
        "railway": "station",
        "source": "GSImaps/ort",
        "wikidata": "Q89525862",
        "wikipedia": "ja:龍ケ崎市駅"
      }
    },
    {
      "id": "ibaraki_station_4512979080",
      "osmId": 4512979080,
      "osmType": "node",
      "prefectureId": "ibaraki",
      "type": "station",
      "subtype": "jr",
      "name": "磯原",
      "nameKana": "いそはら",
      "nameEn": "Isohara",
      "operator": "東日本旅客鉄道",
      "network": null,
      "ref": null,
      "latitude": 36.7904431,
      "longitude": 140.7459525,
      "countryCode": "jp",
      "rawTags": {
        "name": "磯原",
        "name:en": "Isohara",
        "name:ja": "磯原",
        "name:ja-Hira": "いそはら",
        "name:ja-Latn": "Isohara",
        "operator": "東日本旅客鉄道",
        "operator:ja": "東日本旅客鉄道",
        "public_transport": "station",
        "railway": "station",
        "source": "GSImaps/ort",
        "wikidata": "Q5353468",
        "wikipedia": "ja:磯原駅"
      }
    },
    {
      "id": "ibaraki_ferry_terminal_5135338979",
      "osmId": 5135338979,
      "osmType": "node",
      "prefectureId": "ibaraki",
      "type": "ferry_terminal",
      "subtype": null,
      "name": "遊覧船乗場",
      "nameKana": null,
      "nameEn": null,
      "operator": null,
      "network": null,
      "ref": null,
      "latitude": 36.0830478,
      "longitude": 140.2140062,
      "countryCode": "jp",
      "rawTags": {
        "amenity": "ferry_terminal",
        "ferry": "yes",
        "name": "遊覧船乗場",
        "public_transport": "station",
        "toilets:wheelchair": "yes",
        "wheelchair": "limited"
      }
    },
    {
      "id": "ibaraki_station_5604726300",
      "osmId": 5604726300,
      "osmType": "node",
      "prefectureId": "ibaraki",
      "type": "station",
      "subtype": "private",
      "name": "常陸鴻巣",
      "nameKana": null,
      "nameEn": "Hitachi-Konosu",
      "operator": null,
      "network": null,
      "ref": null,
      "latitude": 36.472522,
      "longitude": 140.4675919,
      "countryCode": "jp",
      "rawTags": {
        "name": "常陸鴻巣",
        "name:en": "Hitachi-Konosu",
        "public_transport": "station",
        "railway": "station",
        "source": "GSImaps/ort",
        "train": "yes",
        "wikidata": "Q5871600",
        "wikipedia": "ja:常陸鴻巣駅"
      }
    },
    {
      "id": "ibaraki_station_5604726675",
      "osmId": 5604726675,
      "osmType": "node",
      "prefectureId": "ibaraki",
      "type": "station",
      "subtype": "private",
      "name": "上菅谷",
      "nameKana": "かみすがや",
      "nameEn": "Kami-Sugaya",
      "operator": null,
      "network": null,
      "ref": null,
      "latitude": 36.4554063,
      "longitude": 140.4924412,
      "countryCode": "jp",
      "rawTags": {
        "name": "上菅谷",
        "name:en": "Kami-Sugaya",
        "name:ja-Hira": "かみすがや",
        "name:ja-Latn": "Kamisugaya",
        "public_transport": "station",
        "railway": "station",
        "source": "GSImaps/ort",
        "train": "yes",
        "wikidata": "Q6357196",
        "wikipedia": "ja:上菅谷駅"
      }
    },
    {
      "id": "ibaraki_station_5604726708",
      "osmId": 5604726708,
      "osmType": "node",
      "prefectureId": "ibaraki",
      "type": "station",
      "subtype": "private",
      "name": "中菅谷",
      "nameKana": "なかすがや",
      "nameEn": "Naka-Sugaya",
      "operator": null,
      "network": null,
      "ref": null,
      "latitude": 36.4458648,
      "longitude": 140.4926363,
      "countryCode": "jp",
      "rawTags": {
        "name": "中菅谷",
        "name:en": "Naka-Sugaya",
        "name:ja-Hira": "なかすがや",
        "name:ja-Latn": "Nakasugaya",
        "public_transport": "station",
        "railway": "station",
        "source": "GSImaps/ort",
        "train": "yes",
        "wikidata": "Q6960095",
        "wikipedia": "ja:中菅谷駅"
      }
    },
    {
      "id": "ibaraki_station_5604726727",
      "osmId": 5604726727,
      "osmType": "node",
      "prefectureId": "ibaraki",
      "type": "station",
      "subtype": "private",
      "name": "下菅谷",
      "nameKana": "しもすがや",
      "nameEn": "Shimo-Sugaya",
      "operator": null,
      "network": null,
      "ref": null,
      "latitude": 36.435349,
      "longitude": 140.4940613,
      "countryCode": "jp",
      "rawTags": {
        "name": "下菅谷",
        "name:en": "Shimo-Sugaya",
        "name:ja-Hira": "しもすがや",
        "name:ja-Latn": "Shimosugaya",
        "public_transport": "station",
        "railway": "station",
        "source": "GSImaps/ort",
        "train": "yes",
        "wikidata": "Q7496935",
        "wikipedia": "ja:下菅谷駅"
      }
    },
    {
      "id": "ibaraki_station_5604930900",
      "osmId": 5604930900,
      "osmType": "node",
      "prefectureId": "ibaraki",
      "type": "station",
      "subtype": "private",
      "name": "瓜連",
      "nameKana": "うりづら",
      "nameEn": "Urizura",
      "operator": null,
      "network": null,
      "ref": null,
      "latitude": 36.4981274,
      "longitude": 140.449723,
      "countryCode": "jp",
      "rawTags": {
        "name": "瓜連",
        "name:en": "Urizura",
        "name:ja-Hira": "うりづら",
        "name:ja-Latn": "Urizura",
        "public_transport": "station",
        "railway": "station",
        "source": "GSImaps/ort",
        "train": "yes",
        "wikidata": "Q7900656",
        "wikipedia": "ja:瓜連駅"
      }
    },
    {
      "id": "ibaraki_station_5604934663",
      "osmId": 5604934663,
      "osmType": "node",
      "prefectureId": "ibaraki",
      "type": "station",
      "subtype": "private",
      "name": "南酒出",
      "nameKana": null,
      "nameEn": "Minami-Sakaide",
      "operator": null,
      "network": null,
      "ref": null,
      "latitude": 36.4773699,
      "longitude": 140.4984936,
      "countryCode": "jp",
      "rawTags": {
        "name": "南酒出",
        "name:en": "Minami-Sakaide",
        "public_transport": "station",
        "railway": "station",
        "source": "GSImaps/ort",
        "train": "yes",
        "wikidata": "Q6862962",
        "wikipedia": "ja:南酒出駅"
      }
    },
    {
      "id": "ibaraki_station_5604941424",
      "osmId": 5604941424,
      "osmType": "node",
      "prefectureId": "ibaraki",
      "type": "station",
      "subtype": "private",
      "name": "額田",
      "nameKana": null,
      "nameEn": "Nukada",
      "operator": null,
      "network": null,
      "ref": null,
      "latitude": 36.4857123,
      "longitude": 140.5034141,
      "countryCode": "jp",
      "rawTags": {
        "name": "額田",
        "name:en": "Nukada",
        "public_transport": "station",
        "railway": "station",
        "source": "GSImaps/ort",
        "train": "yes",
        "wikidata": "Q7068845",
        "wikipedia": "ja:額田駅 (茨城県)"
      }
    },
    {
      "id": "ibaraki_station_5609791263",
      "osmId": 5609791263,
      "osmType": "node",
      "prefectureId": "ibaraki",
      "type": "station",
      "subtype": "private",
      "name": "常陸太田",
      "nameKana": null,
      "nameEn": "Hitachi-Ota",
      "operator": null,
      "network": null,
      "ref": null,
      "latitude": 36.530947,
      "longitude": 140.5281012,
      "countryCode": "jp",
      "rawTags": {
        "name": "常陸太田",
        "name:en": "Hitachi-Ota",
        "public_transport": "station",
        "railway": "station",
        "source": "GSImaps/ort",
        "train": "yes",
        "wikidata": "Q1305575",
        "wikipedia": "ja:常陸太田駅"
      }
    },
    {
      "id": "ibaraki_station_5609791274",
      "osmId": 5609791274,
      "osmType": "node",
      "prefectureId": "ibaraki",
      "type": "station",
      "subtype": "private",
      "name": "谷河原",
      "nameKana": null,
      "nameEn": "Yagawara",
      "operator": null,
      "network": null,
      "ref": null,
      "latitude": 36.5198585,
      "longitude": 140.5250904,
      "countryCode": "jp",
      "rawTags": {
        "name": "谷河原",
        "name:en": "Yagawara",
        "public_transport": "station",
        "railway": "station",
        "source": "GSImaps/ort",
        "train": "yes",
        "wikidata": "Q8046691",
        "wikipedia": "ja:谷河原駅"
      }
    },
    {
      "id": "ibaraki_station_5609791293",
      "osmId": 5609791293,
      "osmType": "node",
      "prefectureId": "ibaraki",
      "type": "station",
      "subtype": "private",
      "name": "河合",
      "nameKana": null,
      "nameEn": "Kawai",
      "operator": null,
      "network": null,
      "ref": null,
      "latitude": 36.5082505,
      "longitude": 140.5171357,
      "countryCode": "jp",
      "rawTags": {
        "name": "河合",
        "name:en": "Kawai",
        "public_transport": "station",
        "railway": "station",
        "source": "GSImaps/ort",
        "train": "yes",
        "wikidata": "Q6379532",
        "wikipedia": "ja:河合駅"
      }
    },
    {
      "id": "ibaraki_station_5648101311",
      "osmId": 5648101311,
      "osmType": "node",
      "prefectureId": "ibaraki",
      "type": "station",
      "subtype": "private",
      "name": "東水戸",
      "nameKana": "ひがしみと",
      "nameEn": "Higashi-Mito",
      "operator": null,
      "network": null,
      "ref": null,
      "latitude": 36.3618876,
      "longitude": 140.5157087,
      "countryCode": "jp",
      "rawTags": {
        "name": "東水戸",
        "name:en": "Higashi-Mito",
        "name:ja": "東水戸",
        "name:ja-Hira": "ひがしみと",
        "name:ja-Latn": "Higashimito",
        "public_transport": "station",
        "railway": "station",
        "source": "KSJ2",
        "wikidata": "Q11527562",
        "wikipedia": "ja:東水戸駅"
      }
    },
    {
      "id": "ibaraki_station_5648122487",
      "osmId": 5648122487,
      "osmType": "node",
      "prefectureId": "ibaraki",
      "type": "station",
      "subtype": "private",
      "name": "常澄",
      "nameKana": "つねずみ",
      "nameEn": "Tsunezumi",
      "operator": null,
      "network": null,
      "ref": null,
      "latitude": 36.3408219,
      "longitude": 140.558805,
      "countryCode": "jp",
      "rawTags": {
        "name": "常澄",
        "name:en": "Tsunezumi",
        "name:ja": "常澄",
        "name:ja-Hira": "つねずみ",
        "name:ja-Latn": "Tsunezumi",
        "public_transport": "station",
        "railway": "station",
        "source": "KSJ2",
        "wikidata": "Q7850224",
        "wikipedia": "ja:常澄駅"
      }
    },
    {
      "id": "ibaraki_station_5649515784",
      "osmId": 5649515784,
      "osmType": "node",
      "prefectureId": "ibaraki",
      "type": "station",
      "subtype": "private",
      "name": "牛久",
      "nameKana": null,
      "nameEn": "Ushiku",
      "operator": null,
      "network": null,
      "ref": null,
      "latitude": 35.9755208,
      "longitude": 140.1409404,
      "countryCode": "jp",
      "rawTags": {
        "name": "牛久",
        "name:en": "Ushiku",
        "public_transport": "station",
        "railway": "station",
        "source": "GSImaps/ort",
        "toilets:wheelchair": "yes",
        "wheelchair": "yes",
        "wikidata": "Q5363775",
        "wikipedia": "ja:牛久駅"
      }
    },
    {
      "id": "ibaraki_station_5649515788",
      "osmId": 5649515788,
      "osmType": "node",
      "prefectureId": "ibaraki",
      "type": "station",
      "subtype": "private",
      "name": "藤代",
      "nameKana": "ふじしろ",
      "nameEn": "Fujishiro",
      "operator": null,
      "network": null,
      "ref": null,
      "latitude": 35.9206534,
      "longitude": 140.1182086,
      "countryCode": "jp",
      "rawTags": {
        "name": "藤代",
        "name:en": "Fujishiro",
        "name:ja-Hira": "ふじしろ",
        "name:ja-Latn": "Fujishiro",
        "public_transport": "station",
        "railway": "station",
        "source": "GSImaps/ort",
        "wikidata": "Q5365268",
        "wikipedia": "ja:藤代駅"
      }
    },
    {
      "id": "ibaraki_station_5653967901",
      "osmId": 5653967901,
      "osmType": "node",
      "prefectureId": "ibaraki",
      "type": "station",
      "subtype": "private",
      "name": "南守谷",
      "nameKana": null,
      "nameEn": "Minami-Moriya",
      "operator": null,
      "network": null,
      "ref": null,
      "latitude": 35.9342845,
      "longitude": 140.0024794,
      "countryCode": "jp",
      "rawTags": {
        "name": "南守谷",
        "name:en": "Minami-Moriya",
        "name:ja": "南守谷",
        "public_transport": "station",
        "railway": "station",
        "source": "GSImaps/ort",
        "wikidata": "Q6862948",
        "wikipedia": "ja:南守谷駅"
      }
    },
    {
      "id": "ibaraki_station_5653967902",
      "osmId": 5653967902,
      "osmType": "node",
      "prefectureId": "ibaraki",
      "type": "station",
      "subtype": "private",
      "name": "戸頭",
      "nameKana": null,
      "nameEn": "Togashira",
      "operator": null,
      "network": null,
      "ref": null,
      "latitude": 35.9293333,
      "longitude": 140.014095,
      "countryCode": "jp",
      "rawTags": {
        "name": "戸頭",
        "name:en": "Togashira",
        "name:ja": "戸頭",
        "public_transport": "station",
        "railway": "station",
        "source": "GSImaps/ort",
        "wikidata": "Q7813045",
        "wikipedia": "ja:戸頭駅"
      }
    },
    {
      "id": "ibaraki_station_5653967903",
      "osmId": 5653967903,
      "osmType": "node",
      "prefectureId": "ibaraki",
      "type": "station",
      "subtype": "private",
      "name": "稲戸井",
      "nameKana": null,
      "nameEn": "Inatoi",
      "operator": null,
      "network": null,
      "ref": null,
      "latitude": 35.9263843,
      "longitude": 140.0224565,
      "countryCode": "jp",
      "rawTags": {
        "name": "稲戸井",
        "name:en": "Inatoi",
        "name:ja": "稲戸井",
        "public_transport": "station",
        "railway": "station",
        "source": "GSImaps/ort",
        "wikidata": "Q11596625",
        "wikipedia": "ja:稲戸井駅"
      }
    },
    {
      "id": "ibaraki_station_5653972252",
      "osmId": 5653972252,
      "osmType": "node",
      "prefectureId": "ibaraki",
      "type": "station",
      "subtype": "private",
      "name": "新取手",
      "nameKana": null,
      "nameEn": "Shin-Toride",
      "operator": null,
      "network": null,
      "ref": null,
      "latitude": 35.9174631,
      "longitude": 140.0428185,
      "countryCode": "jp",
      "rawTags": {
        "name": "新取手",
        "name:en": "Shin-Toride",
        "public_transport": "station",
        "railway": "station",
        "source": "GSImaps/ort",
        "train": "yes",
        "wikidata": "Q7497136",
        "wikipedia": "ja:新取手駅"
      }
    },
    {
      "id": "ibaraki_station_5653972253",
      "osmId": 5653972253,
      "osmType": "node",
      "prefectureId": "ibaraki",
      "type": "station",
      "subtype": "private",
      "name": "寺原",
      "nameKana": "てらはら",
      "nameEn": "Terahara",
      "operator": null,
      "network": null,
      "ref": null,
      "latitude": 35.9119595,
      "longitude": 140.0545417,
      "countryCode": "jp",
      "rawTags": {
        "name": "寺原",
        "name:en": "Terahara",
        "name:ja": "寺原",
        "name:ja-Hira": "てらはら",
        "public_transport": "station",
        "railway": "station",
        "source": "GSImaps/ort",
        "wikidata": "Q7701522",
        "wikipedia": "ja:寺原駅"
      }
    },
    {
      "id": "ibaraki_station_5653972257",
      "osmId": 5653972257,
      "osmType": "node",
      "prefectureId": "ibaraki",
      "type": "station",
      "subtype": "private",
      "name": "西取手",
      "nameKana": null,
      "nameEn": "Nishi-Toride",
      "operator": null,
      "network": null,
      "ref": null,
      "latitude": 35.9090894,
      "longitude": 140.0589506,
      "countryCode": "jp",
      "rawTags": {
        "name": "西取手",
        "name:en": "Nishi-Toride",
        "name:ja": "西取手",
        "public_transport": "station",
        "railway": "station",
        "source": "GSImaps/ort",
        "wikidata": "Q11627383",
        "wikipedia": "ja:西取手駅"
      }
    },
    {
      "id": "ibaraki_station_5654211209",
      "osmId": 5654211209,
      "osmType": "node",
      "prefectureId": "ibaraki",
      "type": "station",
      "subtype": "private",
      "name": "小絹",
      "nameKana": null,
      "nameEn": "Kokinu",
      "operator": null,
      "network": null,
      "ref": null,
      "latitude": 35.981199,
      "longitude": 139.9832171,
      "countryCode": "jp",
      "rawTags": {
        "name": "小絹",
        "name:en": "Kokinu",
        "name:ja": "小絹",
        "public_transport": "station",
        "railway": "station",
        "source": "GSImaps/ort",
        "wikidata": "Q6426642",
        "wikipedia": "ja:小絹駅"
      }
    },
    {
      "id": "ibaraki_station_5654211258",
      "osmId": 5654211258,
      "osmType": "node",
      "prefectureId": "ibaraki",
      "type": "station",
      "subtype": "private",
      "name": "新守谷",
      "nameKana": null,
      "nameEn": "Shin-Moriya",
      "operator": null,
      "network": null,
      "ref": null,
      "latitude": 35.9665144,
      "longitude": 139.9856512,
      "countryCode": "jp",
      "rawTags": {
        "name": "新守谷",
        "name:en": "Shin-Moriya",
        "public_transport": "station",
        "railway": "station",
        "source": "GSImaps/ort",
        "wikidata": "Q7497120",
        "wikipedia": "ja:新守谷駅"
      }
    },
    {
      "id": "ibaraki_station_5657577879",
      "osmId": 5657577879,
      "osmType": "node",
      "prefectureId": "ibaraki",
      "type": "station",
      "subtype": "private",
      "name": "水海道",
      "nameKana": "みつかいどう",
      "nameEn": "Mitsukaido",
      "operator": null,
      "network": null,
      "ref": null,
      "latitude": 36.0180569,
      "longitude": 139.9916513,
      "countryCode": "jp",
      "rawTags": {
        "name": "水海道",
        "name:en": "Mitsukaido",
        "name:ja-Hira": "みつかいどう",
        "name:ja-Latn": "Mitsukaidō",
        "public_transport": "station",
        "railway": "station",
        "source": "GSImaps/ort",
        "train": "yes",
        "wikidata": "Q6883271",
        "wikipedia": "ja:水海道駅"
      }
    },
    {
      "id": "ibaraki_station_5657777926",
      "osmId": 5657777926,
      "osmType": "node",
      "prefectureId": "ibaraki",
      "type": "station",
      "subtype": "private",
      "name": "玉村",
      "nameKana": null,
      "nameEn": "Tamamura",
      "operator": null,
      "network": null,
      "ref": null,
      "latitude": 36.1356647,
      "longitude": 139.9698611,
      "countryCode": "jp",
      "rawTags": {
        "name": "玉村",
        "name:en": "Tamamura",
        "name:ja-Latn": "Tamamura",
        "public_transport": "station",
        "railway": "station",
        "source": "GSImaps/ort",
        "train": "yes",
        "wikidata": "Q7680610",
        "wikipedia": "ja:玉村駅"
      }
    },
    {
      "id": "ibaraki_station_5657777938",
      "osmId": 5657777938,
      "osmType": "node",
      "prefectureId": "ibaraki",
      "type": "station",
      "subtype": "private",
      "name": "宗道",
      "nameKana": "そうどう",
      "nameEn": "Sodo",
      "operator": null,
      "network": null,
      "ref": null,
      "latitude": 36.1541048,
      "longitude": 139.9705218,
      "countryCode": "jp",
      "rawTags": {
        "name": "宗道",
        "name:en": "Sodo",
        "name:ja": "宗道",
        "name:ja-Hira": "そうどう",
        "name:ja-Latn": "Sōdō",
        "public_transport": "station",
        "railway": "station",
        "source": "GSImaps/ort",
        "train": "yes",
        "wikidata": "Q7667565",
        "wikipedia": "ja:宗道駅"
      }
    },
    {
      "id": "ibaraki_station_5657777969",
      "osmId": 5657777969,
      "osmType": "node",
      "prefectureId": "ibaraki",
      "type": "station",
      "subtype": "private",
      "name": "下妻",
      "nameKana": "しもつま",
      "nameEn": "Shimotsuma",
      "operator": null,
      "network": null,
      "ref": null,
      "latitude": 36.1819925,
      "longitude": 139.964444,
      "countryCode": "jp",
      "rawTags": {
        "name": "下妻",
        "name:en": "Shimotsuma",
        "name:ja-Hira": "しもつま",
        "name:ja-Latn": "Shimotsuma",
        "public_transport": "station",
        "railway": "station",
        "source": "GSImaps/ort",
        "train": "yes",
        "wikidata": "Q7497019",
        "wikipedia": "ja:下妻駅"
      }
    },
    {
      "id": "ibaraki_station_5657927765",
      "osmId": 5657927765,
      "osmType": "node",
      "prefectureId": "ibaraki",
      "type": "station",
      "subtype": "private",
      "name": "石下",
      "nameKana": null,
      "nameEn": "Ishige",
      "operator": null,
      "network": null,
      "ref": null,
      "latitude": 36.1172237,
      "longitude": 139.9742525,
      "countryCode": "jp",
      "rawTags": {
        "name": "石下",
        "name:en": "Ishige",
        "name:ja-Latn": "Ishige",
        "public_transport": "station",
        "railway": "station",
        "source": "GSImaps/ort",
        "train": "yes",
        "wikidata": "Q6080189",
        "wikipedia": "ja:石下駅"
      }
    },
    {
      "id": "ibaraki_station_5658505811",
      "osmId": 5658505811,
      "osmType": "node",
      "prefectureId": "ibaraki",
      "type": "station",
      "subtype": "private",
      "name": "三妻",
      "nameKana": null,
      "nameEn": "Mitsuma",
      "operator": null,
      "network": null,
      "ref": null,
      "latitude": 36.0735656,
      "longitude": 139.983024,
      "countryCode": "jp",
      "rawTags": {
        "name": "三妻",
        "name:en": "Mitsuma",
        "name:ja": "三妻",
        "name:ja-Latn": "Mitsuma",
        "public_transport": "station",
        "railway": "station",
        "source": "GSImaps/ort",
        "wikidata": "Q6883297",
        "wikipedia": "ja:三妻駅"
      }
    },
    {
      "id": "ibaraki_station_5658507935",
      "osmId": 5658507935,
      "osmType": "node",
      "prefectureId": "ibaraki",
      "type": "station",
      "subtype": "private",
      "name": "南石下",
      "nameKana": null,
      "nameEn": "Minami-Ishige",
      "operator": null,
      "network": null,
      "ref": null,
      "latitude": 36.1023895,
      "longitude": 139.9738622,
      "countryCode": "jp",
      "rawTags": {
        "name": "南石下",
        "name:en": "Minami-Ishige",
        "public_transport": "station",
        "railway": "station",
        "source": "GSImaps/ort",
        "train": "yes",
        "wikidata": "Q6862906",
        "wikipedia": "ja:南石下駅"
      }
    },
    {
      "id": "ibaraki_station_5658792637",
      "osmId": 5658792637,
      "osmType": "node",
      "prefectureId": "ibaraki",
      "type": "station",
      "subtype": "private",
      "name": "中妻",
      "nameKana": null,
      "nameEn": "Nakatsuma",
      "operator": null,
      "network": null,
      "ref": null,
      "latitude": 36.0472177,
      "longitude": 139.9906053,
      "countryCode": "jp",
      "rawTags": {
        "name": "中妻",
        "name:en": "Nakatsuma",
        "name:ja-Latn": "Nakatsuma",
        "public_transport": "station",
        "railway": "station",
        "source": "GSImaps/ort",
        "train": "yes",
        "wikidata": "Q6960360",
        "wikipedia": "ja:中妻駅"
      }
    },
    {
      "id": "ibaraki_station_5658792638",
      "osmId": 5658792638,
      "osmType": "node",
      "prefectureId": "ibaraki",
      "type": "station",
      "subtype": "private",
      "name": "北水海道",
      "nameKana": null,
      "nameEn": "Kita-Mitsukaido",
      "operator": null,
      "network": null,
      "ref": null,
      "latitude": 36.0320855,
      "longitude": 139.992861,
      "countryCode": "jp",
      "rawTags": {
        "name": "北水海道",
        "name:en": "Kita-Mitsukaido",
        "public_transport": "station",
        "railway": "station",
        "source": "GSImaps/ort",
        "train": "yes",
        "wikidata": "Q11402295",
        "wikipedia": "ja:北水海道駅"
      }
    },
    {
      "id": "ibaraki_station_5659757930",
      "osmId": 5659757930,
      "osmType": "node",
      "prefectureId": "ibaraki",
      "type": "station",
      "subtype": "private",
      "name": "黒子",
      "nameKana": null,
      "nameEn": "Kurogo",
      "operator": null,
      "network": null,
      "ref": null,
      "latitude": 36.2473114,
      "longitude": 139.9749928,
      "countryCode": "jp",
      "rawTags": {
        "name": "黒子",
        "name:en": "Kurogo",
        "name:ja-Latn": "Kurogo",
        "public_transport": "station",
        "railway": "station",
        "source": "GSImaps/ort",
        "train": "yes",
        "wikidata": "Q6446299",
        "wikipedia": "ja:黒子駅"
      }
    },
    {
      "id": "ibaraki_station_5659757948",
      "osmId": 5659757948,
      "osmType": "node",
      "prefectureId": "ibaraki",
      "type": "station",
      "subtype": "private",
      "name": "騰波ノ江",
      "nameKana": null,
      "nameEn": "Tobanoe",
      "operator": null,
      "network": null,
      "ref": null,
      "latitude": 36.2232561,
      "longitude": 139.9764351,
      "countryCode": "jp",
      "rawTags": {
        "name": "騰波ノ江",
        "name:en": "Tobanoe",
        "name:ja-Latn": "Tobanoe",
        "public_transport": "station",
        "railway": "station",
        "source": "GSImaps/ort",
        "train": "yes",
        "wikidata": "Q11668545",
        "wikipedia": "ja:騰波ノ江駅"
      }
    },
    {
      "id": "ibaraki_station_5659757964",
      "osmId": 5659757964,
      "osmType": "node",
      "prefectureId": "ibaraki",
      "type": "station",
      "subtype": "private",
      "name": "大宝",
      "nameKana": null,
      "nameEn": "Daiho",
      "operator": null,
      "network": null,
      "ref": null,
      "latitude": 36.20309,
      "longitude": 139.9702981,
      "countryCode": "jp",
      "rawTags": {
        "name": "大宝",
        "name:en": "Daiho",
        "name:ja-Latn": "Daihō",
        "public_transport": "station",
        "railway": "station",
        "source": "GSImaps/ort",
        "train": "yes",
        "wikidata": "Q5209134",
        "wikipedia": "ja:大宝駅"
      }
    },
    {
      "id": "ibaraki_station_5659797236",
      "osmId": 5659797236,
      "osmType": "node",
      "prefectureId": "ibaraki",
      "type": "station",
      "subtype": "private",
      "name": "大田郷",
      "nameKana": null,
      "nameEn": "Otago",
      "operator": null,
      "network": null,
      "ref": null,
      "latitude": 36.2782142,
      "longitude": 139.9596405,
      "countryCode": "jp",
      "rawTags": {
        "name": "大田郷",
        "name:en": "Otago",
        "name:ja": "大田郷",
        "name:ja-Latn": "Ōtagō",
        "public_transport": "station",
        "railway": "station",
        "source": "GSImaps/ort",
        "wikidata": "Q8081743",
        "wikipedia": "ja:大田郷駅"
      }
    },
    {
      "id": "ibaraki_station_5660663159",
      "osmId": 5660663159,
      "osmType": "node",
      "prefectureId": "ibaraki",
      "type": "station",
      "subtype": "jr",
      "name": "佐和",
      "nameKana": "さわ",
      "nameEn": "Sawa",
      "operator": "東日本旅客鉄道",
      "network": null,
      "ref": null,
      "latitude": 36.4298353,
      "longitude": 140.5403025,
      "countryCode": "jp",
      "rawTags": {
        "name": "佐和",
        "name:en": "Sawa",
        "name:ja": "佐和",
        "name:ja-Hira": "さわ",
        "name:ja-Latn": "Sawa",
        "operator": "東日本旅客鉄道",
        "operator:ja": "東日本旅客鉄道",
        "public_transport": "station",
        "railway": "station",
        "source": "GSImaps/ort",
        "wikidata": "Q8011234",
        "wikipedia": "ja:佐和駅"
      }
    },
    {
      "id": "ibaraki_station_5660978302",
      "osmId": 5660978302,
      "osmType": "node",
      "prefectureId": "ibaraki",
      "type": "station",
      "subtype": "private",
      "name": "大津港",
      "nameKana": "おおつこう",
      "nameEn": "Otsuko",
      "operator": null,
      "network": null,
      "ref": null,
      "latitude": 36.8467929,
      "longitude": 140.7780777,
      "countryCode": "jp",
      "rawTags": {
        "name": "大津港",
        "name:en": "Otsuko",
        "name:ja-Hira": "おおつこう",
        "name:ja-Latn": "Ōtsukō",
        "public_transport": "station",
        "railway": "station",
        "source": "GSImaps/ort",
        "train": "yes",
        "wikidata": "Q5353392",
        "wikipedia": "ja:大津港駅"
      }
    },
    {
      "id": "ibaraki_station_5660978631",
      "osmId": 5660978631,
      "osmType": "node",
      "prefectureId": "ibaraki",
      "type": "station",
      "subtype": "jr",
      "name": "大甕",
      "nameKana": "おおみか",
      "nameEn": "Omika",
      "operator": "東日本旅客鉄道",
      "network": null,
      "ref": null,
      "latitude": 36.5129887,
      "longitude": 140.6197463,
      "countryCode": "jp",
      "rawTags": {
        "name": "大甕",
        "name:en": "Omika",
        "name:ja": "大甕",
        "name:ja-Hira": "おおみか",
        "name:ja-Latn": "Ōmika",
        "operator": "東日本旅客鉄道",
        "operator:ja": "東日本旅客鉄道",
        "public_transport": "station",
        "railway": "station",
        "source": "GSImaps/ort",
        "wikidata": "Q39951",
        "wikipedia": "ja:大甕駅"
      }
    },
    {
      "id": "ibaraki_station_5660978832",
      "osmId": 5660978832,
      "osmType": "node",
      "prefectureId": "ibaraki",
      "type": "station",
      "subtype": "jr",
      "name": "東海",
      "nameKana": "とうかい",
      "nameEn": "Tokai",
      "operator": "東日本旅客鉄道",
      "network": null,
      "ref": null,
      "latitude": 36.465474,
      "longitude": 140.5657393,
      "countryCode": "jp",
      "rawTags": {
        "name": "東海",
        "name:en": "Tokai",
        "name:ja": "東海",
        "name:ja-Hira": "とうかい",
        "name:ja-Latn": "Tōkai",
        "operator": "東日本旅客鉄道",
        "operator:ja": "東日本旅客鉄道",
        "public_transport": "station",
        "railway": "station",
        "source": "GSImaps/ort",
        "wikidata": "Q5366629",
        "wikipedia": "ja:東海駅"
      }
    },
    {
      "id": "ibaraki_station_5667111032",
      "osmId": 5667111032,
      "osmType": "node",
      "prefectureId": "ibaraki",
      "type": "station",
      "subtype": "jr",
      "name": "日立",
      "nameKana": "ひたち",
      "nameEn": "Hitachi",
      "operator": "東日本旅客鉄道",
      "network": null,
      "ref": null,
      "latitude": 36.5908428,
      "longitude": 140.6620685,
      "countryCode": "jp",
      "rawTags": {
        "name": "日立",
        "name:en": "Hitachi",
        "name:ja": "日立",
        "name:ja-Hira": "ひたち",
        "name:ja-Latn": "Hitachi",
        "operator": "東日本旅客鉄道",
        "operator:ja": "東日本旅客鉄道",
        "public_transport": "station",
        "railway": "station",
        "source": "GSImaps/ort",
        "wikidata": "Q39929",
        "wikipedia": "ja:日立駅"
      }
    },
    {
      "id": "ibaraki_station_5669561695",
      "osmId": 5669561695,
      "osmType": "node",
      "prefectureId": "ibaraki",
      "type": "station",
      "subtype": "jr",
      "name": "十王",
      "nameKana": "じゅうおう",
      "nameEn": "Juo",
      "operator": "東日本旅客鉄道",
      "network": null,
      "ref": null,
      "latitude": 36.6713814,
      "longitude": 140.6859881,
      "countryCode": "jp",
      "rawTags": {
        "name": "十王",
        "name:en": "Juo",
        "name:ja": "十王",
        "name:ja-Hira": "じゅうおう",
        "name:ja-Latn": "Jūō",
        "operator": "東日本旅客鉄道",
        "operator:ja": "東日本旅客鉄道",
        "public_transport": "station",
        "railway": "station",
        "source": "GSImaps/ort",
        "wikidata": "Q5353561",
        "wikipedia": "ja:十王駅"
      }
    },
    {
      "id": "ibaraki_station_5669643173",
      "osmId": 5669643173,
      "osmType": "node",
      "prefectureId": "ibaraki",
      "type": "station",
      "subtype": "jr",
      "name": "高萩",
      "nameKana": "たかはぎ",
      "nameEn": "Takahagi",
      "operator": "東日本旅客鉄道",
      "network": null,
      "ref": null,
      "latitude": 36.7145894,
      "longitude": 140.7170568,
      "countryCode": "jp",
      "rawTags": {
        "name": "高萩",
        "name:en": "Takahagi",
        "name:ja": "高萩",
        "name:ja-Hira": "たかはぎ",
        "name:ja-Latn": "Takahagi",
        "operator": "東日本旅客鉄道",
        "operator:ja": "東日本旅客鉄道",
        "public_transport": "station",
        "railway": "station",
        "source": "GSImaps/ort",
        "wikidata": "Q5353567",
        "wikipedia": "ja:高萩駅"
      }
    },
    {
      "id": "ibaraki_station_5669845198",
      "osmId": 5669845198,
      "osmType": "node",
      "prefectureId": "ibaraki",
      "type": "station",
      "subtype": "jr",
      "name": "南中郷",
      "nameKana": "みなみなかごう",
      "nameEn": "Minami-Nakago",
      "operator": "東日本旅客鉄道",
      "network": null,
      "ref": null,
      "latitude": 36.7532765,
      "longitude": 140.7289959,
      "countryCode": "jp",
      "rawTags": {
        "name": "南中郷",
        "name:en": "Minami-Nakago",
        "name:ja": "南中郷",
        "name:ja-Hira": "みなみなかごう",
        "name:ja-Latn": "Minaminakagō",
        "operator": "東日本旅客鉄道",
        "operator:ja": "東日本旅客鉄道",
        "public_transport": "station",
        "railway": "station",
        "source": "GSImaps/ort",
        "wikidata": "Q5353339",
        "wikipedia": "ja:南中郷駅"
      }
    },
    {
      "id": "ibaraki_station_5677061633",
      "osmId": 5677061633,
      "osmType": "node",
      "prefectureId": "ibaraki",
      "type": "station",
      "subtype": "private",
      "name": "鹿島旭",
      "nameKana": "かしまあさひ",
      "nameEn": "Kashima-Asahi",
      "operator": null,
      "network": null,
      "ref": null,
      "latitude": 36.2246136,
      "longitude": 140.5126322,
      "countryCode": "jp",
      "rawTags": {
        "name": "鹿島旭",
        "name:en": "Kashima-Asahi",
        "name:ja": "鹿島旭",
        "name:ja-Hira": "かしまあさひ",
        "name:ja-Latn": "Kashimaasahi",
        "public_transport": "station",
        "railway": "station",
        "source": "KSJ2",
        "wikidata": "Q6374302",
        "wikipedia": "ja:鹿島旭駅"
      }
    },
    {
      "id": "ibaraki_station_5677061656",
      "osmId": 5677061656,
      "osmType": "node",
      "prefectureId": "ibaraki",
      "type": "station",
      "subtype": "private",
      "name": "涸沼",
      "nameKana": "ひぬま",
      "nameEn": "Hinuma",
      "operator": null,
      "network": null,
      "ref": null,
      "latitude": 36.2658612,
      "longitude": 140.5271718,
      "countryCode": "jp",
      "rawTags": {
        "name": "涸沼",
        "name:en": "Hinuma",
        "name:ja": "涸沼",
        "name:ja-Hira": "ひぬま",
        "name:ja-Latn": "Hinuma",
        "public_transport": "station",
        "railway": "station",
        "source": "KSJ2",
        "wikidata": "Q5767758",
        "wikipedia": "ja:涸沼駅"
      }
    },
    {
      "id": "ibaraki_station_5677061684",
      "osmId": 5677061684,
      "osmType": "node",
      "prefectureId": "ibaraki",
      "type": "station",
      "subtype": "private",
      "name": "大洗",
      "nameKana": "おおあらい",
      "nameEn": "Oarai",
      "operator": null,
      "network": null,
      "ref": null,
      "latitude": 36.3150733,
      "longitude": 140.5629126,
      "countryCode": "jp",
      "rawTags": {
        "name": "大洗",
        "name:en": "Oarai",
        "name:ja": "大洗",
        "name:ja-Hira": "おおあらい",
        "name:ja-Latn": "Ōarai",
        "public_transport": "station",
        "railway": "station",
        "source": "KSJ2",
        "wikidata": "Q11437232",
        "wikipedia": "ja:大洗駅"
      }
    },
    {
      "id": "ibaraki_station_5685127415",
      "osmId": 5685127415,
      "osmType": "node",
      "prefectureId": "ibaraki",
      "type": "station",
      "subtype": "private",
      "name": "金上",
      "nameKana": "かねあげ",
      "nameEn": "Kaneage",
      "operator": null,
      "network": null,
      "ref": null,
      "latitude": 36.3825755,
      "longitude": 140.5337861,
      "countryCode": "jp",
      "rawTags": {
        "name": "金上",
        "name:en": "Kaneage",
        "name:ja-Hira": "かねあげ",
        "name:ja-Latn": "Kaneage",
        "public_transport": "station",
        "railway": "station",
        "source": "GSImaps/ort",
        "train": "yes",
        "wikidata": "Q6361889",
        "wikipedia": "ja:金上駅"
      }
    },
    {
      "id": "ibaraki_station_5685127419",
      "osmId": 5685127419,
      "osmType": "node",
      "prefectureId": "ibaraki",
      "type": "station",
      "subtype": "private",
      "name": "工機前",
      "nameKana": null,
      "nameEn": null,
      "operator": null,
      "network": null,
      "ref": null,
      "latitude": 36.3879522,
      "longitude": 140.524735,
      "countryCode": "jp",
      "rawTags": {
        "name": "工機前",
        "old_name": "日工前",
        "old_name:en": "Nikkomae",
        "old_name:ja-Hira": "にっこうまえ",
        "old_name:ja-Latn": "Nikkōmae",
        "public_transport": "station",
        "railway": "station",
        "source": "GSImaps/ort",
        "train": "yes",
        "wikidata": "Q7035321",
        "wikipedia": "ja:工機前駅"
      }
    },
    {
      "id": "ibaraki_station_5688144253",
      "osmId": 5688144253,
      "osmType": "node",
      "prefectureId": "ibaraki",
      "type": "station",
      "subtype": "private",
      "name": "中根",
      "nameKana": "なかね",
      "nameEn": "Nakane",
      "operator": null,
      "network": null,
      "ref": null,
      "latitude": 36.3673904,
      "longitude": 140.5623744,
      "countryCode": "jp",
      "rawTags": {
        "name": "中根",
        "name:en": "Nakane",
        "name:ja-Hira": "なかね",
        "name:ja-Latn": "Nakane",
        "name:ja_rm": "Nakane",
        "public_transport": "station",
        "railway": "station",
        "source": "GSImaps/ort",
        "train": "yes",
        "wikidata": "Q6960259",
        "wikipedia": "ja:中根駅"
      }
    },
    {
      "id": "ibaraki_station_5690791083",
      "osmId": 5690791083,
      "osmType": "node",
      "prefectureId": "ibaraki",
      "type": "station",
      "subtype": "private",
      "name": "高田の鉄橋",
      "nameKana": "たかだのてっきょう",
      "nameEn": "Takadano-Tekkyo",
      "operator": "ひたちなか海浜鉄道",
      "network": null,
      "ref": null,
      "latitude": 36.3523179,
      "longitude": 140.5803579,
      "countryCode": "jp",
      "rawTags": {
        "name": "高田の鉄橋",
        "name:en": "Takadano-Tekkyo",
        "name:ja-Hira": "たかだのてっきょう",
        "name:ja_rm": "Takadano-Tekkyō",
        "operator": "ひたちなか海浜鉄道",
        "public_transport": "station",
        "railway": "station",
        "train": "yes",
        "wikidata": "Q15376749",
        "wikipedia": "ja:高田の鉄橋駅"
      }
    },
    {
      "id": "ibaraki_station_5699916938",
      "osmId": 5699916938,
      "osmType": "node",
      "prefectureId": "ibaraki",
      "type": "station",
      "subtype": "private",
      "name": "ひたち野うしく",
      "nameKana": "ひたちのうしく",
      "nameEn": "Hitachino-Ushiku",
      "operator": null,
      "network": null,
      "ref": null,
      "latitude": 36.0074123,
      "longitude": 140.1583406,
      "countryCode": "jp",
      "rawTags": {
        "name": "ひたち野うしく",
        "name:en": "Hitachino-Ushiku",
        "name:ja-Hira": "ひたちのうしく",
        "name:ja-Latn": "Hitachinoushiku",
        "public_transport": "station",
        "railway": "station",
        "wikidata": "Q5364808",
        "wikipedia": "ja:ひたち野うしく駅"
      }
    },
    {
      "id": "ibaraki_station_5699955540",
      "osmId": 5699955540,
      "osmType": "node",
      "prefectureId": "ibaraki",
      "type": "station",
      "subtype": "private",
      "name": "荒川沖",
      "nameKana": "あらかわおき",
      "nameEn": "Arakawaoki",
      "operator": null,
      "network": null,
      "ref": null,
      "latitude": 36.0308144,
      "longitude": 140.1660499,
      "countryCode": "jp",
      "rawTags": {
        "name": "荒川沖",
        "name:en": "Arakawaoki",
        "name:ja-Hira": "あらかわおき",
        "name:ja-Latn": "Arakawaoki",
        "public_transport": "station",
        "railway": "station",
        "wikidata": "Q4783823",
        "wikipedia": "ja:荒川沖駅"
      }
    },
    {
      "id": "ibaraki_station_5746264664",
      "osmId": 5746264664,
      "osmType": "node",
      "prefectureId": "ibaraki",
      "type": "station",
      "subtype": "private",
      "name": "岩間",
      "nameKana": "いわま",
      "nameEn": "Iwama",
      "operator": null,
      "network": null,
      "ref": null,
      "latitude": 36.2952877,
      "longitude": 140.2764539,
      "countryCode": "jp",
      "rawTags": {
        "name": "岩間",
        "name:en": "Iwama",
        "name:ja": "岩間",
        "name:ja-Hira": "いわま",
        "name:ja-Latn": "Iwama",
        "public_transport": "station",
        "railway": "station",
        "wikidata": "Q2689418",
        "wikipedia": "ja:岩間駅"
      }
    },
    {
      "id": "ibaraki_station_5746342744",
      "osmId": 5746342744,
      "osmType": "node",
      "prefectureId": "ibaraki",
      "type": "station",
      "subtype": "jr",
      "name": "羽鳥",
      "nameKana": "はとり",
      "nameEn": "Hatori",
      "operator": "東日本旅客鉄道",
      "network": null,
      "ref": null,
      "latitude": 36.2472941,
      "longitude": 140.2867882,
      "countryCode": "jp",
      "rawTags": {
        "name": "羽鳥",
        "name:en": "Hatori",
        "name:ja": "羽鳥",
        "name:ja-Hira": "はとり",
        "name:ja-Latn": "Hatori",
        "operator": "東日本旅客鉄道",
        "operator:ja": "東日本旅客鉄道",
        "public_transport": "station",
        "railway": "station",
        "wikidata": "Q5363166",
        "wikipedia": "ja:羽鳥駅"
      }
    },
    {
      "id": "ibaraki_station_5834930110",
      "osmId": 5834930110,
      "osmType": "node",
      "prefectureId": "ibaraki",
      "type": "station",
      "subtype": "private",
      "name": "古河",
      "nameKana": "こが",
      "nameEn": "Koga",
      "operator": null,
      "network": null,
      "ref": null,
      "latitude": 36.1945874,
      "longitude": 139.7095071,
      "countryCode": "jp",
      "rawTags": {
        "name": "古河",
        "name:de": "Koga",
        "name:en": "Koga",
        "name:ja": "古河",
        "name:ja-Hira": "こが",
        "name:ja-Latn": "Koga",
        "name:ru": "Кога",
        "public_transport": "station",
        "railway": "station",
        "source": "KSJ2",
        "wikidata": "Q861558",
        "wikipedia": "ja:古河駅"
      }
    },
    {
      "id": "ibaraki_station_6050594487",
      "osmId": 6050594487,
      "osmType": "node",
      "prefectureId": "ibaraki",
      "type": "station",
      "subtype": "private",
      "name": "常陸津田",
      "nameKana": "ひたちつだ",
      "nameEn": "Hitachi-Tsuda",
      "operator": null,
      "network": null,
      "ref": null,
      "latitude": 36.4043824,
      "longitude": 140.4829687,
      "countryCode": "jp",
      "rawTags": {
        "name": "常陸津田",
        "name:en": "Hitachi-Tsuda",
        "name:ja-Hira": "ひたちつだ",
        "name:ja-Latn": "Hitachitsuda",
        "public_transport": "station",
        "railway": "station",
        "train": "yes",
        "wikidata": "Q5871609",
        "wikipedia": "ja:常陸津田駅"
      }
    },
    {
      "id": "ibaraki_station_6050595329",
      "osmId": 6050595329,
      "osmType": "node",
      "prefectureId": "ibaraki",
      "type": "station",
      "subtype": "private",
      "name": "静",
      "nameKana": "しず",
      "nameEn": "Shizu",
      "operator": null,
      "network": null,
      "ref": null,
      "latitude": 36.5060366,
      "longitude": 140.4381637,
      "countryCode": "jp",
      "rawTags": {
        "name": "静",
        "name:en": "Shizu",
        "name:ja-Hira": "しず",
        "name:ja-Latn": "Shizu",
        "public_transport": "station",
        "railway": "station",
        "train": "yes",
        "wikidata": "Q7499473",
        "wikipedia": "ja:静駅"
      }
    },
    {
      "id": "ibaraki_station_6050595988",
      "osmId": 6050595988,
      "osmType": "node",
      "prefectureId": "ibaraki",
      "type": "station",
      "subtype": "private",
      "name": "後台",
      "nameKana": "ごだい",
      "nameEn": "Godai",
      "operator": null,
      "network": null,
      "ref": null,
      "latitude": 36.4238012,
      "longitude": 140.4899709,
      "countryCode": "jp",
      "rawTags": {
        "name": "後台",
        "name:en": "Godai",
        "name:ja-Hira": "ごだい",
        "name:ja-Latn": "Godai",
        "public_transport": "station",
        "railway": "station",
        "train": "yes",
        "wikidata": "Q5576119",
        "wikipedia": "ja:後台駅"
      }
    },
    {
      "id": "ibaraki_station_6050596751",
      "osmId": 6050596751,
      "osmType": "node",
      "prefectureId": "ibaraki",
      "type": "station",
      "subtype": "private",
      "name": "常陸青柳",
      "nameKana": "ひたちあおやぎ",
      "nameEn": "Hitachi-Aoyagi",
      "operator": null,
      "network": null,
      "ref": null,
      "latitude": 36.384134,
      "longitude": 140.484499,
      "countryCode": "jp",
      "rawTags": {
        "name": "常陸青柳",
        "name:en": "Hitachi-Aoyagi",
        "name:ja-Hira": "ひたちあおやぎ",
        "name:ja-Latn": "Hitachiaoyagi",
        "public_transport": "station",
        "railway": "station",
        "source": "GSImaps/ort",
        "train": "yes",
        "wikidata": "Q5871587",
        "wikipedia": "ja:常陸青柳駅"
      }
    },
    {
      "id": "ibaraki_station_6054788671",
      "osmId": 6054788671,
      "osmType": "node",
      "prefectureId": "ibaraki",
      "type": "station",
      "subtype": "private",
      "name": "佐貫",
      "nameKana": "さぬき",
      "nameEn": "Sanuki",
      "operator": null,
      "network": null,
      "ref": null,
      "latitude": 35.9296034,
      "longitude": 140.1384174,
      "countryCode": "jp",
      "rawTags": {
        "name": "佐貫",
        "name:en": "Sanuki",
        "name:ja-Hira": "さぬき",
        "name:ja-Latn": "Sanuki",
        "public_transport": "station",
        "railway": "station",
        "source": "GSImaps/ort",
        "train": "yes",
        "wikidata": "Q865225",
        "wikipedia": "ja:佐貫駅"
      }
    },
    {
      "id": "ibaraki_station_6060517712",
      "osmId": 6060517712,
      "osmType": "node",
      "prefectureId": "ibaraki",
      "type": "station",
      "subtype": "jr",
      "name": "石岡",
      "nameKana": "いしおか",
      "nameEn": "Ishioka",
      "operator": "東日本旅客鉄道",
      "network": null,
      "ref": null,
      "latitude": 36.1910839,
      "longitude": 140.2800498,
      "countryCode": "jp",
      "rawTags": {
        "name": "石岡",
        "name:en": "Ishioka",
        "name:ja": "石岡",
        "name:ja-Hira": "いしおか",
        "name:ja-Latn": "Ishioka",
        "operator": "東日本旅客鉄道",
        "operator:ja": "東日本旅客鉄道",
        "public_transport": "station",
        "railway": "station",
        "wikidata": "Q5363819",
        "wikipedia": "ja:石岡駅"
      }
    },
    {
      "id": "ibaraki_station_6069784405",
      "osmId": 6069784405,
      "osmType": "node",
      "prefectureId": "ibaraki",
      "type": "station",
      "subtype": "private",
      "name": "土浦",
      "nameKana": "つちうら",
      "nameEn": "Tsuchiura",
      "operator": null,
      "network": null,
      "ref": null,
      "latitude": 36.0779952,
      "longitude": 140.2060155,
      "countryCode": "jp",
      "rawTags": {
        "name": "土浦",
        "name:en": "Tsuchiura",
        "name:ja-Hira": "つちうら",
        "name:ja-Latn": "Tsuchiura",
        "public_transport": "station",
        "railway": "station",
        "source": "KSJ2",
        "toilets:wheelchair": "yes",
        "wheelchair": "yes",
        "wikidata": "Q5364280",
        "wikipedia": "ja:土浦駅"
      }
    },
    {
      "id": "ibaraki_station_6101775679",
      "osmId": 6101775679,
      "osmType": "node",
      "prefectureId": "ibaraki",
      "type": "station",
      "subtype": "private",
      "name": "野上原",
      "nameKana": "のがみはら",
      "nameEn": "Nogamihara",
      "operator": null,
      "network": null,
      "ref": null,
      "latitude": 36.6058813,
      "longitude": 140.3902541,
      "countryCode": "jp",
      "rawTags": {
        "name": "野上原",
        "name:en": "Nogamihara",
        "name:ja-Hira": "のがみはら",
        "name:ja-Latn": "Nogamihara",
        "public_transport": "station",
        "railway": "station",
        "source": "KSJ2",
        "train": "yes",
        "wikidata": "Q11644956",
        "wikipedia": "ja:野上原駅"
      }
    },
    {
      "id": "ibaraki_station_6101830031",
      "osmId": 6101830031,
      "osmType": "node",
      "prefectureId": "ibaraki",
      "type": "station",
      "subtype": "private",
      "name": "阿字ヶ浦",
      "nameKana": "あじがうら",
      "nameEn": "Ajigaura",
      "operator": null,
      "network": null,
      "ref": null,
      "latitude": 36.3836175,
      "longitude": 140.6123681,
      "countryCode": "jp",
      "rawTags": {
        "name": "阿字ヶ浦",
        "name:en": "Ajigaura",
        "name:ja-Hira": "あじがうら",
        "name:ja-Latn": "Ajigaura",
        "public_transport": "station",
        "railway": "station",
        "source": "KSJ2",
        "train": "yes",
        "wikidata": "Q4699733",
        "wikipedia": "ja:阿字ヶ浦駅"
      }
    },
    {
      "id": "ibaraki_station_6101830032",
      "osmId": 6101830032,
      "osmType": "node",
      "prefectureId": "ibaraki",
      "type": "station",
      "subtype": "private",
      "name": "磯崎",
      "nameKana": "いそざき",
      "nameEn": "Isozaki",
      "operator": null,
      "network": null,
      "ref": null,
      "latitude": 36.3780105,
      "longitude": 140.6179632,
      "countryCode": "jp",
      "rawTags": {
        "name": "磯崎",
        "name:en": "Isozaki",
        "name:ja": "磯崎",
        "name:ja-Hira": "いそざき",
        "name:ja-Latn": "Isozaki",
        "public_transport": "station",
        "railway": "station",
        "source": "KSJ2",
        "train": "yes",
        "wikidata": "Q6086630",
        "wikipedia": "ja:磯崎駅"
      }
    },
    {
      "id": "ibaraki_station_6101830033",
      "osmId": 6101830033,
      "osmType": "node",
      "prefectureId": "ibaraki",
      "type": "station",
      "subtype": "private",
      "name": "平磯",
      "nameKana": "ひらいそ",
      "nameEn": "Hiraiso",
      "operator": null,
      "network": null,
      "ref": null,
      "latitude": 36.3577657,
      "longitude": 140.6076676,
      "countryCode": "jp",
      "rawTags": {
        "name": "平磯",
        "name:en": "Hiraiso",
        "name:ja-Hira": "ひらいそ",
        "name:ja-Latn": "Hiraiso",
        "public_transport": "station",
        "railway": "station",
        "source": "KSJ2",
        "train": "yes",
        "wikidata": "Q5768904",
        "wikipedia": "ja:平磯駅"
      }
    },
    {
      "id": "ibaraki_station_6101830034",
      "osmId": 6101830034,
      "osmType": "node",
      "prefectureId": "ibaraki",
      "type": "station",
      "subtype": "private",
      "name": "殿山",
      "nameKana": "とのやま",
      "nameEn": "Tonoyama",
      "operator": null,
      "network": null,
      "ref": null,
      "latitude": 36.3499562,
      "longitude": 140.601984,
      "countryCode": "jp",
      "rawTags": {
        "name": "殿山",
        "name:en": "Tonoyama",
        "name:ja-Hira": "とのやま",
        "name:ja-Latn": "Tonoyama",
        "public_transport": "station",
        "railway": "station",
        "source": "KSJ2",
        "train": "yes",
        "wikidata": "Q7821635",
        "wikipedia": "ja:殿山駅"
      }
    },
    {
      "id": "ibaraki_station_6102881535",
      "osmId": 6102881535,
      "osmType": "node",
      "prefectureId": "ibaraki",
      "type": "station",
      "subtype": "private",
      "name": "那珂湊",
      "nameKana": "なかみなと",
      "nameEn": "Nakaminato",
      "operator": null,
      "network": null,
      "ref": null,
      "latitude": 36.3450819,
      "longitude": 140.5881169,
      "countryCode": "jp",
      "rawTags": {
        "name": "那珂湊",
        "name:en": "Nakaminato",
        "name:ja-Hira": "なかみなと",
        "name:ja-Latn": "Nakaminato",
        "public_transport": "station",
        "railway": "station",
        "source": "KSJ2",
        "train": "yes",
        "wikidata": "Q11642790",
        "wikipedia": "ja:那珂湊駅"
      }
    },
    {
      "id": "ibaraki_station_6104557870",
      "osmId": 6104557870,
      "osmType": "node",
      "prefectureId": "ibaraki",
      "type": "station",
      "subtype": "private",
      "name": "常陸大宮",
      "nameKana": "ひたちおおみや",
      "nameEn": "Hitachi-Omiya",
      "operator": null,
      "network": null,
      "ref": null,
      "latitude": 36.5475245,
      "longitude": 140.412451,
      "countryCode": "jp",
      "rawTags": {
        "name": "常陸大宮",
        "name:en": "Hitachi-Omiya",
        "name:ja-Hira": "ひたちおおみや",
        "name:ja-Latn": "Hitachiōmiya",
        "public_transport": "station",
        "railway": "station",
        "source": "KSJ2",
        "train": "yes",
        "wikidata": "Q5871607",
        "wikipedia": "ja:常陸大宮駅"
      }
    },
    {
      "id": "ibaraki_station_6104559359",
      "osmId": 6104559359,
      "osmType": "node",
      "prefectureId": "ibaraki",
      "type": "station",
      "subtype": "private",
      "name": "西金",
      "nameKana": "さいがね",
      "nameEn": "Saigane",
      "operator": null,
      "network": null,
      "ref": null,
      "latitude": 36.6952875,
      "longitude": 140.3866294,
      "countryCode": "jp",
      "rawTags": {
        "name": "西金",
        "name:en": "Saigane",
        "name:ja-Hira": "さいがね",
        "name:ja-Latn": "Saigane",
        "public_transport": "station",
        "railway": "station",
        "source": "KSJ2",
        "train": "yes",
        "wikidata": "Q7400054",
        "wikipedia": "ja:西金駅"
      }
    },
    {
      "id": "ibaraki_station_6104559360",
      "osmId": 6104559360,
      "osmType": "node",
      "prefectureId": "ibaraki",
      "type": "station",
      "subtype": "private",
      "name": "下小川",
      "nameKana": "しもおがわ",
      "nameEn": "Shimo-Ogawa",
      "operator": null,
      "network": null,
      "ref": null,
      "latitude": 36.6690357,
      "longitude": 140.3870248,
      "countryCode": "jp",
      "rawTags": {
        "name": "下小川",
        "name:en": "Shimo-Ogawa",
        "name:ja-Hira": "しもおがわ",
        "name:ja-Latn": "Shimoogawa",
        "public_transport": "station",
        "railway": "station",
        "source": "KSJ2",
        "train": "yes",
        "wikidata": "Q7496929",
        "wikipedia": "ja:下小川駅"
      }
    },
    {
      "id": "ibaraki_station_6104559361",
      "osmId": 6104559361,
      "osmType": "node",
      "prefectureId": "ibaraki",
      "type": "station",
      "subtype": "private",
      "name": "中舟生",
      "nameKana": "なかふにゅう",
      "nameEn": "Naka-Funyu",
      "operator": null,
      "network": null,
      "ref": null,
      "latitude": 36.6456412,
      "longitude": 140.3923216,
      "countryCode": "jp",
      "rawTags": {
        "name": "中舟生",
        "name:en": "Naka-Funyu",
        "name:ja-Hira": "なかふにゅう",
        "name:ja-Latn": "Nakafunyū",
        "public_transport": "station",
        "railway": "station",
        "source": "KSJ2",
        "train": "yes",
        "wikidata": "Q6960079",
        "wikipedia": "ja:中舟生駅"
      }
    },
    {
      "id": "ibaraki_station_6104559362",
      "osmId": 6104559362,
      "osmType": "node",
      "prefectureId": "ibaraki",
      "type": "station",
      "subtype": "private",
      "name": "山方宿",
      "nameKana": "やまがたじゅく",
      "nameEn": "Yamagatajuku",
      "operator": null,
      "network": null,
      "ref": null,
      "latitude": 36.6246422,
      "longitude": 140.4012536,
      "countryCode": "jp",
      "rawTags": {
        "name": "山方宿",
        "name:en": "Yamagatajuku",
        "name:ja-Hira": "やまがたじゅく",
        "name:ja-Latn": "Yamagatajuku",
        "public_transport": "station",
        "railway": "station",
        "source": "KSJ2",
        "train": "yes",
        "wikidata": "Q8047626",
        "wikipedia": "ja:山方宿駅"
      }
    },
    {
      "id": "ibaraki_station_6104573691",
      "osmId": 6104573691,
      "osmType": "node",
      "prefectureId": "ibaraki",
      "type": "station",
      "subtype": "private",
      "name": "上小川",
      "nameKana": "かみおがわ",
      "nameEn": "Kami-Ogawa",
      "operator": null,
      "network": null,
      "ref": null,
      "latitude": 36.7190466,
      "longitude": 140.3790589,
      "countryCode": "jp",
      "rawTags": {
        "name": "上小川",
        "name:en": "Kami-Ogawa",
        "name:ja-Hira": "かみおがわ",
        "name:ja-Latn": "Kamiogawa",
        "public_transport": "station",
        "railway": "station",
        "source": "KSJ2",
        "train": "yes",
        "wikidata": "Q6357184",
        "wikipedia": "ja:上小川駅"
      }
    },
    {
      "id": "ibaraki_station_6104661385",
      "osmId": 6104661385,
      "osmType": "node",
      "prefectureId": "ibaraki",
      "type": "station",
      "subtype": "private",
      "name": "荒野台",
      "nameKana": "こうやだい",
      "nameEn": "Koyadai",
      "operator": null,
      "network": null,
      "ref": null,
      "latitude": 36.016637,
      "longitude": 140.6253567,
      "countryCode": "jp",
      "rawTags": {
        "name": "荒野台",
        "name:en": "Koyadai",
        "name:ja": "荒野台",
        "name:ja-Hira": "こうやだい",
        "name:ja-Latn": "Kōyadai",
        "public_transport": "station",
        "railway": "station",
        "source": "KSJ2",
        "wikidata": "Q6455333",
        "wikipedia": "ja:荒野台駅"
      }
    },
    {
      "id": "ibaraki_station_6104661386",
      "osmId": 6104661386,
      "osmType": "node",
      "prefectureId": "ibaraki",
      "type": "station",
      "subtype": "private",
      "name": "長者ヶ浜潮騒はまなす公園前",
      "nameKana": "ちょうじゃがはましおさいはまなすこうえんまえ",
      "nameEn": "Chojagahama-Shiosai-Hamanasu-Koenmae",
      "operator": null,
      "network": null,
      "ref": null,
      "latitude": 36.0315682,
      "longitude": 140.6186539,
      "countryCode": "jp",
      "rawTags": {
        "name": "長者ヶ浜潮騒はまなす公園前",
        "name:en": "Chojagahama-Shiosai-Hamanasu-Koenmae",
        "name:ja": "長者ヶ浜潮騒はまなす公園前",
        "name:ja-Hira": "ちょうじゃがはましおさいはまなすこうえんまえ",
        "name:ja-Latn": "Chōjagahama Shiosai Hamanasu Kōenmae",
        "public_transport": "station",
        "railway": "station",
        "source": "KSJ2",
        "wikidata": "Q5118991",
        "wikipedia": "ja:長者ヶ浜潮騒はまなす公園前駅"
      }
    },
    {
      "id": "ibaraki_station_6104661387",
      "osmId": 6104661387,
      "osmType": "node",
      "prefectureId": "ibaraki",
      "type": "station",
      "subtype": "private",
      "name": "鹿島大野",
      "nameKana": "かしまおおの",
      "nameEn": "Kashima-Ono",
      "operator": null,
      "network": null,
      "ref": null,
      "latitude": 36.0507731,
      "longitude": 140.6097771,
      "countryCode": "jp",
      "rawTags": {
        "name": "鹿島大野",
        "name:en": "Kashima-Ono",
        "name:ja": "鹿島大野",
        "name:ja-Hira": "かしまおおの",
        "name:ja-Latn": "Kashimaōno",
        "public_transport": "station",
        "railway": "station",
        "source": "KSJ2",
        "wikidata": "Q6374304",
        "wikipedia": "ja:鹿島大野駅"
      }
    },
    {
      "id": "ibaraki_station_6104661388",
      "osmId": 6104661388,
      "osmType": "node",
      "prefectureId": "ibaraki",
      "type": "station",
      "subtype": "private",
      "name": "大洋",
      "nameKana": "たいよう",
      "nameEn": "Taiyo",
      "operator": null,
      "network": null,
      "ref": null,
      "latitude": 36.1083532,
      "longitude": 140.5763715,
      "countryCode": "jp",
      "rawTags": {
        "name": "大洋",
        "name:en": "Taiyo",
        "name:ja": "大洋",
        "name:ja-Hira": "たいよう",
        "name:ja-Latn": "Taiyō",
        "public_transport": "station",
        "railway": "station",
        "source": "KSJ2",
        "wikidata": "Q7676666",
        "wikipedia": "ja:大洋駅"
      }
    },
    {
      "id": "ibaraki_station_6104661389",
      "osmId": 6104661389,
      "osmType": "node",
      "prefectureId": "ibaraki",
      "type": "station",
      "subtype": "private",
      "name": "新鉾田",
      "nameKana": "しんほこた",
      "nameEn": "Shin-Hokota",
      "operator": null,
      "network": null,
      "ref": null,
      "latitude": 36.1523844,
      "longitude": 140.5203536,
      "countryCode": "jp",
      "rawTags": {
        "name": "新鉾田",
        "name:en": "Shin-Hokota",
        "name:ja": "新鉾田",
        "name:ja-Hira": "しんほこた",
        "name:ja-Latn": "Shinhokota",
        "public_transport": "station",
        "railway": "station",
        "source": "KSJ2",
        "wikidata": "Q7497093",
        "wikipedia": "ja:新鉾田駅"
      }
    },
    {
      "id": "ibaraki_station_6104661390",
      "osmId": 6104661390,
      "osmType": "node",
      "prefectureId": "ibaraki",
      "type": "station",
      "subtype": "private",
      "name": "徳宿",
      "nameKana": "とくしゅく",
      "nameEn": "Tokushuku",
      "operator": null,
      "network": null,
      "ref": null,
      "latitude": 36.190546,
      "longitude": 140.5145326,
      "countryCode": "jp",
      "rawTags": {
        "name": "徳宿",
        "name:en": "Tokushuku",
        "name:ja": "徳宿",
        "name:ja-Hira": "とくしゅく",
        "name:ja-Latn": "Tokushuku",
        "public_transport": "station",
        "railway": "station",
        "source": "KSJ2",
        "wikidata": "Q7813773",
        "wikipedia": "ja:徳宿駅"
      }
    },
    {
      "id": "ibaraki_station_7899197761",
      "osmId": 7899197761,
      "osmType": "node",
      "prefectureId": "ibaraki",
      "type": "station",
      "subtype": "jr",
      "name": "小木津",
      "nameKana": null,
      "nameEn": "Ogitsu",
      "operator": "東日本旅客鉄道",
      "network": null,
      "ref": null,
      "latitude": 36.6367899,
      "longitude": 140.675282,
      "countryCode": "jp",
      "rawTags": {
        "local_ref": "1",
        "name": "小木津",
        "name:en": "Ogitsu",
        "name:ja": "小木津",
        "operator": "東日本旅客鉄道",
        "operator:ja": "東日本旅客鉄道",
        "public_transport": "station",
        "railway": "station",
        "source": "GSImaps/ort",
        "wikidata": "Q5353557",
        "wikipedia": "ja:小木津駅"
      }
    },
    {
      "id": "ibaraki_station_8512897973",
      "osmId": 8512897973,
      "osmType": "node",
      "prefectureId": "ibaraki",
      "type": "station",
      "subtype": "private",
      "name": "美乃浜学園",
      "nameKana": "みのはまがくえん",
      "nameEn": "Minohamagakuen",
      "operator": null,
      "network": null,
      "ref": null,
      "latitude": 36.372657,
      "longitude": 140.6170081,
      "countryCode": "jp",
      "rawTags": {
        "name": "美乃浜学園",
        "name:en": "Minohamagakuen",
        "name:ja": "美乃浜学園",
        "name:ja-Hira": "みのはまがくえん",
        "name:ja-Latn": "Minohamagakuen",
        "public_transport": "station",
        "railway": "station",
        "source": "survey",
        "train": "yes",
        "wikidata": "Q95520626",
        "wikipedia": "ja:美乃浜学園駅"
      }
    },
    {
      "id": "ibaraki_airport_92832772",
      "osmId": 92832772,
      "osmType": "way",
      "prefectureId": "ibaraki",
      "type": "airport",
      "subtype": "domestic",
      "name": "龍ヶ崎飛行場",
      "nameKana": null,
      "nameEn": "Ryugasaki Airport",
      "operator": "川田工業",
      "network": null,
      "ref": null,
      "latitude": 35.9053459,
      "longitude": 140.2421403,
      "countryCode": "jp",
      "rawTags": {
        "aeroway": "aerodrome",
        "name": "龍ヶ崎飛行場",
        "name:en": "Ryugasaki Airport",
        "name:ja": "龍ヶ崎飛行場",
        "operator": "川田工業",
        "source": "Bing",
        "wikidata": "Q1447375",
        "wikipedia": "ja:竜ヶ崎飛行場"
      }
    },
    {
      "id": "ibaraki_bus_terminal_183361675",
      "osmId": 183361675,
      "osmType": "way",
      "prefectureId": "ibaraki",
      "type": "bus_terminal",
      "subtype": null,
      "name": "つくばセンター",
      "nameKana": null,
      "nameEn": "Tsukuba center",
      "operator": null,
      "network": null,
      "ref": null,
      "latitude": 36.0823337,
      "longitude": 140.1123694,
      "countryCode": "jp",
      "rawTags": {
        "amenity": "bus_station",
        "building": "roof",
        "bus": "yes",
        "layer": "1",
        "name": "つくばセンター",
        "name:en": "Tsukuba center",
        "public_transport": "station",
        "source": "Bing, 2010/1-2011/3",
        "wheelchair": "yes",
        "wikidata": "Q11272231",
        "wikipedia": "ja:つくばセンター"
      }
    },
    {
      "id": "ibaraki_bus_terminal_272083112",
      "osmId": 272083112,
      "osmType": "way",
      "prefectureId": "ibaraki",
      "type": "bus_terminal",
      "subtype": null,
      "name": "水戸駅南口",
      "nameKana": null,
      "nameEn": null,
      "operator": null,
      "network": null,
      "ref": null,
      "latitude": 36.3696364,
      "longitude": 140.4763776,
      "countryCode": "jp",
      "rawTags": {
        "amenity": "bus_station",
        "name": "水戸駅南口"
      }
    },
    {
      "id": "ibaraki_airport_356582794",
      "osmId": 356582794,
      "osmType": "way",
      "prefectureId": "ibaraki",
      "type": "airport",
      "subtype": "domestic",
      "name": "茨城空港",
      "nameKana": "いばらきくうこう",
      "nameEn": "Ibaraki Airport",
      "operator": null,
      "network": null,
      "ref": "IBR",
      "latitude": 36.1825502,
      "longitude": 140.4168241,
      "countryCode": "jp",
      "rawTags": {
        "aerodrome:type": "public",
        "aeroway": "aerodrome",
        "ele": "42",
        "iata": "IBR",
        "icao": "RJAH",
        "name": "茨城空港",
        "name:en": "Ibaraki Airport",
        "name:ja": "茨城空港",
        "name:ja_kana": "いばらきくうこう",
        "source": "wikipedia",
        "wikipedia": "ja:百里飛行場"
      }
    },
    {
      "id": "ibaraki_bus_terminal_380544514",
      "osmId": 380544514,
      "osmType": "way",
      "prefectureId": "ibaraki",
      "type": "bus_terminal",
      "subtype": null,
      "name": "江戸崎駅",
      "nameKana": null,
      "nameEn": null,
      "operator": null,
      "network": null,
      "ref": null,
      "latitude": 35.9603339,
      "longitude": 140.3218116,
      "countryCode": "jp",
      "rawTags": {
        "amenity": "bus_station",
        "building": "yes",
        "bus": "yes",
        "name": "江戸崎駅",
        "public_transport": "station"
      }
    },
    {
      "id": "ibaraki_ferry_terminal_414582988",
      "osmId": 414582988,
      "osmType": "way",
      "prefectureId": "ibaraki",
      "type": "ferry_terminal",
      "subtype": null,
      "name": "大洗カーフェリーポート",
      "nameKana": "おおあらいかーふぇりーぽーと",
      "nameEn": "Ooarai Car Ferry Port",
      "operator": null,
      "network": null,
      "ref": null,
      "latitude": 36.3087644,
      "longitude": 140.5736005,
      "countryCode": "jp",
      "rawTags": {
        "amenity": "ferry_terminal",
        "ferry": "yes",
        "name": "大洗カーフェリーポート",
        "name:en": "Ooarai Car Ferry Port",
        "name:ja_kana": "おおあらいかーふぇりーぽーと",
        "name:ja_rm": "ōaraikāfurrīpōto",
        "public_transport": "station"
      }
    },
    {
      "id": "ibaraki_airport_463253703",
      "osmId": 463253703,
      "osmType": "way",
      "prefectureId": "ibaraki",
      "type": "airport",
      "subtype": "domestic",
      "name": "大利根飛行場",
      "nameKana": null,
      "nameEn": "Otone Airfield",
      "operator": null,
      "network": null,
      "ref": null,
      "latitude": 35.8591703,
      "longitude": 140.2414208,
      "countryCode": "jp",
      "rawTags": {
        "aeroway": "aerodrome",
        "name": "大利根飛行場",
        "name:en": "Otone Airfield",
        "surface": "grass",
        "wikidata": "Q10933756",
        "wikipedia": "ja:大利根飛行場"
      }
    },
    {
      "id": "ibaraki_bus_terminal_472266830",
      "osmId": 472266830,
      "osmType": "way",
      "prefectureId": "ibaraki",
      "type": "bus_terminal",
      "subtype": null,
      "name": "岩井バスターミナル",
      "nameKana": null,
      "nameEn": null,
      "operator": null,
      "network": null,
      "ref": null,
      "latitude": 36.0519025,
      "longitude": 139.8788358,
      "countryCode": "jp",
      "rawTags": {
        "amenity": "bus_station",
        "landuse": "garages",
        "name": "岩井バスターミナル",
        "public_transport": "stop_area"
      }
    },
    {
      "id": "ibaraki_bus_terminal_649723844",
      "osmId": 649723844,
      "osmType": "way",
      "prefectureId": "ibaraki",
      "type": "bus_terminal",
      "subtype": null,
      "name": "日立南営業所",
      "nameKana": null,
      "nameEn": null,
      "operator": "茨城交通",
      "network": null,
      "ref": null,
      "latitude": 36.4945431,
      "longitude": 140.6032219,
      "countryCode": "jp",
      "rawTags": {
        "amenity": "bus_station",
        "building": "yes",
        "bus": "yes",
        "name": "日立南営業所",
        "operator": "茨城交通",
        "public_transport": "station"
      }
    },
    {
      "id": "ibaraki_bus_terminal_793235023",
      "osmId": 793235023,
      "osmType": "way",
      "prefectureId": "ibaraki",
      "type": "bus_terminal",
      "subtype": null,
      "name": "朝日自動車バス回転場",
      "nameKana": null,
      "nameEn": null,
      "operator": null,
      "network": null,
      "ref": null,
      "latitude": 36.1139637,
      "longitude": 139.7455344,
      "countryCode": "jp",
      "rawTags": {
        "amenity": "bus_station",
        "bus": "yes",
        "name": "朝日自動車バス回転場",
        "public_transport": "station"
      }
    },
    {
      "id": "ibaraki_bus_terminal_804620652",
      "osmId": 804620652,
      "osmType": "way",
      "prefectureId": "ibaraki",
      "type": "bus_terminal",
      "subtype": null,
      "name": "常陸太田市高速バスターミナル",
      "nameKana": null,
      "nameEn": null,
      "operator": null,
      "network": null,
      "ref": null,
      "latitude": 36.5445371,
      "longitude": 140.5288526,
      "countryCode": "jp",
      "rawTags": {
        "amenity": "bus_station",
        "landuse": "garages",
        "name": "常陸太田市高速バスターミナル"
      }
    },
    {
      "id": "ibaraki_bus_terminal_839774466",
      "osmId": 839774466,
      "osmType": "way",
      "prefectureId": "ibaraki",
      "type": "bus_terminal",
      "subtype": null,
      "name": "猿島バスターミナル",
      "nameKana": null,
      "nameEn": null,
      "operator": null,
      "network": null,
      "ref": null,
      "latitude": 36.117131,
      "longitude": 139.8856488,
      "countryCode": "jp",
      "rawTags": {
        "amenity": "bus_station",
        "landuse": "garages",
        "name": "猿島バスターミナル"
      }
    },
    {
      "id": "ibaraki_airport_947806075",
      "osmId": 947806075,
      "osmType": "way",
      "prefectureId": "ibaraki",
      "type": "airport",
      "subtype": "domestic",
      "name": "城里場外離着陸場",
      "nameKana": null,
      "nameEn": "Shirosato Auxiliary Airfield",
      "operator": null,
      "network": null,
      "ref": null,
      "latitude": 36.5312727,
      "longitude": 140.3583957,
      "countryCode": "jp",
      "rawTags": {
        "aeroway": "aerodrome",
        "name": "城里場外離着陸場",
        "name:en": "Shirosato Auxiliary Airfield"
      }
    },
    {
      "id": "ibaraki_bus_terminal_1091532985",
      "osmId": 1091532985,
      "osmType": "way",
      "prefectureId": "ibaraki",
      "type": "bus_terminal",
      "subtype": null,
      "name": "境古河バスターミナル",
      "nameKana": null,
      "nameEn": null,
      "operator": null,
      "network": null,
      "ref": null,
      "latitude": 36.1231952,
      "longitude": 139.8187504,
      "countryCode": "jp",
      "rawTags": {
        "amenity": "bus_station",
        "bus": "yes",
        "name": "境古河バスターミナル",
        "public_transport": "station"
      }
    },
    {
      "id": "ibaraki_bus_terminal_1091532990",
      "osmId": 1091532990,
      "osmType": "way",
      "prefectureId": "ibaraki",
      "type": "bus_terminal",
      "subtype": null,
      "name": "境町高速バスターミナル",
      "nameKana": null,
      "nameEn": null,
      "operator": null,
      "network": null,
      "ref": null,
      "latitude": 36.120887,
      "longitude": 139.8100503,
      "countryCode": "jp",
      "rawTags": {
        "amenity": "bus_station",
        "landuse": "garages",
        "name": "境町高速バスターミナル"
      }
    },
    {
      "id": "ibaraki_bus_terminal_1097426850",
      "osmId": 1097426850,
      "osmType": "way",
      "prefectureId": "ibaraki",
      "type": "bus_terminal",
      "subtype": null,
      "name": "石岡駅バスターミナル",
      "nameKana": null,
      "nameEn": null,
      "operator": null,
      "network": null,
      "ref": null,
      "latitude": 36.1905679,
      "longitude": 140.2809416,
      "countryCode": "jp",
      "rawTags": {
        "amenity": "bus_station",
        "landuse": "garages",
        "name": "石岡駅バスターミナル"
      }
    },
    {
      "id": "ibaraki_bus_terminal_1097601803",
      "osmId": 1097601803,
      "osmType": "way",
      "prefectureId": "ibaraki",
      "type": "bus_terminal",
      "subtype": null,
      "name": "小川駅",
      "nameKana": null,
      "nameEn": null,
      "operator": null,
      "network": null,
      "ref": null,
      "latitude": 36.1665347,
      "longitude": 140.3499596,
      "countryCode": "jp",
      "rawTags": {
        "amenity": "bus_station",
        "landuse": "garages",
        "name": "小川駅"
      }
    },
    {
      "id": "ibaraki_airport_1136987587",
      "osmId": 1136987587,
      "osmType": "way",
      "prefectureId": "ibaraki",
      "type": "airport",
      "subtype": "domestic",
      "name": "w",
      "nameKana": null,
      "nameEn": "Maeyama Shimotsuma Heliport",
      "operator": "前山倉庫",
      "network": null,
      "ref": "Maeyama",
      "latitude": 36.2018144,
      "longitude": 139.9984767,
      "countryCode": "jp",
      "rawTags": {
        "access": "private",
        "aeroway": "aerodrome",
        "name": "w",
        "name:en": "Maeyama Shimotsuma Heliport",
        "operator": "前山倉庫",
        "ref": "Maeyama"
      }
    },
    {
      "id": "ibaraki_airport_1137555316",
      "osmId": 1137555316,
      "osmType": "way",
      "prefectureId": "ibaraki",
      "type": "airport",
      "subtype": "domestic",
      "name": "ラジコン飛行場",
      "nameKana": null,
      "nameEn": null,
      "operator": null,
      "network": null,
      "ref": null,
      "latitude": 36.4345487,
      "longitude": 140.4238087,
      "countryCode": "jp",
      "rawTags": {
        "aeroway": "aerodrome",
        "name": "ラジコン飛行場"
      }
    },
    {
      "id": "ibaraki_airport_1155367150",
      "osmId": 1155367150,
      "osmType": "way",
      "prefectureId": "ibaraki",
      "type": "airport",
      "subtype": "heliport",
      "name": "つくばヘリポート",
      "nameKana": null,
      "nameEn": "Tsukuba Heliport",
      "operator": "つくば航空",
      "network": null,
      "ref": null,
      "latitude": 36.1172917,
      "longitude": 140.130918,
      "countryCode": "jp",
      "rawTags": {
        "access": "private",
        "aeroway": "aerodrome",
        "name": "つくばヘリポート",
        "name:en": "Tsukuba Heliport",
        "name:ja": "つくばヘリポート",
        "operator": "つくば航空",
        "start_date": "1991-07-23",
        "wikidata": "Q11272234",
        "wikipedia": "ja:つくばヘリポート"
      }
    },
    {
      "id": "ibaraki_bus_terminal_1231872570",
      "osmId": 1231872570,
      "osmType": "way",
      "prefectureId": "ibaraki",
      "type": "bus_terminal",
      "subtype": null,
      "name": "玉造駅",
      "nameKana": null,
      "nameEn": null,
      "operator": null,
      "network": null,
      "ref": null,
      "latitude": 36.1115038,
      "longitude": 140.4136406,
      "countryCode": "jp",
      "rawTags": {
        "amenity": "bus_station",
        "landuse": "garages",
        "name": "玉造駅"
      }
    },
    {
      "id": "ibaraki_airport_1265412224",
      "osmId": 1265412224,
      "osmType": "way",
      "prefectureId": "ibaraki",
      "type": "airport",
      "subtype": "heliport",
      "name": "結城ヘリポート",
      "nameKana": null,
      "nameEn": "Yuki Heliport",
      "operator": null,
      "network": null,
      "ref": null,
      "latitude": 36.2861433,
      "longitude": 139.9025874,
      "countryCode": "jp",
      "rawTags": {
        "aeroway": "aerodrome",
        "name": "結城ヘリポート",
        "name:en": "Yuki Heliport"
      }
    }
  ]
}