{
  "fetchedAt": "2025-12-12T05:25:22.403Z",
  "prefectureId": "ishikawa",
  "prefectureName": "石川県",
  "stats": {
    "station": 66,
    "airport": 2,
    "ferry_terminal": 1,
    "bus_terminal": 6,
    "total": 75
  },
  "data": [
    {
      "id": "ishikawa_station_264459590",
      "osmId": 264459590,
      "osmType": "node",
      "prefectureId": "ishikawa",
      "type": "station",
      "subtype": "private",
      "name": "能登中島",
      "nameKana": null,
      "nameEn": "Noto-Nakajima",
      "operator": null,
      "network": null,
      "ref": null,
      "latitude": 37.1091614,
      "longitude": 136.8534559,
      "countryCode": "jp",
      "rawTags": {
        "name": "能登中島",
        "name:en": "Noto-Nakajima",
        "name:ja": "能登中島",
        "name:ja_rm": "Noto-Nakajima",
        "name:ko": "노토나카지마",
        "note": "National-Land Numerical Information (Railway) 2007, MLIT Japan",
        "public_transport": "station",
        "railway": "station",
        "source": "KSJ2",
        "train": "yes",
        "wikidata": "Q7063098",
        "wikipedia": "ja:能登中島駅"
      }
    },
    {
      "id": "ishikawa_station_264459629",
      "osmId": 264459629,
      "osmType": "node",
      "prefectureId": "ishikawa",
      "type": "station",
      "subtype": "private",
      "name": "穴水",
      "nameKana": "あなみず",
      "nameEn": "Anamizu",
      "operator": null,
      "network": null,
      "ref": null,
      "latitude": 37.2280892,
      "longitude": 136.9045484,
      "countryCode": "jp",
      "rawTags": {
        "internet_access": "wlan",
        "internet_access:fee": "no",
        "internet_access:ssid": "NOTOTETSUDOU-ANAMIZU",
        "name": "穴水",
        "name:en": "Anamizu",
        "name:ja": "穴水",
        "name:ja_kana": "あなみず",
        "name:ja_rm": "Anamizu",
        "name:ko": "아나미즈",
        "public_transport": "station",
        "railway": "station",
        "source": "KSJ2",
        "train": "yes",
        "wikidata": "Q4751203",
        "wikipedia": "ja:穴水駅"
      }
    },
    {
      "id": "ishikawa_station_264459916",
      "osmId": 264459916,
      "osmType": "node",
      "prefectureId": "ishikawa",
      "type": "station",
      "subtype": "private",
      "name": "西岸",
      "nameKana": null,
      "nameEn": "Nishigishi",
      "operator": null,
      "network": null,
      "ref": null,
      "latitude": 37.1477663,
      "longitude": 136.8744197,
      "countryCode": "jp",
      "rawTags": {
        "name": "西岸",
        "name:en": "Nishigishi",
        "name:ja": "西岸",
        "name:ko": "니시기시",
        "note": "National-Land Numerical Information (Railway) 2007, MLIT Japan",
        "public_transport": "station",
        "railway": "station",
        "source": "KSJ2",
        "train": "yes",
        "wikidata": "Q8189152",
        "wikipedia": "ja:西岸駅"
      }
    },
    {
      "id": "ishikawa_station_264460117",
      "osmId": 264460117,
      "osmType": "node",
      "prefectureId": "ishikawa",
      "type": "station",
      "subtype": "private",
      "name": "笠師保",
      "nameKana": null,
      "nameEn": "Kasashiho",
      "operator": null,
      "network": null,
      "ref": null,
      "latitude": 37.0792899,
      "longitude": 136.8575121,
      "countryCode": "jp",
      "rawTags": {
        "name": "笠師保",
        "name:en": "Kasashiho",
        "name:ja": "笠師保",
        "name:ja_rm": "Kasashiho",
        "name:ko": "가사시호",
        "public_transport": "station",
        "railway": "station",
        "source": "KSJ2",
        "train": "yes",
        "wikidata": "Q6374045",
        "wikipedia": "ja:笠師保駅"
      }
    },
    {
      "id": "ishikawa_station_264460209",
      "osmId": 264460209,
      "osmType": "node",
      "prefectureId": "ishikawa",
      "type": "station",
      "subtype": "private",
      "name": "田鶴浜",
      "nameKana": null,
      "nameEn": "Tatsuruhama",
      "operator": null,
      "network": null,
      "ref": null,
      "latitude": 37.0657581,
      "longitude": 136.8910036,
      "countryCode": "jp",
      "rawTags": {
        "name": "田鶴浜",
        "name:en": "Tatsuruhama",
        "name:ja": "田鶴浜",
        "name:ja_rm": "Tatsuruhama",
        "name:ko": "다쓰루하마",
        "public_transport": "station",
        "railway": "station",
        "source": "KSJ2",
        "train": "yes",
        "wikidata": "Q7688336",
        "wikipedia": "ja:田鶴浜駅"
      }
    },
    {
      "id": "ishikawa_station_264460568",
      "osmId": 264460568,
      "osmType": "node",
      "prefectureId": "ishikawa",
      "type": "station",
      "subtype": "private",
      "name": "能登鹿島",
      "nameKana": null,
      "nameEn": "Noto-Kashima",
      "operator": null,
      "network": null,
      "ref": null,
      "latitude": 37.1802189,
      "longitude": 136.8982494,
      "countryCode": "jp",
      "rawTags": {
        "name": "能登鹿島",
        "name:en": "Noto-Kashima",
        "name:ja": "能登鹿島",
        "name:ja_rm": "Noto-Kashima",
        "name:ko": "노토카시마",
        "note": "National-Land Numerical Information (Railway) 2007, MLIT Japan",
        "public_transport": "station",
        "railway": "station",
        "source": "KSJ2",
        "train": "yes",
        "wikidata": "Q7063096",
        "wikipedia": "ja:能登鹿島駅"
      }
    },
    {
      "id": "ishikawa_station_267306898",
      "osmId": 267306898,
      "osmType": "node",
      "prefectureId": "ishikawa",
      "type": "station",
      "subtype": "jr",
      "name": "能美根上",
      "nameKana": null,
      "nameEn": "Nomi-Neagari",
      "operator": "JR西日本",
      "network": null,
      "ref": null,
      "latitude": 36.4518274,
      "longitude": 136.4595421,
      "countryCode": "jp",
      "rawTags": {
        "addr:city": "能美市",
        "addr:neighbourhood": "チ303",
        "addr:province": "石川県",
        "addr:quarter": "大成町",
        "internet_access": "no",
        "name": "能美根上",
        "name:en": "Nomi-Neagari",
        "name:ja": "能美根上",
        "name:ko": "노미네아가리",
        "old_name": "寺井",
        "operator": "JR西日本",
        "public_transport": "station",
        "railway": "station",
        "source": "KSJ2",
        "train": "yes",
        "website": "https://www.jr-odekake.net/eki/top.php?id=0541443",
        "wikidata": "Q5359868",
        "wikipedia": "ja:能美根上駅"
      }
    },
    {
      "id": "ishikawa_station_267307344",
      "osmId": 267307344,
      "osmType": "node",
      "prefectureId": "ishikawa",
      "type": "station",
      "subtype": "private",
      "name": "動橋",
      "nameKana": null,
      "nameEn": "Iburihashi",
      "operator": null,
      "network": null,
      "ref": null,
      "latitude": 36.3283587,
      "longitude": 136.3830171,
      "countryCode": "jp",
      "rawTags": {
        "name": "動橋",
        "name:en": "Iburihashi",
        "name:ja": "動橋",
        "name:ko": "이부리하시",
        "note": "National-Land Numerical Information (Railway) 2007, MLIT Japan",
        "public_transport": "station",
        "railway": "station",
        "source": "KSJ2",
        "train": "yes",
        "wikidata": "Q3611075",
        "wikipedia": "ja:動橋駅"
      }
    },
    {
      "id": "ishikawa_station_267307956",
      "osmId": 267307956,
      "osmType": "node",
      "prefectureId": "ishikawa",
      "type": "station",
      "subtype": "private",
      "name": "明峰",
      "nameKana": null,
      "nameEn": "Meihō",
      "operator": null,
      "network": null,
      "ref": null,
      "latitude": 36.4247198,
      "longitude": 136.4630942,
      "countryCode": "jp",
      "rawTags": {
        "name": "明峰",
        "name:en": "Meihō",
        "name:ja": "明峰",
        "name:ko": "메이호",
        "note": "National-Land Numerical Information (Railway) 2007, MLIT Japan",
        "public_transport": "station",
        "railway": "station",
        "source": "KSJ2",
        "train": "yes",
        "wikidata": "Q6810028",
        "wikipedia": "ja:明峰駅"
      }
    },
    {
      "id": "ishikawa_station_267307984",
      "osmId": 267307984,
      "osmType": "node",
      "prefectureId": "ishikawa",
      "type": "station",
      "subtype": "private",
      "name": "粟津",
      "nameKana": null,
      "nameEn": "Awazu",
      "operator": null,
      "network": null,
      "ref": null,
      "latitude": 36.3555113,
      "longitude": 136.4244391,
      "countryCode": "jp",
      "rawTags": {
        "name": "粟津",
        "name:en": "Awazu",
        "name:ja": "粟津",
        "name:ko": "아와즈",
        "note": "National-Land Numerical Information (Railway) 2007, MLIT Japan",
        "public_transport": "station",
        "railway": "station",
        "source": "KSJ2",
        "train": "yes",
        "wikidata": "Q4829987",
        "wikipedia": "ja:粟津駅 (石川県)"
      }
    },
    {
      "id": "ishikawa_station_267456422",
      "osmId": 267456422,
      "osmType": "node",
      "prefectureId": "ishikawa",
      "type": "station",
      "subtype": "private",
      "name": "横山",
      "nameKana": "よこやま",
      "nameEn": "Yokoyama",
      "operator": null,
      "network": null,
      "ref": null,
      "latitude": 36.7475748,
      "longitude": 136.7167644,
      "countryCode": "jp",
      "rawTags": {
        "name": "横山",
        "name:en": "Yokoyama",
        "name:ja": "横山",
        "name:ja-Hira": "よこやま",
        "name:ko": "요코야마",
        "public_transport": "station",
        "railway": "station",
        "source": "KSJ2",
        "train": "yes",
        "wikidata": "Q8054695",
        "wikipedia": "ja:横山駅 (石川県)"
      }
    },
    {
      "id": "ishikawa_station_267456424",
      "osmId": 267456424,
      "osmType": "node",
      "prefectureId": "ishikawa",
      "type": "station",
      "subtype": "private",
      "name": "敷浪",
      "nameKana": null,
      "nameEn": "Shikinami",
      "operator": null,
      "network": null,
      "ref": null,
      "latitude": 36.8481531,
      "longitude": 136.773362,
      "countryCode": "jp",
      "rawTags": {
        "name": "敷浪",
        "name:en": "Shikinami",
        "name:ja": "敷浪",
        "name:ko": "시키나미",
        "public_transport": "station",
        "railway": "station",
        "source": "KSJ2",
        "train": "yes",
        "wikidata": "Q7496593",
        "wikipedia": "ja:敷浪駅"
      }
    },
    {
      "id": "ishikawa_station_267456462",
      "osmId": 267456462,
      "osmType": "node",
      "prefectureId": "ishikawa",
      "type": "station",
      "subtype": "private",
      "name": "徳田",
      "nameKana": null,
      "nameEn": "Tokuda",
      "operator": null,
      "network": null,
      "ref": null,
      "latitude": 37.0071586,
      "longitude": 136.9299834,
      "countryCode": "jp",
      "rawTags": {
        "name": "徳田",
        "name:en": "Tokuda",
        "name:ja": "徳田",
        "name:ko": "도쿠다",
        "public_transport": "station",
        "railway": "station",
        "source": "KSJ2",
        "train": "yes",
        "wikidata": "Q7813710",
        "wikipedia": "ja:徳田駅 (石川県)"
      }
    },
    {
      "id": "ishikawa_station_267456483",
      "osmId": 267456483,
      "osmType": "node",
      "prefectureId": "ishikawa",
      "type": "station",
      "subtype": "private",
      "name": "能登部",
      "nameKana": null,
      "nameEn": "Notobe",
      "operator": null,
      "network": null,
      "ref": null,
      "latitude": 36.9612706,
      "longitude": 136.8697667,
      "countryCode": "jp",
      "rawTags": {
        "name": "能登部",
        "name:en": "Notobe",
        "name:ja": "能登部",
        "name:ko": "노토베",
        "public_transport": "station",
        "railway": "station",
        "source": "KSJ2",
        "train": "yes",
        "wikidata": "Q7063127",
        "wikipedia": "ja:能登部駅"
      }
    },
    {
      "id": "ishikawa_station_267456539",
      "osmId": 267456539,
      "osmType": "node",
      "prefectureId": "ishikawa",
      "type": "station",
      "subtype": "private",
      "name": "宇野気",
      "nameKana": null,
      "nameEn": "Unoke",
      "operator": null,
      "network": null,
      "ref": null,
      "latitude": 36.7228176,
      "longitude": 136.702952,
      "countryCode": "jp",
      "rawTags": {
        "name": "宇野気",
        "name:en": "Unoke",
        "name:ja": "宇野気",
        "name:ko": "우노케",
        "public_transport": "station",
        "railway": "station",
        "source": "KSJ2",
        "train": "yes",
        "wikidata": "Q11449891",
        "wikipedia": "ja:宇野気駅"
      }
    },
    {
      "id": "ishikawa_station_267456540",
      "osmId": 267456540,
      "osmType": "node",
      "prefectureId": "ishikawa",
      "type": "station",
      "subtype": "private",
      "name": "千路",
      "nameKana": null,
      "nameEn": "Chiji",
      "operator": null,
      "network": null,
      "ref": null,
      "latitude": 36.9281885,
      "longitude": 136.8011133,
      "countryCode": "jp",
      "rawTags": {
        "name": "千路",
        "name:en": "Chiji",
        "name:ja": "千路",
        "name:ko": "지지",
        "public_transport": "station",
        "railway": "station",
        "source": "KSJ2",
        "train": "yes",
        "wikidata": "Q5097324",
        "wikipedia": "ja:千路駅"
      }
    },
    {
      "id": "ishikawa_station_267456560",
      "osmId": 267456560,
      "osmType": "node",
      "prefectureId": "ishikawa",
      "type": "station",
      "subtype": "private",
      "name": "南羽咋",
      "nameKana": null,
      "nameEn": "Minami-Hakui",
      "operator": null,
      "network": null,
      "ref": null,
      "latitude": 36.8709019,
      "longitude": 136.7747302,
      "countryCode": "jp",
      "rawTags": {
        "name": "南羽咋",
        "name:en": "Minami-Hakui",
        "name:ja": "南羽咋",
        "name:ko": "미나미하쿠이",
        "public_transport": "station",
        "railway": "station",
        "source": "KSJ2",
        "train": "yes",
        "wikidata": "Q6862870",
        "wikipedia": "ja:南羽咋駅"
      }
    },
    {
      "id": "ishikawa_station_267456605",
      "osmId": 267456605,
      "osmType": "node",
      "prefectureId": "ishikawa",
      "type": "station",
      "subtype": "private",
      "name": "能瀬",
      "nameKana": null,
      "nameEn": "Nose",
      "operator": null,
      "network": null,
      "ref": null,
      "latitude": 36.6931516,
      "longitude": 136.7198511,
      "countryCode": "jp",
      "rawTags": {
        "name": "能瀬",
        "name:en": "Nose",
        "name:ja": "能瀬",
        "name:ko": "노세",
        "public_transport": "station",
        "railway": "station",
        "source": "KSJ2",
        "train": "yes",
        "wikidata": "Q11611990",
        "wikipedia": "ja:能瀬駅"
      }
    },
    {
      "id": "ishikawa_station_267456607",
      "osmId": 267456607,
      "osmType": "node",
      "prefectureId": "ishikawa",
      "type": "station",
      "subtype": "private",
      "name": "宝達",
      "nameKana": null,
      "nameEn": "Hōdatsu",
      "operator": null,
      "network": null,
      "ref": null,
      "latitude": 36.8203681,
      "longitude": 136.7622915,
      "countryCode": "jp",
      "rawTags": {
        "name": "宝達",
        "name:en": "Hōdatsu",
        "name:ja": "宝達",
        "name:ko": "호다쓰",
        "public_transport": "station",
        "railway": "station",
        "source": "KSJ2",
        "train": "yes",
        "wikidata": "Q5965165",
        "wikipedia": "ja:宝達駅"
      }
    },
    {
      "id": "ishikawa_station_267456611",
      "osmId": 267456611,
      "osmType": "node",
      "prefectureId": "ishikawa",
      "type": "station",
      "subtype": "private",
      "name": "良川",
      "nameKana": null,
      "nameEn": "Yoshikawa",
      "operator": null,
      "network": null,
      "ref": null,
      "latitude": 36.9765732,
      "longitude": 136.8943465,
      "countryCode": "jp",
      "rawTags": {
        "name": "良川",
        "name:en": "Yoshikawa",
        "name:ja": "良川",
        "name:ko": "요시카와",
        "public_transport": "station",
        "railway": "station",
        "source": "KSJ2",
        "train": "yes",
        "wikidata": "Q8056106",
        "wikipedia": "ja:良川駅"
      }
    },
    {
      "id": "ishikawa_station_267456630",
      "osmId": 267456630,
      "osmType": "node",
      "prefectureId": "ishikawa",
      "type": "station",
      "subtype": "private",
      "name": "金丸",
      "nameKana": null,
      "nameEn": "Kanemaru",
      "operator": null,
      "network": null,
      "ref": null,
      "latitude": 36.943469,
      "longitude": 136.8364897,
      "countryCode": "jp",
      "rawTags": {
        "name": "金丸",
        "name:en": "Kanemaru",
        "name:ja": "金丸",
        "name:ko": "가네마루",
        "public_transport": "station",
        "railway": "station",
        "source": "KSJ2",
        "train": "yes",
        "wikidata": "Q11646313",
        "wikipedia": "ja:金丸駅"
      }
    },
    {
      "id": "ishikawa_station_267456631",
      "osmId": 267456631,
      "osmType": "node",
      "prefectureId": "ishikawa",
      "type": "station",
      "subtype": "private",
      "name": "免田",
      "nameKana": null,
      "nameEn": "Menden",
      "operator": null,
      "network": null,
      "ref": null,
      "latitude": 36.795429,
      "longitude": 136.7472773,
      "countryCode": "jp",
      "rawTags": {
        "name": "免田",
        "name:en": "Menden",
        "name:ja": "免田",
        "name:ko": "멘덴",
        "public_transport": "station",
        "railway": "station",
        "source": "KSJ2",
        "wheelchair": "yes",
        "wikidata": "Q6816597",
        "wikipedia": "ja:免田駅"
      }
    },
    {
      "id": "ishikawa_station_267456893",
      "osmId": 267456893,
      "osmType": "node",
      "prefectureId": "ishikawa",
      "type": "station",
      "subtype": "private",
      "name": "高松",
      "nameKana": null,
      "nameEn": "Takamatsu",
      "operator": null,
      "network": null,
      "ref": null,
      "latitude": 36.7683145,
      "longitude": 136.7288109,
      "countryCode": "jp",
      "rawTags": {
        "name": "高松",
        "name:en": "Takamatsu",
        "name:ja": "高松",
        "name:ko": "다카마쓰",
        "public_transport": "station",
        "railway": "station",
        "source": "KSJ2",
        "train": "yes",
        "wikidata": "Q7677134",
        "wikipedia": "ja:高松駅 (石川県)"
      }
    },
    {
      "id": "ishikawa_station_267456957",
      "osmId": 267456957,
      "osmType": "node",
      "prefectureId": "ishikawa",
      "type": "station",
      "subtype": "private",
      "name": "能登二宮",
      "nameKana": null,
      "nameEn": "Noto-Ninomiya",
      "operator": null,
      "network": null,
      "ref": null,
      "latitude": 36.9850426,
      "longitude": 136.917533,
      "countryCode": "jp",
      "rawTags": {
        "name": "能登二宮",
        "name:en": "Noto-Ninomiya",
        "name:ja": "能登二宮",
        "name:ko": "노토니노미야",
        "public_transport": "station",
        "railway": "station",
        "source": "KSJ2",
        "train": "yes",
        "wikidata": "Q7063099",
        "wikipedia": "ja:能登二宮駅"
      }
    },
    {
      "id": "ishikawa_station_267457138",
      "osmId": 267457138,
      "osmType": "node",
      "prefectureId": "ishikawa",
      "type": "station",
      "subtype": "private",
      "name": "中津幡",
      "nameKana": "なかつばた",
      "nameEn": "Naka-Tsubata",
      "operator": null,
      "network": null,
      "ref": null,
      "latitude": 36.6713908,
      "longitude": 136.7404126,
      "countryCode": "jp",
      "rawTags": {
        "name": "中津幡",
        "name:en": "Naka-Tsubata",
        "name:ja": "中津幡",
        "name:ja_kana": "なかつばた",
        "name:ja_rm": "Naka-Tsubata",
        "name:ko": "나카쓰바타",
        "public_transport": "station",
        "railway": "station",
        "source": "KSJ2",
        "train": "yes",
        "wikidata": "Q6960100",
        "wikipedia": "ja:中津幡駅"
      }
    },
    {
      "id": "ishikawa_station_267457150",
      "osmId": 267457150,
      "osmType": "node",
      "prefectureId": "ishikawa",
      "type": "station",
      "subtype": "private",
      "name": "本津幡",
      "nameKana": "ほんつばた",
      "nameEn": "Hon-Tsubata",
      "operator": null,
      "network": null,
      "ref": null,
      "latitude": 36.6766775,
      "longitude": 136.7320833,
      "countryCode": "jp",
      "rawTags": {
        "name": "本津幡",
        "name:en": "Hon-Tsubata",
        "name:ja": "本津幡",
        "name:ja_kana": "ほんつばた",
        "name:ja_rm": "Hon-Tsubata",
        "name:ko": "혼쓰바타",
        "public_transport": "station",
        "railway": "station",
        "source": "KSJ2",
        "train": "yes",
        "wikidata": "Q5891934",
        "wikipedia": "ja:本津幡駅"
      }
    },
    {
      "id": "ishikawa_station_355835358",
      "osmId": 355835358,
      "osmType": "node",
      "prefectureId": "ishikawa",
      "type": "station",
      "subtype": "private",
      "name": "四十万",
      "nameKana": null,
      "nameEn": "Shijima",
      "operator": "北陸鉄道",
      "network": null,
      "ref": null,
      "latitude": 36.4988633,
      "longitude": 136.6156913,
      "countryCode": "jp",
      "rawTags": {
        "addr:city": "金沢市",
        "addr:housenumber": "4-286",
        "addr:province": "石川県",
        "addr:quarter": "四十万",
        "internet_access": "no",
        "name": "四十万",
        "name:en": "Shijima",
        "name:ja_rm": "Shijima",
        "operator": "北陸鉄道",
        "public_transport": "station",
        "railway": "station",
        "train": "yes",
        "wikidata": "Q11419624",
        "wikipedia": "ja:四十万駅"
      }
    },
    {
      "id": "ishikawa_station_355835381",
      "osmId": 355835381,
      "osmType": "node",
      "prefectureId": "ishikawa",
      "type": "station",
      "subtype": "private",
      "name": "井口",
      "nameKana": "いのくち",
      "nameEn": "Inokuchi",
      "operator": "北陸鉄道",
      "network": "石川線",
      "ref": null,
      "latitude": 36.4767024,
      "longitude": 136.6123265,
      "countryCode": "jp",
      "rawTags": {
        "name": "井口",
        "name:en": "Inokuchi",
        "name:ja": "井口",
        "name:ja-Hira": "いのくち",
        "name:ko": "이노쿠치",
        "network": "石川線",
        "operator": "北陸鉄道",
        "public_transport": "station",
        "railway": "station",
        "source": "KSJ2",
        "train": "yes",
        "wikidata": "Q11373451",
        "wikipedia": "ja:井口駅 (石川県)"
      }
    },
    {
      "id": "ishikawa_station_355835410",
      "osmId": 355835410,
      "osmType": "node",
      "prefectureId": "ishikawa",
      "type": "station",
      "subtype": "private",
      "name": "額住宅前",
      "nameKana": "ぬかじゅうたくまえ",
      "nameEn": "Nukajutakumae",
      "operator": "北陸鉄道",
      "network": "石川線",
      "ref": null,
      "latitude": 36.5185945,
      "longitude": 136.6188842,
      "countryCode": "jp",
      "rawTags": {
        "alt_name:ko": "누카주타쿠마에",
        "name": "額住宅前",
        "name:en": "Nukajutakumae",
        "name:ja": "額住宅前",
        "name:ja-Hira": "ぬかじゅうたくまえ",
        "name:ko": "누카주택앞",
        "network": "石川線",
        "operator": "北陸鉄道",
        "public_transport": "station",
        "railway": "station",
        "source": "KSJ2",
        "train": "yes",
        "wikidata": "Q11665042",
        "wikipedia": "ja:額住宅前駅"
      }
    },
    {
      "id": "ishikawa_station_355835415",
      "osmId": 355835415,
      "osmType": "node",
      "prefectureId": "ishikawa",
      "type": "station",
      "subtype": "private",
      "name": "西泉",
      "nameKana": "にしいずみ",
      "nameEn": "Nishi-izumi",
      "operator": "北陸鉄道",
      "network": "石川線",
      "ref": null,
      "latitude": 36.5534493,
      "longitude": 136.6334705,
      "countryCode": "jp",
      "rawTags": {
        "name": "西泉",
        "name:en": "Nishi-izumi",
        "name:ja": "西泉",
        "name:ja-Hira": "にしいずみ",
        "name:ko": "니시이즈미",
        "network": "石川線",
        "operator": "北陸鉄道",
        "public_transport": "station",
        "railway": "station",
        "source": "KSJ2",
        "train": "yes",
        "wikidata": "Q11629014",
        "wikipedia": "ja:西泉駅"
      }
    },
    {
      "id": "ishikawa_station_355835422",
      "osmId": 355835422,
      "osmType": "node",
      "prefectureId": "ishikawa",
      "type": "station",
      "subtype": "private",
      "name": "野々市",
      "nameKana": "ののいち",
      "nameEn": "Nonoichi",
      "operator": "北陸鉄道",
      "network": "石川線",
      "ref": null,
      "latitude": 36.536491,
      "longitude": 136.6209386,
      "countryCode": "jp",
      "rawTags": {
        "name": "野々市",
        "name:en": "Nonoichi",
        "name:ja": "野々市",
        "name:ja-Hira": "ののいち",
        "name:ko": "노노이치",
        "network": "石川線",
        "operator": "北陸鉄道",
        "public_transport": "station",
        "railway": "station",
        "source": "KSJ2",
        "train": "yes",
        "wikidata": "Q11644912",
        "wikipedia": "ja:野々市駅 (北陸鉄道)"
      }
    },
    {
      "id": "ishikawa_station_355835464",
      "osmId": 355835464,
      "osmType": "node",
      "prefectureId": "ishikawa",
      "type": "station",
      "subtype": "private",
      "name": "道法寺",
      "nameKana": "どうほうじ",
      "nameEn": "Douhouji",
      "operator": "北陸鉄道",
      "network": "石川線",
      "ref": null,
      "latitude": 36.4842483,
      "longitude": 136.613493,
      "countryCode": "jp",
      "rawTags": {
        "name": "道法寺",
        "name:en": "Douhouji",
        "name:ja": "道法寺",
        "name:ja-Hira": "どうほうじ",
        "name:ko": "도호지",
        "network": "石川線",
        "operator": "北陸鉄道",
        "public_transport": "station",
        "railway": "station",
        "source": "KSJ2",
        "train": "yes",
        "wikidata": "Q11641768",
        "wikipedia": "ja:道法寺駅"
      }
    },
    {
      "id": "ishikawa_station_355835569",
      "osmId": 355835569,
      "osmType": "node",
      "prefectureId": "ishikawa",
      "type": "station",
      "subtype": "private",
      "name": "馬替",
      "nameKana": "まがえ",
      "nameEn": "Magae",
      "operator": "北陸鉄道",
      "network": "石川線",
      "ref": null,
      "latitude": 36.5230329,
      "longitude": 136.6206696,
      "countryCode": "jp",
      "rawTags": {
        "name": "馬替",
        "name:en": "Magae",
        "name:ja": "馬替",
        "name:ja-Hira": "まがえ",
        "name:ko": "마가에",
        "network": "石川線",
        "operator": "北陸鉄道",
        "public_transport": "station",
        "railway": "station",
        "source": "KSJ2",
        "train": "yes",
        "wikidata": "Q11667980",
        "wikipedia": "ja:馬替駅"
      }
    },
    {
      "id": "ishikawa_station_355835584",
      "osmId": 355835584,
      "osmType": "node",
      "prefectureId": "ishikawa",
      "type": "station",
      "subtype": "private",
      "name": "小柳",
      "nameKana": "おやなぎ",
      "nameEn": "Oyanagi",
      "operator": "北陸鉄道",
      "network": "石川線",
      "ref": null,
      "latitude": 36.4709681,
      "longitude": 136.6114683,
      "countryCode": "jp",
      "rawTags": {
        "name": "小柳",
        "name:en": "Oyanagi",
        "name:ja": "小柳",
        "name:ja-Hira": "おやなぎ",
        "name:ko": "오야나기",
        "network": "石川線",
        "operator": "北陸鉄道",
        "public_transport": "station",
        "railway": "station",
        "source": "KSJ2",
        "train": "yes",
        "wikidata": "Q11461994",
        "wikipedia": "ja:小柳駅 (石川県)"
      }
    },
    {
      "id": "ishikawa_station_355835612",
      "osmId": 355835612,
      "osmType": "node",
      "prefectureId": "ishikawa",
      "type": "station",
      "subtype": "private",
      "name": "陽羽里",
      "nameKana": null,
      "nameEn": "Hibari",
      "operator": null,
      "network": "北陸鉄道",
      "ref": null,
      "latitude": 36.4937025,
      "longitude": 136.6149054,
      "countryCode": "jp",
      "rawTags": {
        "internet_access": "no",
        "internet_access:fee": "no",
        "name": "陽羽里",
        "name:en": "Hibari",
        "network": "北陸鉄道",
        "public_transport": "station",
        "railway": "station",
        "train": "yes",
        "wikidata": "Q18124890",
        "wikipedia": "ja:陽羽里駅"
      }
    },
    {
      "id": "ishikawa_station_355835729",
      "osmId": 355835729,
      "osmType": "node",
      "prefectureId": "ishikawa",
      "type": "station",
      "subtype": "private",
      "name": "野々市工大前",
      "nameKana": "ののいちこうだいまえ",
      "nameEn": "Nonoichi Kodaimae",
      "operator": "北陸鉄道",
      "network": "石川線",
      "ref": null,
      "latitude": 36.5325932,
      "longitude": 136.6218279,
      "countryCode": "jp",
      "rawTags": {
        "alt_name:ko": "노노이치코다이마에",
        "name": "野々市工大前",
        "name:en": "Nonoichi Kodaimae",
        "name:ja": "野々市工大前",
        "name:ja-Hira": "ののいちこうだいまえ",
        "name:ko": "노노이치공대앞",
        "network": "石川線",
        "operator": "北陸鉄道",
        "public_transport": "station",
        "railway": "station",
        "source": "KSJ2",
        "train": "yes",
        "wikidata": "Q11644904",
        "wikipedia": "ja:野々市工大前駅"
      }
    },
    {
      "id": "ishikawa_station_355835737",
      "osmId": 355835737,
      "osmType": "node",
      "prefectureId": "ishikawa",
      "type": "station",
      "subtype": "private",
      "name": "押野",
      "nameKana": "おしの",
      "nameEn": "Oshino",
      "operator": "北陸鉄道",
      "network": "石川線",
      "ref": null,
      "latitude": 36.5424894,
      "longitude": 136.6220595,
      "countryCode": "jp",
      "rawTags": {
        "name": "押野",
        "name:en": "Oshino",
        "name:ja": "押野",
        "name:ja-Hira": "おしの",
        "name:ko": "오시노",
        "network": "石川線",
        "operator": "北陸鉄道",
        "public_transport": "station",
        "railway": "station",
        "source": "KSJ2",
        "train": "yes",
        "wikidata": "Q11497729",
        "wikipedia": "ja:押野駅"
      }
    },
    {
      "id": "ishikawa_station_355835755",
      "osmId": 355835755,
      "osmType": "node",
      "prefectureId": "ishikawa",
      "type": "station",
      "subtype": "private",
      "name": "乙丸",
      "nameKana": "おとまる",
      "nameEn": "Otomaru",
      "operator": "北陸鉄道",
      "network": "石川線",
      "ref": null,
      "latitude": 36.5119363,
      "longitude": 136.617681,
      "countryCode": "jp",
      "rawTags": {
        "name": "乙丸",
        "name:en": "Otomaru",
        "name:ja": "乙丸",
        "name:ja-Hira": "おとまる",
        "name:ko": "오토마루",
        "network": "石川線",
        "operator": "北陸鉄道",
        "public_transport": "station",
        "railway": "station",
        "source": "KSJ2",
        "train": "yes",
        "wikidata": "Q11369862",
        "wikipedia": "ja:乙丸駅"
      }
    },
    {
      "id": "ishikawa_station_355835787",
      "osmId": 355835787,
      "osmType": "node",
      "prefectureId": "ishikawa",
      "type": "station",
      "subtype": "private",
      "name": "曽谷",
      "nameKana": "そだに",
      "nameEn": "Sodani",
      "operator": "北陸鉄道",
      "network": "石川線",
      "ref": null,
      "latitude": 36.4900166,
      "longitude": 136.6143508,
      "countryCode": "jp",
      "rawTags": {
        "name": "曽谷",
        "name:en": "Sodani",
        "name:ja": "曽谷",
        "name:ja-Hira": "そだに",
        "name:ko": "소다니",
        "network": "石川線",
        "operator": "北陸鉄道",
        "public_transport": "station",
        "railway": "station",
        "source": "KSJ2",
        "train": "yes",
        "wikidata": "Q11515382",
        "wikipedia": "ja:曽谷駅"
      }
    },
    {
      "id": "ishikawa_station_3977645705",
      "osmId": 3977645705,
      "osmType": "node",
      "prefectureId": "ishikawa",
      "type": "station",
      "subtype": "jr",
      "name": "金沢",
      "nameKana": null,
      "nameEn": "Kanazawa",
      "operator": "西日本旅客鉄道",
      "network": null,
      "ref": null,
      "latitude": 36.5780499,
      "longitude": 136.6480247,
      "countryCode": "jp",
      "rawTags": {
        "highspeed": "yes",
        "name": "金沢",
        "name:de": "Kanazawa",
        "name:en": "Kanazawa",
        "name:es": "Kanazawa",
        "name:ja": "金沢",
        "name:ja_rm": "Kanazawa",
        "name:ko": "가나자와",
        "operator": "西日本旅客鉄道",
        "public_transport": "station",
        "railway": "station",
        "train": "yes",
        "wheelchair": "yes",
        "wikidata": "Q1136378",
        "wikipedia": "ja:金沢駅"
      }
    },
    {
      "id": "ishikawa_station_3977861002",
      "osmId": 3977861002,
      "osmType": "node",
      "prefectureId": "ishikawa",
      "type": "station",
      "subtype": "private",
      "name": "東金沢",
      "nameKana": null,
      "nameEn": "Higashi-Kanazawa",
      "operator": "IRいしかわ鉄道",
      "network": null,
      "ref": null,
      "latitude": 36.5935129,
      "longitude": 136.6697438,
      "countryCode": "jp",
      "rawTags": {
        "name": "東金沢",
        "name:en": "Higashi-Kanazawa",
        "name:ja": "東金沢",
        "name:ko": "히가시카나자와",
        "operator": "IRいしかわ鉄道",
        "public_transport": "station",
        "railway": "station",
        "source": "KSJ2",
        "train": "yes",
        "wikidata": "Q3611192",
        "wikipedia": "ja:東金沢駅"
      }
    },
    {
      "id": "ishikawa_station_3992285365",
      "osmId": 3992285365,
      "osmType": "node",
      "prefectureId": "ishikawa",
      "type": "station",
      "subtype": "private",
      "name": "西金沢",
      "nameKana": null,
      "nameEn": "Nishi Kanazawa",
      "operator": null,
      "network": null,
      "ref": null,
      "latitude": 36.5531798,
      "longitude": 136.621186,
      "countryCode": "jp",
      "rawTags": {
        "name": "西金沢",
        "name:en": "Nishi Kanazawa",
        "name:ja": "西金沢",
        "name:ko": "니시카나자와",
        "public_transport": "station",
        "railway": "station",
        "source": "KSJ2",
        "train": "yes",
        "wheelchair": "yes",
        "wikidata": "Q5359940",
        "wikipedia": "ja:西金沢駅"
      }
    },
    {
      "id": "ishikawa_station_3992490583",
      "osmId": 3992490583,
      "osmType": "node",
      "prefectureId": "ishikawa",
      "type": "station",
      "subtype": "private",
      "name": "松任",
      "nameKana": null,
      "nameEn": "Mattō",
      "operator": null,
      "network": null,
      "ref": null,
      "latitude": 36.5266411,
      "longitude": 136.5661935,
      "countryCode": "jp",
      "rawTags": {
        "name": "松任",
        "name:en": "Mattō",
        "name:ja": "松任",
        "name:ko": "맛토",
        "public_transport": "station",
        "railway": "station",
        "source": "Bing, Survey",
        "train": "yes",
        "wheelchair": "yes",
        "wikidata": "Q5359660",
        "wikipedia": "ja:松任駅"
      }
    },
    {
      "id": "ishikawa_station_3992523881",
      "osmId": 3992523881,
      "osmType": "node",
      "prefectureId": "ishikawa",
      "type": "station",
      "subtype": "private",
      "name": "加賀笠間",
      "nameKana": null,
      "nameEn": "Kaga-Kasama",
      "operator": null,
      "network": null,
      "ref": null,
      "latitude": 36.5030168,
      "longitude": 136.5274221,
      "countryCode": "jp",
      "rawTags": {
        "name": "加賀笠間",
        "name:en": "Kaga-Kasama",
        "name:ja": "加賀笠間",
        "name:ko": "가가카사마",
        "public_transport": "station",
        "railway": "station",
        "source": "KSJ2",
        "train": "yes",
        "wheelchair": "no",
        "wikidata": "Q5359826",
        "wikipedia": "ja:加賀笠間駅"
      }
    },
    {
      "id": "ishikawa_station_3992557915",
      "osmId": 3992557915,
      "osmType": "node",
      "prefectureId": "ishikawa",
      "type": "station",
      "subtype": "private",
      "name": "小舞子",
      "nameKana": null,
      "nameEn": "Komaiko",
      "operator": null,
      "network": null,
      "ref": null,
      "latitude": 36.4762043,
      "longitude": 136.4745237,
      "countryCode": "jp",
      "rawTags": {
        "name": "小舞子",
        "name:en": "Komaiko",
        "name:ja": "小舞子",
        "name:ko": "고마이코",
        "public_transport": "station",
        "railway": "station",
        "source": "KSJ2",
        "train": "yes",
        "wikidata": "Q5359932",
        "wikipedia": "ja:小舞子駅"
      }
    },
    {
      "id": "ishikawa_station_3992557916",
      "osmId": 3992557916,
      "osmType": "node",
      "prefectureId": "ishikawa",
      "type": "station",
      "subtype": "jr",
      "name": "美川",
      "nameKana": null,
      "nameEn": "Mikawa",
      "operator": "西日本旅客鉄道",
      "network": null,
      "ref": null,
      "latitude": 36.4859691,
      "longitude": 136.4892217,
      "countryCode": "jp",
      "rawTags": {
        "name": "美川",
        "name:en": "Mikawa",
        "name:ja": "美川",
        "name:ko": "미카와",
        "operator": "西日本旅客鉄道",
        "operator:en": "West Japan Railway Company",
        "public_transport": "station",
        "railway": "station",
        "source": "KSJ2",
        "train": "yes",
        "wheelchair": "no",
        "wikidata": "Q5359889",
        "wikipedia": "ja:美川駅"
      }
    },
    {
      "id": "ishikawa_station_3992638465",
      "osmId": 3992638465,
      "osmType": "node",
      "prefectureId": "ishikawa",
      "type": "station",
      "subtype": "private",
      "name": "森本",
      "nameKana": "もりもと",
      "nameEn": "Morimoto",
      "operator": "IRいしかわ鉄道",
      "network": null,
      "ref": null,
      "latitude": 36.6123415,
      "longitude": 136.6896553,
      "countryCode": "jp",
      "rawTags": {
        "name": "森本",
        "name:en": "Morimoto",
        "name:ja": "森本",
        "name:ja-Hira": "もりもと",
        "name:ko": "모리모토",
        "operator": "IRいしかわ鉄道",
        "public_transport": "station",
        "railway": "station",
        "source": "KSJ2",
        "train": "yes",
        "wikidata": "Q5359635",
        "wikipedia": "ja:森本駅"
      }
    },
    {
      "id": "ishikawa_station_3992671130",
      "osmId": 3992671130,
      "osmType": "node",
      "prefectureId": "ishikawa",
      "type": "station",
      "subtype": "jr",
      "name": "津幡",
      "nameKana": "つばた",
      "nameEn": "Tsubata",
      "operator": "IRいしかわ鉄道;西日本旅客鉄道",
      "network": null,
      "ref": null,
      "latitude": 36.6577079,
      "longitude": 136.7307683,
      "countryCode": "jp",
      "rawTags": {
        "name": "津幡",
        "name:en": "Tsubata",
        "name:ja": "津幡",
        "name:ja_kana": "つばた",
        "name:ja_rm": "Tsubata",
        "name:ko": "쓰바타",
        "operator": "IRいしかわ鉄道;西日本旅客鉄道",
        "public_transport": "station",
        "railway": "station",
        "source": "KSJ2",
        "train": "yes",
        "wikidata": "Q3701490",
        "wikipedia": "ja:津幡駅"
      }
    },
    {
      "id": "ishikawa_station_3992713500",
      "osmId": 3992713500,
      "osmType": "node",
      "prefectureId": "ishikawa",
      "type": "station",
      "subtype": "private",
      "name": "倶利伽羅",
      "nameKana": "くりから",
      "nameEn": "Kurikara",
      "operator": "IRいしかわ鉄道;あいの風とやま鉄道",
      "network": null,
      "ref": null,
      "latitude": 36.672509,
      "longitude": 136.7916218,
      "countryCode": "jp",
      "rawTags": {
        "name": "倶利伽羅",
        "name:en": "Kurikara",
        "name:ja": "倶利伽羅",
        "name:ja_kana": "くりから",
        "name:ja_rm": "Kurikara",
        "name:ko": "구리카라",
        "operator": "IRいしかわ鉄道;あいの風とやま鉄道",
        "public_transport": "station",
        "railway": "station",
        "source": "KSJ2",
        "wikidata": "Q5360002",
        "wikipedia": "ja:倶利伽羅駅"
      }
    },
    {
      "id": "ishikawa_bus_terminal_4127931490",
      "osmId": 4127931490,
      "osmType": "node",
      "prefectureId": "ishikawa",
      "type": "bus_terminal",
      "subtype": null,
      "name": "Hibari",
      "nameKana": null,
      "nameEn": null,
      "operator": null,
      "network": null,
      "ref": null,
      "latitude": 36.4937459,
      "longitude": 136.6147242,
      "countryCode": "jp",
      "rawTags": {
        "amenity": "bus_station",
        "bus": "yes",
        "name": "Hibari",
        "name:ja": "陽羽里",
        "public_transport": "station"
      }
    },
    {
      "id": "ishikawa_bus_terminal_5501228889",
      "osmId": 5501228889,
      "osmType": "node",
      "prefectureId": "ishikawa",
      "type": "bus_terminal",
      "subtype": null,
      "name": "穴水",
      "nameKana": null,
      "nameEn": null,
      "operator": null,
      "network": null,
      "ref": null,
      "latitude": 37.2283145,
      "longitude": 136.9045761,
      "countryCode": "jp",
      "rawTags": {
        "amenity": "bus_station",
        "bus": "yes",
        "check_date": "2023-11-04",
        "internet_access": "wlan",
        "internet_access:fee": "no",
        "internet_access:ssid": "NOTOTETSUDOU-ANAMIZU",
        "name": "穴水",
        "public_transport": "station"
      }
    },
    {
      "id": "ishikawa_ferry_terminal_5794585958",
      "osmId": 5794585958,
      "osmType": "node",
      "prefectureId": "ishikawa",
      "type": "ferry_terminal",
      "subtype": null,
      "name": "へぐら航路",
      "nameKana": null,
      "nameEn": null,
      "operator": null,
      "network": null,
      "ref": null,
      "latitude": 37.3994105,
      "longitude": 136.9008846,
      "countryCode": "jp",
      "rawTags": {
        "addr:city": "輪島市",
        "addr:neighbourhood": "下町",
        "addr:postcode": "928-0075",
        "addr:province": "石川県",
        "addr:quarter": "鳳至町",
        "amenity": "ferry_terminal",
        "ferry": "yes",
        "name": "へぐら航路",
        "public_transport": "station"
      }
    },
    {
      "id": "ishikawa_station_6641719619",
      "osmId": 6641719619,
      "osmType": "node",
      "prefectureId": "ishikawa",
      "type": "station",
      "subtype": "private",
      "name": "小松",
      "nameKana": null,
      "nameEn": "Komatsu",
      "operator": null,
      "network": null,
      "ref": null,
      "latitude": 36.4018391,
      "longitude": 136.4528145,
      "countryCode": "jp",
      "rawTags": {
        "name": "小松",
        "name:de": "Komatsu",
        "name:en": "Komatsu",
        "name:ja": "小松",
        "name:ko": "고마쓰",
        "note": "National-Land Numerical Information (Railway) 2007, MLIT Japan",
        "public_transport": "station",
        "railway": "station",
        "source": "KSJ2",
        "train": "yes",
        "wikidata": "Q5359990",
        "wikipedia": "ja:小松駅"
      }
    },
    {
      "id": "ishikawa_station_6641719628",
      "osmId": 6641719628,
      "osmType": "node",
      "prefectureId": "ishikawa",
      "type": "station",
      "subtype": "private",
      "name": "羽咋",
      "nameKana": "はくい",
      "nameEn": "Hakui",
      "operator": null,
      "network": null,
      "ref": null,
      "latitude": 36.896877,
      "longitude": 136.7834571,
      "countryCode": "jp",
      "rawTags": {
        "name": "羽咋",
        "name:en": "Hakui",
        "name:ja": "羽咋",
        "name:ja_kana": "はくい",
        "name:ja_rm": "Hakui",
        "name:ko": "하쿠이",
        "public_transport": "station",
        "railway": "station",
        "source": "KSJ2",
        "train": "yes",
        "wikidata": "Q5640629",
        "wikipedia": "ja:羽咋駅"
      }
    },
    {
      "id": "ishikawa_station_6641834272",
      "osmId": 6641834272,
      "osmType": "node",
      "prefectureId": "ishikawa",
      "type": "station",
      "subtype": "private",
      "name": "加賀温泉",
      "nameKana": null,
      "nameEn": "Kagaonsen",
      "operator": null,
      "network": null,
      "ref": null,
      "latitude": 36.3203882,
      "longitude": 136.3504996,
      "countryCode": "jp",
      "rawTags": {
        "name": "加賀温泉",
        "name:en": "Kagaonsen",
        "name:ja": "加賀温泉",
        "name:ko": "가가온센",
        "note": "National-Land Numerical Information (Railway) 2007, MLIT Japan",
        "public_transport": "station",
        "railway": "station",
        "source": "KSJ2",
        "wikidata": "Q5359613",
        "wikipedia": "ja:加賀温泉駅"
      }
    },
    {
      "id": "ishikawa_station_6641834281",
      "osmId": 6641834281,
      "osmType": "node",
      "prefectureId": "ishikawa",
      "type": "station",
      "subtype": "private",
      "name": "大聖寺",
      "nameKana": null,
      "nameEn": "Daishōji",
      "operator": null,
      "network": null,
      "ref": null,
      "latitude": 36.3004619,
      "longitude": 136.3143803,
      "countryCode": "jp",
      "rawTags": {
        "name": "大聖寺",
        "name:en": "Daishōji",
        "name:ja": "大聖寺",
        "name:ja_rm": "Daishōji",
        "name:ko": "다이쇼지",
        "note": "National-Land Numerical Information (Railway) 2007, MLIT Japan",
        "public_transport": "station",
        "railway": "station",
        "source": "KSJ2",
        "wikidata": "Q3701465",
        "wikipedia": "ja:大聖寺駅"
      }
    },
    {
      "id": "ishikawa_station_6641863475",
      "osmId": 6641863475,
      "osmType": "node",
      "prefectureId": "ishikawa",
      "type": "station",
      "subtype": "private",
      "name": "和倉温泉",
      "nameKana": null,
      "nameEn": "Wakura-Onsen",
      "operator": null,
      "network": null,
      "ref": null,
      "latitude": 37.074912,
      "longitude": 136.9256945,
      "countryCode": "jp",
      "rawTags": {
        "name": "和倉温泉",
        "name:en": "Wakura-Onsen",
        "name:ja": "和倉温泉",
        "name:ko": "와쿠라온센",
        "note": "National-Land Numerical Information (Railway) 2007, MLIT Japan",
        "public_transport": "station",
        "railway": "station",
        "source": "KSJ2",
        "train": "yes",
        "wikidata": "Q6138219",
        "wikipedia": "ja:和倉温泉駅"
      }
    },
    {
      "id": "ishikawa_station_6641863484",
      "osmId": 6641863484,
      "osmType": "node",
      "prefectureId": "ishikawa",
      "type": "station",
      "subtype": "private",
      "name": "七尾",
      "nameKana": null,
      "nameEn": "Nanao",
      "operator": null,
      "network": null,
      "ref": null,
      "latitude": 37.0419859,
      "longitude": 136.9639832,
      "countryCode": "jp",
      "rawTags": {
        "name": "七尾",
        "name:en": "Nanao",
        "name:ja": "七尾",
        "public_transport": "station",
        "railway": "station",
        "train": "yes",
        "wikidata": "Q6962435",
        "wikipedia": "ja:七尾駅"
      }
    },
    {
      "id": "ishikawa_station_7496544729",
      "osmId": 7496544729,
      "osmType": "node",
      "prefectureId": "ishikawa",
      "type": "station",
      "subtype": "private",
      "name": "鶴来",
      "nameKana": "つるぎ",
      "nameEn": "Tsurugi",
      "operator": "北陸鉄道",
      "network": "石川線",
      "ref": null,
      "latitude": 36.4522166,
      "longitude": 136.623981,
      "countryCode": "jp",
      "rawTags": {
        "name": "鶴来",
        "name:en": "Tsurugi",
        "name:ja": "鶴来",
        "name:ja-Hira": "つるぎ",
        "name:ko": "쓰루기",
        "network": "石川線",
        "operator": "北陸鉄道",
        "public_transport": "station",
        "railway": "station",
        "source": "KSJ2",
        "train": "yes",
        "wikidata": "Q11676036",
        "wikipedia": "ja:鶴来駅"
      }
    },
    {
      "id": "ishikawa_station_7826334198",
      "osmId": 7826334198,
      "osmType": "node",
      "prefectureId": "ishikawa",
      "type": "station",
      "subtype": "private",
      "name": "野町",
      "nameKana": "のまち",
      "nameEn": "Nomachi",
      "operator": "北陸鉄道",
      "network": "石川線",
      "ref": null,
      "latitude": 36.5539047,
      "longitude": 136.6443889,
      "countryCode": "jp",
      "rawTags": {
        "name": "野町",
        "name:en": "Nomachi",
        "name:ja": "野町",
        "name:ja-Hira": "のまち",
        "name:ko": "노마치",
        "network": "石川線",
        "operator": "北陸鉄道",
        "public_transport": "station",
        "railway": "station",
        "source": "KSJ2",
        "train": "yes",
        "wikidata": "Q11646078",
        "wikipedia": "ja:野町駅"
      }
    },
    {
      "id": "ishikawa_station_7826344435",
      "osmId": 7826344435,
      "osmType": "node",
      "prefectureId": "ishikawa",
      "type": "station",
      "subtype": "private",
      "name": "日御子",
      "nameKana": "ひのみこ",
      "nameEn": "Hinomiko",
      "operator": "北陸鉄道",
      "network": "石川線",
      "ref": null,
      "latitude": 36.4650245,
      "longitude": 136.6149359,
      "countryCode": "jp",
      "rawTags": {
        "name": "日御子",
        "name:en": "Hinomiko",
        "name:ja": "日御子",
        "name:ja-Hira": "ひのみこ",
        "name:ko": "히노미코",
        "network": "石川線",
        "operator": "北陸鉄道",
        "public_transport": "station",
        "railway": "station",
        "source": "KSJ2",
        "train": "yes",
        "wikidata": "Q11505327",
        "wikipedia": "ja:日御子駅"
      }
    },
    {
      "id": "ishikawa_station_7826347786",
      "osmId": 7826347786,
      "osmType": "node",
      "prefectureId": "ishikawa",
      "type": "station",
      "subtype": "private",
      "name": "新西金沢",
      "nameKana": "しんにしかなざわ",
      "nameEn": "Shin Nishi Kanazawa",
      "operator": null,
      "network": null,
      "ref": null,
      "latitude": 36.5530483,
      "longitude": 136.6227309,
      "countryCode": "jp",
      "rawTags": {
        "name": "新西金沢",
        "name:en": "Shin Nishi Kanazawa",
        "name:ja": "新西金沢",
        "name:ja-Hira": "しんにしかなざわ",
        "name:ko": "니시카나자와",
        "public_transport": "station",
        "railway": "station",
        "source": "KSJ2",
        "train": "yes",
        "wheelchair": "no",
        "wikidata": "Q5359940",
        "wikipedia": "ja:新西金沢駅"
      }
    },
    {
      "id": "ishikawa_station_7826372778",
      "osmId": 7826372778,
      "osmType": "node",
      "prefectureId": "ishikawa",
      "type": "station",
      "subtype": "subway",
      "name": "北鉄金沢",
      "nameKana": "ほくてつかなざわ",
      "nameEn": "Hokutetsu Kanazawa",
      "operator": "北陸鉄道株式会社",
      "network": null,
      "ref": "A01",
      "latitude": 36.5782896,
      "longitude": 136.6494881,
      "countryCode": "jp",
      "rawTags": {
        "name": "北鉄金沢",
        "name:en": "Hokutetsu Kanazawa",
        "name:ja": "北鉄金沢",
        "name:ja-Hira": "ほくてつかなざわ",
        "name:ja-Latn": "Hokutetsu Kanazawa",
        "name:ko": "가나자와",
        "operator": "北陸鉄道株式会社",
        "public_transport": "station",
        "railway": "station",
        "ref": "A01",
        "start_date": "1926-05-18",
        "station": "subway",
        "train": "yes",
        "wikidata": "Q1136378",
        "wikipedia": "ja:金沢駅"
      }
    },
    {
      "id": "ishikawa_station_7826389043",
      "osmId": 7826389043,
      "osmType": "node",
      "prefectureId": "ishikawa",
      "type": "station",
      "subtype": "private",
      "name": "内灘",
      "nameKana": "うちなだ",
      "nameEn": "Uchinada",
      "operator": "北陸鉄道株式会社",
      "network": null,
      "ref": "A12",
      "latitude": 36.6334313,
      "longitude": 136.6342184,
      "countryCode": "jp",
      "rawTags": {
        "name": "内灘",
        "name:en": "Uchinada",
        "name:ja": "内灘",
        "name:ja-Hira": "うちなだ",
        "name:ja-Latn": "Uchinada",
        "name:ko": "우치나다",
        "old_name": "粟ヶ崎遊園前駅",
        "operator": "北陸鉄道株式会社",
        "public_transport": "station",
        "railway": "station",
        "ref": "A12",
        "source": "KSJ2",
        "start_date": "1929-07-14",
        "train": "yes",
        "wikidata": "Q11394162",
        "wikipedia": "ja:内灘駅"
      }
    },
    {
      "id": "ishikawa_station_7924683443",
      "osmId": 7924683443,
      "osmType": "node",
      "prefectureId": "ishikawa",
      "type": "station",
      "subtype": "private",
      "name": "恋路",
      "nameKana": null,
      "nameEn": "Koiji",
      "operator": null,
      "network": null,
      "ref": null,
      "latitude": 37.3717915,
      "longitude": 137.2380984,
      "countryCode": "jp",
      "rawTags": {
        "addr:block_number": "9",
        "addr:city": "能登町",
        "addr:county": "鳳珠郡",
        "addr:postcode": "927-0601",
        "addr:province": "石川県",
        "addr:quarter": "恋路",
        "description": "のと鉄道能登線廃線後、観光施設「奥のとトロッコ鉄道」の一部として営業中",
        "name": "恋路",
        "name:en": "Koiji",
        "name:ja": "恋路",
        "phone": "080-8698-2559",
        "public_transport": "station",
        "railway": "station",
        "source": "survey",
        "train": "yes",
        "website": "https://notocho.jp/experience/1317/",
        "wikidata": "Q6426272",
        "wikipedia": "ja:恋路駅"
      }
    },
    {
      "id": "ishikawa_station_7924683446",
      "osmId": 7924683446,
      "osmType": "node",
      "prefectureId": "ishikawa",
      "type": "station",
      "subtype": "private",
      "name": "宗玄",
      "nameKana": null,
      "nameEn": "Sōgen",
      "operator": null,
      "network": null,
      "ref": null,
      "latitude": 37.3733878,
      "longitude": 137.2375837,
      "countryCode": "jp",
      "rawTags": {
        "description": "観光施設「奥のとトロッコ鉄道」折り返し地点",
        "name": "宗玄",
        "name:en": "Sōgen",
        "name:ja": "宗玄",
        "public_transport": "station",
        "railway": "station",
        "source": "survey",
        "train": "yes"
      }
    },
    {
      "id": "ishikawa_station_9009657749",
      "osmId": 9009657749,
      "osmType": "node",
      "prefectureId": "ishikawa",
      "type": "station",
      "subtype": "private",
      "name": "三ツ屋",
      "nameKana": "みつや",
      "nameEn": "Mitsuya",
      "operator": "北陸鉄道株式会社",
      "network": null,
      "ref": "A07",
      "latitude": 36.6119834,
      "longitude": 136.6455252,
      "countryCode": "jp",
      "rawTags": {
        "name": "三ツ屋",
        "name:en": "Mitsuya",
        "name:ja": "三ツ屋",
        "name:ja-Hira": "みつや",
        "name:ja-Latn": "Mitsuya",
        "name:ko": "미쓰야",
        "operator": "北陸鉄道株式会社",
        "railway": "station",
        "ref": "A07",
        "start_date": "1925-05-10",
        "train": "yes",
        "wikidata": "Q11354011",
        "wikipedia": "ja:三ツ屋駅"
      }
    },
    {
      "id": "ishikawa_station_11297630052",
      "osmId": 11297630052,
      "osmType": "node",
      "prefectureId": "ishikawa",
      "type": "station",
      "subtype": "private",
      "name": "西松任",
      "nameKana": null,
      "nameEn": "Nishi-Mattō",
      "operator": null,
      "network": null,
      "ref": null,
      "latitude": 36.5177744,
      "longitude": 136.5490493,
      "countryCode": "jp",
      "rawTags": {
        "name": "西松任",
        "name:en": "Nishi-Mattō",
        "name:ja": "西松任",
        "name:zh-Hant": "西松任",
        "public_transport": "station",
        "railway": "station",
        "train": "yes",
        "wikidata": "Q111179802",
        "wikipedia": "ja:西松任駅"
      }
    },
    {
      "id": "ishikawa_airport_57007545",
      "osmId": 57007545,
      "osmType": "way",
      "prefectureId": "ishikawa",
      "type": "airport",
      "subtype": "domestic",
      "name": "能登空港",
      "nameKana": "のとくうこう",
      "nameEn": "Noto Airport",
      "operator": null,
      "network": null,
      "ref": "NTQ",
      "latitude": 37.2937936,
      "longitude": 136.9649073,
      "countryCode": "jp",
      "rawTags": {
        "KSJ2:AAC": "17204",
        "KSJ2:AAC_label": "石川県輪島市",
        "KSJ2:AD2": "5",
        "KSJ2:AD2_label": "都道府県",
        "KSJ2:ARP": "37.2933333333 136.9622222222",
        "KSJ2:ATB": "37.2952228200 136.9573057000",
        "KSJ2:CLT": "19 30",
        "KSJ2:COA": "空港整備法に基づく第三種空港",
        "KSJ2:CompositeCurve": "cv26Airport",
        "KSJ2:DSA": "特定飛行場以外",
        "KSJ2:INP": "5",
        "KSJ2:INP_label": "都道府県",
        "KSJ2:IUC": "供用中",
        "KSJ2:NA3": "能登空港",
        "KSJ2:OPT": "08 00",
        "KSJ2:REF": "1",
        "KSJ2:REF_label": "ジェット定期便が就航している場合",
        "KSJ2:airport_id": "cf02_68",
        "KSJ2:runways": "2000 45",
        "KSJ2:survey_year_LFD_NPD": "1981 0 5,1982 0 5,1983 0 0,1984 0 0,1985 0 0,1986 0 0,1987 0 0,1988 0 0,1989 0 0,1990 0 0,1991 0 0,1992 0 0,1993 0 0,1994 0 0,1995 0 0,1996 0 0,1997 0 0,1998 0 0,1999 0 0,2000 0 0,2001 0 0,2002 0 0,2003 2 0,2004 5 0,2005 5 221",
        "aeroway": "aerodrome",
        "barrier": "fence",
        "iata": "NTQ",
        "icao": "RJNW",
        "name": "能登空港",
        "name:en": "Noto Airport",
        "name:ja": "能登空港",
        "name:ja_kana": "のとくうこう",
        "name:ja_rm": "Noto Kūkō",
        "note": "National-Land Numerical Information (Airport) 2007, MLIT Japan",
        "note:ja": "国土数値情報（空港データ）平成19年　国土交通省",
        "source": "KSJ2",
        "source_ref": "http://nlftp.mlit.go.jp/ksj/jpgis/datalist/KsjTmplt-C28-v1_1.html",
        "wikidata": "Q1432192",
        "wikipedia": "ja:能登空港"
      }
    },
    {
      "id": "ishikawa_bus_terminal_834082790",
      "osmId": 834082790,
      "osmType": "way",
      "prefectureId": "ishikawa",
      "type": "bus_terminal",
      "subtype": null,
      "name": "金沢大学",
      "nameKana": null,
      "nameEn": null,
      "operator": null,
      "network": null,
      "ref": null,
      "latitude": 36.5501591,
      "longitude": 136.7137083,
      "countryCode": "jp",
      "rawTags": {
        "amenity": "bus_station",
        "bus": "yes",
        "name": "金沢大学",
        "public_transport": "station"
      }
    },
    {
      "id": "ishikawa_bus_terminal_834082845",
      "osmId": 834082845,
      "osmType": "way",
      "prefectureId": "ishikawa",
      "type": "bus_terminal",
      "subtype": null,
      "name": "金沢大学自然研前",
      "nameKana": null,
      "nameEn": null,
      "operator": null,
      "network": null,
      "ref": null,
      "latitude": 36.5445103,
      "longitude": 136.706891,
      "countryCode": "jp",
      "rawTags": {
        "amenity": "bus_station",
        "bus": "yes",
        "name": "金沢大学自然研前",
        "public_transport": "station"
      }
    },
    {
      "id": "ishikawa_bus_terminal_834269374",
      "osmId": 834269374,
      "osmType": "way",
      "prefectureId": "ishikawa",
      "type": "bus_terminal",
      "subtype": null,
      "name": "金沢駅東広場バスターミナル",
      "nameKana": null,
      "nameEn": null,
      "operator": "金沢市",
      "network": null,
      "ref": null,
      "latitude": 36.5781534,
      "longitude": 136.649445,
      "countryCode": "jp",
      "rawTags": {
        "addr:block_number": "2",
        "addr:city": "金沢市",
        "addr:postcode": "920-0858",
        "addr:province": "石川県",
        "addr:quarter": "木ノ新保町",
        "amenity": "bus_station",
        "bus": "yes",
        "name": "金沢駅東広場バスターミナル",
        "operator": "金沢市",
        "public_transport": "station"
      }
    },
    {
      "id": "ishikawa_bus_terminal_834269375",
      "osmId": 834269375,
      "osmType": "way",
      "prefectureId": "ishikawa",
      "type": "bus_terminal",
      "subtype": null,
      "name": "金沢駅西口",
      "nameKana": null,
      "nameEn": "Kanazawa Station West Gate",
      "operator": "金沢市",
      "network": null,
      "ref": null,
      "latitude": 36.5785714,
      "longitude": 136.646461,
      "countryCode": "jp",
      "rawTags": {
        "amenity": "bus_station",
        "bus": "yes",
        "name": "金沢駅西口",
        "name:en": "Kanazawa Station West Gate",
        "name:ja": "金沢駅西口",
        "operator": "金沢市",
        "public_transport": "station"
      }
    },
    {
      "id": "ishikawa_station_840511578",
      "osmId": 840511578,
      "osmType": "way",
      "prefectureId": "ishikawa",
      "type": "station",
      "subtype": "private",
      "name": "北陸新幹線小松駅",
      "nameKana": null,
      "nameEn": null,
      "operator": null,
      "network": null,
      "ref": null,
      "latitude": 36.4023629,
      "longitude": 136.4531381,
      "countryCode": "jp",
      "rawTags": {
        "building": "construction",
        "building:levels": "2",
        "name": "北陸新幹線小松駅",
        "public_transport": "station",
        "railway": "station",
        "train": "yes"
      }
    },
    {
      "id": "ishikawa_airport_13514757",
      "osmId": 13514757,
      "osmType": "relation",
      "prefectureId": "ishikawa",
      "type": "airport",
      "subtype": "domestic",
      "name": "小松飛行場",
      "nameKana": null,
      "nameEn": "Komatsu Airport",
      "operator": "Japan Air Self-Defense Force",
      "network": null,
      "ref": "KMQ",
      "latitude": 36.3937725,
      "longitude": 136.4050735,
      "countryCode": "jp",
      "rawTags": {
        "KSJ2:AAC": "17203",
        "KSJ2:AAC_label": "石川県小松市",
        "KSJ2:AD2": "2",
        "KSJ2:AD2_label": "防衛大臣",
        "KSJ2:ARP": "36.3938888889 136.4075000000",
        "KSJ2:ATB": "36.4018888900 136.4135278000",
        "KSJ2:CLT": "21 30",
        "KSJ2:COA": "自衛隊、米軍との共用飛行場",
        "KSJ2:CompositeCurve": "cv29Airport",
        "KSJ2:DSA": "特定飛行場以外",
        "KSJ2:INP": "2",
        "KSJ2:INP_label": "防衛大臣",
        "KSJ2:IUC": "供用中",
        "KSJ2:NA3": "小松飛行場",
        "KSJ2:OPT": "07 30",
        "KSJ2:REF": "1",
        "KSJ2:REF_label": "ジェット定期便が就航している場合",
        "KSJ2:airport_id": "cf02_70",
        "KSJ2:runways": "2700 45",
        "aerodrome:type": "military/public",
        "aeroway": "aerodrome",
        "closest_town": "Kanazawa, Ishikawa",
        "ele": "6",
        "iata": "KMQ",
        "icao": "RJNK",
        "layer": "1",
        "loc_name": "小松空港",
        "name": "小松飛行場",
        "name:en": "Komatsu Airport",
        "name:ja": "小松飛行場",
        "name:ja_rm": "Komatsu Hikōjō",
        "note": "National-Land Numerical Information (Airport) 2007, MLIT Japan\nhttps://www.mod.go.jp/asdf/komatsu/",
        "note:ja": "国土数値情報（空港データ）平成19年　国土交通省",
        "operator": "Japan Air Self-Defense Force",
        "source": "KSJ2;wikipedia",
        "source_ref": "http://nlftp.mlit.go.jp/ksj/jpgis/datalist/KsjTmplt-C28-v1_1.html",
        "type": "multipolygon",
        "website": "https://www.komatsuairport.jp",
        "wikidata": "Q1141511",
        "wikipedia": "ja:小松飛行場",
        "wikipedia:en": "Komatsu_Airport"
      }
    }
  ]
}