{
  "fetchedAt": "2025-12-12T05:19:30.420Z",
  "prefectureId": "iwate",
  "prefectureName": "岩手県",
  "stats": {
    "station": 187,
    "airport": 1,
    "ferry_terminal": 0,
    "bus_terminal": 14,
    "total": 202
  },
  "data": [
    {
      "id": "iwate_station_263306056",
      "osmId": 263306056,
      "osmType": "node",
      "prefectureId": "iwate",
      "type": "station",
      "subtype": "private",
      "name": "島越",
      "nameKana": "しまのこし",
      "nameEn": "Shimanokoshi",
      "operator": null,
      "network": null,
      "ref": null,
      "latitude": 39.916067,
      "longitude": 141.939579,
      "countryCode": "jp",
      "rawTags": {
        "KSJ2:LIN": "北リアス線",
        "KSJ2:STN": "島越",
        "name": "島越",
        "name:en": "Shimanokoshi",
        "name:ja": "島越",
        "name:ja_kana": "しまのこし",
        "name:ja_rm": "Shimanokoshi",
        "name:ko": "시마노코시",
        "note": "National-Land Numerical Information (Railway) 2007, MLIT Japan",
        "note:ja": "国土数値情報（鉄道データ）平成19年　国土交通省",
        "public_transport": "station",
        "railway": "station",
        "source": "KSJ2",
        "source_ref": "http://nlftp.mlit.go.jp/ksj/jpgis/datalist/KsjTmplt-N02-v1_1.html",
        "website": "https://www.sanrikutetsudou.com/?p=589.html",
        "wikidata": "Q11477058",
        "wikipedia": "ja:島越駅"
      }
    },
    {
      "id": "iwate_station_263306071",
      "osmId": 263306071,
      "osmType": "node",
      "prefectureId": "iwate",
      "type": "station",
      "subtype": "private",
      "name": "摂待",
      "nameKana": "せったい",
      "nameEn": "Settai",
      "operator": null,
      "network": null,
      "ref": null,
      "latitude": 39.8095699,
      "longitude": 141.9621696,
      "countryCode": "jp",
      "rawTags": {
        "KSJ2:LIN": "北リアス線",
        "KSJ2:STN": "摂待",
        "name": "摂待",
        "name:en": "Settai",
        "name:ja": "摂待",
        "name:ja_kana": "せったい",
        "name:ja_rm": "Settai",
        "name:ko": "셋타이",
        "note": "National-Land Numerical Information (Railway) 2007, MLIT Japan",
        "note:ja": "国土数値情報（鉄道データ）平成19年　国土交通省",
        "public_transport": "station",
        "railway": "station",
        "source": "KSJ2",
        "source_ref": "http://nlftp.mlit.go.jp/ksj/jpgis/datalist/KsjTmplt-N02-v1_1.html",
        "website": "https://www.sanrikutetsudou.com/?p=594",
        "wikidata": "Q11498540",
        "wikipedia": "ja:摂待駅"
      }
    },
    {
      "id": "iwate_station_263306090",
      "osmId": 263306090,
      "osmType": "node",
      "prefectureId": "iwate",
      "type": "station",
      "subtype": "private",
      "name": "一の渡",
      "nameKana": "いちのわたり",
      "nameEn": "Ichinowatari",
      "operator": null,
      "network": null,
      "ref": null,
      "latitude": 39.686553,
      "longitude": 141.942534,
      "countryCode": "jp",
      "rawTags": {
        "KSJ2:LIN": "北リアス線",
        "KSJ2:STN": "一の渡",
        "name": "一の渡",
        "name:en": "Ichinowatari",
        "name:ja": "一の渡",
        "name:ja_kana": "いちのわたり",
        "name:ja_rm": "Ichinowatari",
        "name:ko": "이치노와타리",
        "note": "National-Land Numerical Information (Railway) 2007, MLIT Japan",
        "note:ja": "国土数値情報（鉄道データ）平成19年　国土交通省",
        "public_transport": "station",
        "railway": "station",
        "source": "KSJ2",
        "source_ref": "http://nlftp.mlit.go.jp/ksj/jpgis/datalist/KsjTmplt-N02-v1_1.html",
        "website": "https://www.sanrikutetsudou.com/?p=603",
        "wikidata": "Q11352273",
        "wikipedia": "ja:一の渡駅"
      }
    },
    {
      "id": "iwate_station_263306175",
      "osmId": 263306175,
      "osmType": "node",
      "prefectureId": "iwate",
      "type": "station",
      "subtype": "private",
      "name": "新田老",
      "nameKana": "しんたろう",
      "nameEn": "Shin-Taro",
      "operator": null,
      "network": null,
      "ref": null,
      "latitude": 39.7355245,
      "longitude": 141.967244,
      "countryCode": "jp",
      "rawTags": {
        "KSJ2:LIN": "北リアス線",
        "KSJ2:STN": "新田老",
        "name": "新田老",
        "name:en": "Shin-Taro",
        "name:ja": "新田老",
        "name:ja_kana": "しんたろう",
        "public_transport": "station",
        "railway": "station",
        "website": "https://www.sanrikutetsudou.com/?p=14996",
        "wikidata": "Q55525813",
        "wikipedia": "ja:新田老駅"
      }
    },
    {
      "id": "iwate_station_263306558",
      "osmId": 263306558,
      "osmType": "node",
      "prefectureId": "iwate",
      "type": "station",
      "subtype": "private",
      "name": "白井海岸",
      "nameKana": "しらいかいがん",
      "nameEn": "Shirai-Kaigan",
      "operator": null,
      "network": null,
      "ref": null,
      "latitude": 40.0328525,
      "longitude": 141.8829478,
      "countryCode": "jp",
      "rawTags": {
        "KSJ2:LIN": "北リアス線",
        "KSJ2:STN": "白井海岸",
        "name": "白井海岸",
        "name:en": "Shirai-Kaigan",
        "name:ja": "白井海岸",
        "name:ja_kana": "しらいかいがん",
        "name:ja_rm": "Shirai-Kaigan",
        "name:ko": "시라이카이간",
        "note": "National-Land Numerical Information (Railway) 2007, MLIT Japan",
        "note:ja": "国土数値情報（鉄道データ）平成19年　国土交通省",
        "public_transport": "station",
        "railway": "station",
        "source": "KSJ2",
        "source_ref": "http://nlftp.mlit.go.jp/ksj/jpgis/datalist/KsjTmplt-N02-v1_1.html",
        "website": "https://www.sanrikutetsudou.com/?p=582",
        "wikidata": "Q11579393",
        "wikipedia": "ja:白井海岸駅"
      }
    },
    {
      "id": "iwate_station_263307225",
      "osmId": 263307225,
      "osmType": "node",
      "prefectureId": "iwate",
      "type": "station",
      "subtype": "private",
      "name": "佐羽根",
      "nameKana": "さばね",
      "nameEn": "Sabane",
      "operator": null,
      "network": null,
      "ref": null,
      "latitude": 39.711118,
      "longitude": 141.93588,
      "countryCode": "jp",
      "rawTags": {
        "KSJ2:LIN": "北リアス線",
        "KSJ2:STN": "佐羽根",
        "name": "佐羽根",
        "name:en": "Sabane",
        "name:ja": "佐羽根",
        "name:ja_kana": "さばね",
        "name:ja_rm": "Sabane",
        "name:ko": "사바네",
        "note": "National-Land Numerical Information (Railway) 2007, MLIT Japan",
        "note:ja": "国土数値情報（鉄道データ）平成19年　国土交通省",
        "public_transport": "station",
        "railway": "station",
        "source": "KSJ2",
        "source_ref": "http://nlftp.mlit.go.jp/ksj/jpgis/datalist/KsjTmplt-N02-v1_1.html",
        "website": "https://www.sanrikutetsudou.com/?p=598",
        "wikidata": "Q11383493",
        "wikipedia": "ja:佐羽根駅"
      }
    },
    {
      "id": "iwate_station_263307354",
      "osmId": 263307354,
      "osmType": "node",
      "prefectureId": "iwate",
      "type": "station",
      "subtype": "private",
      "name": "陸中宇部",
      "nameKana": "りくちゅううべ",
      "nameEn": "Rikuchuube",
      "operator": null,
      "network": null,
      "ref": null,
      "latitude": 40.1324765,
      "longitude": 141.7858819,
      "countryCode": "jp",
      "rawTags": {
        "KSJ2:LIN": "北リアス線",
        "KSJ2:STN": "陸中宇部",
        "name": "陸中宇部",
        "name:en": "Rikuchuube",
        "name:ja": "陸中宇部",
        "name:ja_kana": "りくちゅううべ",
        "name:ja_rm": "Rikuchūube",
        "name:ko": "리쿠초우베",
        "note": "National-Land Numerical Information (Railway) 2007, MLIT Japan",
        "note:ja": "国土数値情報（鉄道データ）平成19年　国土交通省",
        "public_transport": "station",
        "railway": "station",
        "source": "KSJ2",
        "source_ref": "http://nlftp.mlit.go.jp/ksj/jpgis/datalist/KsjTmplt-N02-v1_1.html",
        "website": "https://www.sanrikutetsudou.com/?p=570",
        "wikidata": "Q11658547",
        "wikipedia": "ja:陸中宇部駅"
      }
    },
    {
      "id": "iwate_station_263307451",
      "osmId": 263307451,
      "osmType": "node",
      "prefectureId": "iwate",
      "type": "station",
      "subtype": "private",
      "name": "十府ヶ浦海岸",
      "nameKana": "とふがうらかいがん",
      "nameEn": "Tofugaurakaigan",
      "operator": null,
      "network": null,
      "ref": null,
      "latitude": 40.0966886,
      "longitude": 141.8241876,
      "countryCode": "jp",
      "rawTags": {
        "KSJ2:LIN": "北リアス線",
        "KSJ2:STN": "十府ヶ浦海岸",
        "name": "十府ヶ浦海岸",
        "name:en": "Tofugaurakaigan",
        "name:ja": "十府ヶ浦海岸",
        "name:ja_kana": "とふがうらかいがん",
        "name:ja_rm": "Tofugaura Kaigan",
        "public_transport": "station",
        "railway": "station",
        "website": "https://www.sanrikutetsudou.com/?p=6756",
        "wikidata": "Q27668662",
        "wikipedia": "ja:十府ヶ浦海岸駅"
      }
    },
    {
      "id": "iwate_station_263307753",
      "osmId": 263307753,
      "osmType": "node",
      "prefectureId": "iwate",
      "type": "station",
      "subtype": "private",
      "name": "普代",
      "nameKana": "ふだい",
      "nameEn": "Fudai",
      "operator": null,
      "network": null,
      "ref": null,
      "latitude": 40.0027981,
      "longitude": 141.8862732,
      "countryCode": "jp",
      "rawTags": {
        "KSJ2:LIN": "北リアス線",
        "KSJ2:STN": "普代",
        "name": "普代",
        "name:en": "Fudai",
        "name:ja": "普代",
        "name:ja_kana": "ふだい",
        "name:ja_rm": "Fudai",
        "name:ko": "후다이",
        "note": "National-Land Numerical Information (Railway) 2007, MLIT Japan",
        "note:ja": "国土数値情報（鉄道データ）平成19年　国土交通省",
        "public_transport": "station",
        "railway": "station",
        "source": "KSJ2",
        "source_ref": "http://nlftp.mlit.go.jp/ksj/jpgis/datalist/KsjTmplt-N02-v1_1.html",
        "website": "https://www.sanrikutetsudou.com/?p=584",
        "wikidata": "Q5507049",
        "wikipedia": "ja:普代駅"
      }
    },
    {
      "id": "iwate_station_263308003",
      "osmId": 263308003,
      "osmType": "node",
      "prefectureId": "iwate",
      "type": "station",
      "subtype": "private",
      "name": "岩泉小本",
      "nameKana": "いわいずみおもと",
      "nameEn": "Iwaizumiomoto",
      "operator": null,
      "network": null,
      "ref": null,
      "latitude": 39.8425519,
      "longitude": 141.9584901,
      "countryCode": "jp",
      "rawTags": {
        "KSJ2:LIN": "北リアス線",
        "KSJ2:STN": "岩泉小本",
        "name": "岩泉小本",
        "name:en": "Iwaizumiomoto",
        "name:ja": "岩泉小本",
        "name:ja-Hira": "いわいずみおもと",
        "name:ja_rm": "Iwaizumiomoto",
        "name:ko": "이와이즈미오모토",
        "note": "National-Land Numerical Information (Railway) 2007, MLIT Japan",
        "note:ja": "国土数値情報（鉄道データ）平成19年　国土交通省",
        "public_transport": "station",
        "railway": "station",
        "source": "KSJ2",
        "source_ref": "http://nlftp.mlit.go.jp/ksj/jpgis/datalist/KsjTmplt-N02-v1_1.html",
        "website": "https://www.sanrikutetsudou.com/?p=591",
        "wikidata": "Q7090669",
        "wikipedia": "ja:岩泉小本駅"
      }
    },
    {
      "id": "iwate_station_263308639",
      "osmId": 263308639,
      "osmType": "node",
      "prefectureId": "iwate",
      "type": "station",
      "subtype": "private",
      "name": "田老",
      "nameKana": "たろう",
      "nameEn": "Tarou",
      "operator": null,
      "network": null,
      "ref": null,
      "latitude": 39.731517,
      "longitude": 141.964384,
      "countryCode": "jp",
      "rawTags": {
        "KSJ2:LIN": "北リアス線",
        "KSJ2:STN": "田老",
        "name": "田老",
        "name:en": "Tarou",
        "name:ja": "田老",
        "name:ja_kana": "たろう",
        "name:ko": "다로",
        "note": "National-Land Numerical Information (Railway) 2007, MLIT Japan",
        "note:ja": "国土数値情報（鉄道データ）平成19年　国土交通省",
        "public_transport": "station",
        "railway": "station",
        "source": "KSJ2",
        "source_ref": "http://nlftp.mlit.go.jp/ksj/jpgis/datalist/KsjTmplt-N02-v1_1.html",
        "website": "https://www.sanrikutetsudou.com/?p=596",
        "wikidata": "Q11577243",
        "wikipedia": "ja:田老駅"
      }
    },
    {
      "id": "iwate_station_263309450",
      "osmId": 263309450,
      "osmType": "node",
      "prefectureId": "iwate",
      "type": "station",
      "subtype": "private",
      "name": "堀内",
      "nameKana": "ほりない",
      "nameEn": "Horinai",
      "operator": null,
      "network": null,
      "ref": null,
      "latitude": 40.0517534,
      "longitude": 141.8594586,
      "countryCode": "jp",
      "rawTags": {
        "KSJ2:LIN": "北リアス線",
        "KSJ2:STN": "堀内",
        "name": "堀内",
        "name:en": "Horinai",
        "name:ja": "堀内",
        "name:ja_kana": "ほりない",
        "name:ja_rm": "Horinai",
        "name:ko": "호리나이",
        "note": "National-Land Numerical Information (Railway) 2007, MLIT Japan",
        "note:ja": "国土数値情報（鉄道データ）平成19年　国土交通省",
        "public_transport": "station",
        "railway": "station",
        "source": "KSJ2",
        "source_ref": "http://nlftp.mlit.go.jp/ksj/jpgis/datalist/KsjTmplt-N02-v1_1.html",
        "website": "https://www.sanrikutetsudou.com/?p=580",
        "wikidata": "Q11427309",
        "wikipedia": "ja:堀内駅"
      }
    },
    {
      "id": "iwate_station_263315557",
      "osmId": 263315557,
      "osmType": "node",
      "prefectureId": "iwate",
      "type": "station",
      "subtype": "private",
      "name": "野田玉川",
      "nameKana": null,
      "nameEn": "Nodatamagawa",
      "operator": null,
      "network": null,
      "ref": null,
      "latitude": 40.082598,
      "longitude": 141.8289195,
      "countryCode": "jp",
      "rawTags": {
        "KSJ2:LIN": "北リアス線",
        "KSJ2:STN": "野田玉川",
        "name": "野田玉川",
        "name:en": "Nodatamagawa",
        "name:ja": "野田玉川",
        "name:ja_rm": "Nodatamagawa",
        "name:ko": "노다타마가와",
        "note": "National-Land Numerical Information (Railway) 2007, MLIT Japan",
        "note:ja": "国土数値情報（鉄道データ）平成19年　国土交通省",
        "public_transport": "station",
        "railway": "station",
        "source": "KSJ2",
        "source_ref": "http://nlftp.mlit.go.jp/ksj/jpgis/datalist/KsjTmplt-N02-v1_1.html",
        "website": "https://www.sanrikutetsudou.com/?p=578",
        "wikidata": "Q11646031",
        "wikipedia": "ja:野田玉川駅"
      }
    },
    {
      "id": "iwate_station_263315613",
      "osmId": 263315613,
      "osmType": "node",
      "prefectureId": "iwate",
      "type": "station",
      "subtype": "private",
      "name": "田野畑",
      "nameKana": "たのはた",
      "nameEn": "Tanohata",
      "operator": null,
      "network": null,
      "ref": null,
      "latitude": 39.9339742,
      "longitude": 141.9340522,
      "countryCode": "jp",
      "rawTags": {
        "KSJ2:LIN": "北リアス線",
        "KSJ2:STN": "田野畑",
        "name": "田野畑",
        "name:en": "Tanohata",
        "name:ja": "田野畑",
        "name:ja_kana": "たのはた",
        "name:ja_rm": "Tanohata",
        "name:ko": "다노하타",
        "note": "National-Land Numerical Information (Railway) 2007, MLIT Japan",
        "note:ja": "国土数値情報（鉄道データ）平成19年　国土交通省",
        "public_transport": "station",
        "railway": "station",
        "source": "KSJ2",
        "source_ref": "http://nlftp.mlit.go.jp/ksj/jpgis/datalist/KsjTmplt-N02-v1_1.html",
        "website": "https://www.sanrikutetsudou.com/?p=586",
        "wikidata": "Q11577488",
        "wikipedia": "ja:田野畑駅"
      }
    },
    {
      "id": "iwate_station_264167727",
      "osmId": 264167727,
      "osmType": "node",
      "prefectureId": "iwate",
      "type": "station",
      "subtype": "private",
      "name": "三陸",
      "nameKana": "さんりく",
      "nameEn": "Sanriku",
      "operator": null,
      "network": null,
      "ref": null,
      "latitude": 39.1172003,
      "longitude": 141.8099869,
      "countryCode": "jp",
      "rawTags": {
        "KSJ2:LIN": "南リアス線",
        "name": "三陸",
        "name:en": "Sanriku",
        "name:ja": "三陸",
        "name:ja_kana": "さんりく",
        "name:ja_rm": "Sanriku",
        "name:ko": "산리쿠",
        "note": "National-Land Numerical Information (Railway) 2007, MLIT Japan",
        "note:ja": "国土数値情報（鉄道データ）平成19年　国土交通省",
        "public_transport": "station",
        "railway": "station",
        "source": "KSJ2",
        "source_ref": "http://nlftp.mlit.go.jp/ksj/jpgis/datalist/KsjTmplt-N02-v1_1.html",
        "website": "https://www.sanrikutetsudou.com/?p=628",
        "wikidata": "Q11358278",
        "wikipedia": "ja:三陸駅"
      }
    },
    {
      "id": "iwate_station_264167729",
      "osmId": 264167729,
      "osmType": "node",
      "prefectureId": "iwate",
      "type": "station",
      "subtype": "private",
      "name": "陸前赤崎",
      "nameKana": "りくぜんあかさき",
      "nameEn": "Rikuzen-Akasaki",
      "operator": "三陸鉄道",
      "network": null,
      "ref": null,
      "latitude": 39.0682084,
      "longitude": 141.7421022,
      "countryCode": "jp",
      "rawTags": {
        "KSJ2:LIN": "南リアス線",
        "name": "陸前赤崎",
        "name:en": "Rikuzen-Akasaki",
        "name:ja": "陸前赤崎",
        "name:ja_kana": "りくぜんあかさき",
        "name:ja_rm": "Rikuzen-Akasaki",
        "name:ko": "리쿠젠아카사키",
        "note": "National-Land Numerical Information (Railway) 2007, MLIT Japan",
        "note:ja": "国土数値情報（鉄道データ）平成19年　国土交通省",
        "operator": "三陸鉄道",
        "operator:ja": "三陸鉄道",
        "public_transport": "station",
        "railway": "station",
        "source": "KSJ2",
        "source_ref": "http://nlftp.mlit.go.jp/ksj/jpgis/datalist/KsjTmplt-N02-v1_1.html",
        "website": "https://www.sanrikutetsudou.com/?p=636",
        "wikidata": "Q11658561",
        "wikipedia": "ja:陸前赤崎駅"
      }
    },
    {
      "id": "iwate_station_264167730",
      "osmId": 264167730,
      "osmType": "node",
      "prefectureId": "iwate",
      "type": "station",
      "subtype": "private",
      "name": "甫嶺",
      "nameKana": "ほれい",
      "nameEn": "Horei",
      "operator": "三陸鉄道",
      "network": null,
      "ref": null,
      "latitude": 39.093452,
      "longitude": 141.8065792,
      "countryCode": "jp",
      "rawTags": {
        "KSJ2:LIN": "南リアス線",
        "name": "甫嶺",
        "name:en": "Horei",
        "name:ja": "甫嶺",
        "name:ja_kana": "ほれい",
        "name:ja_rm": "Horei",
        "name:ko": "호레이",
        "note": "National-Land Numerical Information (Railway) 2007, MLIT Japan",
        "note:ja": "国土数値情報（鉄道データ）平成19年　国土交通省",
        "operator": "三陸鉄道",
        "operator:ja": "三陸鉄道",
        "public_transport": "station",
        "railway": "station",
        "source": "KSJ2",
        "source_ref": "http://nlftp.mlit.go.jp/ksj/jpgis/datalist/KsjTmplt-N02-v1_1.html",
        "website": "https://www.sanrikutetsudou.com/?p=630",
        "wikidata": "Q11575103",
        "wikipedia": "ja:甫嶺駅"
      }
    },
    {
      "id": "iwate_station_264167812",
      "osmId": 264167812,
      "osmType": "node",
      "prefectureId": "iwate",
      "type": "station",
      "subtype": "private",
      "name": "吉浜",
      "nameKana": "よしはま",
      "nameEn": "Yoshihama",
      "operator": "三陸鉄道",
      "network": null,
      "ref": null,
      "latitude": 39.1510917,
      "longitude": 141.8360118,
      "countryCode": "jp",
      "rawTags": {
        "KSJ2:LIN": "南リアス線",
        "name": "吉浜",
        "name:en": "Yoshihama",
        "name:ja": "吉浜",
        "name:ja_kana": "よしはま",
        "name:ja_rm": "Yoshihama",
        "name:ko": "요시하마",
        "note": "National-Land Numerical Information (Railway) 2007, MLIT Japan",
        "note:ja": "国土数値情報（鉄道データ）平成19年　国土交通省",
        "operator": "三陸鉄道",
        "operator:ja": "三陸鉄道",
        "public_transport": "station",
        "railway": "station",
        "source": "KSJ2",
        "source_ref": "http://nlftp.mlit.go.jp/ksj/jpgis/datalist/KsjTmplt-N02-v1_1.html",
        "website": "https://www.sanrikutetsudou.com/?p=626",
        "wikidata": "Q11413470",
        "wikipedia": "ja:吉浜駅 (岩手県)"
      }
    },
    {
      "id": "iwate_station_264167813",
      "osmId": 264167813,
      "osmType": "node",
      "prefectureId": "iwate",
      "type": "station",
      "subtype": "private",
      "name": "恋し浜",
      "nameKana": "こいしはま",
      "nameEn": "Koishihama",
      "operator": "三陸鉄道",
      "network": null,
      "ref": null,
      "latitude": 39.0744002,
      "longitude": 141.8163943,
      "countryCode": "jp",
      "rawTags": {
        "KSJ2:LIN": "南リアス線",
        "name": "恋し浜",
        "name:en": "Koishihama",
        "name:ja": "恋し浜",
        "name:ja-Hira": "こいしはま",
        "name:ja_rm": "Koishihama",
        "name:ko": "고이시하마",
        "note": "National-Land Numerical Information (Railway) 2007, MLIT Japan",
        "note:ja": "国土数値情報（鉄道データ）平成19年　国土交通省",
        "operator": "三陸鉄道",
        "operator:ja": "三陸鉄道",
        "public_transport": "station",
        "railway": "station",
        "source": "KSJ2",
        "source_ref": "http://nlftp.mlit.go.jp/ksj/jpgis/datalist/KsjTmplt-N02-v1_1.html",
        "website": "https://www.sanrikutetsudou.com/?p=12012",
        "wikidata": "Q11491746",
        "wikipedia": "ja:恋し浜駅"
      }
    },
    {
      "id": "iwate_station_264167895",
      "osmId": 264167895,
      "osmType": "node",
      "prefectureId": "iwate",
      "type": "station",
      "subtype": "private",
      "name": "平田",
      "nameKana": "へいた",
      "nameEn": "Heita",
      "operator": "三陸鉄道",
      "network": null,
      "ref": null,
      "latitude": 39.2460523,
      "longitude": 141.8860497,
      "countryCode": "jp",
      "rawTags": {
        "KSJ2:LIN": "南リアス線",
        "name": "平田",
        "name:en": "Heita",
        "name:ja": "平田",
        "name:ja_kana": "へいた",
        "name:ja_rm": "Heita",
        "name:ko": "헤이타",
        "note": "National-Land Numerical Information (Railway) 2007, MLIT Japan",
        "note:ja": "国土数値情報（鉄道データ）平成19年　国土交通省",
        "operator": "三陸鉄道",
        "operator:ja": "三陸鉄道",
        "public_transport": "station",
        "railway": "station",
        "source": "KSJ2",
        "source_ref": "http://nlftp.mlit.go.jp/ksj/jpgis/datalist/KsjTmplt-N02-v1_1.html",
        "website": "https://www.sanrikutetsudou.com/?p=622",
        "wikidata": "Q11483408",
        "wikipedia": "ja:平田駅 (岩手県)"
      }
    },
    {
      "id": "iwate_station_264167942",
      "osmId": 264167942,
      "osmType": "node",
      "prefectureId": "iwate",
      "type": "station",
      "subtype": "private",
      "name": "綾里",
      "nameKana": "りょうり",
      "nameEn": "Ryori",
      "operator": "三陸鉄道",
      "network": null,
      "ref": null,
      "latitude": 39.0542007,
      "longitude": 141.7989788,
      "countryCode": "jp",
      "rawTags": {
        "KSJ2:LIN": "南リアス線",
        "name": "綾里",
        "name:en": "Ryori",
        "name:ja": "綾里",
        "name:ja_kana": "りょうり",
        "name:ja_rm": "Ryōri",
        "name:ko": "료리",
        "note": "National-Land Numerical Information (Railway) 2007, MLIT Japan",
        "note:ja": "国土数値情報（鉄道データ）平成19年　国土交通省",
        "operator": "三陸鉄道",
        "operator:ja": "三陸鉄道",
        "public_transport": "station",
        "railway": "station",
        "source": "KSJ2",
        "source_ref": "http://nlftp.mlit.go.jp/ksj/jpgis/datalist/KsjTmplt-N02-v1_1.html",
        "website": "https://www.sanrikutetsudou.com/?p=634",
        "wikidata": "Q11607405",
        "wikipedia": "ja:綾里駅"
      }
    },
    {
      "id": "iwate_station_264170285",
      "osmId": 264170285,
      "osmType": "node",
      "prefectureId": "iwate",
      "type": "station",
      "subtype": "private",
      "name": "山ノ目",
      "nameKana": "やまのめ",
      "nameEn": "Yamanome",
      "operator": null,
      "network": null,
      "ref": null,
      "latitude": 38.9513097,
      "longitude": 141.1317803,
      "countryCode": "jp",
      "rawTags": {
        "name": "山ノ目",
        "name:en": "Yamanome",
        "name:ja-Hira": "やまのめ",
        "name:ja-Latn": "Yamanome",
        "name:ru": "Яманоме",
        "public_transport": "station",
        "railway": "station",
        "source": "KSJ2",
        "train": "yes",
        "wikidata": "Q899658",
        "wikipedia": "ja:山ノ目駅"
      }
    },
    {
      "id": "iwate_station_264170614",
      "osmId": 264170614,
      "osmType": "node",
      "prefectureId": "iwate",
      "type": "station",
      "subtype": "private",
      "name": "平泉",
      "nameKana": "ひらいずみ",
      "nameEn": "Hiraizumi",
      "operator": null,
      "network": null,
      "ref": null,
      "latitude": 38.9880865,
      "longitude": 141.1176428,
      "countryCode": "jp",
      "rawTags": {
        "name": "平泉",
        "name:en": "Hiraizumi",
        "name:ja-Hira": "ひらいずみ",
        "name:ja-Latn": "Hiraizumi",
        "name:ru": "Хираидзуми",
        "public_transport": "station",
        "railway": "station",
        "source": "KSJ2",
        "source_ref": "http://nlftp.mlit.go.jp/ksj/jpgis/datalist/KsjTmplt-N02-v1_1.html",
        "train": "yes",
        "wheelchair": "yes",
        "wheelchair:description": "ホームにエレベーターあり 多機能トイレあり",
        "wikidata": "Q899369",
        "wikipedia": "ja:平泉駅"
      }
    },
    {
      "id": "iwate_station_264171726",
      "osmId": 264171726,
      "osmType": "node",
      "prefectureId": "iwate",
      "type": "station",
      "subtype": "private",
      "name": "清水原",
      "nameKana": "しみずはら",
      "nameEn": "Shimizuhara",
      "operator": null,
      "network": null,
      "ref": null,
      "latitude": 38.8547504,
      "longitude": 141.1568388,
      "countryCode": "jp",
      "rawTags": {
        "name": "清水原",
        "name:en": "Shimizuhara",
        "name:ja-Hira": "しみずはら",
        "name:ja-Latn": "Shimizuhara",
        "name:ru": "Симидзухара",
        "public_transport": "station",
        "railway": "station",
        "source": "KSJ2",
        "train": "yes",
        "wikidata": "Q899250",
        "wikipedia": "ja:清水原駅"
      }
    },
    {
      "id": "iwate_station_264172570",
      "osmId": 264172570,
      "osmType": "node",
      "prefectureId": "iwate",
      "type": "station",
      "subtype": "private",
      "name": "陸中折居",
      "nameKana": "りくちゅうおりい",
      "nameEn": "Rikuchu-Orii",
      "operator": null,
      "network": null,
      "ref": null,
      "latitude": 39.0941607,
      "longitude": 141.1408269,
      "countryCode": "jp",
      "rawTags": {
        "name": "陸中折居",
        "name:en": "Rikuchu-Orii",
        "name:ja-Hira": "りくちゅうおりい",
        "name:ja-Latn": "Rikuchūorii",
        "name:ru": "Рикутю-Ории",
        "public_transport": "station",
        "railway": "station",
        "source": "KSJ2",
        "train": "yes",
        "wikidata": "Q899478",
        "wikipedia": "ja:陸中折居駅"
      }
    },
    {
      "id": "iwate_station_264173247",
      "osmId": 264173247,
      "osmType": "node",
      "prefectureId": "iwate",
      "type": "station",
      "subtype": "private",
      "name": "前沢",
      "nameKana": "まえさわ",
      "nameEn": "Maesawa",
      "operator": null,
      "network": null,
      "ref": null,
      "latitude": 39.0484618,
      "longitude": 141.1263144,
      "countryCode": "jp",
      "rawTags": {
        "name": "前沢",
        "name:en": "Maesawa",
        "name:ja-Hira": "まえさわ",
        "name:ja-Latn": "Maesawa",
        "name:ru": "Маэсава",
        "public_transport": "station",
        "railway": "station",
        "source": "KSJ2",
        "train": "yes",
        "wikidata": "Q899648",
        "wikipedia": "ja:前沢駅"
      }
    },
    {
      "id": "iwate_station_264224311",
      "osmId": 264224311,
      "osmType": "node",
      "prefectureId": "iwate",
      "type": "station",
      "subtype": "private",
      "name": "角の浜",
      "nameKana": null,
      "nameEn": "Kadonohama",
      "operator": null,
      "network": null,
      "ref": null,
      "latitude": 40.444143,
      "longitude": 141.682057,
      "countryCode": "jp",
      "rawTags": {
        "KSJ2:LIN": "八戸線",
        "KSJ2:STN": "角の浜",
        "name": "角の浜",
        "name:en": "Kadonohama",
        "name:ja": "角の浜",
        "name:ja_rm": "Kadonohama",
        "name:ko": "가도노하마",
        "note": "National-Land Numerical Information (Railway) 2007, MLIT Japan",
        "note:ja": "国土数値情報（鉄道データ）平成19年　国土交通省",
        "public_transport": "station",
        "railway": "station",
        "source": "KSJ2",
        "source_ref": "http://nlftp.mlit.go.jp/ksj/jpgis/datalist/KsjTmplt-N02-v1_1.html",
        "wikidata": "Q6543295",
        "wikipedia": "ja:角の浜駅"
      }
    },
    {
      "id": "iwate_station_264225102",
      "osmId": 264225102,
      "osmType": "node",
      "prefectureId": "iwate",
      "type": "station",
      "subtype": "private",
      "name": "陸中中野",
      "nameKana": null,
      "nameEn": "Rikuchu-Nakano",
      "operator": null,
      "network": null,
      "ref": null,
      "latitude": 40.304668,
      "longitude": 141.78789,
      "countryCode": "jp",
      "rawTags": {
        "KSJ2:LIN": "八戸線",
        "KSJ2:STN": "陸中中野",
        "name": "陸中中野",
        "name:en": "Rikuchu-Nakano",
        "name:ja": "陸中中野",
        "name:ja_rm": "Rikuchū-Nakano",
        "name:ko": "리쿠추나카노",
        "note": "National-Land Numerical Information (Railway) 2007, MLIT Japan",
        "note:ja": "国土数値情報（鉄道データ）平成19年　国土交通省",
        "public_transport": "station",
        "railway": "station",
        "source": "KSJ2",
        "source_ref": "http://nlftp.mlit.go.jp/ksj/jpgis/datalist/KsjTmplt-N02-v1_1.html",
        "wikidata": "Q6543365",
        "wikipedia": "ja:陸中中野駅"
      }
    },
    {
      "id": "iwate_station_264225108",
      "osmId": 264225108,
      "osmType": "node",
      "prefectureId": "iwate",
      "type": "station",
      "subtype": "private",
      "name": "種市",
      "nameKana": null,
      "nameEn": "Taneichi",
      "operator": null,
      "network": null,
      "ref": null,
      "latitude": 40.4111121,
      "longitude": 141.7150656,
      "countryCode": "jp",
      "rawTags": {
        "KSJ2:LIN": "八戸線",
        "KSJ2:STN": "種市",
        "name": "種市",
        "name:en": "Taneichi",
        "name:ja": "種市",
        "name:ja_rm": "Taneichi",
        "name:ko": "다네이치",
        "note": "National-Land Numerical Information (Railway) 2007, MLIT Japan",
        "note:ja": "国土数値情報（鉄道データ）平成19年　国土交通省",
        "public_transport": "station",
        "railway": "station",
        "source": "KSJ2",
        "source_ref": "http://nlftp.mlit.go.jp/ksj/jpgis/datalist/KsjTmplt-N02-v1_1.html",
        "wikidata": "Q6543151",
        "wikipedia": "ja:種市駅"
      }
    },
    {
      "id": "iwate_station_264225149",
      "osmId": 264225149,
      "osmType": "node",
      "prefectureId": "iwate",
      "type": "station",
      "subtype": "private",
      "name": "平内",
      "nameKana": null,
      "nameEn": "Hiranai",
      "operator": null,
      "network": null,
      "ref": null,
      "latitude": 40.4252835,
      "longitude": 141.6995578,
      "countryCode": "jp",
      "rawTags": {
        "KSJ2:LIN": "八戸線",
        "KSJ2:STN": "平内",
        "name": "平内",
        "name:en": "Hiranai",
        "name:ja": "平内",
        "name:ja_rm": "Hiranai",
        "name:ko": "히라나이",
        "note": "National-Land Numerical Information (Railway) 2007, MLIT Japan",
        "note:ja": "国土数値情報（鉄道データ）平成19年　国土交通省",
        "public_transport": "station",
        "railway": "station",
        "source": "KSJ2",
        "source_ref": "http://nlftp.mlit.go.jp/ksj/jpgis/datalist/KsjTmplt-N02-v1_1.html",
        "wikidata": "Q5769402",
        "wikipedia": "ja:平内駅"
      }
    },
    {
      "id": "iwate_station_264225578",
      "osmId": 264225578,
      "osmType": "node",
      "prefectureId": "iwate",
      "type": "station",
      "subtype": "private",
      "name": "玉川",
      "nameKana": "たまがわ",
      "nameEn": "Tamagawa",
      "operator": null,
      "network": null,
      "ref": null,
      "latitude": 40.3807319,
      "longitude": 141.7348277,
      "countryCode": "jp",
      "rawTags": {
        "KSJ2:LIN": "八戸線",
        "KSJ2:STN": "玉川",
        "name": "玉川",
        "name:en": "Tamagawa",
        "name:ja": "玉川",
        "name:ja-Hira": "たまがわ",
        "name:ja_rm": "Tamagawa",
        "name:ko": "다마가와",
        "note": "National-Land Numerical Information (Railway) 2007, MLIT Japan",
        "note:ja": "国土数値情報（鉄道データ）平成19年　国土交通省",
        "public_transport": "station",
        "railway": "station",
        "source": "KSJ2",
        "source_ref": "http://nlftp.mlit.go.jp/ksj/jpgis/datalist/KsjTmplt-N02-v1_1.html",
        "wikidata": "Q6543322",
        "wikipedia": "ja:玉川駅 (岩手県)"
      }
    },
    {
      "id": "iwate_station_264225852",
      "osmId": 264225852,
      "osmType": "node",
      "prefectureId": "iwate",
      "type": "station",
      "subtype": "private",
      "name": "有家",
      "nameKana": null,
      "nameEn": "Uge",
      "operator": null,
      "network": null,
      "ref": null,
      "latitude": 40.3238582,
      "longitude": 141.7729792,
      "countryCode": "jp",
      "rawTags": {
        "KSJ2:LIN": "八戸線",
        "KSJ2:STN": "有家",
        "name": "有家",
        "name:en": "Uge",
        "name:ja": "有家",
        "name:ja_rm": "Uge",
        "name:ko": "우게",
        "note": "National-Land Numerical Information (Railway) 2007, MLIT Japan",
        "note:ja": "国土数値情報（鉄道データ）平成19年　国土交通省",
        "public_transport": "station",
        "railway": "station",
        "source": "KSJ2",
        "source_ref": "http://nlftp.mlit.go.jp/ksj/jpgis/datalist/KsjTmplt-N02-v1_1.html",
        "wikidata": "Q6543308",
        "wikipedia": "ja:有家駅 (岩手県)"
      }
    },
    {
      "id": "iwate_station_264225996",
      "osmId": 264225996,
      "osmType": "node",
      "prefectureId": "iwate",
      "type": "station",
      "subtype": "private",
      "name": "宿戸",
      "nameKana": null,
      "nameEn": "Shukunohe",
      "operator": null,
      "network": null,
      "ref": null,
      "latitude": 40.3659898,
      "longitude": 141.7469664,
      "countryCode": "jp",
      "rawTags": {
        "KSJ2:LIN": "八戸線",
        "KSJ2:STN": "宿戸",
        "name": "宿戸",
        "name:en": "Shukunohe",
        "name:ja": "宿戸",
        "name:ja_rm": "Shukunohe",
        "name:ko": "슈쿠노헤",
        "note": "National-Land Numerical Information (Railway) 2007, MLIT Japan",
        "note:ja": "国土数値情報（鉄道データ）平成19年　国土交通省",
        "public_transport": "station",
        "railway": "station",
        "source": "KSJ2",
        "source_ref": "http://nlftp.mlit.go.jp/ksj/jpgis/datalist/KsjTmplt-N02-v1_1.html",
        "wikidata": "Q6543349",
        "wikipedia": "ja:宿戸駅"
      }
    },
    {
      "id": "iwate_station_264226040",
      "osmId": 264226040,
      "osmType": "node",
      "prefectureId": "iwate",
      "type": "station",
      "subtype": "private",
      "name": "侍浜",
      "nameKana": null,
      "nameEn": "Samuraihama",
      "operator": null,
      "network": null,
      "ref": null,
      "latitude": 40.2614344,
      "longitude": 141.7606305,
      "countryCode": "jp",
      "rawTags": {
        "KSJ2:LIN": "八戸線",
        "KSJ2:STN": "侍浜",
        "name": "侍浜",
        "name:en": "Samuraihama",
        "name:ja": "侍浜",
        "name:ja_rm": "Samuraihama",
        "name:ko": "사무라이하마",
        "note": "National-Land Numerical Information (Railway) 2007, MLIT Japan",
        "note:ja": "国土数値情報（鉄道データ）平成19年　国土交通省",
        "public_transport": "station",
        "railway": "station",
        "source": "KSJ2",
        "source_ref": "http://nlftp.mlit.go.jp/ksj/jpgis/datalist/KsjTmplt-N02-v1_1.html",
        "wikidata": "Q6543142",
        "wikipedia": "ja:侍浜駅"
      }
    },
    {
      "id": "iwate_station_264226044",
      "osmId": 264226044,
      "osmType": "node",
      "prefectureId": "iwate",
      "type": "station",
      "subtype": "private",
      "name": "陸中八木",
      "nameKana": null,
      "nameEn": "Rikuchu-Yagi",
      "operator": null,
      "network": null,
      "ref": null,
      "latitude": 40.3454421,
      "longitude": 141.7665421,
      "countryCode": "jp",
      "rawTags": {
        "KSJ2:LIN": "八戸線",
        "KSJ2:STN": "陸中八木",
        "name": "陸中八木",
        "name:en": "Rikuchu-Yagi",
        "name:ja": "陸中八木",
        "name:ja_rm": "Rikuchū-Yagi",
        "name:ko": "리쿠추야기",
        "note": "National-Land Numerical Information (Railway) 2007, MLIT Japan",
        "note:ja": "国土数値情報（鉄道データ）平成19年　国土交通省",
        "public_transport": "station",
        "railway": "station",
        "source": "KSJ2",
        "source_ref": "http://nlftp.mlit.go.jp/ksj/jpgis/datalist/KsjTmplt-N02-v1_1.html",
        "wikidata": "Q6543180",
        "wikipedia": "ja:陸中八木駅"
      }
    },
    {
      "id": "iwate_station_264226191",
      "osmId": 264226191,
      "osmType": "node",
      "prefectureId": "iwate",
      "type": "station",
      "subtype": "private",
      "name": "久慈",
      "nameKana": "くじ",
      "nameEn": "Kuji",
      "operator": null,
      "network": null,
      "ref": null,
      "latitude": 40.1902903,
      "longitude": 141.7708835,
      "countryCode": "jp",
      "rawTags": {
        "KSJ2:LIN": "八戸線;北リアス線",
        "KSJ2:STN": "久慈",
        "name": "久慈",
        "name:en": "Kuji",
        "name:ja": "久慈",
        "name:ja_kana": "くじ",
        "name:ja_rm": "Kuji",
        "name:ko": "구지",
        "note": "National-Land Numerical Information (Railway) 2007, MLIT Japan",
        "note:ja": "国土数値情報（鉄道データ）平成19年　国土交通省",
        "public_transport": "station",
        "railway": "station",
        "source": "KSJ2",
        "source_ref": "http://nlftp.mlit.go.jp/ksj/jpgis/datalist/KsjTmplt-N02-v1_1.html",
        "website": "https://www.sanrikutetsudou.com/?p=563",
        "wheelchair": "no",
        "wheelchair:description": "JR八戸線はスロープがありますが、リアス線は階段のみです。",
        "wikidata": "Q6442347",
        "wikipedia": "ja:久慈駅"
      }
    },
    {
      "id": "iwate_station_264226400",
      "osmId": 264226400,
      "osmType": "node",
      "prefectureId": "iwate",
      "type": "station",
      "subtype": "private",
      "name": "陸中夏井",
      "nameKana": null,
      "nameEn": "Rikuchu-Natsui",
      "operator": null,
      "network": null,
      "ref": null,
      "latitude": 40.2074065,
      "longitude": 141.7922251,
      "countryCode": "jp",
      "rawTags": {
        "KSJ2:LIN": "八戸線",
        "KSJ2:STN": "陸中夏井",
        "name": "陸中夏井",
        "name:en": "Rikuchu-Natsui",
        "name:ja": "陸中夏井",
        "name:ja_rm": "Rikuchū-Natsui",
        "name:ko": "리쿠추나쓰이",
        "note": "National-Land Numerical Information (Railway) 2007, MLIT Japan",
        "note:ja": "国土数値情報（鉄道データ）平成19年　国土交通省",
        "public_transport": "station",
        "railway": "station",
        "source": "KSJ2",
        "source_ref": "http://nlftp.mlit.go.jp/ksj/jpgis/datalist/KsjTmplt-N02-v1_1.html",
        "wikidata": "Q6543167",
        "wikipedia": "ja:陸中夏井駅"
      }
    },
    {
      "id": "iwate_station_264227583",
      "osmId": 264227583,
      "osmType": "node",
      "prefectureId": "iwate",
      "type": "station",
      "subtype": "private",
      "name": "平館",
      "nameKana": "たいらだて",
      "nameEn": "Tairadate",
      "operator": null,
      "network": null,
      "ref": null,
      "latitude": 39.950774,
      "longitude": 141.0855698,
      "countryCode": "jp",
      "rawTags": {
        "name": "平館",
        "name:en": "Tairadate",
        "name:ja-Hira": "たいらだて",
        "name:ja-Latn": "Tairadate",
        "public_transport": "station",
        "railway": "station",
        "source": "KSJ2",
        "train": "yes",
        "wikidata": "Q7676369",
        "wikipedia": "ja:平館駅"
      }
    },
    {
      "id": "iwate_station_264227768",
      "osmId": 264227768,
      "osmType": "node",
      "prefectureId": "iwate",
      "type": "station",
      "subtype": "private",
      "name": "赤坂田",
      "nameKana": "あかさかた",
      "nameEn": "Akasakata",
      "operator": null,
      "network": null,
      "ref": null,
      "latitude": 40.048762,
      "longitude": 141.004289,
      "countryCode": "jp",
      "rawTags": {
        "name": "赤坂田",
        "name:en": "Akasakata",
        "name:ja-Hira": "あかさかた",
        "name:ja-Latn": "Akasakata",
        "public_transport": "station",
        "railway": "station",
        "source": "KSJ2",
        "train": "yes",
        "wikidata": "Q4700320",
        "wikipedia": "ja:赤坂田駅"
      }
    },
    {
      "id": "iwate_station_264227824",
      "osmId": 264227824,
      "osmType": "node",
      "prefectureId": "iwate",
      "type": "station",
      "subtype": "private",
      "name": "小屋の畑",
      "nameKana": "こやのはた",
      "nameEn": "Koyanohata",
      "operator": null,
      "network": null,
      "ref": null,
      "latitude": 40.0766715,
      "longitude": 141.02066,
      "countryCode": "jp",
      "rawTags": {
        "name": "小屋の畑",
        "name:en": "Koyanohata",
        "name:ja-Hira": "こやのはた",
        "name:ja-Latn": "Koyanohata",
        "public_transport": "station",
        "railway": "station",
        "source": "KSJ2",
        "train": "yes",
        "wikidata": "Q6435143",
        "wikipedia": "ja:小屋の畑駅"
      }
    },
    {
      "id": "iwate_station_264228020",
      "osmId": 264228020,
      "osmType": "node",
      "prefectureId": "iwate",
      "type": "station",
      "subtype": "private",
      "name": "荒屋新町",
      "nameKana": "あらやしんまち",
      "nameEn": "Araya-Shinmachi",
      "operator": null,
      "network": null,
      "ref": null,
      "latitude": 40.0973548,
      "longitude": 141.0491912,
      "countryCode": "jp",
      "rawTags": {
        "name": "荒屋新町",
        "name:en": "Araya-Shinmachi",
        "name:ja-Hira": "あらやしんまち",
        "name:ja-Latn": "Arayashinmachi",
        "public_transport": "station",
        "railway": "station",
        "source": "KSJ2",
        "train": "yes",
        "wikidata": "Q4784558",
        "wikipedia": "ja:荒屋新町駅"
      }
    },
    {
      "id": "iwate_station_264228915",
      "osmId": 264228915,
      "osmType": "node",
      "prefectureId": "iwate",
      "type": "station",
      "subtype": "private",
      "name": "田山",
      "nameKana": "たやま",
      "nameEn": "Tayama",
      "operator": null,
      "network": null,
      "ref": null,
      "latitude": 40.1396379,
      "longitude": 140.9442521,
      "countryCode": "jp",
      "rawTags": {
        "name": "田山",
        "name:en": "Tayama",
        "name:ja-Hira": "たやま",
        "name:ja-Latn": "Tayama",
        "public_transport": "station",
        "railway": "station",
        "source": "KSJ2",
        "train": "yes",
        "wikidata": "Q7689750",
        "wikipedia": "ja:田山駅"
      }
    },
    {
      "id": "iwate_station_264230256",
      "osmId": 264230256,
      "osmType": "node",
      "prefectureId": "iwate",
      "type": "station",
      "subtype": "private",
      "name": "横間",
      "nameKana": "よこま",
      "nameEn": "Yokoma",
      "operator": null,
      "network": null,
      "ref": null,
      "latitude": 40.1074805,
      "longitude": 141.0275678,
      "countryCode": "jp",
      "rawTags": {
        "name": "横間",
        "name:en": "Yokoma",
        "name:ja-Hira": "よこま",
        "name:ja-Latn": "Yokoma",
        "public_transport": "station",
        "railway": "station",
        "source": "KSJ2",
        "train": "yes",
        "wikidata": "Q8054663",
        "wikipedia": "ja:横間駅"
      }
    },
    {
      "id": "iwate_station_264230264",
      "osmId": 264230264,
      "osmType": "node",
      "prefectureId": "iwate",
      "type": "station",
      "subtype": "private",
      "name": "兄畑",
      "nameKana": "あにはた",
      "nameEn": "Anihata",
      "operator": null,
      "network": null,
      "ref": null,
      "latitude": 40.1162368,
      "longitude": 140.8822362,
      "countryCode": "jp",
      "rawTags": {
        "name": "兄畑",
        "name:en": "Anihata",
        "name:ja-Hira": "あにはた",
        "name:ja-Latn": "Anihata",
        "public_transport": "station",
        "railway": "station",
        "source": "KSJ2",
        "train": "yes",
        "wikidata": "Q4764591",
        "wikipedia": "ja:兄畑駅"
      }
    },
    {
      "id": "iwate_station_264231287",
      "osmId": 264231287,
      "osmType": "node",
      "prefectureId": "iwate",
      "type": "station",
      "subtype": "private",
      "name": "春木場",
      "nameKana": null,
      "nameEn": "Harukiba",
      "operator": null,
      "network": null,
      "ref": null,
      "latitude": 39.6934072,
      "longitude": 140.9439562,
      "countryCode": "jp",
      "rawTags": {
        "KSJ2:LIN": "田沢湖線",
        "KSJ2:STN": "春木場",
        "name": "春木場",
        "name:en": "Harukiba",
        "name:ja": "春木場",
        "name:ja_rm": "Harukiba",
        "name:ko": "하루키바",
        "note": "National-Land Numerical Information (Railway) 2007, MLIT Japan",
        "note:ja": "国土数値情報（鉄道データ）平成19年　国土交通省",
        "public_transport": "station",
        "railway": "station",
        "source": "KSJ2",
        "source_ref": "http://nlftp.mlit.go.jp/ksj/jpgis/datalist/KsjTmplt-N02-v1_1.html",
        "wikidata": "Q5675737",
        "wikipedia": "ja:春木場駅"
      }
    },
    {
      "id": "iwate_station_264231502",
      "osmId": 264231502,
      "osmType": "node",
      "prefectureId": "iwate",
      "type": "station",
      "subtype": "private",
      "name": "宮古",
      "nameKana": "みやこ",
      "nameEn": "Miyako",
      "operator": null,
      "network": null,
      "ref": null,
      "latitude": 39.6398721,
      "longitude": 141.9475248,
      "countryCode": "jp",
      "rawTags": {
        "KSJ2:LIN": "北リアス線;山田線",
        "KSJ2:STN": "宮古",
        "name": "宮古",
        "name:en": "Miyako",
        "name:ja": "宮古",
        "name:ja_kana": "みやこ",
        "name:ja_rm": "Miyako",
        "name:ko": "미야코",
        "note": "National-Land Numerical Information (Railway) 2007, MLIT Japan",
        "note:ja": "国土数値情報（鉄道データ）平成19年　国土交通省",
        "public_transport": "station",
        "railway": "station",
        "source": "KSJ2",
        "source_ref": "http://nlftp.mlit.go.jp/ksj/jpgis/datalist/KsjTmplt-N02-v1_1.html",
        "website": "https://www.sanrikutetsudou.com/?p=607",
        "wikidata": "Q6884271",
        "wikipedia": "ja:宮古駅"
      }
    },
    {
      "id": "iwate_station_264231542",
      "osmId": 264231542,
      "osmType": "node",
      "prefectureId": "iwate",
      "type": "station",
      "subtype": "private",
      "name": "山岸",
      "nameKana": null,
      "nameEn": "Yamagishi",
      "operator": null,
      "network": null,
      "ref": null,
      "latitude": 39.7160339,
      "longitude": 141.1713191,
      "countryCode": "jp",
      "rawTags": {
        "KSJ2:LIN": "山田線",
        "KSJ2:STN": "山岸",
        "name": "山岸",
        "name:en": "Yamagishi",
        "name:ja": "山岸",
        "name:ja_rm": "Yamagishi",
        "name:ko": "야마기시",
        "note": "National-Land Numerical Information (Railway) 2007, MLIT Japan",
        "note:ja": "国土数値情報（鉄道データ）平成19年 国土交通省",
        "public_transport": "station",
        "railway": "station",
        "source": "KSJ2",
        "source_ref": "http://nlftp.mlit.go.jp/ksj/jpgis/datalist/KsjTmplt-N02-v1_1.html",
        "wikidata": "Q11467906",
        "wikipedia": "ja:山岸駅"
      }
    },
    {
      "id": "iwate_station_264231685",
      "osmId": 264231685,
      "osmType": "node",
      "prefectureId": "iwate",
      "type": "station",
      "subtype": "private",
      "name": "上盛岡",
      "nameKana": null,
      "nameEn": "Kami-Morioka",
      "operator": null,
      "network": null,
      "ref": null,
      "latitude": 39.7114956,
      "longitude": 141.148516,
      "countryCode": "jp",
      "rawTags": {
        "KSJ2:LIN": "山田線",
        "KSJ2:STN": "上盛岡",
        "addr:city": "岩手県盛岡市",
        "addr:housenumber": "3",
        "addr:postcode": "020-0015",
        "addr:street": "本町通",
        "name": "上盛岡",
        "name:en": "Kami-Morioka",
        "name:ja": "上盛岡",
        "name:ja_rm": "Kami-Morioka",
        "name:ko": "가미모리오카",
        "note": "National-Land Numerical Information (Railway) 2007, MLIT Japan",
        "note:ja": "国土数値情報（鉄道データ）平成19年 国土交通省",
        "public_transport": "station",
        "railway": "station",
        "source": "KSJ2",
        "source_ref": "http://nlftp.mlit.go.jp/ksj/jpgis/datalist/KsjTmplt-N02-v1_1.html",
        "wikidata": "Q6357177",
        "wikipedia": "ja:上盛岡駅"
      }
    },
    {
      "id": "iwate_station_264231693",
      "osmId": 264231693,
      "osmType": "node",
      "prefectureId": "iwate",
      "type": "station",
      "subtype": "private",
      "name": "千徳",
      "nameKana": null,
      "nameEn": "Sentoku",
      "operator": null,
      "network": null,
      "ref": null,
      "latitude": 39.6323145,
      "longitude": 141.9123209,
      "countryCode": "jp",
      "rawTags": {
        "KSJ2:LIN": "山田線",
        "KSJ2:STN": "千徳",
        "name": "千徳",
        "name:en": "Sentoku",
        "name:ja": "千徳",
        "name:ja_rm": "Sentoku",
        "name:ko": "센토쿠",
        "note": "National-Land Numerical Information (Railway) 2007, MLIT Japan",
        "note:ja": "国土数値情報（鉄道データ）平成19年　国土交通省",
        "public_transport": "station",
        "railway": "station",
        "source": "KSJ2",
        "source_ref": "http://nlftp.mlit.go.jp/ksj/jpgis/datalist/KsjTmplt-N02-v1_1.html",
        "wikidata": "Q7451363",
        "wikipedia": "ja:千徳駅"
      }
    },
    {
      "id": "iwate_station_264231696",
      "osmId": 264231696,
      "osmType": "node",
      "prefectureId": "iwate",
      "type": "station",
      "subtype": "private",
      "name": "磯鶏",
      "nameKana": null,
      "nameEn": "Sokei",
      "operator": null,
      "network": null,
      "ref": null,
      "latitude": 39.6299529,
      "longitude": 141.9608947,
      "countryCode": "jp",
      "rawTags": {
        "KSJ2:LIN": "山田線",
        "KSJ2:STN": "磯鶏",
        "name": "磯鶏",
        "name:en": "Sokei",
        "name:ja": "磯鶏",
        "name:ja_rm": "Sokei",
        "name:ko": "소케이",
        "note": "National-Land Numerical Information (Railway) 2007, MLIT Japan",
        "note:ja": "国土数値情報（鉄道データ）平成19年　国土交通省",
        "public_transport": "station",
        "railway": "station",
        "source": "KSJ2",
        "source_ref": "http://nlftp.mlit.go.jp/ksj/jpgis/datalist/KsjTmplt-N02-v1_1.html",
        "website": "https://www.sanrikutetsudou.com/?p=12014",
        "wikidata": "Q7555091",
        "wikipedia": "ja:磯鶏駅"
      }
    },
    {
      "id": "iwate_station_264231873",
      "osmId": 264231873,
      "osmType": "node",
      "prefectureId": "iwate",
      "type": "station",
      "subtype": "private",
      "name": "区界",
      "nameKana": null,
      "nameEn": "Kuzakai",
      "operator": null,
      "network": null,
      "ref": null,
      "latitude": 39.6517598,
      "longitude": 141.351454,
      "countryCode": "jp",
      "rawTags": {
        "KSJ2:LIN": "山田線",
        "KSJ2:STN": "区界",
        "name": "区界",
        "name:en": "Kuzakai",
        "name:ja": "区界",
        "name:ja_rm": "Kuzakai",
        "name:ko": "구자카이",
        "note": "National-Land Numerical Information (Railway) 2007, MLIT Japan",
        "note:ja": "国土数値情報（鉄道データ）平成19年　国土交通省",
        "public_transport": "station",
        "railway": "station",
        "source": "KSJ2",
        "source_ref": "http://nlftp.mlit.go.jp/ksj/jpgis/datalist/KsjTmplt-N02-v1_1.html",
        "wikidata": "Q6449153",
        "wikipedia": "ja:区界駅"
      }
    },
    {
      "id": "iwate_station_264232849",
      "osmId": 264232849,
      "osmType": "node",
      "prefectureId": "iwate",
      "type": "station",
      "subtype": "private",
      "name": "上米内",
      "nameKana": null,
      "nameEn": "Kami-Yonai",
      "operator": null,
      "network": null,
      "ref": null,
      "latitude": 39.7439231,
      "longitude": 141.2038353,
      "countryCode": "jp",
      "rawTags": {
        "KSJ2:LIN": "山田線",
        "KSJ2:STN": "上米内",
        "name": "上米内",
        "name:en": "Kami-Yonai",
        "name:ja": "上米内",
        "name:ja_rm": "Kami-Yonai",
        "name:ko": "가미요나이",
        "note": "National-Land Numerical Information (Railway) 2007, MLIT Japan",
        "note:ja": "国土数値情報（鉄道データ）平成19年 国土交通省",
        "public_transport": "station",
        "railway": "station",
        "source": "KSJ2",
        "source_ref": "http://nlftp.mlit.go.jp/ksj/jpgis/datalist/KsjTmplt-N02-v1_1.html",
        "wikidata": "Q11360015",
        "wikipedia": "ja:上米内駅"
      }
    },
    {
      "id": "iwate_station_264233451",
      "osmId": 264233451,
      "osmType": "node",
      "prefectureId": "iwate",
      "type": "station",
      "subtype": "private",
      "name": "川内",
      "nameKana": null,
      "nameEn": "Kawauchi",
      "operator": null,
      "network": null,
      "ref": null,
      "latitude": 39.640706,
      "longitude": 141.5977644,
      "countryCode": "jp",
      "rawTags": {
        "KSJ2:LIN": "山田線",
        "KSJ2:STN": "川内",
        "name": "川内",
        "name:en": "Kawauchi",
        "name:ja": "川内",
        "name:ja_rm": "Kawauchi",
        "name:ko": "가와우치",
        "note": "National-Land Numerical Information (Railway) 2007, MLIT Japan",
        "note:ja": "国土数値情報（鉄道データ）平成19年　国土交通省",
        "public_transport": "station",
        "railway": "station",
        "source": "KSJ2",
        "source_ref": "http://nlftp.mlit.go.jp/ksj/jpgis/datalist/KsjTmplt-N02-v1_1.html",
        "wikidata": "Q6379890",
        "wikipedia": "ja:川内駅 (岩手県)"
      }
    },
    {
      "id": "iwate_station_264233470",
      "osmId": 264233470,
      "osmType": "node",
      "prefectureId": "iwate",
      "type": "station",
      "subtype": "private",
      "name": "蟇目",
      "nameKana": null,
      "nameEn": "Hikime",
      "operator": null,
      "network": null,
      "ref": null,
      "latitude": 39.6296697,
      "longitude": 141.8388039,
      "countryCode": "jp",
      "rawTags": {
        "KSJ2:LIN": "山田線",
        "KSJ2:STN": "蟇目",
        "name": "蟇目",
        "name:en": "Hikime",
        "name:ja": "蟇目",
        "name:ja_rm": "Hikime",
        "name:ko": "히키메",
        "note": "National-Land Numerical Information (Railway) 2007, MLIT Japan",
        "note:ja": "国土数値情報（鉄道データ）平成19年　国土交通省",
        "public_transport": "station",
        "railway": "station",
        "source": "KSJ2",
        "source_ref": "http://nlftp.mlit.go.jp/ksj/jpgis/datalist/KsjTmplt-N02-v1_1.html",
        "wikidata": "Q5760565",
        "wikipedia": "ja:蟇目駅"
      }
    },
    {
      "id": "iwate_station_264233895",
      "osmId": 264233895,
      "osmType": "node",
      "prefectureId": "iwate",
      "type": "station",
      "subtype": "private",
      "name": "赤渕",
      "nameKana": null,
      "nameEn": "Akabuchi",
      "operator": null,
      "network": null,
      "ref": null,
      "latitude": 39.6850376,
      "longitude": 140.9064553,
      "countryCode": "jp",
      "rawTags": {
        "KSJ2:LIN": "田沢湖線",
        "KSJ2:STN": "赤渕",
        "name": "赤渕",
        "name:en": "Akabuchi",
        "name:ja": "赤渕",
        "name:ja_rm": "Akabuchi",
        "name:ko": "아카부치",
        "note": "National-Land Numerical Information (Railway) 2007, MLIT Japan",
        "note:ja": "国土数値情報（鉄道データ）平成19年　国土交通省",
        "public_transport": "station",
        "railway": "station",
        "source": "KSJ2",
        "source_ref": "http://nlftp.mlit.go.jp/ksj/jpgis/datalist/KsjTmplt-N02-v1_1.html",
        "wikidata": "Q4700066",
        "wikipedia": "ja:赤渕駅"
      }
    },
    {
      "id": "iwate_station_264233946",
      "osmId": 264233946,
      "osmType": "node",
      "prefectureId": "iwate",
      "type": "station",
      "subtype": "private",
      "name": "花原市",
      "nameKana": null,
      "nameEn": "Kebaraichi",
      "operator": null,
      "network": null,
      "ref": null,
      "latitude": 39.6305018,
      "longitude": 141.8613492,
      "countryCode": "jp",
      "rawTags": {
        "KSJ2:LIN": "山田線",
        "KSJ2:STN": "花原市",
        "name": "花原市",
        "name:en": "Kebaraichi",
        "name:ja": "花原市",
        "name:ja_rm": "Kebaraichi",
        "name:ko": "게바라이치",
        "note": "National-Land Numerical Information (Railway) 2007, MLIT Japan",
        "note:ja": "国土数値情報（鉄道データ）平成19年　国土交通省",
        "public_transport": "station",
        "railway": "station",
        "source": "KSJ2",
        "source_ref": "http://nlftp.mlit.go.jp/ksj/jpgis/datalist/KsjTmplt-N02-v1_1.html",
        "wikidata": "Q6382382",
        "wikipedia": "ja:花原市駅"
      }
    },
    {
      "id": "iwate_station_264234167",
      "osmId": 264234167,
      "osmType": "node",
      "prefectureId": "iwate",
      "type": "station",
      "subtype": "private",
      "name": "雫石",
      "nameKana": "しずくいし",
      "nameEn": "Shizukuishi",
      "operator": null,
      "network": null,
      "ref": null,
      "latitude": 39.6892709,
      "longitude": 140.9744464,
      "countryCode": "jp",
      "rawTags": {
        "KSJ2:LIN": "田沢湖線",
        "KSJ2:STN": "雫石",
        "highspeed": "yes",
        "name": "雫石",
        "name:en": "Shizukuishi",
        "name:ja": "雫石",
        "name:ja_kana": "しずくいし",
        "name:ja_rm": "Shizukuishi",
        "name:ko": "시즈쿠이시",
        "note": "National-Land Numerical Information (Railway) 2007, MLIT Japan",
        "note:ja": "国土数値情報（鉄道データ）平成19年　国土交通省",
        "public_transport": "station",
        "railway": "station",
        "source": "KSJ2",
        "source_ref": "http://nlftp.mlit.go.jp/ksj/jpgis/datalist/KsjTmplt-N02-v1_1.html",
        "wikidata": "Q1137479",
        "wikipedia": "ja:雫石駅"
      }
    },
    {
      "id": "iwate_station_264234639",
      "osmId": 264234639,
      "osmType": "node",
      "prefectureId": "iwate",
      "type": "station",
      "subtype": "private",
      "name": "松草",
      "nameKana": null,
      "nameEn": "Matsukusa",
      "operator": null,
      "network": null,
      "ref": null,
      "latitude": 39.6357249,
      "longitude": 141.4376987,
      "countryCode": "jp",
      "rawTags": {
        "KSJ2:LIN": "山田線",
        "KSJ2:STN": "松草",
        "name": "松草",
        "name:en": "Matsukusa",
        "name:ja": "松草",
        "name:ja_rm": "Matsukusa",
        "name:ko": "마쓰쿠사",
        "note": "National-Land Numerical Information (Railway) 2007, MLIT Japan",
        "note:ja": "国土数値情報（鉄道データ）平成19年　国土交通省",
        "public_transport": "station",
        "railway": "station",
        "source": "KSJ2",
        "source_ref": "http://nlftp.mlit.go.jp/ksj/jpgis/datalist/KsjTmplt-N02-v1_1.html",
        "wikidata": "Q6788120",
        "wikipedia": "ja:松草駅"
      }
    },
    {
      "id": "iwate_station_264234867",
      "osmId": 264234867,
      "osmType": "node",
      "prefectureId": "iwate",
      "type": "station",
      "subtype": "private",
      "name": "陸中山田",
      "nameKana": "りくちゅうやまだ",
      "nameEn": "Rikuchu-Yamada",
      "operator": null,
      "network": null,
      "ref": null,
      "latitude": 39.4639054,
      "longitude": 141.9507652,
      "countryCode": "jp",
      "rawTags": {
        "KSJ2:LIN": "山田線",
        "KSJ2:STN": "陸中山田",
        "name": "陸中山田",
        "name:en": "Rikuchu-Yamada",
        "name:ja": "陸中山田",
        "name:ja_kana": "りくちゅうやまだ",
        "name:ja_rm": "Rikuchū-Yamada",
        "name:ko": "리쿠추야마다",
        "note": "National-Land Numerical Information (Railway) 2007, MLIT Japan",
        "note:ja": "国土数値情報（鉄道データ）平成19年　国土交通省",
        "public_transport": "station",
        "railway": "station",
        "source": "KSJ2",
        "source_ref": "http://nlftp.mlit.go.jp/ksj/jpgis/datalist/KsjTmplt-N02-v1_1.html",
        "website": "https://www.sanrikutetsudou.com/?p=12031",
        "wikidata": "Q7334120",
        "wikipedia": "ja:陸中山田駅"
      }
    },
    {
      "id": "iwate_station_264235043",
      "osmId": 264235043,
      "osmType": "node",
      "prefectureId": "iwate",
      "type": "station",
      "subtype": "private",
      "name": "腹帯",
      "nameKana": null,
      "nameEn": "Haratai",
      "operator": null,
      "network": null,
      "ref": null,
      "latitude": 39.6045202,
      "longitude": 141.7677045,
      "countryCode": "jp",
      "rawTags": {
        "KSJ2:LIN": "山田線",
        "KSJ2:STN": "腹帯",
        "name": "腹帯",
        "name:en": "Haratai",
        "name:ja": "腹帯",
        "name:ja_rm": "Haratai",
        "name:ko": "하라타이",
        "note": "National-Land Numerical Information (Railway) 2007, MLIT Japan",
        "note:ja": "国土数値情報（鉄道データ）平成19年　国土交通省",
        "public_transport": "station",
        "railway": "station",
        "source": "KSJ2",
        "source_ref": "http://nlftp.mlit.go.jp/ksj/jpgis/datalist/KsjTmplt-N02-v1_1.html",
        "wikidata": "Q5654293",
        "wikipedia": "ja:腹帯駅"
      }
    },
    {
      "id": "iwate_station_264235479",
      "osmId": 264235479,
      "osmType": "node",
      "prefectureId": "iwate",
      "type": "station",
      "subtype": "private",
      "name": "陸中川井",
      "nameKana": null,
      "nameEn": "Rikuchu-Kawai",
      "operator": null,
      "network": null,
      "ref": null,
      "latitude": 39.5972217,
      "longitude": 141.6813108,
      "countryCode": "jp",
      "rawTags": {
        "KSJ2:LIN": "山田線",
        "KSJ2:STN": "陸中川井",
        "name": "陸中川井",
        "name:en": "Rikuchu-Kawai",
        "name:ja": "陸中川井",
        "name:ja_rm": "Rikuchū-Kawai",
        "name:ko": "리쿠추카와이",
        "note": "National-Land Numerical Information (Railway) 2007, MLIT Japan",
        "note:ja": "国土数値情報（鉄道データ）平成19年　国土交通省",
        "public_transport": "station",
        "railway": "station",
        "source": "KSJ2",
        "source_ref": "http://nlftp.mlit.go.jp/ksj/jpgis/datalist/KsjTmplt-N02-v1_1.html",
        "wikidata": "Q7334116",
        "wikipedia": "ja:陸中川井駅"
      }
    },
    {
      "id": "iwate_station_264235800",
      "osmId": 264235800,
      "osmType": "node",
      "prefectureId": "iwate",
      "type": "station",
      "subtype": "private",
      "name": "箱石",
      "nameKana": null,
      "nameEn": "Hakoishi",
      "operator": null,
      "network": null,
      "ref": null,
      "latitude": 39.6173956,
      "longitude": 141.6255534,
      "countryCode": "jp",
      "rawTags": {
        "KSJ2:LIN": "山田線",
        "KSJ2:STN": "箱石",
        "name": "箱石",
        "name:en": "Hakoishi",
        "name:ja": "箱石",
        "name:ja_rm": "Hakoishi",
        "name:ko": "하코이시",
        "note": "National-Land Numerical Information (Railway) 2007, MLIT Japan",
        "note:ja": "国土数値情報（鉄道データ）平成19年　国土交通省",
        "public_transport": "station",
        "railway": "station",
        "source": "KSJ2",
        "source_ref": "http://nlftp.mlit.go.jp/ksj/jpgis/datalist/KsjTmplt-N02-v1_1.html",
        "wikidata": "Q5640585",
        "wikipedia": "ja:箱石駅"
      }
    },
    {
      "id": "iwate_station_264236579",
      "osmId": 264236579,
      "osmType": "node",
      "prefectureId": "iwate",
      "type": "station",
      "subtype": "private",
      "name": "払川",
      "nameKana": null,
      "nameEn": "Haraigawa",
      "operator": "三陸鉄道",
      "network": null,
      "ref": null,
      "latitude": 39.5643549,
      "longitude": 141.9328947,
      "countryCode": "jp",
      "rawTags": {
        "name": "払川",
        "name:en": "Haraigawa",
        "name:ja": "払川",
        "operator": "三陸鉄道",
        "operator:ja": "三陸鉄道",
        "public_transport": "station",
        "railway": "station",
        "train": "yes",
        "website": "https://www.sanrikutetsudou.com/?p=12025",
        "wikidata": "Q55525754",
        "wikipedia": "ja:払川駅"
      }
    },
    {
      "id": "iwate_station_264236583",
      "osmId": 264236583,
      "osmType": "node",
      "prefectureId": "iwate",
      "type": "station",
      "subtype": "private",
      "name": "岩手船越",
      "nameKana": null,
      "nameEn": "Iwate-Funakoshi",
      "operator": null,
      "network": null,
      "ref": null,
      "latitude": 39.4312024,
      "longitude": 141.9739513,
      "countryCode": "jp",
      "rawTags": {
        "KSJ2:LIN": "山田線",
        "KSJ2:STN": "岩手船越",
        "name": "岩手船越",
        "name:en": "Iwate-Funakoshi",
        "name:ja": "岩手船越",
        "name:ja_rm": "Iwate-Funakoshi",
        "name:ko": "이와테후나코시",
        "note": "National-Land Numerical Information (Railway) 2007, MLIT Japan",
        "note:ja": "国土数値情報（鉄道データ）平成19年　国土交通省",
        "public_transport": "station",
        "railway": "station",
        "source": "KSJ2",
        "source_ref": "http://nlftp.mlit.go.jp/ksj/jpgis/datalist/KsjTmplt-N02-v1_1.html",
        "website": "https://www.sanrikutetsudou.com/?p=12035",
        "wikidata": "Q6100776",
        "wikipedia": "ja:岩手船越駅"
      }
    },
    {
      "id": "iwate_station_264236708",
      "osmId": 264236708,
      "osmType": "node",
      "prefectureId": "iwate",
      "type": "station",
      "subtype": "private",
      "name": "津軽石",
      "nameKana": "つがるいし",
      "nameEn": "Tsugaruishi",
      "operator": null,
      "network": null,
      "ref": null,
      "latitude": 39.5814432,
      "longitude": 141.937742,
      "countryCode": "jp",
      "rawTags": {
        "KSJ2:LIN": "山田線",
        "KSJ2:STN": "津軽石",
        "name": "津軽石",
        "name:en": "Tsugaruishi",
        "name:ja": "津軽石",
        "name:ja-Hira": "つがるいし",
        "name:ja_rm": "Tsugaruishi",
        "name:ko": "쓰가루이시",
        "note": "National-Land Numerical Information (Railway) 2007, MLIT Japan",
        "note:ja": "国土数値情報（鉄道データ）平成19年　国土交通省",
        "public_transport": "station",
        "railway": "station",
        "source": "KSJ2",
        "source_ref": "http://nlftp.mlit.go.jp/ksj/jpgis/datalist/KsjTmplt-N02-v1_1.html",
        "website": "https://www.sanrikutetsudou.com/?p=12021",
        "wikidata": "Q11556431",
        "wikipedia": "ja:津軽石駅"
      }
    },
    {
      "id": "iwate_station_264236801",
      "osmId": 264236801,
      "osmType": "node",
      "prefectureId": "iwate",
      "type": "station",
      "subtype": "private",
      "name": "鵜住居",
      "nameKana": null,
      "nameEn": "Unosumai",
      "operator": "三陸鉄道",
      "network": null,
      "ref": null,
      "latitude": 39.3268633,
      "longitude": 141.8880137,
      "countryCode": "jp",
      "rawTags": {
        "KSJ2:LIN": "山田線",
        "KSJ2:STN": "鵜住居",
        "name": "鵜住居",
        "name:en": "Unosumai",
        "name:ja": "鵜住居",
        "name:ja_rm": "Unosumai",
        "name:ko": "우노스마이",
        "note": "National-Land Numerical Information (Railway) 2007, MLIT Japan",
        "note:ja": "国土数値情報（鉄道データ）平成19年　国土交通省",
        "operator": "三陸鉄道",
        "operator:ja": "三陸鉄道",
        "public_transport": "station",
        "railway": "station",
        "source": "KSJ2",
        "source_ref": "http://nlftp.mlit.go.jp/ksj/jpgis/datalist/KsjTmplt-N02-v1_1.html",
        "website": "https://www.sanrikutetsudou.com/?p=12046",
        "wikidata": "Q7897271",
        "wikipedia": "ja:鵜住居駅"
      }
    },
    {
      "id": "iwate_station_264236808",
      "osmId": 264236808,
      "osmType": "node",
      "prefectureId": "iwate",
      "type": "station",
      "subtype": "private",
      "name": "豊間根",
      "nameKana": null,
      "nameEn": "Toyomane",
      "operator": null,
      "network": null,
      "ref": null,
      "latitude": 39.5343425,
      "longitude": 141.9246671,
      "countryCode": "jp",
      "rawTags": {
        "KSJ2:LIN": "山田線",
        "KSJ2:STN": "豊間根",
        "name": "豊間根",
        "name:en": "Toyomane",
        "name:ja": "豊間根",
        "name:ja_rm": "Toyomane",
        "name:ko": "도요마네",
        "note": "National-Land Numerical Information (Railway) 2007, MLIT Japan",
        "note:ja": "国土数値情報（鉄道データ）平成19年　国土交通省",
        "public_transport": "station",
        "railway": "station",
        "source": "KSJ2",
        "source_ref": "http://nlftp.mlit.go.jp/ksj/jpgis/datalist/KsjTmplt-N02-v1_1.html",
        "website": "https://www.sanrikutetsudou.com/?p=12028",
        "wikidata": "Q11634291",
        "wikipedia": "ja:豊間根駅"
      }
    },
    {
      "id": "iwate_station_264236847",
      "osmId": 264236847,
      "osmType": "node",
      "prefectureId": "iwate",
      "type": "station",
      "subtype": "private",
      "name": "八木沢・宮古短大",
      "nameKana": null,
      "nameEn": "Yagisawa Miyakotandai",
      "operator": "三陸鉄道",
      "network": null,
      "ref": null,
      "latitude": 39.619315,
      "longitude": 141.9464052,
      "countryCode": "jp",
      "rawTags": {
        "name": "八木沢・宮古短大",
        "name:en": "Yagisawa Miyakotandai",
        "name:ja": "八木沢・宮古短大",
        "operator": "三陸鉄道",
        "operator:ja": "三陸鉄道",
        "public_transport": "station",
        "railway": "station",
        "train": "yes",
        "website": "https://www.sanrikutetsudou.com/?p=12016",
        "wikidata": "Q55525757",
        "wikipedia": "ja:八木沢・宮古短大駅"
      }
    },
    {
      "id": "iwate_station_264237036",
      "osmId": 264237036,
      "osmType": "node",
      "prefectureId": "iwate",
      "type": "station",
      "subtype": "private",
      "name": "両石",
      "nameKana": null,
      "nameEn": "Ryoishi",
      "operator": "三陸鉄道",
      "network": null,
      "ref": null,
      "latitude": 39.3082279,
      "longitude": 141.8889773,
      "countryCode": "jp",
      "rawTags": {
        "KSJ2:LIN": "山田線",
        "KSJ2:STN": "両石",
        "name": "両石",
        "name:en": "Ryoishi",
        "name:ja": "両石",
        "name:ja_rm": "Ryōishi",
        "name:ko": "료이시",
        "note": "National-Land Numerical Information (Railway) 2007, MLIT Japan",
        "note:ja": "国土数値情報（鉄道データ）平成19年　国土交通省",
        "operator": "三陸鉄道",
        "operator:ja": "三陸鉄道",
        "public_transport": "station",
        "railway": "station",
        "source": "KSJ2",
        "source_ref": "http://nlftp.mlit.go.jp/ksj/jpgis/datalist/KsjTmplt-N02-v1_1.html",
        "website": "https://www.sanrikutetsudou.com/?p=12049",
        "wikidata": "Q7385594",
        "wikipedia": "ja:両石駅"
      }
    },
    {
      "id": "iwate_station_264237096",
      "osmId": 264237096,
      "osmType": "node",
      "prefectureId": "iwate",
      "type": "station",
      "subtype": "private",
      "name": "浪板海岸",
      "nameKana": null,
      "nameEn": "Namiita-Kaigan",
      "operator": "三陸鉄道",
      "network": null,
      "ref": null,
      "latitude": 39.3836466,
      "longitude": 141.9351291,
      "countryCode": "jp",
      "rawTags": {
        "KSJ2:LIN": "山田線",
        "KSJ2:STN": "浪板海岸",
        "name": "浪板海岸",
        "name:en": "Namiita-Kaigan",
        "name:ja": "浪板海岸",
        "name:ja_rm": "Namiita-Kaigan",
        "name:ko": "나미이타카이간",
        "note": "National-Land Numerical Information (Railway) 2007, MLIT Japan",
        "note:ja": "国土数値情報（鉄道データ）平成19年　国土交通省",
        "operator": "三陸鉄道",
        "operator:ja": "三陸鉄道",
        "public_transport": "station",
        "railway": "station",
        "source": "KSJ2",
        "source_ref": "http://nlftp.mlit.go.jp/ksj/jpgis/datalist/KsjTmplt-N02-v1_1.html",
        "website": "https://www.sanrikutetsudou.com/?p=12037",
        "wikidata": "Q6961845",
        "wikipedia": "ja:浪板海岸駅"
      }
    },
    {
      "id": "iwate_station_264238326",
      "osmId": 264238326,
      "osmType": "node",
      "prefectureId": "iwate",
      "type": "station",
      "subtype": "private",
      "name": "吉里吉里",
      "nameKana": null,
      "nameEn": "Kirikiri",
      "operator": "三陸鉄道",
      "network": null,
      "ref": null,
      "latitude": 39.3698457,
      "longitude": 141.938865,
      "countryCode": "jp",
      "rawTags": {
        "KSJ2:LIN": "山田線",
        "KSJ2:STN": "吉里吉里",
        "name": "吉里吉里",
        "name:en": "Kirikiri",
        "name:ja": "吉里吉里",
        "name:ja_rm": "Kirikiri",
        "name:ko": "기리키리",
        "note": "National-Land Numerical Information (Railway) 2007, MLIT Japan",
        "note:ja": "国土数値情報（鉄道データ）平成19年　国土交通省",
        "operator": "三陸鉄道",
        "public_transport": "station",
        "railway": "station",
        "source": "KSJ2",
        "source_ref": "http://nlftp.mlit.go.jp/ksj/jpgis/datalist/KsjTmplt-N02-v1_1.html",
        "website": "https://www.sanrikutetsudou.com/?p=12041",
        "wikidata": "Q3892986",
        "wikipedia": "ja:吉里吉里駅"
      }
    },
    {
      "id": "iwate_station_264238639",
      "osmId": 264238639,
      "osmType": "node",
      "prefectureId": "iwate",
      "type": "station",
      "subtype": "private",
      "name": "大槌",
      "nameKana": null,
      "nameEn": "Otsuchi",
      "operator": "三陸鉄道",
      "network": null,
      "ref": null,
      "latitude": 39.3566039,
      "longitude": 141.9022324,
      "countryCode": "jp",
      "rawTags": {
        "KSJ2:LIN": "山田線",
        "KSJ2:STN": "大槌",
        "name": "大槌",
        "name:en": "Otsuchi",
        "name:ja": "大槌",
        "name:ja_rm": "Ōtsuchi",
        "name:ko": "오쓰치",
        "note": "National-Land Numerical Information (Railway) 2007, MLIT Japan",
        "note:ja": "国土数値情報（鉄道データ）平成19年　国土交通省",
        "operator": "三陸鉄道",
        "operator:ja": "三陸鉄道",
        "public_transport": "station",
        "railway": "station",
        "source": "KSJ2",
        "source_ref": "http://nlftp.mlit.go.jp/ksj/jpgis/datalist/KsjTmplt-N02-v1_1.html",
        "website": "https://www.sanrikutetsudou.com/?p=12044",
        "wikidata": "Q8081776",
        "wikipedia": "ja:大槌駅"
      }
    },
    {
      "id": "iwate_station_264239387",
      "osmId": 264239387,
      "osmType": "node",
      "prefectureId": "iwate",
      "type": "station",
      "subtype": "private",
      "name": "平津戸",
      "nameKana": null,
      "nameEn": "Hiratsuto",
      "operator": null,
      "network": null,
      "ref": null,
      "latitude": 39.6235214,
      "longitude": 141.5118007,
      "countryCode": "jp",
      "rawTags": {
        "KSJ2:LIN": "山田線",
        "KSJ2:STN": "平津戸",
        "name": "平津戸",
        "name:en": "Hiratsuto",
        "name:ja": "平津戸",
        "name:ja_rm": "Hiratsuto",
        "name:ko": "히라쓰토",
        "note": "National-Land Numerical Information (Railway) 2007, MLIT Japan",
        "note:ja": "国土数値情報（鉄道データ）平成19年　国土交通省",
        "public_transport": "station",
        "railway": "station",
        "source": "KSJ2",
        "source_ref": "http://nlftp.mlit.go.jp/ksj/jpgis/datalist/KsjTmplt-N02-v1_1.html",
        "wikidata": "Q3247203",
        "wikipedia": "ja:平津戸駅"
      }
    },
    {
      "id": "iwate_station_264240774",
      "osmId": 264240774,
      "osmType": "node",
      "prefectureId": "iwate",
      "type": "station",
      "subtype": "private",
      "name": "織笠",
      "nameKana": null,
      "nameEn": "Orikasa",
      "operator": "三陸鉄道",
      "network": null,
      "ref": null,
      "latitude": 39.4540258,
      "longitude": 141.9552778,
      "countryCode": "jp",
      "rawTags": {
        "name": "織笠",
        "name:en": "Orikasa",
        "name:ja": "織笠",
        "name:ja_rm": "Orikasa",
        "name:ko": "오리카사",
        "operator": "三陸鉄道",
        "operator:ja": "三陸鉄道",
        "public_transport": "station",
        "railway": "station",
        "train": "yes",
        "website": "https://www.sanrikutetsudou.com/?p=12033",
        "wikidata": "Q7102667",
        "wikipedia": "ja:織笠駅"
      }
    },
    {
      "id": "iwate_station_264253708",
      "osmId": 264253708,
      "osmType": "node",
      "prefectureId": "iwate",
      "type": "station",
      "subtype": "private",
      "name": "平倉",
      "nameKana": null,
      "nameEn": "Hirakura",
      "operator": null,
      "network": null,
      "ref": null,
      "latitude": 39.2645937,
      "longitude": 141.5960024,
      "countryCode": "jp",
      "rawTags": {
        "name": "平倉",
        "name:en": "Hirakura",
        "name:ja": "平倉",
        "name:ja_rm": "Hirakura",
        "name:ko": "히라쿠라",
        "note": "National-Land Numerical Information (Railway) 2007, MLIT Japan",
        "note:ja": "国土数値情報（鉄道データ）平成19年　国土交通省",
        "public_transport": "station",
        "railway": "station",
        "source": "KSJ2",
        "source_ref": "http://nlftp.mlit.go.jp/ksj/jpgis/datalist/KsjTmplt-N02-v1_1.html",
        "wikidata": "Q3890826",
        "wikipedia": "ja:平倉駅"
      }
    },
    {
      "id": "iwate_station_264253716",
      "osmId": 264253716,
      "osmType": "node",
      "prefectureId": "iwate",
      "type": "station",
      "subtype": "private",
      "name": "似内",
      "nameKana": null,
      "nameEn": "Nitanai",
      "operator": null,
      "network": null,
      "ref": null,
      "latitude": 39.4068589,
      "longitude": 141.1417419,
      "countryCode": "jp",
      "rawTags": {
        "name": "似内",
        "name:en": "Nitanai",
        "name:ja": "似内",
        "name:ja_rm": "Nitanai",
        "name:ko": "니타나이",
        "note": "National-Land Numerical Information (Railway) 2007, MLIT Japan",
        "note:ja": "国土数値情報（鉄道データ）平成19年　国土交通省",
        "public_transport": "station",
        "railway": "station",
        "source": "KSJ2",
        "source_ref": "http://nlftp.mlit.go.jp/ksj/jpgis/datalist/KsjTmplt-N02-v1_1.html",
        "wikidata": "Q4968676",
        "wikipedia": "ja:似内駅"
      }
    },
    {
      "id": "iwate_station_264253719",
      "osmId": 264253719,
      "osmType": "node",
      "prefectureId": "iwate",
      "type": "station",
      "subtype": "private",
      "name": "岩根橋",
      "nameKana": null,
      "nameEn": "Iwanebashi",
      "operator": null,
      "network": null,
      "ref": null,
      "latitude": 39.3552437,
      "longitude": 141.3189494,
      "countryCode": "jp",
      "rawTags": {
        "name": "岩根橋",
        "name:en": "Iwanebashi",
        "name:ja": "岩根橋",
        "name:ja_rm": "Iwanebashi",
        "name:ko": "이와네바시",
        "note": "National-Land Numerical Information (Railway) 2007, MLIT Japan",
        "note:ja": "国土数値情報（鉄道データ）平成19年　国土交通省",
        "public_transport": "station",
        "railway": "station",
        "source": "KSJ2",
        "source_ref": "http://nlftp.mlit.go.jp/ksj/jpgis/datalist/KsjTmplt-N02-v1_1.html",
        "wikidata": "Q3890063",
        "wikipedia": "ja:岩根橋駅"
      }
    },
    {
      "id": "iwate_station_264253817",
      "osmId": 264253817,
      "osmType": "node",
      "prefectureId": "iwate",
      "type": "station",
      "subtype": "private",
      "name": "綾織",
      "nameKana": null,
      "nameEn": "Ayaori",
      "operator": null,
      "network": null,
      "ref": null,
      "latitude": 39.3284639,
      "longitude": 141.4769877,
      "countryCode": "jp",
      "rawTags": {
        "name": "綾織",
        "name:en": "Ayaori",
        "name:ja": "綾織",
        "name:ja_rm": "Ayaori",
        "name:ko": "아야오리",
        "note": "National-Land Numerical Information (Railway) 2007, MLIT Japan",
        "note:ja": "国土数値情報（鉄道データ）平成19年　国土交通省",
        "public_transport": "station",
        "railway": "station",
        "source": "KSJ2",
        "source_ref": "http://nlftp.mlit.go.jp/ksj/jpgis/datalist/KsjTmplt-N02-v1_1.html",
        "wikidata": "Q3890053",
        "wikipedia": "ja:綾織駅"
      }
    },
    {
      "id": "iwate_station_264253849",
      "osmId": 264253849,
      "osmType": "node",
      "prefectureId": "iwate",
      "type": "station",
      "subtype": "private",
      "name": "足ヶ瀬",
      "nameKana": null,
      "nameEn": "Ashigase",
      "operator": null,
      "network": null,
      "ref": null,
      "latitude": 39.2546152,
      "longitude": 141.6458846,
      "countryCode": "jp",
      "rawTags": {
        "name": "足ヶ瀬",
        "name:en": "Ashigase",
        "name:ja": "足ヶ瀬",
        "name:ja_rm": "Ashigase",
        "name:ko": "아시가세",
        "note": "National-Land Numerical Information (Railway) 2007, MLIT Japan",
        "note:ja": "国土数値情報（鉄道データ）平成19年　国土交通省",
        "public_transport": "station",
        "railway": "station",
        "source": "KSJ2",
        "source_ref": "http://nlftp.mlit.go.jp/ksj/jpgis/datalist/KsjTmplt-N02-v1_1.html",
        "wikidata": "Q3890814",
        "wikipedia": "ja:足ケ瀬駅"
      }
    },
    {
      "id": "iwate_station_264253933",
      "osmId": 264253933,
      "osmType": "node",
      "prefectureId": "iwate",
      "type": "station",
      "subtype": "private",
      "name": "青笹",
      "nameKana": null,
      "nameEn": "Aozasa",
      "operator": null,
      "network": null,
      "ref": null,
      "latitude": 39.3115139,
      "longitude": 141.5688962,
      "countryCode": "jp",
      "rawTags": {
        "name": "青笹",
        "name:en": "Aozasa",
        "name:ja": "青笹",
        "name:ja_rm": "Aozasa",
        "name:ko": "아오자사",
        "note": "National-Land Numerical Information (Railway) 2007, MLIT Japan",
        "note:ja": "国土数値情報（鉄道データ）平成19年　国土交通省",
        "public_transport": "station",
        "railway": "station",
        "source": "KSJ2",
        "source_ref": "http://nlftp.mlit.go.jp/ksj/jpgis/datalist/KsjTmplt-N02-v1_1.html",
        "wikidata": "Q1112611",
        "wikipedia": "ja:青笹駅"
      }
    },
    {
      "id": "iwate_station_264254004",
      "osmId": 264254004,
      "osmType": "node",
      "prefectureId": "iwate",
      "type": "station",
      "subtype": "private",
      "name": "小山田",
      "nameKana": null,
      "nameEn": "Oyamada",
      "operator": null,
      "network": null,
      "ref": null,
      "latitude": 39.408508,
      "longitude": 141.194199,
      "countryCode": "jp",
      "rawTags": {
        "name": "小山田",
        "name:en": "Oyamada",
        "name:ja": "小山田",
        "name:ja_rm": "Oyamada",
        "name:ko": "오야마다",
        "note": "National-Land Numerical Information (Railway) 2007, MLIT Japan",
        "note:ja": "国土数値情報（鉄道データ）平成19年　国土交通省",
        "public_transport": "station",
        "railway": "station",
        "source": "KSJ2",
        "source_ref": "http://nlftp.mlit.go.jp/ksj/jpgis/datalist/KsjTmplt-N02-v1_1.html",
        "wikidata": "Q4968685",
        "wikipedia": "ja:小山田駅"
      }
    },
    {
      "id": "iwate_station_264254043",
      "osmId": 264254043,
      "osmType": "node",
      "prefectureId": "iwate",
      "type": "station",
      "subtype": "private",
      "name": "洞泉",
      "nameKana": null,
      "nameEn": "Dosen",
      "operator": null,
      "network": null,
      "ref": null,
      "latitude": 39.2507071,
      "longitude": 141.7604816,
      "countryCode": "jp",
      "rawTags": {
        "name": "洞泉",
        "name:en": "Dosen",
        "name:ja": "洞泉",
        "name:ja_rm": "Dōsen",
        "name:ko": "도센",
        "note": "National-Land Numerical Information (Railway) 2007, MLIT Japan",
        "note:ja": "国土数値情報（鉄道データ）平成19年　国土交通省",
        "public_transport": "station",
        "railway": "station",
        "source": "KSJ2",
        "source_ref": "http://nlftp.mlit.go.jp/ksj/jpgis/datalist/KsjTmplt-N02-v1_1.html",
        "wikidata": "Q3893001",
        "wikipedia": "ja:洞泉駅"
      }
    },
    {
      "id": "iwate_station_264254095",
      "osmId": 264254095,
      "osmType": "node",
      "prefectureId": "iwate",
      "type": "station",
      "subtype": "private",
      "name": "小佐野",
      "nameKana": null,
      "nameEn": "Kosano",
      "operator": null,
      "network": null,
      "ref": null,
      "latitude": 39.2645683,
      "longitude": 141.8365965,
      "countryCode": "jp",
      "rawTags": {
        "KSJ2:LIN": "釜石線",
        "KSJ2:STN": "小佐野",
        "name": "小佐野",
        "name:en": "Kosano",
        "name:ja": "小佐野",
        "name:ja_rm": "Kosano",
        "name:ko": "고사노",
        "note": "National-Land Numerical Information (Railway) 2007, MLIT Japan",
        "note:ja": "国土数値情報（鉄道データ）平成19年　国土交通省",
        "public_transport": "station",
        "railway": "station",
        "source": "KSJ2",
        "source_ref": "http://nlftp.mlit.go.jp/ksj/jpgis/datalist/KsjTmplt-N02-v1_1.html",
        "wikidata": "Q3893007",
        "wikipedia": "ja:小佐野駅"
      }
    },
    {
      "id": "iwate_station_264254176",
      "osmId": 264254176,
      "osmType": "node",
      "prefectureId": "iwate",
      "type": "station",
      "subtype": "private",
      "name": "遠野",
      "nameKana": "とおの",
      "nameEn": "Tono",
      "operator": null,
      "network": null,
      "ref": null,
      "latitude": 39.3324341,
      "longitude": 141.5311486,
      "countryCode": "jp",
      "rawTags": {
        "name": "遠野",
        "name:en": "Tono",
        "name:ja": "遠野",
        "name:ja_kana": "とおの",
        "name:ja_rm": "Tōno",
        "name:ko": "도노",
        "note": "National-Land Numerical Information (Railway) 2007, MLIT Japan",
        "note:ja": "国土数値情報（鉄道データ）平成19年　国土交通省",
        "public_transport": "station",
        "railway": "station",
        "source": "KSJ2",
        "source_ref": "http://nlftp.mlit.go.jp/ksj/jpgis/datalist/KsjTmplt-N02-v1_1.html",
        "wikidata": "Q3890045",
        "wikipedia": "ja:遠野駅"
      }
    },
    {
      "id": "iwate_station_264254357",
      "osmId": 264254357,
      "osmType": "node",
      "prefectureId": "iwate",
      "type": "station",
      "subtype": "private",
      "name": "荒谷前",
      "nameKana": null,
      "nameEn": "Arayamae",
      "operator": null,
      "network": null,
      "ref": null,
      "latitude": 39.309908,
      "longitude": 141.4286063,
      "countryCode": "jp",
      "rawTags": {
        "name": "荒谷前",
        "name:en": "Arayamae",
        "name:ja": "荒谷前",
        "name:ja_rm": "Arayamae",
        "name:ko": "아라야마에",
        "note": "National-Land Numerical Information (Railway) 2007, MLIT Japan",
        "note:ja": "国土数値情報（鉄道データ）平成19年　国土交通省",
        "public_transport": "station",
        "railway": "station",
        "source": "KSJ2",
        "source_ref": "http://nlftp.mlit.go.jp/ksj/jpgis/datalist/KsjTmplt-N02-v1_1.html",
        "wikidata": "Q3889764",
        "wikipedia": "ja:荒谷前駅"
      }
    },
    {
      "id": "iwate_station_264254358",
      "osmId": 264254358,
      "osmType": "node",
      "prefectureId": "iwate",
      "type": "station",
      "subtype": "private",
      "name": "柏木平",
      "nameKana": null,
      "nameEn": "Kashiwagidaira",
      "operator": null,
      "network": null,
      "ref": null,
      "latitude": 39.3058024,
      "longitude": 141.379667,
      "countryCode": "jp",
      "rawTags": {
        "name": "柏木平",
        "name:en": "Kashiwagidaira",
        "name:ja": "柏木平",
        "name:ja_rm": "Kashiwagidaira",
        "name:ko": "가시와기다이라",
        "note": "National-Land Numerical Information (Railway) 2007, MLIT Japan",
        "note:ja": "国土数値情報（鉄道データ）平成19年　国土交通省",
        "public_transport": "station",
        "railway": "station",
        "source": "KSJ2",
        "source_ref": "http://nlftp.mlit.go.jp/ksj/jpgis/datalist/KsjTmplt-N02-v1_1.html",
        "wikidata": "Q3888982",
        "wikipedia": "ja:柏木平駅"
      }
    },
    {
      "id": "iwate_station_264254680",
      "osmId": 264254680,
      "osmType": "node",
      "prefectureId": "iwate",
      "type": "station",
      "subtype": "private",
      "name": "鱒沢",
      "nameKana": null,
      "nameEn": "Masuzawa",
      "operator": null,
      "network": null,
      "ref": null,
      "latitude": 39.3002089,
      "longitude": 141.3995977,
      "countryCode": "jp",
      "rawTags": {
        "name": "鱒沢",
        "name:en": "Masuzawa",
        "name:ja": "鱒沢",
        "name:ja_rm": "Masuzawa",
        "name:ko": "마스자와",
        "note": "National-Land Numerical Information (Railway) 2007, MLIT Japan",
        "note:ja": "国土数値情報（鉄道データ）平成19年　国土交通省",
        "public_transport": "station",
        "railway": "station",
        "source": "KSJ2",
        "source_ref": "http://nlftp.mlit.go.jp/ksj/jpgis/datalist/KsjTmplt-N02-v1_1.html",
        "wheelchair": "limited",
        "wikidata": "Q3889752",
        "wikipedia": "ja:鱒沢駅"
      }
    },
    {
      "id": "iwate_station_264254809",
      "osmId": 264254809,
      "osmType": "node",
      "prefectureId": "iwate",
      "type": "station",
      "subtype": "private",
      "name": "土沢",
      "nameKana": null,
      "nameEn": "Tsuchizawa",
      "operator": null,
      "network": null,
      "ref": null,
      "latitude": 39.3831005,
      "longitude": 141.232926,
      "countryCode": "jp",
      "rawTags": {
        "name": "土沢",
        "name:en": "Tsuchizawa",
        "name:ja": "土沢",
        "name:ja_rm": "Tsuchizawa",
        "name:ko": "쓰치자와",
        "note": "National-Land Numerical Information (Railway) 2007, MLIT Japan",
        "note:ja": "国土数値情報（鉄道データ）平成19年　国土交通省",
        "public_transport": "station",
        "railway": "station",
        "source": "KSJ2",
        "source_ref": "http://nlftp.mlit.go.jp/ksj/jpgis/datalist/KsjTmplt-N02-v1_1.html",
        "wikidata": "Q3888323",
        "wikipedia": "ja:土沢駅"
      }
    },
    {
      "id": "iwate_station_264254824",
      "osmId": 264254824,
      "osmType": "node",
      "prefectureId": "iwate",
      "type": "station",
      "subtype": "private",
      "name": "上有住",
      "nameKana": null,
      "nameEn": "Kami-Arisu",
      "operator": null,
      "network": null,
      "ref": null,
      "latitude": 39.242168,
      "longitude": 141.681916,
      "countryCode": "jp",
      "rawTags": {
        "name": "上有住",
        "name:en": "Kami-Arisu",
        "name:ja": "上有住",
        "name:ja_rm": "Kami-Arisu",
        "name:ko": "가미아리스",
        "note": "National-Land Numerical Information (Railway) 2007, MLIT Japan",
        "note:ja": "国土数値情報（鉄道データ）平成19年　国土交通省",
        "public_transport": "station",
        "railway": "station",
        "source": "KSJ2",
        "source_ref": "http://nlftp.mlit.go.jp/ksj/jpgis/datalist/KsjTmplt-N02-v1_1.html",
        "wikidata": "Q3893013",
        "wikipedia": "ja:上有住駅"
      }
    },
    {
      "id": "iwate_station_264254841",
      "osmId": 264254841,
      "osmType": "node",
      "prefectureId": "iwate",
      "type": "station",
      "subtype": "private",
      "name": "松倉",
      "nameKana": null,
      "nameEn": "Matsukura",
      "operator": null,
      "network": null,
      "ref": null,
      "latitude": 39.2563991,
      "longitude": 141.8015862,
      "countryCode": "jp",
      "rawTags": {
        "name": "松倉",
        "name:en": "Matsukura",
        "name:ja": "松倉",
        "name:ja_rm": "Matsukura",
        "name:ko": "마쓰쿠라",
        "note": "National-Land Numerical Information (Railway) 2007, MLIT Japan",
        "note:ja": "国土数値情報（鉄道データ）平成19年　国土交通省",
        "public_transport": "station",
        "railway": "station",
        "source": "KSJ2",
        "source_ref": "http://nlftp.mlit.go.jp/ksj/jpgis/datalist/KsjTmplt-N02-v1_1.html",
        "wikidata": "Q3892966",
        "wikipedia": "ja:松倉駅"
      }
    },
    {
      "id": "iwate_station_264254842",
      "osmId": 264254842,
      "osmType": "node",
      "prefectureId": "iwate",
      "type": "station",
      "subtype": "private",
      "name": "岩手二日町",
      "nameKana": null,
      "nameEn": "Iwate-Futsukamachi",
      "operator": null,
      "network": null,
      "ref": null,
      "latitude": 39.3236742,
      "longitude": 141.4562853,
      "countryCode": "jp",
      "rawTags": {
        "name": "岩手二日町",
        "name:en": "Iwate-Futsukamachi",
        "name:ja": "岩手二日町",
        "name:ja_rm": "Iwate-Futsukamachi",
        "name:ko": "이와테후쓰카마치",
        "note": "National-Land Numerical Information (Railway) 2007, MLIT Japan",
        "note:ja": "国土数値情報（鉄道データ）平成19年　国土交通省",
        "public_transport": "station",
        "railway": "station",
        "source": "KSJ2",
        "source_ref": "http://nlftp.mlit.go.jp/ksj/jpgis/datalist/KsjTmplt-N02-v1_1.html",
        "wikidata": "Q3889726",
        "wikipedia": "ja:岩手二日町駅"
      }
    },
    {
      "id": "iwate_station_264254950",
      "osmId": 264254950,
      "osmType": "node",
      "prefectureId": "iwate",
      "type": "station",
      "subtype": "private",
      "name": "宮守",
      "nameKana": null,
      "nameEn": "Miyamori",
      "operator": null,
      "network": null,
      "ref": null,
      "latitude": 39.3504373,
      "longitude": 141.3503073,
      "countryCode": "jp",
      "rawTags": {
        "name": "宮守",
        "name:en": "Miyamori",
        "name:ja": "宮守",
        "name:ja_rm": "Miyamori",
        "name:ko": "미야모리",
        "note": "National-Land Numerical Information (Railway) 2007, MLIT Japan",
        "note:ja": "国土数値情報（鉄道データ）平成19年　国土交通省",
        "public_transport": "station",
        "railway": "station",
        "source": "KSJ2",
        "source_ref": "http://nlftp.mlit.go.jp/ksj/jpgis/datalist/KsjTmplt-N02-v1_1.html",
        "wikidata": "Q3888989",
        "wikipedia": "ja:宮守駅"
      }
    },
    {
      "id": "iwate_station_264255136",
      "osmId": 264255136,
      "osmType": "node",
      "prefectureId": "iwate",
      "type": "station",
      "subtype": "private",
      "name": "晴山",
      "nameKana": null,
      "nameEn": "Haruyama",
      "operator": null,
      "network": null,
      "ref": null,
      "latitude": 39.3664942,
      "longitude": 141.2580683,
      "countryCode": "jp",
      "rawTags": {
        "name": "晴山",
        "name:en": "Haruyama",
        "name:ja": "晴山",
        "name:ja_rm": "Haruyama",
        "name:ko": "하루야마",
        "note": "National-Land Numerical Information (Railway) 2007, MLIT Japan",
        "note:ja": "国土数値情報（鉄道データ）平成19年　国土交通省",
        "public_transport": "station",
        "railway": "station",
        "source": "KSJ2",
        "source_ref": "http://nlftp.mlit.go.jp/ksj/jpgis/datalist/KsjTmplt-N02-v1_1.html",
        "wikidata": "Q3888002",
        "wikipedia": "ja:晴山駅"
      }
    },
    {
      "id": "iwate_station_264255486",
      "osmId": 264255486,
      "osmType": "node",
      "prefectureId": "iwate",
      "type": "station",
      "subtype": "private",
      "name": "陸中大橋",
      "nameKana": "りくちゅうおおはし",
      "nameEn": "Rikuchu-Ohashi",
      "operator": null,
      "network": null,
      "ref": null,
      "latitude": 39.2807739,
      "longitude": 141.7184277,
      "countryCode": "jp",
      "rawTags": {
        "KSJ2:LIN": "釜石線",
        "KSJ2:STN": "陸中大橋",
        "name": "陸中大橋",
        "name:en": "Rikuchu-Ohashi",
        "name:ja": "陸中大橋",
        "name:ja-Hira": "りくちゅうおおはし",
        "name:ja_rm": "Rikuchū-Ōhashi",
        "name:ko": "리쿠추오하시",
        "note": "National-Land Numerical Information (Railway) 2007, MLIT Japan",
        "note:ja": "国土数値情報（鉄道データ）平成19年　国土交通省",
        "public_transport": "station",
        "railway": "station",
        "source": "KSJ2",
        "source_ref": "http://nlftp.mlit.go.jp/ksj/jpgis/datalist/KsjTmplt-N02-v1_1.html",
        "wikidata": "Q3892975",
        "wikipedia": "ja:陸中大橋駅"
      }
    },
    {
      "id": "iwate_station_264255519",
      "osmId": 264255519,
      "osmType": "node",
      "prefectureId": "iwate",
      "type": "station",
      "subtype": "private",
      "name": "岩手上郷",
      "nameKana": null,
      "nameEn": "Iwate-Kamigo",
      "operator": null,
      "network": null,
      "ref": null,
      "latitude": 39.2842716,
      "longitude": 141.5861367,
      "countryCode": "jp",
      "rawTags": {
        "name": "岩手上郷",
        "name:en": "Iwate-Kamigo",
        "name:ja": "岩手上郷",
        "name:ja_rm": "Iwate-Kamigō",
        "name:ko": "이와테카미고",
        "note": "National-Land Numerical Information (Railway) 2007, MLIT Japan",
        "note:ja": "国土数値情報（鉄道データ）平成19年　国土交通省",
        "public_transport": "station",
        "railway": "station",
        "source": "KSJ2",
        "source_ref": "http://nlftp.mlit.go.jp/ksj/jpgis/datalist/KsjTmplt-N02-v1_1.html",
        "wikidata": "Q3890386",
        "wikipedia": "ja:岩手上郷駅"
      }
    },
    {
      "id": "iwate_station_264256562",
      "osmId": 264256562,
      "osmType": "node",
      "prefectureId": "iwate",
      "type": "station",
      "subtype": "private",
      "name": "立川目",
      "nameKana": "たてかわめ",
      "nameEn": "Tatekawame",
      "operator": null,
      "network": null,
      "ref": null,
      "latitude": 39.3077084,
      "longitude": 140.9976417,
      "countryCode": "jp",
      "rawTags": {
        "name": "立川目",
        "name:en": "Tatekawame",
        "name:ja": "立川目",
        "name:ja_kana": "たてかわめ",
        "name:ko": "다테카와메",
        "note": "National-Land Numerical Information (Railway) 2007, MLIT Japan",
        "note:ja": "国土数値情報（鉄道データ）平成19年　国土交通省",
        "public_transport": "station",
        "railway": "station",
        "source": "KSJ2",
        "source_ref": "http://nlftp.mlit.go.jp/ksj/jpgis/datalist/KsjTmplt-N02-v1_1.html",
        "wikidata": "Q7687999",
        "wikipedia": "ja:立川目駅"
      }
    },
    {
      "id": "iwate_station_264256598",
      "osmId": 264256598,
      "osmType": "node",
      "prefectureId": "iwate",
      "type": "station",
      "subtype": "private",
      "name": "藤根",
      "nameKana": "ふじね",
      "nameEn": "Fujine",
      "operator": null,
      "network": null,
      "ref": null,
      "latitude": 39.3010205,
      "longitude": 141.040073,
      "countryCode": "jp",
      "rawTags": {
        "addr:city": "北上市",
        "addr:neighbourhood": "18地割",
        "addr:postcode": "024-0334",
        "addr:province": "岩手県",
        "addr:quarter": "和賀町藤根",
        "internet_access": "no",
        "name": "藤根",
        "name:en": "Fujine",
        "name:ja": "藤根",
        "name:ja_kana": "ふじね",
        "name:ko": "후지네",
        "note": "National-Land Numerical Information (Railway) 2007, MLIT Japan",
        "note:ja": "国土数値情報（鉄道データ）平成19年　国土交通省",
        "public_transport": "station",
        "railway": "station",
        "source": "KSJ2",
        "source_ref": "http://nlftp.mlit.go.jp/ksj/jpgis/datalist/KsjTmplt-N02-v1_1.html",
        "wikidata": "Q5507454",
        "wikipedia": "ja:藤根駅"
      }
    },
    {
      "id": "iwate_station_264257161",
      "osmId": 264257161,
      "osmType": "node",
      "prefectureId": "iwate",
      "type": "station",
      "subtype": "private",
      "name": "ゆだ錦秋湖",
      "nameKana": null,
      "nameEn": null,
      "operator": null,
      "network": null,
      "ref": null,
      "latitude": 39.295263,
      "longitude": 140.8356048,
      "countryCode": "jp",
      "rawTags": {
        "name": "ゆだ錦秋湖",
        "name:ja": "ゆだ錦秋湖",
        "name:ko": "유다킨슈코",
        "note": "National-Land Numerical Information (Railway) 2007, MLIT Japan",
        "note:ja": "国土数値情報（鉄道データ）平成19年　国土交通省",
        "public_transport": "station",
        "railway": "station",
        "source": "KSJ2",
        "source_ref": "http://nlftp.mlit.go.jp/ksj/jpgis/datalist/KsjTmplt-N02-v1_1.html",
        "wikidata": "Q8192723",
        "wikipedia": "ja:ゆだ錦秋湖駅"
      }
    },
    {
      "id": "iwate_station_264257261",
      "osmId": 264257261,
      "osmType": "node",
      "prefectureId": "iwate",
      "type": "station",
      "subtype": "private",
      "name": "ゆだ高原",
      "nameKana": null,
      "nameEn": "Yuda-Kōgen",
      "operator": null,
      "network": null,
      "ref": null,
      "latitude": 39.3008533,
      "longitude": 140.7367001,
      "countryCode": "jp",
      "rawTags": {
        "name": "ゆだ高原",
        "name:en": "Yuda-Kōgen",
        "name:ja": "ゆだ高原",
        "name:ko": "유다코겐",
        "note": "National-Land Numerical Information (Railway) 2007, MLIT Japan",
        "note:ja": "国土数値情報（鉄道データ）平成19年　国土交通省",
        "public_transport": "station",
        "railway": "station",
        "source": "KSJ2",
        "source_ref": "http://nlftp.mlit.go.jp/ksj/jpgis/datalist/KsjTmplt-N02-v1_1.html",
        "wikidata": "Q8060216",
        "wikipedia": "ja:ゆだ高原駅"
      }
    },
    {
      "id": "iwate_station_264257398",
      "osmId": 264257398,
      "osmType": "node",
      "prefectureId": "iwate",
      "type": "station",
      "subtype": "private",
      "name": "岩沢",
      "nameKana": null,
      "nameEn": "Iwasawa",
      "operator": null,
      "network": null,
      "ref": null,
      "latitude": 39.3011127,
      "longitude": 140.9318093,
      "countryCode": "jp",
      "rawTags": {
        "name": "岩沢",
        "name:en": "Iwasawa",
        "name:ja": "岩沢",
        "name:ko": "이와사와",
        "note": "National-Land Numerical Information (Railway) 2007, MLIT Japan",
        "note:ja": "国土数値情報（鉄道データ）平成19年　国土交通省",
        "public_transport": "station",
        "railway": "station",
        "source": "KSJ2",
        "source_ref": "http://nlftp.mlit.go.jp/ksj/jpgis/datalist/KsjTmplt-N02-v1_1.html",
        "wikidata": "Q6100712",
        "wikipedia": "ja:岩沢駅"
      }
    },
    {
      "id": "iwate_station_264257504",
      "osmId": 264257504,
      "osmType": "node",
      "prefectureId": "iwate",
      "type": "station",
      "subtype": "private",
      "name": "和賀仙人",
      "nameKana": null,
      "nameEn": "Wakasennin",
      "operator": null,
      "network": null,
      "ref": null,
      "latitude": 39.30844,
      "longitude": 140.909233,
      "countryCode": "jp",
      "rawTags": {
        "name": "和賀仙人",
        "name:en": "Wakasennin",
        "name:ja": "和賀仙人",
        "name:ko": "와카센닌",
        "note": "National-Land Numerical Information (Railway) 2007, MLIT Japan",
        "note:ja": "国土数値情報（鉄道データ）平成19年　国土交通省",
        "public_transport": "station",
        "railway": "station",
        "source": "KSJ2",
        "source_ref": "http://nlftp.mlit.go.jp/ksj/jpgis/datalist/KsjTmplt-N02-v1_1.html",
        "wikidata": "Q7960735",
        "wikipedia": "ja:和賀仙人駅"
      }
    },
    {
      "id": "iwate_station_264257695",
      "osmId": 264257695,
      "osmType": "node",
      "prefectureId": "iwate",
      "type": "station",
      "subtype": "private",
      "name": "ほっとゆだ",
      "nameKana": null,
      "nameEn": "Hottoyuda",
      "operator": null,
      "network": null,
      "ref": null,
      "latitude": 39.31485,
      "longitude": 140.7760961,
      "countryCode": "jp",
      "rawTags": {
        "KSJ2:LIN": "北上線",
        "name": "ほっとゆだ",
        "name:en": "Hottoyuda",
        "name:ja": "ほっとゆだ",
        "name:ja-Latn": "Hottoyuda",
        "name:ko": "홋토유다",
        "note": "National-Land Numerical Information (Railway) 2007, MLIT Japan",
        "note:ja": "国土数値情報（鉄道データ）平成19年　国土交通省",
        "public_transport": "station",
        "railway": "station",
        "source": "KSJ2",
        "source_ref": "http://nlftp.mlit.go.jp/ksj/jpgis/datalist/KsjTmplt-N02-v1_1.html",
        "wikidata": "Q8193573",
        "wikipedia": "ja:ほっとゆだ駅"
      }
    },
    {
      "id": "iwate_station_264265148",
      "osmId": 264265148,
      "osmType": "node",
      "prefectureId": "iwate",
      "type": "station",
      "subtype": "private",
      "name": "岩ノ下",
      "nameKana": null,
      "nameEn": "Iwanoshita",
      "operator": null,
      "network": null,
      "ref": null,
      "latitude": 38.947444,
      "longitude": 141.2450701,
      "countryCode": "jp",
      "rawTags": {
        "name": "岩ノ下",
        "name:en": "Iwanoshita",
        "name:ja": "岩ノ下",
        "name:ja_rm": "Iwanoshita",
        "name:ko": "이와노시타",
        "note": "National-Land Numerical Information (Railway) 2007, MLIT Japan",
        "note:ja": "国土数値情報（鉄道データ）平成19年　国土交通省",
        "public_transport": "station",
        "railway": "station",
        "source": "KSJ2",
        "source_ref": "http://nlftp.mlit.go.jp/ksj/jpgis/datalist/KsjTmplt-N02-v1_1.html",
        "wikidata": "Q6100640",
        "wikipedia": "ja:岩ノ下駅"
      }
    },
    {
      "id": "iwate_station_264265150",
      "osmId": 264265150,
      "osmType": "node",
      "prefectureId": "iwate",
      "type": "station",
      "subtype": "private",
      "name": "折壁",
      "nameKana": "おりかべ",
      "nameEn": "Orikabe",
      "operator": null,
      "network": null,
      "ref": null,
      "latitude": 38.9395086,
      "longitude": 141.4523978,
      "countryCode": "jp",
      "rawTags": {
        "name": "折壁",
        "name:en": "Orikabe",
        "name:ja": "折壁",
        "name:ja_kana": "おりかべ",
        "name:ja_rm": "Orikabe",
        "name:ko": "오리카베",
        "note": "National-Land Numerical Information (Railway) 2007, MLIT Japan",
        "note:ja": "国土数値情報（鉄道データ）平成19年　国土交通省",
        "public_transport": "station",
        "railway": "station",
        "source": "KSJ2",
        "source_ref": "http://nlftp.mlit.go.jp/ksj/jpgis/datalist/KsjTmplt-N02-v1_1.html",
        "wikidata": "Q7102664",
        "wikipedia": "ja:折壁駅"
      }
    },
    {
      "id": "iwate_station_264265153",
      "osmId": 264265153,
      "osmType": "node",
      "prefectureId": "iwate",
      "type": "station",
      "subtype": "private",
      "name": "摺沢",
      "nameKana": null,
      "nameEn": "Surisawa",
      "operator": null,
      "network": null,
      "ref": null,
      "latitude": 38.9959683,
      "longitude": 141.3214278,
      "countryCode": "jp",
      "rawTags": {
        "name": "摺沢",
        "name:en": "Surisawa",
        "name:ja": "摺沢",
        "name:ja_rm": "Surisawa",
        "name:ko": "스리사와",
        "note": "National-Land Numerical Information (Railway) 2007, MLIT Japan",
        "note:ja": "国土数値情報（鉄道データ）平成19年　国土交通省",
        "public_transport": "station",
        "railway": "station",
        "source": "KSJ2",
        "source_ref": "http://nlftp.mlit.go.jp/ksj/jpgis/datalist/KsjTmplt-N02-v1_1.html",
        "wikidata": "Q7646374",
        "wikipedia": "ja:摺沢駅"
      }
    },
    {
      "id": "iwate_station_264265353",
      "osmId": 264265353,
      "osmType": "node",
      "prefectureId": "iwate",
      "type": "station",
      "subtype": "private",
      "name": "千厩",
      "nameKana": "せんまや",
      "nameEn": "Senmaya",
      "operator": null,
      "network": null,
      "ref": null,
      "latitude": 38.924595,
      "longitude": 141.3457671,
      "countryCode": "jp",
      "rawTags": {
        "name": "千厩",
        "name:en": "Senmaya",
        "name:ja": "千厩",
        "name:ja_kana": "せんまや",
        "name:ja_rm": "Senmaya",
        "name:ko": "센마야",
        "note": "National-Land Numerical Information (Railway) 2007, MLIT Japan",
        "note:ja": "国土数値情報（鉄道データ）平成19年　国土交通省",
        "public_transport": "station",
        "railway": "station",
        "source": "KSJ2",
        "source_ref": "http://nlftp.mlit.go.jp/ksj/jpgis/datalist/KsjTmplt-N02-v1_1.html",
        "wikidata": "Q8189420",
        "wikipedia": "ja:千厩駅"
      }
    },
    {
      "id": "iwate_station_264265945",
      "osmId": 264265945,
      "osmType": "node",
      "prefectureId": "iwate",
      "type": "station",
      "subtype": "private",
      "name": "陸中門崎",
      "nameKana": null,
      "nameEn": "Rikuchu-Kanzaki",
      "operator": null,
      "network": null,
      "ref": null,
      "latitude": 38.9170742,
      "longitude": 141.2512569,
      "countryCode": "jp",
      "rawTags": {
        "name": "陸中門崎",
        "name:en": "Rikuchu-Kanzaki",
        "name:ja": "陸中門崎",
        "name:ja_rm": "Rikuchū-Kanzaki",
        "name:ko": "리쿠추칸자키",
        "note": "National-Land Numerical Information (Railway) 2007, MLIT Japan",
        "note:ja": "国土数値情報（鉄道データ）平成19年　国土交通省",
        "public_transport": "station",
        "railway": "station",
        "source": "KSJ2",
        "source_ref": "http://nlftp.mlit.go.jp/ksj/jpgis/datalist/KsjTmplt-N02-v1_1.html",
        "wikidata": "Q7334117",
        "wikipedia": "ja:陸中門崎駅"
      }
    },
    {
      "id": "iwate_station_264266939",
      "osmId": 264266939,
      "osmType": "node",
      "prefectureId": "iwate",
      "type": "station",
      "subtype": "private",
      "name": "陸中松川",
      "nameKana": null,
      "nameEn": "Rikuchu-Matsukawa",
      "operator": null,
      "network": null,
      "ref": null,
      "latitude": 38.9763985,
      "longitude": 141.2375962,
      "countryCode": "jp",
      "rawTags": {
        "name": "陸中松川",
        "name:en": "Rikuchu-Matsukawa",
        "name:ja": "陸中松川",
        "name:ja_rm": "Rikuchū-Matsukawa",
        "name:ko": "리쿠추마쓰카와",
        "note": "National-Land Numerical Information (Railway) 2007, MLIT Japan",
        "note:ja": "国土数値情報（鉄道データ）平成19年　国土交通省",
        "public_transport": "station",
        "railway": "station",
        "source": "KSJ2",
        "source_ref": "http://nlftp.mlit.go.jp/ksj/jpgis/datalist/KsjTmplt-N02-v1_1.html",
        "wikidata": "Q7334118",
        "wikipedia": "ja:陸中松川駅"
      }
    },
    {
      "id": "iwate_station_264266941",
      "osmId": 264266941,
      "osmType": "node",
      "prefectureId": "iwate",
      "type": "station",
      "subtype": "private",
      "name": "新月",
      "nameKana": "にいつき",
      "nameEn": "Niitsuki",
      "operator": null,
      "network": null,
      "ref": null,
      "latitude": 38.915438,
      "longitude": 141.489317,
      "countryCode": "jp",
      "rawTags": {
        "name": "新月",
        "name:en": "Niitsuki",
        "name:ja": "新月",
        "name:ja_kana": "にいつき",
        "name:ja_rm": "Niitsuki",
        "name:ko": "니쓰키",
        "note": "National-Land Numerical Information (Railway) 2007, MLIT Japan",
        "public_transport": "station",
        "railway": "station",
        "source": "KSJ2",
        "source_ref": "http://nlftp.mlit.go.jp/ksj/jpgis/datalist/KsjTmplt-N02-v1_1.html",
        "wikidata": "Q7034492",
        "wikipedia": "ja:新月駅"
      }
    },
    {
      "id": "iwate_station_264268159",
      "osmId": 264268159,
      "osmType": "node",
      "prefectureId": "iwate",
      "type": "station",
      "subtype": "jr",
      "name": "陸前矢作",
      "nameKana": "りくぜんやはぎ",
      "nameEn": "Rikuzen-Yahagi",
      "operator": "東日本旅客鉄道",
      "network": null,
      "ref": null,
      "latitude": 39.0228099,
      "longitude": 141.5799988,
      "countryCode": "jp",
      "rawTags": {
        "name": "陸前矢作",
        "name:en": "Rikuzen-Yahagi",
        "name:ja": "陸前矢作",
        "name:ja-Hira": "りくぜんやはぎ",
        "name:ko": "리쿠젠야하기",
        "name:zh": "陆前矢作",
        "note": "JR東日本大船渡線のBRT区間に設置されている「駅」であり、鉄道事業法上の駅とは異なる",
        "operator": "東日本旅客鉄道",
        "operator:ja": "東日本旅客鉄道",
        "public_transport": "station",
        "railway": "station",
        "shelter": "yes",
        "source": "KSJ2",
        "source_ref": "http://nlftp.mlit.go.jp/ksj/jpgis/datalist/KsjTmplt-N02-v1_1.html",
        "start_date": "1933-02-15",
        "train": "no",
        "wikidata": "Q7334145",
        "wikipedia": "ja:陸前矢作駅"
      }
    },
    {
      "id": "iwate_station_264268636",
      "osmId": 264268636,
      "osmType": "node",
      "prefectureId": "iwate",
      "type": "station",
      "subtype": "private",
      "name": "矢越",
      "nameKana": "やごし",
      "nameEn": "Yagoshi",
      "operator": null,
      "network": null,
      "ref": null,
      "latitude": 38.9352621,
      "longitude": 141.429451,
      "countryCode": "jp",
      "rawTags": {
        "name": "矢越",
        "name:en": "Yagoshi",
        "name:ja": "矢越",
        "name:ja_kana": "やごし",
        "name:ja_rm": "Yagoshi",
        "name:ko": "야고시",
        "note": "National-Land Numerical Information (Railway) 2007, MLIT Japan",
        "note:ja": "国土数値情報（鉄道データ）平成19年　国土交通省",
        "public_transport": "station",
        "railway": "station",
        "source": "KSJ2",
        "source_ref": "http://nlftp.mlit.go.jp/ksj/jpgis/datalist/KsjTmplt-N02-v1_1.html",
        "wikidata": "Q8046746",
        "wikipedia": "ja:矢越駅"
      }
    },
    {
      "id": "iwate_station_264269176",
      "osmId": 264269176,
      "osmType": "node",
      "prefectureId": "iwate",
      "type": "station",
      "subtype": "private",
      "name": "柴宿",
      "nameKana": null,
      "nameEn": "Shibajyuku",
      "operator": null,
      "network": null,
      "ref": null,
      "latitude": 38.9968015,
      "longitude": 141.2724368,
      "countryCode": "jp",
      "rawTags": {
        "name": "柴宿",
        "name:en": "Shibajyuku",
        "name:ja": "柴宿",
        "name:ja_rm": "Shibajyuku",
        "name:ko": "시바주쿠",
        "note": "National-Land Numerical Information (Railway) 2007, MLIT Japan",
        "note:ja": "国土数値情報（鉄道データ）平成19年　国土交通省",
        "public_transport": "station",
        "railway": "station",
        "source": "KSJ2",
        "source_ref": "http://nlftp.mlit.go.jp/ksj/jpgis/datalist/KsjTmplt-N02-v1_1.html",
        "wikidata": "Q7496014",
        "wikipedia": "ja:柴宿駅"
      }
    },
    {
      "id": "iwate_station_264269517",
      "osmId": 264269517,
      "osmType": "node",
      "prefectureId": "iwate",
      "type": "station",
      "subtype": "private",
      "name": "小梨",
      "nameKana": "こなし",
      "nameEn": "Konashi",
      "operator": null,
      "network": null,
      "ref": null,
      "latitude": 38.9325448,
      "longitude": 141.3844211,
      "countryCode": "jp",
      "rawTags": {
        "name": "小梨",
        "name:en": "Konashi",
        "name:ja": "小梨",
        "name:ja_kana": "こなし",
        "name:ja_rm": "Konashi",
        "name:ko": "고나시",
        "note": "National-Land Numerical Information (Railway) 2007, MLIT Japan",
        "note:ja": "国土数値情報（鉄道データ）平成19年　国土交通省",
        "public_transport": "station",
        "railway": "station",
        "source": "KSJ2",
        "source_ref": "http://nlftp.mlit.go.jp/ksj/jpgis/datalist/KsjTmplt-N02-v1_1.html",
        "wikidata": "Q6428886",
        "wikipedia": "ja:小梨駅"
      }
    },
    {
      "id": "iwate_station_264269846",
      "osmId": 264269846,
      "osmType": "node",
      "prefectureId": "iwate",
      "type": "station",
      "subtype": "private",
      "name": "真滝",
      "nameKana": "またき",
      "nameEn": "Mataki",
      "operator": null,
      "network": null,
      "ref": null,
      "latitude": 38.9084404,
      "longitude": 141.1779262,
      "countryCode": "jp",
      "rawTags": {
        "name": "真滝",
        "name:en": "Mataki",
        "name:ja": "真滝",
        "name:ja-Hira": "またき",
        "name:ja-Latn": "Mataki",
        "name:ko": "마타키",
        "note": "National-Land Numerical Information (Railway) 2007, MLIT Japan",
        "note:ja": "国土数値情報（鉄道データ）平成19年　国土交通省",
        "public_transport": "station",
        "railway": "station",
        "wikidata": "Q6786016",
        "wikipedia": "ja:真滝駅"
      }
    },
    {
      "id": "iwate_station_264458184",
      "osmId": 264458184,
      "osmType": "node",
      "prefectureId": "iwate",
      "type": "station",
      "subtype": "private",
      "name": "斗米",
      "nameKana": null,
      "nameEn": "Tomai",
      "operator": null,
      "network": null,
      "ref": null,
      "latitude": 40.2853003,
      "longitude": 141.2910403,
      "countryCode": "jp",
      "rawTags": {
        "KSJ2:LIN": "いわて銀河鉄道線",
        "KSJ2:STN": "斗米",
        "name": "斗米",
        "name:en": "Tomai",
        "name:ja": "斗米",
        "name:ja_rm": "Tomai",
        "name:ko": "도마이",
        "note": "National-Land Numerical Information (Railway) 2007, MLIT Japan",
        "note:ja": "国土数値情報（鉄道データ）平成19年 国土交通省",
        "public_transport": "station",
        "railway": "station",
        "source": "KSJ2",
        "source_ref": "http://nlftp.mlit.go.jp/ksj/jpgis/datalist/KsjTmplt-N02-v1_1.html",
        "website": "https://igr.jp/station/tomai/",
        "wikidata": "Q7818232",
        "wikipedia": "ja:斗米駅"
      }
    },
    {
      "id": "iwate_station_264458270",
      "osmId": 264458270,
      "osmType": "node",
      "prefectureId": "iwate",
      "type": "station",
      "subtype": "private",
      "name": "金田一温泉",
      "nameKana": null,
      "nameEn": "Kintaichi-Onsen",
      "operator": null,
      "network": null,
      "ref": null,
      "latitude": 40.323397,
      "longitude": 141.3037952,
      "countryCode": "jp",
      "rawTags": {
        "KSJ2:LIN": "いわて銀河鉄道線",
        "KSJ2:STN": "金田一温泉",
        "alt_name:ko": "긴타이치온센",
        "name": "金田一温泉",
        "name:en": "Kintaichi-Onsen",
        "name:ja": "金田一温泉",
        "name:ja_rm": "Kintaichi-Onsen",
        "name:ko": "긴타이치온천",
        "note": "National-Land Numerical Information (Railway) 2007, MLIT Japan",
        "note:ja": "国土数値情報（鉄道データ）平成19年 国土交通省",
        "public_transport": "station",
        "railway": "station",
        "source": "KSJ2",
        "source_ref": "http://nlftp.mlit.go.jp/ksj/jpgis/datalist/KsjTmplt-N02-v1_1.html",
        "website": "https://igr.jp/station/kintaichionsen/",
        "wikidata": "Q6414325",
        "wikipedia": "ja:金田一温泉駅"
      }
    },
    {
      "id": "iwate_station_264458414",
      "osmId": 264458414,
      "osmType": "node",
      "prefectureId": "iwate",
      "type": "station",
      "subtype": "private",
      "name": "御堂",
      "nameKana": null,
      "nameEn": "Mido",
      "operator": null,
      "network": null,
      "ref": null,
      "latitude": 40.0045952,
      "longitude": 141.2373084,
      "countryCode": "jp",
      "rawTags": {
        "KSJ2:LIN": "いわて銀河鉄道線",
        "KSJ2:STN": "御堂",
        "name": "御堂",
        "name:en": "Mido",
        "name:ja": "御堂",
        "name:ja_rm": "Midō",
        "name:ko": "미도",
        "note": "National-Land Numerical Information (Railway) 2007, MLIT Japan",
        "note:ja": "国土数値情報（鉄道データ）平成19年　国土交通省",
        "public_transport": "station",
        "railway": "station",
        "source": "KSJ2",
        "source_ref": "http://nlftp.mlit.go.jp/ksj/jpgis/datalist/KsjTmplt-N02-v1_1.html",
        "website": "https://igr.jp/station/mido/",
        "wikidata": "Q6843506",
        "wikipedia": "ja:御堂駅"
      }
    },
    {
      "id": "iwate_station_264458521",
      "osmId": 264458521,
      "osmType": "node",
      "prefectureId": "iwate",
      "type": "station",
      "subtype": "private",
      "name": "奥中山高原",
      "nameKana": null,
      "nameEn": "Okunakayama-Kogen",
      "operator": null,
      "network": null,
      "ref": null,
      "latitude": 40.0657832,
      "longitude": 141.228548,
      "countryCode": "jp",
      "rawTags": {
        "KSJ2:LIN": "いわて銀河鉄道線",
        "KSJ2:STN": "奥中山高原",
        "name": "奥中山高原",
        "name:en": "Okunakayama-Kogen",
        "name:ja": "奥中山高原",
        "name:ja_rm": "Okunakayama-Kōgen",
        "name:ko": "오쿠나카야마코겐",
        "note": "National-Land Numerical Information (Railway) 2007, MLIT Japan",
        "note:ja": "国土数値情報（鉄道データ）平成19年　国土交通省",
        "public_transport": "station",
        "railway": "station",
        "source": "KSJ2",
        "source_ref": "http://nlftp.mlit.go.jp/ksj/jpgis/datalist/KsjTmplt-N02-v1_1.html",
        "website": "https://igr.jp/station/okunakayamakogen/",
        "wikidata": "Q7082750",
        "wikipedia": "ja:奥中山高原駅"
      }
    },
    {
      "id": "iwate_station_264458527",
      "osmId": 264458527,
      "osmType": "node",
      "prefectureId": "iwate",
      "type": "station",
      "subtype": "private",
      "name": "小繋",
      "nameKana": null,
      "nameEn": "Kotsunagi",
      "operator": null,
      "network": null,
      "ref": null,
      "latitude": 40.1235849,
      "longitude": 141.2607146,
      "countryCode": "jp",
      "rawTags": {
        "KSJ2:LIN": "いわて銀河鉄道線",
        "KSJ2:STN": "小繋",
        "name": "小繋",
        "name:en": "Kotsunagi",
        "name:ja": "小繋",
        "name:ja_rm": "Kotsunagi",
        "name:ko": "고쓰나기",
        "note": "National-Land Numerical Information (Railway) 2007, MLIT Japan",
        "note:ja": "国土数値情報（鉄道データ）平成19年　国土交通省",
        "public_transport": "station",
        "railway": "station",
        "source": "KSJ2",
        "source_ref": "http://nlftp.mlit.go.jp/ksj/jpgis/datalist/KsjTmplt-N02-v1_1.html",
        "website": "https://igr.jp/station/kotsunagi/",
        "wikidata": "Q6434254",
        "wikipedia": "ja:小繋駅"
      }
    },
    {
      "id": "iwate_station_264458873",
      "osmId": 264458873,
      "osmType": "node",
      "prefectureId": "iwate",
      "type": "station",
      "subtype": "private",
      "name": "厨川",
      "nameKana": "くりやがわ",
      "nameEn": "Kuriyagawa",
      "operator": null,
      "network": null,
      "ref": null,
      "latitude": 39.7447239,
      "longitude": 141.1291875,
      "countryCode": "jp",
      "rawTags": {
        "name": "厨川",
        "name:en": "Kuriyagawa",
        "name:ja-Hira": "くりやがわ",
        "name:ja-Latn": "Kuriyagawa",
        "public_transport": "station",
        "railway": "station",
        "source": "KSJ2",
        "train": "yes",
        "website": "https://igr.jp/station/kuriyagawa/",
        "wikidata": "Q6446090",
        "wikipedia": "ja:厨川駅"
      }
    },
    {
      "id": "iwate_station_264458997",
      "osmId": 264458997,
      "osmType": "node",
      "prefectureId": "iwate",
      "type": "station",
      "subtype": "private",
      "name": "一戸",
      "nameKana": "いちのへ",
      "nameEn": "Ichinohe",
      "operator": null,
      "network": null,
      "ref": null,
      "latitude": 40.2103856,
      "longitude": 141.297461,
      "countryCode": "jp",
      "rawTags": {
        "KSJ2:LIN": "いわて銀河鉄道線",
        "KSJ2:STN": "一戸",
        "name": "一戸",
        "name:en": "Ichinohe",
        "name:ja": "一戸",
        "name:ja_kana": "いちのへ",
        "name:ja_rm": "Ichinohe",
        "name:ko": "이치노헤",
        "note": "National-Land Numerical Information (Railway) 2007, MLIT Japan",
        "note:ja": "国土数値情報（鉄道データ）平成19年 国土交通省",
        "public_transport": "station",
        "railway": "station",
        "source": "KSJ2",
        "source_ref": "http://nlftp.mlit.go.jp/ksj/jpgis/datalist/KsjTmplt-N02-v1_1.html",
        "website": "https://igr.jp/station/ichinohe/",
        "wikidata": "Q5986230",
        "wikipedia": "ja:一戸駅"
      }
    },
    {
      "id": "iwate_station_264459126",
      "osmId": 264459126,
      "osmType": "node",
      "prefectureId": "iwate",
      "type": "station",
      "subtype": "private",
      "name": "岩手川口",
      "nameKana": null,
      "nameEn": "Iwate-Kawaguchi",
      "operator": null,
      "network": null,
      "ref": null,
      "latitude": 39.9194282,
      "longitude": 141.1993377,
      "countryCode": "jp",
      "rawTags": {
        "KSJ2:LIN": "いわて銀河鉄道線",
        "KSJ2:STN": "岩手川口",
        "alt_name:ko": "이와테카와구치",
        "name": "岩手川口",
        "name:en": "Iwate-Kawaguchi",
        "name:ja": "岩手川口",
        "name:ja_rm": "Iwate-Kawaguchi",
        "name:ko": "이와테카와구치",
        "note": "National-Land Numerical Information (Railway) 2007, MLIT Japan",
        "note:ja": "国土数値情報（鉄道データ）平成19年　国土交通省",
        "public_transport": "station",
        "railway": "station",
        "source": "KSJ2",
        "source_ref": "http://nlftp.mlit.go.jp/ksj/jpgis/datalist/KsjTmplt-N02-v1_1.html",
        "website": "https://igr.jp/station/iwatekawaguchi/",
        "wikidata": "Q6100784",
        "wikipedia": "ja:岩手川口駅"
      }
    },
    {
      "id": "iwate_station_264459808",
      "osmId": 264459808,
      "osmType": "node",
      "prefectureId": "iwate",
      "type": "station",
      "subtype": "private",
      "name": "青山",
      "nameKana": "あおやま",
      "nameEn": "Aoyama",
      "operator": null,
      "network": null,
      "ref": null,
      "latitude": 39.7248279,
      "longitude": 141.1183818,
      "countryCode": "jp",
      "rawTags": {
        "name": "青山",
        "name:en": "Aoyama",
        "name:ja-Hira": "あおやま",
        "name:ja-Latn": "Aoyama",
        "public_transport": "station",
        "railway": "station",
        "source": "KSJ2",
        "train": "yes",
        "website": "https://igr.jp/station/aoyama/",
        "wikidata": "Q4778832",
        "wikipedia": "ja:青山駅 (岩手県)"
      }
    },
    {
      "id": "iwate_station_471357248",
      "osmId": 471357248,
      "osmType": "node",
      "prefectureId": "iwate",
      "type": "station",
      "subtype": "private",
      "name": "滝沢",
      "nameKana": "たきざわ",
      "nameEn": "Takizawa",
      "operator": null,
      "network": null,
      "ref": null,
      "latitude": 39.7989537,
      "longitude": 141.1494343,
      "countryCode": "jp",
      "rawTags": {
        "name": "滝沢",
        "name:en": "Takizawa",
        "name:ja-Hira": "たきざわ",
        "name:ja-Latn": "Takizawa",
        "public_transport": "station",
        "railway": "station",
        "source": "KSJ2",
        "toilets:wheelchair": "no",
        "train": "yes",
        "website": "https://igr.jp/station/takizawa/",
        "wheelchair": "no",
        "wikidata": "Q7678420",
        "wikipedia": "ja:滝沢駅"
      }
    },
    {
      "id": "iwate_bus_terminal_653960562",
      "osmId": 653960562,
      "osmType": "node",
      "prefectureId": "iwate",
      "type": "bus_terminal",
      "subtype": null,
      "name": "盛岡駅東口バスターミナル",
      "nameKana": null,
      "nameEn": null,
      "operator": null,
      "network": null,
      "ref": null,
      "latitude": 39.7021603,
      "longitude": 141.1366786,
      "countryCode": "jp",
      "rawTags": {
        "amenity": "bus_station",
        "bus": "yes",
        "name": "盛岡駅東口バスターミナル",
        "name:ja": "盛岡駅東口バスターミナル",
        "public_transport": "station"
      }
    },
    {
      "id": "iwate_bus_terminal_656180758",
      "osmId": 656180758,
      "osmType": "node",
      "prefectureId": "iwate",
      "type": "bus_terminal",
      "subtype": null,
      "name": "松園バスターミナル",
      "nameKana": null,
      "nameEn": null,
      "operator": null,
      "network": null,
      "ref": null,
      "latitude": 39.7493252,
      "longitude": 141.1543343,
      "countryCode": "jp",
      "rawTags": {
        "amenity": "bus_station",
        "name": "松園バスターミナル",
        "name:ja": "松園バスターミナル"
      }
    },
    {
      "id": "iwate_bus_terminal_662878343",
      "osmId": 662878343,
      "osmType": "node",
      "prefectureId": "iwate",
      "type": "bus_terminal",
      "subtype": null,
      "name": "盛岡駅西口バスターミナル",
      "nameKana": null,
      "nameEn": null,
      "operator": null,
      "network": null,
      "ref": null,
      "latitude": 39.7018727,
      "longitude": 141.134465,
      "countryCode": "jp",
      "rawTags": {
        "amenity": "bus_station",
        "bus": "yes",
        "layer": "1",
        "name": "盛岡駅西口バスターミナル",
        "public_transport": "station",
        "wheelchair": "yes"
      }
    },
    {
      "id": "iwate_bus_terminal_778215354",
      "osmId": 778215354,
      "osmType": "node",
      "prefectureId": "iwate",
      "type": "bus_terminal",
      "subtype": null,
      "name": "雫石駅前",
      "nameKana": null,
      "nameEn": null,
      "operator": null,
      "network": null,
      "ref": null,
      "latitude": 39.6893791,
      "longitude": 140.9755098,
      "countryCode": "jp",
      "rawTags": {
        "amenity": "bus_station",
        "name": "雫石駅前"
      }
    },
    {
      "id": "iwate_bus_terminal_1201351881",
      "osmId": 1201351881,
      "osmType": "node",
      "prefectureId": "iwate",
      "type": "bus_terminal",
      "subtype": null,
      "name": "岩手県北バス宮古営業所",
      "nameKana": null,
      "nameEn": null,
      "operator": null,
      "network": null,
      "ref": null,
      "latitude": 39.6408045,
      "longitude": 141.937701,
      "countryCode": "jp",
      "rawTags": {
        "amenity": "bus_station",
        "name": "岩手県北バス宮古営業所"
      }
    },
    {
      "id": "iwate_station_1852318030",
      "osmId": 1852318030,
      "osmType": "node",
      "prefectureId": "iwate",
      "type": "station",
      "subtype": "private",
      "name": "安比高原",
      "nameKana": "あっぴこうげん",
      "nameEn": "Appi-Kōgen",
      "operator": null,
      "network": null,
      "ref": null,
      "latitude": 40.0123954,
      "longitude": 140.9976755,
      "countryCode": "jp",
      "rawTags": {
        "name": "安比高原",
        "name:en": "Appi-Kōgen",
        "name:ja-Hira": "あっぴこうげん",
        "name:ja-Latn": "Appi-Kōgen",
        "public_transport": "station",
        "railway": "station",
        "source": "KSJ2",
        "train": "yes",
        "wikidata": "Q4781066",
        "wikipedia": "ja:安比高原駅"
      }
    },
    {
      "id": "iwate_station_1903884603",
      "osmId": 1903884603,
      "osmType": "node",
      "prefectureId": "iwate",
      "type": "station",
      "subtype": "jr",
      "name": "栃ヶ沢公園",
      "nameKana": "とちがさわこうえん",
      "nameEn": "Tochigasawa-Kōen Park",
      "operator": "JR東日本",
      "network": null,
      "ref": null,
      "latitude": 39.0271126,
      "longitude": 141.6254342,
      "countryCode": "jp",
      "rawTags": {
        "bench": "yes",
        "lit": "no",
        "name": "栃ヶ沢公園",
        "name:en": "Tochigasawa-Kōen Park",
        "name:ja": "栃ヶ沢公園",
        "name:ja-Hira": "とちがさわこうえん",
        "note": "JR東日本大船渡線のBRT区間に設置されている「駅」であり、鉄道事業法上の駅とは異なる",
        "operator": "JR東日本",
        "operator:ja": "東日本旅客鉄道",
        "public_transport": "station",
        "railway": "station",
        "shelter": "no",
        "start_date": "2018-04-01",
        "surface": "asphalt",
        "tactile_paving": "no",
        "train": "no",
        "wikidata": "Q48754291",
        "wikipedia": "ja:栃ヶ沢公園駅"
      }
    },
    {
      "id": "iwate_bus_terminal_2481179329",
      "osmId": 2481179329,
      "osmType": "node",
      "prefectureId": "iwate",
      "type": "bus_terminal",
      "subtype": null,
      "name": "バスセンター",
      "nameKana": null,
      "nameEn": null,
      "operator": null,
      "network": null,
      "ref": null,
      "latitude": 38.9259126,
      "longitude": 141.1368842,
      "countryCode": "jp",
      "rawTags": {
        "amenity": "bus_station",
        "name": "バスセンター",
        "source": "image,2013-09;Bing,2012-11-06"
      }
    },
    {
      "id": "iwate_bus_terminal_2832411501",
      "osmId": 2832411501,
      "osmType": "node",
      "prefectureId": "iwate",
      "type": "bus_terminal",
      "subtype": null,
      "name": "奇跡の一本松",
      "nameKana": null,
      "nameEn": "Kiseki no Ippon Matsu",
      "operator": null,
      "network": "大船渡線BRT",
      "ref": null,
      "latitude": 39.0076553,
      "longitude": 141.6273076,
      "countryCode": "jp",
      "rawTags": {
        "amenity": "bus_station",
        "bus": "yes",
        "covered": "no",
        "highway": "bus_stop",
        "name": "奇跡の一本松",
        "name:en": "Kiseki no Ippon Matsu",
        "network": "大船渡線BRT",
        "public_transport": "station"
      }
    },
    {
      "id": "iwate_station_3647437876",
      "osmId": 3647437876,
      "osmType": "node",
      "prefectureId": "iwate",
      "type": "station",
      "subtype": "private",
      "name": "盛岡",
      "nameKana": "もりおか",
      "nameEn": "Morioka",
      "operator": null,
      "network": null,
      "ref": null,
      "latitude": 39.7005875,
      "longitude": 141.136689,
      "countryCode": "jp",
      "rawTags": {
        "name": "盛岡",
        "name:de": "Morioka",
        "name:en": "Morioka",
        "name:ja-Hira": "もりおか",
        "name:ja-Latn": "Morioka",
        "name:ja_kana": "もりおか",
        "name:ja_rm": "Morioka",
        "name:ru": "Мориока",
        "public_transport": "station",
        "railway": "station",
        "source": "KSJ2",
        "toilets:wheelchair": "yes",
        "train": "yes",
        "website": "https://www.jreast.co.jp/estation/station/info.aspx?StationCd=1565",
        "wheelchair": "yes",
        "wikidata": "Q785390",
        "wikipedia": "ja:盛岡駅"
      }
    },
    {
      "id": "iwate_station_3838451239",
      "osmId": 3838451239,
      "osmType": "node",
      "prefectureId": "iwate",
      "type": "station",
      "subtype": "private",
      "name": "猊鼻渓",
      "nameKana": null,
      "nameEn": "Geibikei",
      "operator": null,
      "network": null,
      "ref": null,
      "latitude": 38.9887792,
      "longitude": 141.2532381,
      "countryCode": "jp",
      "rawTags": {
        "name": "猊鼻渓",
        "name:en": "Geibikei",
        "name:ja": "猊鼻渓",
        "name:ja_rm": "Geibikei",
        "name:ko": "게이비케",
        "note": "National-Land Numerical Information (Railway) 2007, MLIT Japan",
        "note:ja": "国土数値情報（鉄道データ）平成19年　国土交通省",
        "public_transport": "station",
        "railway": "station",
        "source": "KSJ2",
        "source_ref": "http://nlftp.mlit.go.jp/ksj/jpgis/datalist/KsjTmplt-N02-v1_1.html",
        "wikidata": "Q5530099",
        "wikipedia": "ja:猊鼻渓駅"
      }
    },
    {
      "id": "iwate_station_3906691754",
      "osmId": 3906691754,
      "osmType": "node",
      "prefectureId": "iwate",
      "type": "station",
      "subtype": "private",
      "name": "北上",
      "nameKana": "きたかみ",
      "nameEn": "Kitakami",
      "operator": null,
      "network": null,
      "ref": null,
      "latitude": 39.2818212,
      "longitude": 141.1217172,
      "countryCode": "jp",
      "rawTags": {
        "highspeed": "yes",
        "name": "北上",
        "name:de": "Kitakami",
        "name:en": "Kitakami",
        "name:ja-Hira": "きたかみ",
        "name:ja-Latn": "Kitakami",
        "name:ru": "Китаками",
        "public_transport": "station",
        "railway": "station",
        "source": "KSJ2",
        "train": "yes",
        "wikidata": "Q1136531",
        "wikipedia": "ja:北上駅"
      }
    },
    {
      "id": "iwate_station_3907992152",
      "osmId": 3907992152,
      "osmType": "node",
      "prefectureId": "iwate",
      "type": "station",
      "subtype": "private",
      "name": "盛",
      "nameKana": null,
      "nameEn": "Sakari",
      "operator": null,
      "network": null,
      "ref": null,
      "latitude": 39.0857647,
      "longitude": 141.7106981,
      "countryCode": "jp",
      "rawTags": {
        "bus": "yes",
        "name": "盛",
        "name:en": "Sakari",
        "name:ja": "盛",
        "name:ja_rm": "Sakari",
        "name:ko": "사카리",
        "note": "National-Land Numerical Information (Railway) 2007, MLIT Japan",
        "public_transport": "station",
        "railway": "station",
        "source": "KSJ2",
        "source_ref": "http://nlftp.mlit.go.jp/ksj/jpgis/datalist/KsjTmplt-N02-v1_1.html",
        "train": "yes",
        "website": "https://www.sanrikutetsudou.com/?p=638",
        "wikidata": "Q8190872",
        "wikipedia": "ja:盛駅"
      }
    },
    {
      "id": "iwate_station_3908803388",
      "osmId": 3908803388,
      "osmType": "node",
      "prefectureId": "iwate",
      "type": "station",
      "subtype": "private",
      "name": "岩手飯岡",
      "nameKana": "いわていいおか",
      "nameEn": "Iwate-Iioka",
      "operator": null,
      "network": null,
      "ref": null,
      "latitude": 39.6537584,
      "longitude": 141.1466881,
      "countryCode": "jp",
      "rawTags": {
        "name": "岩手飯岡",
        "name:en": "Iwate-Iioka",
        "name:ja-Hira": "いわていいおか",
        "name:ja-Latn": "Iwateiioka",
        "name:ru": "Ивате-Ииока",
        "public_transport": "station",
        "railway": "station",
        "source": "KSJ2",
        "wikidata": "Q900408",
        "wikipedia": "ja:岩手飯岡駅"
      }
    },
    {
      "id": "iwate_station_3908803389",
      "osmId": 3908803389,
      "osmType": "node",
      "prefectureId": "iwate",
      "type": "station",
      "subtype": "private",
      "name": "仙北町",
      "nameKana": "せんぼくちょう",
      "nameEn": "Senbokucho",
      "operator": null,
      "network": null,
      "ref": null,
      "latitude": 39.6875649,
      "longitude": 141.148809,
      "countryCode": "jp",
      "rawTags": {
        "name": "仙北町",
        "name:en": "Senbokucho",
        "name:ja-Hira": "せんぼくちょう",
        "name:ja-Latn": "Senbokuchō",
        "name:ru": "Сембокутё",
        "public_transport": "station",
        "railway": "station",
        "source": "KSJ2",
        "wikidata": "Q900140",
        "wikipedia": "ja:仙北町駅"
      }
    },
    {
      "id": "iwate_station_3910699182",
      "osmId": 3910699182,
      "osmType": "node",
      "prefectureId": "iwate",
      "type": "station",
      "subtype": "private",
      "name": "釜石",
      "nameKana": "かまいし",
      "nameEn": "Kamaishi",
      "operator": null,
      "network": null,
      "ref": null,
      "latitude": 39.2734923,
      "longitude": 141.8724537,
      "countryCode": "jp",
      "rawTags": {
        "KSJ2:LIN": "南リアス線;山田線;釜石線",
        "KSJ2:STN": "釜石",
        "name": "釜石",
        "name:en": "Kamaishi",
        "name:ja": "釜石",
        "name:ja_kana": "かまいし",
        "name:ja_rm": "Kamaishi",
        "name:ko": "가마이시",
        "note": "National-Land Numerical Information (Railway) 2007, MLIT Japan",
        "note:ja": "国土数値情報（鉄道データ）平成19年　国土交通省",
        "public_transport": "station",
        "railway": "station",
        "source": "KSJ2",
        "source_ref": "http://nlftp.mlit.go.jp/ksj/jpgis/datalist/KsjTmplt-N02-v1_1.html",
        "website": "https://www.sanrikutetsudou.com/?p=620",
        "wikidata": "Q3892979",
        "wikipedia": "ja:釜石駅"
      }
    },
    {
      "id": "iwate_station_3910699183",
      "osmId": 3910699183,
      "osmType": "node",
      "prefectureId": "iwate",
      "type": "station",
      "subtype": "private",
      "name": "唐丹",
      "nameKana": "とうに",
      "nameEn": "Toni",
      "operator": "三陸鉄道",
      "network": null,
      "ref": null,
      "latitude": 39.2017921,
      "longitude": 141.8613539,
      "countryCode": "jp",
      "rawTags": {
        "KSJ2:LIN": "南リアス線",
        "name": "唐丹",
        "name:en": "Toni",
        "name:ja": "唐丹",
        "name:ja_kana": "とうに",
        "name:ja_rm": "Tōni",
        "name:ko": "도니",
        "note": "National-Land Numerical Information (Railway) 2007, MLIT Japan",
        "note:ja": "国土数値情報（鉄道データ）平成19年　国土交通省",
        "operator": "三陸鉄道",
        "operator:ja": "三陸鉄道",
        "public_transport": "station",
        "railway": "station",
        "source": "KSJ2",
        "source_ref": "http://nlftp.mlit.go.jp/ksj/jpgis/datalist/KsjTmplt-N02-v1_1.html",
        "website": "https://www.sanrikutetsudou.com/?p=624",
        "wikidata": "Q11418503",
        "wikipedia": "ja:唐丹駅"
      }
    },
    {
      "id": "iwate_station_3910699184",
      "osmId": 3910699184,
      "osmType": "node",
      "prefectureId": "iwate",
      "type": "station",
      "subtype": "private",
      "name": "山口団地",
      "nameKana": "やまぐちだんち",
      "nameEn": "Yamaguchi-Danchi",
      "operator": null,
      "network": null,
      "ref": null,
      "latitude": 39.646277,
      "longitude": 141.9332485,
      "countryCode": "jp",
      "rawTags": {
        "KSJ2:LIN": "北リアス線",
        "KSJ2:STN": "山口団地",
        "alt_name:ko": "야마구치단치",
        "name": "山口団地",
        "name:en": "Yamaguchi-Danchi",
        "name:ja": "山口団地",
        "name:ja_kana": "やまぐちだんち",
        "name:ja_rm": "Yamaguchi-Danchi",
        "name:ko": "야마구치단지",
        "public_transport": "station",
        "railway": "station",
        "website": "https://www.sanrikutetsudou.com/?p=605",
        "wikidata": "Q11466719",
        "wikipedia": "ja:山口団地駅"
      }
    },
    {
      "id": "iwate_station_3920556722",
      "osmId": 3920556722,
      "osmType": "node",
      "prefectureId": "iwate",
      "type": "station",
      "subtype": "private",
      "name": "いわて沼宮内",
      "nameKana": null,
      "nameEn": "Iwate-Numakunai",
      "operator": null,
      "network": null,
      "ref": null,
      "latitude": 39.960584,
      "longitude": 141.2172841,
      "countryCode": "jp",
      "rawTags": {
        "highspeed": "yes",
        "name": "いわて沼宮内",
        "name:de": "Iwate-Numakunai",
        "name:en": "Iwate-Numakunai",
        "name:ja": "いわて沼宮内",
        "name:ko": "이와테누마쿠나이",
        "name:ru": "Ивате-Нумакунаи",
        "public_transport": "station",
        "railway": "station",
        "source": "KSJ2",
        "train": "yes",
        "website": "https://www.jreast.co.jp/estation/station/info.aspx?StationCd=1193",
        "wikidata": "Q1136556",
        "wikipedia": "ja:いわて沼宮内駅"
      }
    },
    {
      "id": "iwate_station_3920556723",
      "osmId": 3920556723,
      "osmType": "node",
      "prefectureId": "iwate",
      "type": "station",
      "subtype": "private",
      "name": "好摩",
      "nameKana": "こうま",
      "nameEn": "Koma",
      "operator": null,
      "network": null,
      "ref": null,
      "latitude": 39.8739996,
      "longitude": 141.1735507,
      "countryCode": "jp",
      "rawTags": {
        "name": "好摩",
        "name:en": "Koma",
        "name:ja-Hira": "こうま",
        "name:ja-Latn": "Kōma",
        "public_transport": "station",
        "railway": "station",
        "source": "KSJ2",
        "train": "yes",
        "website": "https://igr.jp/station/koma/",
        "wikidata": "Q6455207",
        "wikipedia": "ja:好摩駅"
      }
    },
    {
      "id": "iwate_station_3920556725",
      "osmId": 3920556725,
      "osmType": "node",
      "prefectureId": "iwate",
      "type": "station",
      "subtype": "private",
      "name": "二戸",
      "nameKana": "にのへ",
      "nameEn": "Ninohe",
      "operator": null,
      "network": null,
      "ref": null,
      "latitude": 40.260138,
      "longitude": 141.286006,
      "countryCode": "jp",
      "rawTags": {
        "highspeed": "yes",
        "name": "二戸",
        "name:de": "Ninohe",
        "name:en": "Ninohe",
        "name:ja": "二戸",
        "name:ja-Hira": "にのへ",
        "name:ja-Latn": "Ninohe",
        "name:ko": "니노헤",
        "name:ru": "Нинохе",
        "public_transport": "station",
        "railway": "station",
        "source": "KSJ2",
        "train": "yes",
        "website": "https://www.jreast.co.jp/estation/station/info.aspx?StationCd=1185",
        "wikidata": "Q385423",
        "wikipedia": "ja:二戸駅"
      }
    },
    {
      "id": "iwate_station_3920556727",
      "osmId": 3920556727,
      "osmType": "node",
      "prefectureId": "iwate",
      "type": "station",
      "subtype": "private",
      "name": "新花巻",
      "nameKana": null,
      "nameEn": "Shin-Hanamaki",
      "operator": null,
      "network": null,
      "ref": null,
      "latitude": 39.4058826,
      "longitude": 141.1735809,
      "countryCode": "jp",
      "rawTags": {
        "highspeed": "yes",
        "name": "新花巻",
        "name:de": "Shin-Hanamaki",
        "name:en": "Shin-Hanamaki",
        "name:ja": "新花巻",
        "name:ja-Latn": "Shin-Hanamaki",
        "name:ko": "신하나마키",
        "name:ru": "Син-Ханамаки",
        "public_transport": "station",
        "railway": "station",
        "source": "KSJ2",
        "train": "yes",
        "wheelchair": "no",
        "wikidata": "Q1187840",
        "wikipedia": "ja:新花巻駅"
      }
    },
    {
      "id": "iwate_station_3920556728",
      "osmId": 3920556728,
      "osmType": "node",
      "prefectureId": "iwate",
      "type": "station",
      "subtype": "private",
      "name": "巣子",
      "nameKana": "すご",
      "nameEn": "Sugo",
      "operator": null,
      "network": null,
      "ref": null,
      "latitude": 39.7836465,
      "longitude": 141.1488576,
      "countryCode": "jp",
      "rawTags": {
        "name": "巣子",
        "name:en": "Sugo",
        "name:ja-Hira": "すご",
        "name:ja-Latn": "Sugo",
        "public_transport": "station",
        "railway": "station",
        "source": "KSJ2",
        "train": "yes",
        "website": "https://igr.jp/station/sugo/",
        "wheelchair": "yes",
        "wikidata": "Q7635141",
        "wikipedia": "ja:巣子駅"
      }
    },
    {
      "id": "iwate_station_4636882514",
      "osmId": 4636882514,
      "osmType": "node",
      "prefectureId": "iwate",
      "type": "station",
      "subtype": "private",
      "name": "一ノ関",
      "nameKana": "いちのせき",
      "nameEn": "Ichinoseki",
      "operator": null,
      "network": null,
      "ref": null,
      "latitude": 38.9268807,
      "longitude": 141.1389019,
      "countryCode": "jp",
      "rawTags": {
        "name": "一ノ関",
        "name:de": "Ichinoseki",
        "name:en": "Ichinoseki",
        "name:ja-Hira": "いちのせき",
        "name:ja-Latn": "Ichinoseki",
        "name:zh": "一之关站",
        "public_transport": "station",
        "railway": "station",
        "train": "yes",
        "wikidata": "Q800946",
        "wikipedia": "ja:一ノ関駅"
      }
    },
    {
      "id": "iwate_station_4831901164",
      "osmId": 4831901164,
      "osmType": "node",
      "prefectureId": "iwate",
      "type": "station",
      "subtype": "jr",
      "name": "陸前高田",
      "nameKana": "りくぜんたかた",
      "nameEn": "Rikuzentakata",
      "operator": "東日本旅客鉄道",
      "network": null,
      "ref": null,
      "latitude": 39.0146757,
      "longitude": 141.6298249,
      "countryCode": "jp",
      "rawTags": {
        "addr:block_number": "110",
        "addr:city": "陸前高田市",
        "addr:postcode": "029-2205",
        "addr:province": "岩手県",
        "addr:quarter": "高田町字館の沖",
        "bench": "yes",
        "name": "陸前高田",
        "name:en": "Rikuzentakata",
        "name:ja": "陸前高田",
        "name:ja-Hira": "りくぜんたかた",
        "name:ko": "리쿠젠타카타",
        "name:zh": "陆前高田",
        "note": "JR東日本大船渡線のBRT区間に設置されている「駅」であり、鉄道事業法上の駅とは異なる",
        "operator": "東日本旅客鉄道",
        "operator:ja": "東日本旅客鉄道",
        "public_transport": "station",
        "railway": "station",
        "shelter": "yes",
        "start_date": "1933-12-15",
        "train": "no",
        "wikidata": "Q7334139",
        "wikipedia": "ja:陸前高田駅"
      }
    },
    {
      "id": "iwate_station_4832349373",
      "osmId": 4832349373,
      "osmType": "node",
      "prefectureId": "iwate",
      "type": "station",
      "subtype": "jr",
      "name": "大船渡魚市場前",
      "nameKana": "おおふなとうおいちばまえ",
      "nameEn": "Ōfunato Fish Market",
      "operator": "東日本旅客鉄道",
      "network": null,
      "ref": null,
      "latitude": 39.0510571,
      "longitude": 141.7208136,
      "countryCode": "jp",
      "rawTags": {
        "bench": "yes",
        "name": "大船渡魚市場前",
        "name:en": "Ōfunato Fish Market",
        "name:ja": "大船渡魚市場前",
        "name:ja-Hira": "おおふなとうおいちばまえ",
        "name:zh": "大船渡鱼市场前",
        "note": "JR東日本大船渡線のBRT区間に設置されている「駅」であり、鉄道事業法上の駅とは異なる",
        "operator": "東日本旅客鉄道",
        "operator:ja": "東日本旅客鉄道",
        "public_transport": "station",
        "railway": "station",
        "shelter": "yes",
        "start_date": "2015-12-05",
        "train": "no",
        "wikidata": "Q21652638",
        "wikipedia": "ja:大船渡魚市場前駅"
      }
    },
    {
      "id": "iwate_station_4837881280",
      "osmId": 4837881280,
      "osmType": "node",
      "prefectureId": "iwate",
      "type": "station",
      "subtype": "private",
      "name": "小鳥谷",
      "nameKana": null,
      "nameEn": "Kozuya",
      "operator": null,
      "network": null,
      "ref": null,
      "latitude": 40.170871,
      "longitude": 141.3077808,
      "countryCode": "jp",
      "rawTags": {
        "KSJ2:LIN": "いわて銀河鉄道線",
        "KSJ2:STN": "小鳥谷",
        "name": "小鳥谷",
        "name:en": "Kozuya",
        "name:ja": "小鳥谷",
        "name:ja_rm": "Kozuya",
        "name:ko": "고즈야",
        "note": "National-Land Numerical Information (Railway) 2007, MLIT Japan",
        "note:ja": "国土数値情報（鉄道データ）平成19年　国土交通省",
        "public_transport": "station",
        "railway": "station",
        "website": "https://igr.jp/station/kozuya/",
        "wikidata": "Q6435394",
        "wikipedia": "ja:小鳥谷駅"
      }
    },
    {
      "id": "iwate_station_4837893135",
      "osmId": 4837893135,
      "osmType": "node",
      "prefectureId": "iwate",
      "type": "station",
      "subtype": "private",
      "name": "江釣子",
      "nameKana": "えずりこ",
      "nameEn": "Ezuriko",
      "operator": null,
      "network": null,
      "ref": null,
      "latitude": 39.29839,
      "longitude": 141.0758365,
      "countryCode": "jp",
      "rawTags": {
        "name": "江釣子",
        "name:en": "Ezuriko",
        "name:ja-Hira": "えずりこ",
        "name:ja-Latn": "Ezuriko",
        "name:ko": "에즈리코",
        "public_transport": "station",
        "railway": "station",
        "train": "yes",
        "wikidata": "Q5423449",
        "wikipedia": "ja:江釣子駅"
      }
    },
    {
      "id": "iwate_station_4837893136",
      "osmId": 4837893136,
      "osmType": "node",
      "prefectureId": "iwate",
      "type": "station",
      "subtype": "jr",
      "name": "横川目",
      "nameKana": null,
      "nameEn": "Yokokawame",
      "operator": "JR東日本",
      "network": "北上線",
      "ref": null,
      "latitude": 39.3092376,
      "longitude": 140.9724789,
      "countryCode": "jp",
      "rawTags": {
        "name": "横川目",
        "name:en": "Yokokawame",
        "name:ja": "横川目",
        "name:ko": "요코카와메",
        "network": "北上線",
        "note": "National-Land Numerical Information (Railway) 2007, MLIT Japan",
        "note:ja": "国土数値情報（鉄道データ）平成19年　国土交通省",
        "operator": "JR東日本",
        "public_transport": "station",
        "railway": "station",
        "wikidata": "Q8054660",
        "wikipedia": "ja:横川目駅"
      }
    },
    {
      "id": "iwate_bus_terminal_5730157623",
      "osmId": 5730157623,
      "osmType": "node",
      "prefectureId": "iwate",
      "type": "bus_terminal",
      "subtype": null,
      "name": "二戸駅",
      "nameKana": null,
      "nameEn": "Ninohe station",
      "operator": null,
      "network": null,
      "ref": null,
      "latitude": 40.2601909,
      "longitude": 141.2856309,
      "countryCode": "jp",
      "rawTags": {
        "amenity": "bus_station",
        "name": "二戸駅",
        "name:en": "Ninohe station",
        "name:ja": "二戸駅"
      }
    },
    {
      "id": "iwate_station_5775217220",
      "osmId": 5775217220,
      "osmType": "node",
      "prefectureId": "iwate",
      "type": "station",
      "subtype": "private",
      "name": "花巻空港",
      "nameKana": "はなまきくうこう",
      "nameEn": "Hanamaki Airport",
      "operator": null,
      "network": null,
      "ref": null,
      "latitude": 39.4426715,
      "longitude": 141.1276567,
      "countryCode": "jp",
      "rawTags": {
        "name": "花巻空港",
        "name:en": "Hanamaki Airport",
        "name:ja-Hira": "はなまきくうこう",
        "name:ja-Latn": "Hanamakikūkō",
        "name:ru": "Ханамаки-Куко",
        "public_transport": "station",
        "railway": "station",
        "source": "KSJ2",
        "wikidata": "Q899493",
        "wikipedia": "ja:花巻空港駅"
      }
    },
    {
      "id": "iwate_station_5775217270",
      "osmId": 5775217270,
      "osmType": "node",
      "prefectureId": "iwate",
      "type": "station",
      "subtype": "private",
      "name": "石鳥谷",
      "nameKana": "いしどりや",
      "nameEn": "Ishidoriya",
      "operator": null,
      "network": null,
      "ref": null,
      "latitude": 39.4912736,
      "longitude": 141.1471067,
      "countryCode": "jp",
      "rawTags": {
        "name": "石鳥谷",
        "name:en": "Ishidoriya",
        "name:ja-Hira": "いしどりや",
        "name:ja-Latn": "Ishidoriya",
        "name:ru": "Исидория",
        "public_transport": "station",
        "railway": "station",
        "source": "KSJ2",
        "wikidata": "Q899768",
        "wikipedia": "ja:石鳥谷駅"
      }
    },
    {
      "id": "iwate_station_5775217305",
      "osmId": 5775217305,
      "osmType": "node",
      "prefectureId": "iwate",
      "type": "station",
      "subtype": "private",
      "name": "日詰",
      "nameKana": "ひづめ",
      "nameEn": "Hizume",
      "operator": null,
      "network": null,
      "ref": null,
      "latitude": 39.5387361,
      "longitude": 141.1606076,
      "countryCode": "jp",
      "rawTags": {
        "name": "日詰",
        "name:en": "Hizume",
        "name:ja-Hira": "ひづめ",
        "name:ja-Latn": "Hizume",
        "name:ru": "Хидзуме",
        "public_transport": "station",
        "railway": "station",
        "source": "KSJ2",
        "wikidata": "Q899708",
        "wikipedia": "ja:日詰駅"
      }
    },
    {
      "id": "iwate_station_5775217383",
      "osmId": 5775217383,
      "osmType": "node",
      "prefectureId": "iwate",
      "type": "station",
      "subtype": "private",
      "name": "紫波中央",
      "nameKana": "しわちゅうおう",
      "nameEn": "Shiwa-chuo",
      "operator": null,
      "network": null,
      "ref": null,
      "latitude": 39.5547549,
      "longitude": 141.160039,
      "countryCode": "jp",
      "rawTags": {
        "name": "紫波中央",
        "name:en": "Shiwa-chuo",
        "name:ja-Hira": "しわちゅうおう",
        "name:ja-Latn": "Shiwachūō",
        "name:ru": "Сиватюо",
        "public_transport": "station",
        "railway": "station",
        "source": "KSJ2",
        "wikidata": "Q899721",
        "wikipedia": "ja:紫波中央駅"
      }
    },
    {
      "id": "iwate_station_5775217390",
      "osmId": 5775217390,
      "osmType": "node",
      "prefectureId": "iwate",
      "type": "station",
      "subtype": "private",
      "name": "古館",
      "nameKana": "ふるだて",
      "nameEn": "Furudate",
      "operator": null,
      "network": null,
      "ref": null,
      "latitude": 39.5809218,
      "longitude": 141.1547497,
      "countryCode": "jp",
      "rawTags": {
        "name": "古館",
        "name:en": "Furudate",
        "name:ja-Hira": "ふるだて",
        "name:ja-Latn": "Furudate",
        "name:ru": "Фурудате",
        "public_transport": "station",
        "railway": "station",
        "source": "KSJ2",
        "wikidata": "Q899716",
        "wikipedia": "ja:古館駅"
      }
    },
    {
      "id": "iwate_station_5775217456",
      "osmId": 5775217456,
      "osmType": "node",
      "prefectureId": "iwate",
      "type": "station",
      "subtype": "private",
      "name": "矢幅",
      "nameKana": "やはば",
      "nameEn": "Yahaba",
      "operator": null,
      "network": null,
      "ref": null,
      "latitude": 39.6132574,
      "longitude": 141.1481729,
      "countryCode": "jp",
      "rawTags": {
        "name": "矢幅",
        "name:en": "Yahaba",
        "name:ja-Hira": "やはば",
        "name:ja-Latn": "Yahaba",
        "name:ru": "Яхаба",
        "public_transport": "station",
        "railway": "station",
        "source": "KSJ2",
        "wikidata": "Q899791",
        "wikipedia": "ja:矢幅駅"
      }
    },
    {
      "id": "iwate_station_5775510857",
      "osmId": 5775510857,
      "osmType": "node",
      "prefectureId": "iwate",
      "type": "station",
      "subtype": "private",
      "name": "花巻",
      "nameKana": "はなまき",
      "nameEn": "Hanamaki",
      "operator": null,
      "network": null,
      "ref": null,
      "latitude": 39.3931976,
      "longitude": 141.1107252,
      "countryCode": "jp",
      "rawTags": {
        "name": "花巻",
        "name:en": "Hanamaki",
        "name:ja": "花巻",
        "name:ja-Hira": "はなまき",
        "name:ja-Latn": "Hanamaki",
        "name:ru": "Ханамаки",
        "name:zh": "花卷",
        "public_transport": "station",
        "railway": "station",
        "source": "KSJ2",
        "wikidata": "Q1057662",
        "wikipedia": "ja:花巻駅"
      }
    },
    {
      "id": "iwate_station_5776452057",
      "osmId": 5776452057,
      "osmType": "node",
      "prefectureId": "iwate",
      "type": "station",
      "subtype": "private",
      "name": "六原",
      "nameKana": "ろくはら",
      "nameEn": "Rokuhara",
      "operator": null,
      "network": null,
      "ref": null,
      "latitude": 39.2278505,
      "longitude": 141.0975114,
      "countryCode": "jp",
      "rawTags": {
        "name": "六原",
        "name:en": "Rokuhara",
        "name:ja-Hira": "ろくはら",
        "name:ja-Latn": "Rokuhara",
        "name:ru": "Рокухара",
        "public_transport": "station",
        "railway": "station",
        "source": "KSJ2",
        "train": "yes",
        "wikidata": "Q899652",
        "wikipedia": "ja:六原駅"
      }
    },
    {
      "id": "iwate_station_5776453037",
      "osmId": 5776453037,
      "osmType": "node",
      "prefectureId": "iwate",
      "type": "station",
      "subtype": "private",
      "name": "村崎野",
      "nameKana": "むらさきの",
      "nameEn": "Murasakino",
      "operator": null,
      "network": null,
      "ref": null,
      "latitude": 39.3230025,
      "longitude": 141.1205113,
      "countryCode": "jp",
      "rawTags": {
        "name": "村崎野",
        "name:en": "Murasakino",
        "name:ja-Hira": "むらさきの",
        "name:ja-Latn": "Murasakino",
        "name:ru": "Мурасакино",
        "public_transport": "station",
        "railway": "station",
        "source": "KSJ2",
        "wikidata": "Q899287",
        "wikipedia": "ja:村崎野駅"
      }
    },
    {
      "id": "iwate_station_5779298462",
      "osmId": 5779298462,
      "osmType": "node",
      "prefectureId": "iwate",
      "type": "station",
      "subtype": "private",
      "name": "水沢",
      "nameKana": "みずさわ",
      "nameEn": "Mizusawa",
      "operator": null,
      "network": null,
      "ref": null,
      "latitude": 39.1389814,
      "longitude": 141.1464938,
      "countryCode": "jp",
      "rawTags": {
        "name": "水沢",
        "name:en": "Mizusawa",
        "name:ja-Hira": "みずさわ",
        "name:ja-Latn": "Mizusawa",
        "name:ru": "Мидзусава",
        "public_transport": "station",
        "railway": "station",
        "source": "KSJ2",
        "train": "yes",
        "wikidata": "Q899669",
        "wikipedia": "ja:水沢駅"
      }
    },
    {
      "id": "iwate_station_5779298723",
      "osmId": 5779298723,
      "osmType": "node",
      "prefectureId": "iwate",
      "type": "station",
      "subtype": "private",
      "name": "金ヶ崎",
      "nameKana": "かねがさき",
      "nameEn": "Kanegasaki",
      "operator": null,
      "network": null,
      "ref": null,
      "latitude": 39.1999638,
      "longitude": 141.1129823,
      "countryCode": "jp",
      "rawTags": {
        "name": "金ヶ崎",
        "name:en": "Kanegasaki",
        "name:ja-Hira": "かねがさき",
        "name:ja-Latn": "Kanegasaki",
        "name:ru": "Канегасаки",
        "public_transport": "station",
        "railway": "station",
        "source": "KSJ2",
        "wikidata": "Q899678",
        "wikipedia": "ja:金ヶ崎駅"
      }
    },
    {
      "id": "iwate_station_5783615451",
      "osmId": 5783615451,
      "osmType": "node",
      "prefectureId": "iwate",
      "type": "station",
      "subtype": "private",
      "name": "茂市",
      "nameKana": null,
      "nameEn": "Moichi",
      "operator": null,
      "network": null,
      "ref": null,
      "latitude": 39.6206297,
      "longitude": 141.7990032,
      "countryCode": "jp",
      "rawTags": {
        "name": "茂市",
        "name:en": "Moichi",
        "name:ja": "茂市",
        "name:ko": "모이치",
        "public_transport": "station",
        "railway": "station",
        "wikidata": "Q6894570",
        "wikipedia": "ja:茂市駅"
      }
    },
    {
      "id": "iwate_station_5784163163",
      "osmId": 5784163163,
      "osmType": "node",
      "prefectureId": "iwate",
      "type": "station",
      "subtype": "private",
      "name": "花泉",
      "nameKana": "はないずみ",
      "nameEn": "Hanaizumi",
      "operator": null,
      "network": null,
      "ref": null,
      "latitude": 38.8334586,
      "longitude": 141.180118,
      "countryCode": "jp",
      "rawTags": {
        "name": "花泉",
        "name:en": "Hanaizumi",
        "name:ja-Hira": "はないずみ",
        "name:ja-Latn": "Hanaizumi",
        "name:ru": "Ханаидзуми",
        "public_transport": "station",
        "railway": "station",
        "source": "KSJ2",
        "train": "yes",
        "wikidata": "Q899450",
        "wikipedia": "ja:花泉駅"
      }
    },
    {
      "id": "iwate_station_5784163216",
      "osmId": 5784163216,
      "osmType": "node",
      "prefectureId": "iwate",
      "type": "station",
      "subtype": "private",
      "name": "油島",
      "nameKana": "ゆしま",
      "nameEn": "Yushima",
      "operator": null,
      "network": null,
      "ref": null,
      "latitude": 38.7970599,
      "longitude": 141.1755985,
      "countryCode": "jp",
      "rawTags": {
        "name": "油島",
        "name:en": "Yushima",
        "name:ja-Hira": "ゆしま",
        "name:ja-Latn": "Yushima",
        "name:ru": "Юсима",
        "public_transport": "station",
        "railway": "station",
        "source": "KSJ2",
        "train": "yes",
        "wikidata": "Q899240",
        "wikipedia": "ja:油島駅"
      }
    },
    {
      "id": "iwate_station_5793711143",
      "osmId": 5793711143,
      "osmType": "node",
      "prefectureId": "iwate",
      "type": "station",
      "subtype": "private",
      "name": "松尾八幡平",
      "nameKana": "まつおはちまんたい",
      "nameEn": "Matsuo-Hachimantai",
      "operator": null,
      "network": null,
      "ref": null,
      "latitude": 39.9693431,
      "longitude": 141.0435064,
      "countryCode": "jp",
      "rawTags": {
        "name": "松尾八幡平",
        "name:en": "Matsuo-Hachimantai",
        "name:ja-Hira": "まつおはちまんたい",
        "name:ja-Latn": "Matsuo-Hachimantai",
        "public_transport": "station",
        "railway": "station",
        "source": "KSJ2",
        "train": "yes",
        "wikidata": "Q6788180",
        "wikipedia": "ja:松尾八幡平駅"
      }
    },
    {
      "id": "iwate_station_5793768751",
      "osmId": 5793768751,
      "osmType": "node",
      "prefectureId": "iwate",
      "type": "station",
      "subtype": "private",
      "name": "東大更",
      "nameKana": "ひがしおおぶけ",
      "nameEn": "Higashi-Obuke",
      "operator": null,
      "network": null,
      "ref": null,
      "latitude": 39.902609,
      "longitude": 141.1424772,
      "countryCode": "jp",
      "rawTags": {
        "name": "東大更",
        "name:en": "Higashi-Obuke",
        "name:ja-Hira": "ひがしおおぶけ",
        "name:ja-Latn": "Higashi-Ōbuke",
        "public_transport": "station",
        "railway": "station",
        "source": "KSJ2",
        "train": "yes",
        "wikidata": "Q11526488",
        "wikipedia": "ja:東大更駅"
      }
    },
    {
      "id": "iwate_station_5793769186",
      "osmId": 5793769186,
      "osmType": "node",
      "prefectureId": "iwate",
      "type": "station",
      "subtype": "private",
      "name": "大更",
      "nameKana": "おおぶけ",
      "nameEn": "Obuke",
      "operator": null,
      "network": null,
      "ref": null,
      "latitude": 39.9137501,
      "longitude": 141.1008494,
      "countryCode": "jp",
      "rawTags": {
        "name": "大更",
        "name:en": "Obuke",
        "name:ja-Hira": "おおぶけ",
        "name:ja-Latn": "Ōbuke",
        "public_transport": "station",
        "railway": "station",
        "source": "KSJ2",
        "train": "yes",
        "wikidata": "Q8081429",
        "wikipedia": "ja:大更駅"
      }
    },
    {
      "id": "iwate_station_5798862890",
      "osmId": 5798862890,
      "osmType": "node",
      "prefectureId": "iwate",
      "type": "station",
      "subtype": "private",
      "name": "渋民",
      "nameKana": "しぶたみ",
      "nameEn": "Shibutami",
      "operator": null,
      "network": null,
      "ref": null,
      "latitude": 39.8350179,
      "longitude": 141.1545995,
      "countryCode": "jp",
      "rawTags": {
        "name": "渋民",
        "name:en": "Shibutami",
        "name:ja-Hira": "しぶたみ",
        "name:ja-Latn": "Shibutami",
        "public_transport": "station",
        "railway": "station",
        "source": "KSJ2",
        "train": "yes",
        "website": "https://igr.jp/station/shibutami/",
        "wikidata": "Q7496089",
        "wikipedia": "ja:渋民駅"
      }
    },
    {
      "id": "iwate_station_5803762436",
      "osmId": 5803762436,
      "osmType": "node",
      "prefectureId": "iwate",
      "type": "station",
      "subtype": "jr",
      "name": "小友",
      "nameKana": "おとも",
      "nameEn": "Otomo",
      "operator": "東日本旅客鉄道",
      "network": null,
      "ref": null,
      "latitude": 38.989099,
      "longitude": 141.699764,
      "countryCode": "jp",
      "rawTags": {
        "name": "小友",
        "name:en": "Otomo",
        "name:ja": "小友",
        "name:ja-Hira": "おとも",
        "name:ko": "오토모",
        "name:zh": "小友",
        "note": "JR東日本大船渡線のBRT区間に設置されている「駅」であり、鉄道事業法上の駅とは異なる",
        "operator": "東日本旅客鉄道",
        "operator:ja": "東日本旅客鉄道",
        "public_transport": "station",
        "railway": "station",
        "start_date": "1933-12-15",
        "train": "no",
        "wikidata": "Q7108986",
        "wikipedia": "ja:小友駅"
      }
    },
    {
      "id": "iwate_station_5803762437",
      "osmId": 5803762437,
      "osmType": "node",
      "prefectureId": "iwate",
      "type": "station",
      "subtype": "jr",
      "name": "細浦",
      "nameKana": "ほそうら",
      "nameEn": "Hosoura",
      "operator": "東日本旅客鉄道",
      "network": null,
      "ref": null,
      "latitude": 39.0153157,
      "longitude": 141.7138938,
      "countryCode": "jp",
      "rawTags": {
        "name": "細浦",
        "name:en": "Hosoura",
        "name:ja": "細浦",
        "name:ja-Hira": "ほそうら",
        "name:ja_rm": "Hosoura",
        "name:ko": "호소우라",
        "name:zh": "细浦",
        "note": "JR東日本大船渡線のBRT区間に設置されている「駅」であり、鉄道事業法上の駅とは異なる",
        "operator": "東日本旅客鉄道",
        "operator:ja": "東日本旅客鉄道",
        "public_transport": "station",
        "railway": "station",
        "start_date": "1933-12-15",
        "train": "no",
        "wikidata": "Q8189404",
        "wikipedia": "ja:細浦駅"
      }
    },
    {
      "id": "iwate_station_5803762439",
      "osmId": 5803762439,
      "osmType": "node",
      "prefectureId": "iwate",
      "type": "station",
      "subtype": "jr",
      "name": "碁石海岸口",
      "nameKana": "ごいしかいがんぐち",
      "nameEn": "Goishikaiganguchi",
      "operator": "東日本旅客鉄道",
      "network": null,
      "ref": null,
      "latitude": 39.0027975,
      "longitude": 141.7110902,
      "countryCode": "jp",
      "rawTags": {
        "name": "碁石海岸口",
        "name:en": "Goishikaiganguchi",
        "name:ja": "碁石海岸口",
        "name:ja-Hira": "ごいしかいがんぐち",
        "note": "JR東日本大船渡線のBRT区間に設置されている「駅」であり、鉄道事業法上の駅とは異なる",
        "operator": "東日本旅客鉄道",
        "operator:ja": "東日本旅客鉄道",
        "public_transport": "station",
        "railway": "station",
        "train": "no",
        "wikidata": "Q17228412",
        "wikipedia": "ja:碁石海岸口駅"
      }
    },
    {
      "id": "iwate_station_5805643678",
      "osmId": 5805643678,
      "osmType": "node",
      "prefectureId": "iwate",
      "type": "station",
      "subtype": "jr",
      "name": "下船渡",
      "nameKana": "しもふなと",
      "nameEn": "Shimofunato",
      "operator": "東日本旅客鉄道",
      "network": null,
      "ref": null,
      "latitude": 39.0384422,
      "longitude": 141.7211966,
      "countryCode": "jp",
      "rawTags": {
        "name": "下船渡",
        "name:en": "Shimofunato",
        "name:ja": "下船渡",
        "name:ja-Hira": "しもふなと",
        "name:ko": "시모후나토",
        "name:zh": "下船渡",
        "note": "JR東日本大船渡線のBRT区間に設置されている「駅」であり、鉄道事業法上の駅とは異なる",
        "operator": "東日本旅客鉄道",
        "operator:ja": "東日本旅客鉄道",
        "public_transport": "station",
        "railway": "station",
        "shelter": "yes",
        "start_date": "1934-09-03",
        "train": "no",
        "wikidata": "Q7496955",
        "wikipedia": "ja:下船渡駅"
      }
    },
    {
      "id": "iwate_station_5805643682",
      "osmId": 5805643682,
      "osmType": "node",
      "prefectureId": "iwate",
      "type": "station",
      "subtype": "jr",
      "name": "大船渡",
      "nameKana": "おおふなと",
      "nameEn": "Ōfunato",
      "operator": "東日本旅客鉄道",
      "network": null,
      "ref": null,
      "latitude": 39.0629,
      "longitude": 141.7207424,
      "countryCode": "jp",
      "rawTags": {
        "bench": "yes",
        "name": "大船渡",
        "name:en": "Ōfunato",
        "name:ja": "大船渡",
        "name:ja-Hira": "おおふなと",
        "name:ko": "오후나토",
        "name:zh": "大船渡",
        "note": "JR東日本大船渡線のBRT区間に設置されている「駅」であり、鉄道事業法上の駅とは異なる",
        "operator": "東日本旅客鉄道",
        "operator:ja": "東日本旅客鉄道",
        "public_transport": "station",
        "railway": "station",
        "shelter": "yes",
        "start_date": "1934-09-03",
        "train": "no",
        "wikidata": "Q8081459",
        "wikipedia": "ja:大船渡駅"
      }
    },
    {
      "id": "iwate_station_6111888835",
      "osmId": 6111888835,
      "osmType": "node",
      "prefectureId": "iwate",
      "type": "station",
      "subtype": "private",
      "name": "大釜",
      "nameKana": "おおかま",
      "nameEn": "Okama",
      "operator": null,
      "network": null,
      "ref": null,
      "latitude": 39.711558,
      "longitude": 141.0720532,
      "countryCode": "jp",
      "rawTags": {
        "name": "大釜",
        "name:en": "Okama",
        "name:ja-Hira": "おおかま",
        "name:ja-Latn": "Ōkama",
        "public_transport": "station",
        "railway": "station",
        "source": "KSJ2",
        "train": "yes",
        "wikidata": "Q8081544",
        "wikipedia": "ja:大釜駅"
      }
    },
    {
      "id": "iwate_station_6119242306",
      "osmId": 6119242306,
      "osmType": "node",
      "prefectureId": "iwate",
      "type": "station",
      "subtype": "private",
      "name": "小岩井",
      "nameKana": "こいわい",
      "nameEn": "Koiwai",
      "operator": null,
      "network": null,
      "ref": null,
      "latitude": 39.7098774,
      "longitude": 141.0248423,
      "countryCode": "jp",
      "rawTags": {
        "name": "小岩井",
        "name:en": "Koiwai",
        "name:ja-Hira": "こいわい",
        "name:ja-Latn": "Koiwai",
        "public_transport": "station",
        "railway": "station",
        "source": "KSJ2",
        "train": "yes",
        "wikidata": "Q6426387",
        "wikipedia": "ja:小岩井駅"
      }
    },
    {
      "id": "iwate_station_6260704559",
      "osmId": 6260704559,
      "osmType": "node",
      "prefectureId": "iwate",
      "type": "station",
      "subtype": "private",
      "name": "水沢江刺",
      "nameKana": null,
      "nameEn": "Mizusawa-Esashi",
      "operator": null,
      "network": null,
      "ref": null,
      "latitude": 39.1451474,
      "longitude": 141.1887494,
      "countryCode": "jp",
      "rawTags": {
        "highspeed": "yes",
        "name": "水沢江刺",
        "name:de": "Mizusawa-Esashi",
        "name:en": "Mizusawa-Esashi",
        "name:ja": "水沢江刺",
        "name:ko": "미즈사와에사시",
        "name:ru": "Мидзусава-Эсахаси",
        "public_transport": "station",
        "railway": "station",
        "source": "KSJ2",
        "train": "yes",
        "wikidata": "Q1136658",
        "wikipedia": "ja:水沢江刺駅"
      }
    },
    {
      "id": "iwate_station_7164913253",
      "osmId": 7164913253,
      "osmType": "node",
      "prefectureId": "iwate",
      "type": "station",
      "subtype": "private",
      "name": "北森",
      "nameKana": "きたもり",
      "nameEn": "Kitamori",
      "operator": null,
      "network": null,
      "ref": null,
      "latitude": 39.9566198,
      "longitude": 141.0718748,
      "countryCode": "jp",
      "rawTags": {
        "name": "北森",
        "name:en": "Kitamori",
        "name:ja-Hira": "きたもり",
        "name:ja-Latn": "Kitamori",
        "public_transport": "station",
        "railway": "station",
        "source": "KSJ2",
        "train": "yes",
        "wikidata": "Q11402267",
        "wikipedia": "ja:北森駅"
      }
    },
    {
      "id": "iwate_station_7291354131",
      "osmId": 7291354131,
      "osmType": "node",
      "prefectureId": "iwate",
      "type": "station",
      "subtype": "jr",
      "name": "大船渡丸森",
      "nameKana": "おおふなとまるもり",
      "nameEn": "Ōfunatomarumori",
      "operator": "東日本旅客鉄道",
      "network": null,
      "ref": null,
      "latitude": 39.0288853,
      "longitude": 141.7127132,
      "countryCode": "jp",
      "rawTags": {
        "name": "大船渡丸森",
        "name:en": "Ōfunatomarumori",
        "name:ja": "大船渡丸森",
        "name:ja-Hira": "おおふなとまるもり",
        "name:zh": "大船渡丸森",
        "note": "JR東日本大船渡線のBRT区間に設置されている「駅」であり、鉄道事業法上の駅とは異なる",
        "operator": "東日本旅客鉄道",
        "operator:ja": "東日本旅客鉄道",
        "public_transport": "station",
        "railway": "station",
        "train": "no",
        "wikidata": "Q85878935",
        "wikipedia": "ja:大船渡丸森駅"
      }
    },
    {
      "id": "iwate_station_7294155763",
      "osmId": 7294155763,
      "osmType": "node",
      "prefectureId": "iwate",
      "type": "station",
      "subtype": "jr",
      "name": "竹駒",
      "nameKana": "たけこま",
      "nameEn": "Takekoma",
      "operator": "東日本旅客鉄道",
      "network": null,
      "ref": null,
      "latitude": 39.0336601,
      "longitude": 141.6096027,
      "countryCode": "jp",
      "rawTags": {
        "name": "竹駒",
        "name:en": "Takekoma",
        "name:ja": "竹駒",
        "name:ja-Hira": "たけこま",
        "name:ko": "다케코마",
        "name:zh": "竹驹",
        "note": "JR東日本大船渡線のBRT区間に設置されている「駅」であり、鉄道事業法上の駅とは異なる",
        "operator": "東日本旅客鉄道",
        "operator:ja": "東日本旅客鉄道",
        "public_transport": "station",
        "railway": "station",
        "train": "no",
        "wikidata": "Q7678001",
        "wikipedia": "ja:竹駒駅"
      }
    },
    {
      "id": "iwate_station_8490963870",
      "osmId": 8490963870,
      "osmType": "node",
      "prefectureId": "iwate",
      "type": "station",
      "subtype": "private",
      "name": "柳原",
      "nameKana": null,
      "nameEn": "Yanagihara",
      "operator": null,
      "network": null,
      "ref": null,
      "latitude": 39.2945921,
      "longitude": 141.1117438,
      "countryCode": "jp",
      "rawTags": {
        "name": "柳原",
        "name:en": "Yanagihara",
        "public_transport": "station",
        "railway": "station",
        "source": "KSJ2",
        "train": "yes",
        "wikidata": "Q8192546",
        "wikipedia": "ja:柳原駅 (岩手県)"
      }
    },
    {
      "id": "iwate_station_10742638637",
      "osmId": 10742638637,
      "osmType": "node",
      "prefectureId": "iwate",
      "type": "station",
      "subtype": "private",
      "name": "前潟",
      "nameKana": null,
      "nameEn": "Maegata",
      "operator": null,
      "network": null,
      "ref": null,
      "latitude": 39.7129346,
      "longitude": 141.1008483,
      "countryCode": "jp",
      "rawTags": {
        "name": "前潟",
        "name:en": "Maegata",
        "name:ja": "前潟",
        "public_transport": "station",
        "railway": "station",
        "train": "yes",
        "wikidata": "Q106517998",
        "wikipedia": "ja:前潟駅"
      }
    },
    {
      "id": "iwate_station_11447514085",
      "osmId": 11447514085,
      "osmType": "node",
      "prefectureId": "iwate",
      "type": "station",
      "subtype": "private",
      "name": "陸中野田",
      "nameKana": "りくちゅうのだ",
      "nameEn": "Rikuchunoda",
      "operator": null,
      "network": null,
      "ref": null,
      "latitude": 40.116184,
      "longitude": 141.8189927,
      "countryCode": "jp",
      "rawTags": {
        "KSJ2:LIN": "北リアス線",
        "KSJ2:STN": "陸中野田",
        "name": "陸中野田",
        "name:en": "Rikuchunoda",
        "name:ja": "陸中野田",
        "name:ja_kana": "りくちゅうのだ",
        "name:ja_rm": "Rikuchūnoda",
        "name:ko": "리쿠초노다",
        "public_transport": "station",
        "railway": "station",
        "website": "https://www.sanrikutetsudou.com/?p=574",
        "wikidata": "Q7334119",
        "wikipedia": "ja:陸中野田駅"
      }
    },
    {
      "id": "iwate_bus_terminal_13124153001",
      "osmId": 13124153001,
      "osmType": "node",
      "prefectureId": "iwate",
      "type": "bus_terminal",
      "subtype": null,
      "name": "都南営業所",
      "nameKana": null,
      "nameEn": null,
      "operator": null,
      "network": null,
      "ref": null,
      "latitude": 39.6592509,
      "longitude": 141.1789721,
      "countryCode": "jp",
      "rawTags": {
        "amenity": "bus_station",
        "name": "都南営業所"
      }
    },
    {
      "id": "iwate_station_13307683232",
      "osmId": 13307683232,
      "osmType": "node",
      "prefectureId": "iwate",
      "type": "station",
      "subtype": "jr",
      "name": "奇跡の一本松",
      "nameKana": "きせきのいっぽんまつ",
      "nameEn": "Kiseki-no-Ippon-Matsu (Miracle Pine)",
      "operator": "東日本旅客鉄道",
      "network": null,
      "ref": null,
      "latitude": 39.0076443,
      "longitude": 141.6272589,
      "countryCode": "jp",
      "rawTags": {
        "name": "奇跡の一本松",
        "name:en": "Kiseki-no-Ippon-Matsu (Miracle Pine)",
        "name:ja": "奇跡の一本松",
        "name:ja-Hira": "きせきのいっぽんまつ",
        "name:ko": "기세키노잇폰마쓰",
        "name:zh": "奇迹之一本松",
        "note": "JR東日本大船渡線のBRT区間に設置されている「駅」であり、鉄道事業法上の駅とは異なる",
        "operator": "東日本旅客鉄道",
        "operator:ja": "東日本旅客鉄道",
        "public_transport": "station",
        "railway": "station",
        "shelter": "yes",
        "start_date": "2013-07-13",
        "train": "no",
        "wikidata": "Q17210607",
        "wikipedia": "ja:奇跡の一本松駅"
      }
    },
    {
      "id": "iwate_station_13310175988",
      "osmId": 13310175988,
      "osmType": "node",
      "prefectureId": "iwate",
      "type": "station",
      "subtype": "jr",
      "name": "長部",
      "nameKana": "おさべ",
      "nameEn": "Osabe",
      "operator": "東日本旅客鉄道",
      "network": null,
      "ref": null,
      "latitude": 38.9861091,
      "longitude": 141.618884,
      "countryCode": "jp",
      "rawTags": {
        "name": "長部",
        "name:en": "Osabe",
        "name:ja": "長部",
        "name:ja-Hira": "おさべ",
        "name:zh": "长部",
        "note": "JR東日本大船渡線のBRT区間に設置されている「駅」であり、鉄道事業法上の駅とは異なる",
        "operator": "東日本旅客鉄道",
        "operator:ja": "東日本旅客鉄道",
        "public_transport": "station",
        "railway": "station",
        "start_date": "2013-03-02",
        "train": "no",
        "wikidata": "Q11654092",
        "wikipedia": "ja:長部駅"
      }
    },
    {
      "id": "iwate_station_13310235463",
      "osmId": 13310235463,
      "osmType": "node",
      "prefectureId": "iwate",
      "type": "station",
      "subtype": "jr",
      "name": "陸前今泉",
      "nameKana": "りくぜんいまいずみ",
      "nameEn": "Rikuzen-Imaizumi",
      "operator": "東日本旅客鉄道",
      "network": null,
      "ref": null,
      "latitude": 39.0042903,
      "longitude": 141.6133777,
      "countryCode": "jp",
      "rawTags": {
        "name": "陸前今泉",
        "name:en": "Rikuzen-Imaizumi",
        "name:ja": "陸前今泉",
        "name:ja-Hira": "りくぜんいまいずみ",
        "name:zh": "陆前今泉",
        "note": "JR東日本大船渡線のBRT区間に設置されている「駅」であり、鉄道事業法上の駅とは異なる",
        "operator": "東日本旅客鉄道",
        "operator:ja": "東日本旅客鉄道",
        "public_transport": "station",
        "railway": "station",
        "start_date": "2020-03-14",
        "train": "no",
        "wikidata": "Q85884362",
        "wikipedia": "zh:陸前今泉站"
      }
    },
    {
      "id": "iwate_station_13312753432",
      "osmId": 13312753432,
      "osmType": "node",
      "prefectureId": "iwate",
      "type": "station",
      "subtype": "jr",
      "name": "高田高校前",
      "nameKana": "たかたこうこうまえ",
      "nameEn": "Takatakōkōmae",
      "operator": "東日本旅客鉄道",
      "network": null,
      "ref": null,
      "latitude": 39.0178305,
      "longitude": 141.639987,
      "countryCode": "jp",
      "rawTags": {
        "name": "高田高校前",
        "name:en": "Takatakōkōmae",
        "name:ja": "高田高校前",
        "name:ja-Hira": "たかたこうこうまえ",
        "name:zh": "高田高校前",
        "note": "JR東日本大船渡線のBRT区間に設置されている「駅」であり、鉄道事業法上の駅とは異なる",
        "operator": "東日本旅客鉄道",
        "operator:ja": "東日本旅客鉄道",
        "public_transport": "station",
        "railway": "station",
        "start_date": "2015-03-14",
        "train": "no",
        "wikidata": "Q21653455",
        "wikipedia": "ja:高田高校前駅"
      }
    },
    {
      "id": "iwate_station_13313262146",
      "osmId": 13313262146,
      "osmType": "node",
      "prefectureId": "iwate",
      "type": "station",
      "subtype": "jr",
      "name": "高田病院",
      "nameKana": "たかたびょういん",
      "nameEn": "Takata Hospital",
      "operator": "東日本旅客鉄道",
      "network": null,
      "ref": null,
      "latitude": 39.0254554,
      "longitude": 141.6417388,
      "countryCode": "jp",
      "rawTags": {
        "bench": "yes",
        "name": "高田病院",
        "name:en": "Takata Hospital",
        "name:ja": "高田病院",
        "name:ja-Hira": "たかたびょういん",
        "note": "JR東日本大船渡線のBRT区間に設置されている「駅」であり、鉄道事業法上の駅とは異なる",
        "operator": "東日本旅客鉄道",
        "operator:ja": "東日本旅客鉄道",
        "public_transport": "station",
        "railway": "station",
        "shelter": "yes",
        "start_date": "2013-03-02",
        "train": "no",
        "wikidata": "Q11672180",
        "wikipedia": "ja:高田病院駅"
      }
    },
    {
      "id": "iwate_station_13313608430",
      "osmId": 13313608430,
      "osmType": "node",
      "prefectureId": "iwate",
      "type": "station",
      "subtype": "jr",
      "name": "脇ノ沢",
      "nameKana": "わきのさわ",
      "nameEn": "Wakinosawa",
      "operator": "東日本旅客鉄道",
      "network": null,
      "ref": null,
      "latitude": 39.0113453,
      "longitude": 141.6730944,
      "countryCode": "jp",
      "rawTags": {
        "name": "脇ノ沢",
        "name:en": "Wakinosawa",
        "name:ja": "脇ノ沢",
        "name:ja-Hira": "わきのさわ",
        "note": "JR東日本大船渡線のBRT区間に設置されている「駅」であり、鉄道事業法上の駅とは異なる",
        "operator": "東日本旅客鉄道",
        "operator:ja": "東日本旅客鉄道",
        "public_transport": "station",
        "railway": "station",
        "start_date": "1933-12-15",
        "train": "no",
        "wikidata": "Q7961190",
        "wikipedia": "ja:脇ノ沢駅"
      }
    },
    {
      "id": "iwate_station_13313608432",
      "osmId": 13313608432,
      "osmType": "node",
      "prefectureId": "iwate",
      "type": "station",
      "subtype": "jr",
      "name": "西下",
      "nameKana": "にしした",
      "nameEn": "Nishishita",
      "operator": "東日本旅客鉄道",
      "network": null,
      "ref": null,
      "latitude": 39.0009923,
      "longitude": 141.6890608,
      "countryCode": "jp",
      "rawTags": {
        "name": "西下",
        "name:en": "Nishishita",
        "name:ja": "西下",
        "name:ja-Hira": "にしした",
        "name:zh": "西下",
        "note": "JR東日本大船渡線のBRT区間に設置されている「駅」であり、鉄道事業法上の駅とは異なる",
        "operator": "東日本旅客鉄道",
        "operator:ja": "東日本旅客鉄道",
        "public_transport": "station",
        "railway": "station",
        "start_date": "2019-03-16",
        "train": "no",
        "wikidata": "Q60988308",
        "wikipedia": "ja:西下駅"
      }
    },
    {
      "id": "iwate_station_13313608449",
      "osmId": 13313608449,
      "osmType": "node",
      "prefectureId": "iwate",
      "type": "station",
      "subtype": "jr",
      "name": "地ノ森",
      "nameKana": "じのもり",
      "nameEn": "Jinomori",
      "operator": "東日本旅客鉄道",
      "network": null,
      "ref": null,
      "latitude": 39.0716655,
      "longitude": 141.7181203,
      "countryCode": "jp",
      "rawTags": {
        "name": "地ノ森",
        "name:en": "Jinomori",
        "name:ja": "地ノ森",
        "name:ja-Hira": "じのもり",
        "name:zh": "地之森",
        "note": "JR東日本大船渡線のBRT区間に設置されている「駅」であり、鉄道事業法上の駅とは異なる",
        "operator": "東日本旅客鉄道",
        "operator:ja": "東日本旅客鉄道",
        "public_transport": "station",
        "railway": "station",
        "start_date": "2020-03-14",
        "train": "no",
        "wikidata": "Q85878278",
        "wikipedia": "ja:地ノ森駅"
      }
    },
    {
      "id": "iwate_station_13313608450",
      "osmId": 13313608450,
      "osmType": "node",
      "prefectureId": "iwate",
      "type": "station",
      "subtype": "jr",
      "name": "田茂山",
      "nameKana": "たもやま",
      "nameEn": "Tamoyama",
      "operator": "東日本旅客鉄道",
      "network": null,
      "ref": null,
      "latitude": 39.0798731,
      "longitude": 141.7135297,
      "countryCode": "jp",
      "rawTags": {
        "name": "田茂山",
        "name:en": "Tamoyama",
        "name:ja": "田茂山",
        "name:ja-Hira": "たもやま",
        "name:zh": "田茂山",
        "note": "JR東日本大船渡線のBRT区間に設置されている「駅」であり、鉄道事業法上の駅とは異なる",
        "operator": "東日本旅客鉄道",
        "operator:ja": "東日本旅客鉄道",
        "public_transport": "station",
        "railway": "station",
        "shelter": "yes",
        "start_date": "2020-03-14",
        "train": "no",
        "wikidata": "Q85882464",
        "wikipedia": "ja:田茂山駅"
      }
    },
    {
      "id": "iwate_airport_35994591",
      "osmId": 35994591,
      "osmType": "way",
      "prefectureId": "iwate",
      "type": "airport",
      "subtype": "domestic",
      "name": "いわて花巻空港",
      "nameKana": null,
      "nameEn": "Hanamaki Airport",
      "operator": null,
      "network": null,
      "ref": "HNA",
      "latitude": 39.4271694,
      "longitude": 141.1353103,
      "countryCode": "jp",
      "rawTags": {
        "KSJ2:AAC": "03205",
        "KSJ2:AAC_label": "岩手県花巻市",
        "KSJ2:AD2": "5",
        "KSJ2:AD2_label": "都道府県",
        "KSJ2:ARP": "39.4286111111 141.1352777778",
        "KSJ2:ATB": "39.4269166700 141.1310833000",
        "KSJ2:CLT": "19 30",
        "KSJ2:COA": "空港整備法に基づく第三種空港",
        "KSJ2:CompositeCurve": "cv20Airport",
        "KSJ2:DSA": "特定飛行場以外",
        "KSJ2:INP": "5",
        "KSJ2:INP_label": "都道府県",
        "KSJ2:IUC": "供用中",
        "KSJ2:NA3": "花巻空港",
        "KSJ2:OPT": "08 00",
        "KSJ2:REF": "1",
        "KSJ2:REF_label": "ジェット定期便が就航している場合",
        "KSJ2:airport_id": "cf02_21",
        "KSJ2:runways": "2500 45",
        "aeroway": "aerodrome",
        "iata": "HNA",
        "icao": "RJSI",
        "layer": "1",
        "name": "いわて花巻空港",
        "name:en": "Hanamaki Airport",
        "name:ja": "いわて花巻空港",
        "name:ja_rm": "Hanamaki Kuko",
        "name:ko": "하나마키공항",
        "note": "National-Land Numerical Information (Airport) 2007, MLIT Japan",
        "note:ja": "国土数値情報（空港データ）平成19年　国土交通省",
        "source": "KSJ2",
        "source_ref": "http://nlftp.mlit.go.jp/ksj/jpgis/datalist/KsjTmplt-C28-v1_1.html"
      }
    },
    {
      "id": "iwate_bus_terminal_52867284",
      "osmId": 52867284,
      "osmType": "way",
      "prefectureId": "iwate",
      "type": "bus_terminal",
      "subtype": null,
      "name": "イトーヨーカドー",
      "nameKana": null,
      "nameEn": null,
      "operator": null,
      "network": null,
      "ref": null,
      "latitude": 39.3927264,
      "longitude": 141.1190663,
      "countryCode": "jp",
      "rawTags": {
        "amenity": "bus_station",
        "bus": "yes",
        "name": "イトーヨーカドー",
        "public_transport": "station",
        "source": "MLIT Japan",
        "source:ja": "国土画像情報（オルソ化空中写真）国土交通省"
      }
    },
    {
      "id": "iwate_bus_terminal_430734280",
      "osmId": 430734280,
      "osmType": "way",
      "prefectureId": "iwate",
      "type": "bus_terminal",
      "subtype": null,
      "name": "岩手県北自動車株式会社一戸営業所",
      "nameKana": null,
      "nameEn": null,
      "operator": null,
      "network": null,
      "ref": null,
      "latitude": 40.2158759,
      "longitude": 141.3063894,
      "countryCode": "jp",
      "rawTags": {
        "addr:city": "一戸町",
        "addr:county": "二戸郡",
        "addr:neighbourhood": "北舘",
        "addr:postcode": "028-5312",
        "addr:province": "岩手県",
        "addr:quarter": "一戸",
        "amenity": "bus_station",
        "building": "yes",
        "bus": "yes",
        "name": "岩手県北自動車株式会社一戸営業所",
        "public_transport": "station"
      }
    },
    {
      "id": "iwate_bus_terminal_613671159",
      "osmId": 613671159,
      "osmType": "way",
      "prefectureId": "iwate",
      "type": "bus_terminal",
      "subtype": null,
      "name": "陸前高田駅",
      "nameKana": null,
      "nameEn": null,
      "operator": "JR東日本",
      "network": null,
      "ref": null,
      "latitude": 39.0148513,
      "longitude": 141.6294804,
      "countryCode": "jp",
      "rawTags": {
        "addr:city": "陸前高田市",
        "addr:housenumber": "110",
        "addr:postcode": "029-2205",
        "addr:province": "岩手県",
        "addr:quarter": "高田町字館の沖",
        "amenity": "bus_station",
        "building": "train_station",
        "building:levels": "1",
        "bus": "yes",
        "name": "陸前高田駅",
        "operator": "JR東日本",
        "public_transport": "station",
        "wikidata": "Q7334139",
        "wikipedia": "ja:陸前高田駅"
      }
    },
    {
      "id": "iwate_bus_terminal_698800984",
      "osmId": 698800984,
      "osmType": "way",
      "prefectureId": "iwate",
      "type": "bus_terminal",
      "subtype": null,
      "name": "大東バスセンター",
      "nameKana": null,
      "nameEn": null,
      "operator": null,
      "network": null,
      "ref": null,
      "latitude": 39.0168577,
      "longitude": 141.3964989,
      "countryCode": "jp",
      "rawTags": {
        "amenity": "bus_station",
        "building": "yes",
        "bus": "yes",
        "name": "大東バスセンター",
        "public_transport": "station"
      }
    },
    {
      "id": "iwate_bus_terminal_953884322",
      "osmId": 953884322,
      "osmType": "way",
      "prefectureId": "iwate",
      "type": "bus_terminal",
      "subtype": null,
      "name": "盛岡バスセンター仮乗降場",
      "nameKana": null,
      "nameEn": null,
      "operator": null,
      "network": null,
      "ref": null,
      "latitude": 39.6999323,
      "longitude": 141.1581834,
      "countryCode": "jp",
      "rawTags": {
        "amenity": "bus_station",
        "building": "yes",
        "bus": "yes",
        "name": "盛岡バスセンター仮乗降場",
        "public_transport": "station"
      }
    }
  ]
}