{
  "fetchedAt": "2025-12-12T05:39:36.579Z",
  "prefectureId": "kagoshima",
  "prefectureName": "鹿児島県",
  "stats": {
    "station": 91,
    "airport": 12,
    "ferry_terminal": 56,
    "bus_terminal": 25,
    "total": 184
  },
  "data": [
    {
      "id": "kagoshima_station_265841057",
      "osmId": 265841057,
      "osmType": "node",
      "prefectureId": "kagoshima",
      "type": "station",
      "subtype": "jr",
      "name": "大隅夏井",
      "nameKana": null,
      "nameEn": "Ōsumi-Natsui",
      "operator": "九州旅客鉄道",
      "network": "JR日南線",
      "ref": null,
      "latitude": 31.4698302,
      "longitude": 131.1363203,
      "countryCode": "jp",
      "rawTags": {
        "KSJ2:LIN": "日南線",
        "KSJ2:STN": "大隅夏井",
        "name": "大隅夏井",
        "name:en": "Ōsumi-Natsui",
        "name:ja": "大隅夏井",
        "name:ko": "오스미나쓰이",
        "network": "JR日南線",
        "note": "National-Land Numerical Information (Railway) 2007, MLIT Japan",
        "note:ja": "国土数値情報（鉄道データ）平成19年　国土交通省",
        "operator": "九州旅客鉄道",
        "public_transport": "station",
        "railway": "station",
        "source": "KSJ2",
        "source_ref": "http://nlftp.mlit.go.jp/ksj/jpgis/datalist/KsjTmplt-N02-v1_1.html",
        "wikidata": "Q8081719",
        "wikipedia": "ja:大隅夏井駅"
      }
    },
    {
      "id": "kagoshima_station_265848020",
      "osmId": 265848020,
      "osmType": "node",
      "prefectureId": "kagoshima",
      "type": "station",
      "subtype": "jr",
      "name": "霧島神宮",
      "nameKana": null,
      "nameEn": "Kirishima-Jingu",
      "operator": "九州旅客鉄道",
      "network": null,
      "ref": null,
      "latitude": 31.818656,
      "longitude": 130.8365659,
      "countryCode": "jp",
      "rawTags": {
        "KSJ2:LIN": "日豊線",
        "KSJ2:STN": "霧島神宮",
        "alt_name:ko": "기리시마진구",
        "name": "霧島神宮",
        "name:en": "Kirishima-Jingu",
        "name:ja": "霧島神宮",
        "name:ja_rm": "Kirishima-Jingū",
        "name:ko": "기리시마신궁",
        "note": "National-Land Numerical Information (Railway) 2007, MLIT Japan",
        "note:ja": "国土数値情報（鉄道データ）平成19年　国土交通省",
        "operator": "九州旅客鉄道",
        "operator:en": "Kyushu Railway Company",
        "operator:ja": "九州旅客鉄道",
        "public_transport": "station",
        "railway": "station",
        "source": "KSJ2",
        "source_ref": "http://nlftp.mlit.go.jp/ksj/jpgis/datalist/KsjTmplt-N02-v1_1.html",
        "wikidata": "Q6415333",
        "wikipedia": "ja:霧島神宮駅"
      }
    },
    {
      "id": "kagoshima_station_265848408",
      "osmId": 265848408,
      "osmType": "node",
      "prefectureId": "kagoshima",
      "type": "station",
      "subtype": "jr",
      "name": "北俣",
      "nameKana": null,
      "nameEn": "Kitamata",
      "operator": "九州旅客鉄道",
      "network": "JR日豊線",
      "ref": null,
      "latitude": 31.7449627,
      "longitude": 130.960022,
      "countryCode": "jp",
      "rawTags": {
        "KSJ2:LIN": "日豊線",
        "KSJ2:STN": "北俣",
        "name": "北俣",
        "name:en": "Kitamata",
        "name:ja": "北俣",
        "name:ko": "기타마타",
        "network": "JR日豊線",
        "note": "National-Land Numerical Information (Railway) 2007, MLIT Japan",
        "note:ja": "国土数値情報（鉄道データ）平成19年　国土交通省",
        "operator": "九州旅客鉄道",
        "railway": "station",
        "source": "KSJ2",
        "source_ref": "http://nlftp.mlit.go.jp/ksj/jpgis/datalist/KsjTmplt-N02-v1_1.html",
        "wikidata": "Q5357223",
        "wikipedia": "ja:北俣駅"
      }
    },
    {
      "id": "kagoshima_station_265848414",
      "osmId": 265848414,
      "osmType": "node",
      "prefectureId": "kagoshima",
      "type": "station",
      "subtype": "jr",
      "name": "財部",
      "nameKana": null,
      "nameEn": "Takarabe",
      "operator": "九州旅客鉄道",
      "network": "JR日豊線",
      "ref": null,
      "latitude": 31.7287715,
      "longitude": 130.9916418,
      "countryCode": "jp",
      "rawTags": {
        "KSJ2:LIN": "日豊線",
        "KSJ2:STN": "財部",
        "name": "財部",
        "name:en": "Takarabe",
        "name:ja": "財部",
        "name:ko": "다카라베",
        "network": "JR日豊線",
        "note": "National-Land Numerical Information (Railway) 2007, MLIT Japan",
        "note:ja": "国土数値情報（鉄道データ）平成19年　国土交通省",
        "operator": "九州旅客鉄道",
        "public_transport": "station",
        "railway": "station",
        "source": "KSJ2",
        "source_ref": "http://nlftp.mlit.go.jp/ksj/jpgis/datalist/KsjTmplt-N02-v1_1.html",
        "wikidata": "Q5357407",
        "wikipedia": "ja:財部駅"
      }
    },
    {
      "id": "kagoshima_station_265848436",
      "osmId": 265848436,
      "osmType": "node",
      "prefectureId": "kagoshima",
      "type": "station",
      "subtype": "jr",
      "name": "錦江",
      "nameKana": null,
      "nameEn": "Kinko",
      "operator": "九州旅客鉄道",
      "network": "JR日豊線",
      "ref": null,
      "latitude": 31.7368814,
      "longitude": 130.6532935,
      "countryCode": "jp",
      "rawTags": {
        "KSJ2:LIN": "日豊線",
        "KSJ2:STN": "錦江",
        "name": "錦江",
        "name:en": "Kinko",
        "name:ja": "錦江",
        "name:ja_rm": "Kinkō",
        "name:ko": "긴코",
        "network": "JR日豊線",
        "note": "National-Land Numerical Information (Railway) 2007, MLIT Japan",
        "note:ja": "国土数値情報（鉄道データ）平成19年　国土交通省",
        "operator": "九州旅客鉄道",
        "operator:en": "Kyushu Railway Company",
        "public_transport": "station",
        "railway": "station",
        "source": "KSJ2",
        "source_ref": "http://nlftp.mlit.go.jp/ksj/jpgis/datalist/KsjTmplt-N02-v1_1.html",
        "wikidata": "Q5357318",
        "wikipedia": "ja:錦江駅"
      }
    },
    {
      "id": "kagoshima_station_265848530",
      "osmId": 265848530,
      "osmType": "node",
      "prefectureId": "kagoshima",
      "type": "station",
      "subtype": "jr",
      "name": "隼人",
      "nameKana": null,
      "nameEn": "Hayato",
      "operator": "九州旅客鉄道",
      "network": null,
      "ref": null,
      "latitude": 31.743887,
      "longitude": 130.7402683,
      "countryCode": "jp",
      "rawTags": {
        "KSJ2:LIN": "日豊線;肥薩線",
        "KSJ2:STN": "隼人",
        "name": "隼人",
        "name:en": "Hayato",
        "name:ja": "隼人",
        "name:ko": "하야토",
        "note": "National-Land Numerical Information (Railway) 2007, MLIT Japan",
        "note:ja": "国土数値情報（鉄道データ）平成19年　国土交通省",
        "operator": "九州旅客鉄道",
        "operator:en": "Kyushu Railway Company",
        "operator:ja": "九州旅客鉄道",
        "public_transport": "station",
        "railway": "station",
        "source": "KSJ2",
        "source_ref": "http://nlftp.mlit.go.jp/ksj/jpgis/datalist/KsjTmplt-N02-v1_1.html",
        "wikidata": "Q5357506",
        "wikipedia": "ja:隼人駅"
      }
    },
    {
      "id": "kagoshima_station_265849148",
      "osmId": 265849148,
      "osmType": "node",
      "prefectureId": "kagoshima",
      "type": "station",
      "subtype": "jr",
      "name": "帖佐",
      "nameKana": null,
      "nameEn": "Chosa",
      "operator": "九州旅客鉄道",
      "network": null,
      "ref": null,
      "latitude": 31.7269507,
      "longitude": 130.6327246,
      "countryCode": "jp",
      "rawTags": {
        "KSJ2:LIN": "日豊線",
        "KSJ2:STN": "帖佐",
        "name": "帖佐",
        "name:en": "Chosa",
        "name:ja": "帖佐",
        "name:ja_rm": "Chōsa",
        "name:ko": "조사",
        "note": "National-Land Numerical Information (Railway) 2007, MLIT Japan",
        "note:ja": "国土数値情報（鉄道データ）平成19年　国土交通省",
        "operator": "九州旅客鉄道",
        "operator:en": "Kyushu Railway Company",
        "public_transport": "station",
        "railway": "station",
        "source": "KSJ2",
        "source_ref": "http://nlftp.mlit.go.jp/ksj/jpgis/datalist/KsjTmplt-N02-v1_1.html",
        "wikidata": "Q5119002",
        "wikipedia": "ja:帖佐駅"
      }
    },
    {
      "id": "kagoshima_station_265849213",
      "osmId": 265849213,
      "osmType": "node",
      "prefectureId": "kagoshima",
      "type": "station",
      "subtype": "jr",
      "name": "大隅大川原",
      "nameKana": null,
      "nameEn": "Ōsumi-Ōkawara",
      "operator": "九州旅客鉄道",
      "network": "JR日豊線",
      "ref": null,
      "latitude": 31.7727585,
      "longitude": 130.9249744,
      "countryCode": "jp",
      "rawTags": {
        "KSJ2:LIN": "日豊線",
        "KSJ2:STN": "大隅大川原",
        "name": "大隅大川原",
        "name:en": "Ōsumi-Ōkawara",
        "name:ja": "大隅大川原",
        "name:ko": "오스미오카와라",
        "network": "JR日豊線",
        "note": "National-Land Numerical Information (Railway) 2007, MLIT Japan",
        "note:ja": "国土数値情報（鉄道データ）平成19年　国土交通省",
        "operator": "九州旅客鉄道",
        "public_transport": "station",
        "railway": "station",
        "source": "KSJ2",
        "source_ref": "http://nlftp.mlit.go.jp/ksj/jpgis/datalist/KsjTmplt-N02-v1_1.html",
        "train": "yes",
        "wikidata": "Q5357231",
        "wikipedia": "ja:大隅大川原駅"
      }
    },
    {
      "id": "kagoshima_station_265849773",
      "osmId": 265849773,
      "osmType": "node",
      "prefectureId": "kagoshima",
      "type": "station",
      "subtype": "jr",
      "name": "重富",
      "nameKana": null,
      "nameEn": "Shigetomi",
      "operator": "九州旅客鉄道",
      "network": "JR日豊線",
      "ref": null,
      "latitude": 31.703164,
      "longitude": 130.6144165,
      "countryCode": "jp",
      "rawTags": {
        "KSJ2:LIN": "日豊線",
        "KSJ2:STN": "重富",
        "name": "重富",
        "name:en": "Shigetomi",
        "name:ja": "重富",
        "name:ko": "시게토미",
        "network": "JR日豊線",
        "note": "National-Land Numerical Information (Railway) 2007, MLIT Japan",
        "note:ja": "国土数値情報（鉄道データ）平成19年　国土交通省",
        "operator": "九州旅客鉄道",
        "public_transport": "station",
        "railway": "station",
        "source": "KSJ2",
        "source_ref": "http://nlftp.mlit.go.jp/ksj/jpgis/datalist/KsjTmplt-N02-v1_1.html",
        "wikidata": "Q5373899",
        "wikipedia": "ja:重富駅"
      }
    },
    {
      "id": "kagoshima_station_265850459",
      "osmId": 265850459,
      "osmType": "node",
      "prefectureId": "kagoshima",
      "type": "station",
      "subtype": "jr",
      "name": "姶良",
      "nameKana": null,
      "nameEn": "Aira",
      "operator": "九州旅客鉄道",
      "network": "JR日豊線",
      "ref": null,
      "latitude": 31.7152622,
      "longitude": 130.6232967,
      "countryCode": "jp",
      "rawTags": {
        "KSJ2:LIN": "日豊線",
        "KSJ2:STN": "姶良",
        "name": "姶良",
        "name:en": "Aira",
        "name:ja": "姶良",
        "name:ko": "아이라",
        "network": "JR日豊線",
        "note": "National-Land Numerical Information (Railway) 2007, MLIT Japan",
        "note:ja": "国土数値情報（鉄道データ）平成19年　国土交通省",
        "operator": "九州旅客鉄道",
        "public_transport": "station",
        "railway": "station",
        "source": "KSJ2",
        "source_ref": "http://nlftp.mlit.go.jp/ksj/jpgis/datalist/KsjTmplt-N02-v1_1.html",
        "wikidata": "Q900364",
        "wikipedia": "ja:姶良駅"
      }
    },
    {
      "id": "kagoshima_station_265851737",
      "osmId": 265851737,
      "osmType": "node",
      "prefectureId": "kagoshima",
      "type": "station",
      "subtype": "jr",
      "name": "国分",
      "nameKana": null,
      "nameEn": "Kokubu",
      "operator": "九州旅客鉄道",
      "network": null,
      "ref": null,
      "latitude": 31.7436752,
      "longitude": 130.7634412,
      "countryCode": "jp",
      "rawTags": {
        "KSJ2:LIN": "日豊線",
        "KSJ2:STN": "国分",
        "name": "国分",
        "name:en": "Kokubu",
        "name:ja": "国分",
        "name:ko": "고쿠부",
        "note": "National-Land Numerical Information (Railway) 2007, MLIT Japan",
        "note:ja": "国土数値情報（鉄道データ）平成19年　国土交通省",
        "operator": "九州旅客鉄道",
        "operator:en": "Kyushu Railway Company",
        "operator:ja": "九州旅客鉄道",
        "public_transport": "station",
        "railway": "station",
        "source": "KSJ2",
        "source_ref": "http://nlftp.mlit.go.jp/ksj/jpgis/datalist/KsjTmplt-N02-v1_1.html",
        "wikidata": "Q5357374",
        "wikipedia": "ja:国分駅 (鹿児島県)"
      }
    },
    {
      "id": "kagoshima_station_265851739",
      "osmId": 265851739,
      "osmType": "node",
      "prefectureId": "kagoshima",
      "type": "station",
      "subtype": "jr",
      "name": "北永野田",
      "nameKana": null,
      "nameEn": "Kita-Naganoda",
      "operator": "九州旅客鉄道",
      "network": "JR日豊線",
      "ref": null,
      "latitude": 31.7823288,
      "longitude": 130.8740204,
      "countryCode": "jp",
      "rawTags": {
        "KSJ2:LIN": "日豊線",
        "KSJ2:STN": "北永野田",
        "name": "北永野田",
        "name:en": "Kita-Naganoda",
        "name:ja": "北永野田",
        "name:ko": "기타나가노다",
        "network": "JR日豊線",
        "note": "National-Land Numerical Information (Railway) 2007, MLIT Japan",
        "note:ja": "国土数値情報（鉄道データ）平成19年　国土交通省",
        "operator": "九州旅客鉄道",
        "public_transport": "station",
        "railway": "station",
        "source": "KSJ2",
        "source_ref": "http://nlftp.mlit.go.jp/ksj/jpgis/datalist/KsjTmplt-N02-v1_1.html",
        "train": "yes",
        "wikidata": "Q5357406",
        "wikipedia": "ja:北永野田駅"
      }
    },
    {
      "id": "kagoshima_station_265853785",
      "osmId": 265853785,
      "osmType": "node",
      "prefectureId": "kagoshima",
      "type": "station",
      "subtype": "jr",
      "name": "鶴丸",
      "nameKana": null,
      "nameEn": "Tsurumaru",
      "operator": "九州旅客鉄道",
      "network": "JR吉都線",
      "ref": null,
      "latitude": 32.0306628,
      "longitude": 130.7488093,
      "countryCode": "jp",
      "rawTags": {
        "KSJ2:LIN": "吉都線",
        "KSJ2:STN": "鶴丸",
        "name": "鶴丸",
        "name:en": "Tsurumaru",
        "name:ja": "鶴丸",
        "name:ko": "쓰루마루",
        "network": "JR吉都線",
        "note": "National-Land Numerical Information (Railway) 2007, MLIT Japan",
        "note:ja": "国土数値情報（鉄道データ）平成19年　国土交通省",
        "operator": "九州旅客鉄道",
        "public_transport": "station",
        "railway": "station",
        "service": "crossover",
        "source": "KSJ2",
        "source_ref": "http://nlftp.mlit.go.jp/ksj/jpgis/datalist/KsjTmplt-N02-v1_1.html",
        "wikidata": "Q7850289",
        "wikipedia": "ja:鶴丸駅"
      }
    },
    {
      "id": "kagoshima_station_265855641",
      "osmId": 265855641,
      "osmType": "node",
      "prefectureId": "kagoshima",
      "type": "station",
      "subtype": "jr",
      "name": "石垣",
      "nameKana": null,
      "nameEn": "Ishikaki",
      "operator": "九州旅客鉄道",
      "network": "JR指宿枕崎線",
      "ref": null,
      "latitude": 31.2591976,
      "longitude": 130.4449798,
      "countryCode": "jp",
      "rawTags": {
        "KSJ2:LIN": "指宿枕崎線",
        "KSJ2:STN": "石垣",
        "name": "石垣",
        "name:en": "Ishikaki",
        "name:ja": "石垣",
        "name:ko": "이시카키",
        "network": "JR指宿枕崎線",
        "note": "National-Land Numerical Information (Railway) 2007, MLIT Japan",
        "note:ja": "国土数値情報（鉄道データ）平成19年　国土交通省",
        "operator": "九州旅客鉄道",
        "public_transport": "station",
        "railway": "station",
        "source": "KSJ2",
        "source_ref": "http://nlftp.mlit.go.jp/ksj/jpgis/datalist/KsjTmplt-N02-v1_1.html",
        "wikidata": "Q8192092",
        "wikipedia": "ja:石垣駅"
      }
    },
    {
      "id": "kagoshima_station_265855651",
      "osmId": 265855651,
      "osmType": "node",
      "prefectureId": "kagoshima",
      "type": "station",
      "subtype": "jr",
      "name": "薩摩塩屋",
      "nameKana": null,
      "nameEn": "Satsuma-Shioya",
      "operator": "九州旅客鉄道",
      "network": "JR指宿枕崎線",
      "ref": null,
      "latitude": 31.257165,
      "longitude": 130.3758142,
      "countryCode": "jp",
      "rawTags": {
        "KSJ2:LIN": "指宿枕崎線",
        "KSJ2:STN": "薩摩塩屋",
        "name": "薩摩塩屋",
        "name:en": "Satsuma-Shioya",
        "name:ja": "薩摩塩屋",
        "name:ko": "사쓰마시오야",
        "network": "JR指宿枕崎線",
        "note": "National-Land Numerical Information (Railway) 2007, MLIT Japan",
        "note:ja": "国土数値情報（鉄道データ）平成19年　国土交通省",
        "operator": "九州旅客鉄道",
        "public_transport": "station",
        "railway": "station",
        "source": "KSJ2",
        "source_ref": "http://nlftp.mlit.go.jp/ksj/jpgis/datalist/KsjTmplt-N02-v1_1.html",
        "wikidata": "Q5374582",
        "wikipedia": "ja:薩摩塩屋駅"
      }
    },
    {
      "id": "kagoshima_station_265855708",
      "osmId": 265855708,
      "osmType": "node",
      "prefectureId": "kagoshima",
      "type": "station",
      "subtype": "jr",
      "name": "西頴娃",
      "nameKana": null,
      "nameEn": "Nishiei",
      "operator": "九州旅客鉄道",
      "network": "JR指宿枕崎線",
      "ref": null,
      "latitude": 31.2411471,
      "longitude": 130.4914323,
      "countryCode": "jp",
      "rawTags": {
        "KSJ2:LIN": "指宿枕崎線",
        "KSJ2:STN": "西頴娃",
        "name": "西頴娃",
        "name:en": "Nishiei",
        "name:ja": "西頴娃",
        "name:ko": "니시에이",
        "network": "JR指宿枕崎線",
        "note": "National-Land Numerical Information (Railway) 2007, MLIT Japan",
        "note:ja": "国土数値情報（鉄道データ）平成19年　国土交通省",
        "operator": "九州旅客鉄道",
        "public_transport": "station",
        "railway": "station",
        "source": "KSJ2",
        "source_ref": "http://nlftp.mlit.go.jp/ksj/jpgis/datalist/KsjTmplt-N02-v1_1.html",
        "wikidata": "Q7040328",
        "wikipedia": "ja:西頴娃駅"
      }
    },
    {
      "id": "kagoshima_station_265855723",
      "osmId": 265855723,
      "osmType": "node",
      "prefectureId": "kagoshima",
      "type": "station",
      "subtype": "jr",
      "name": "坂之上",
      "nameKana": null,
      "nameEn": "Sakanoue",
      "operator": "九州旅客鉄道",
      "network": "JR指宿枕崎線",
      "ref": null,
      "latitude": 31.5000496,
      "longitude": 130.5076098,
      "countryCode": "jp",
      "rawTags": {
        "KSJ2:LIN": "指宿枕崎線",
        "KSJ2:STN": "坂之上",
        "name": "坂之上",
        "name:en": "Sakanoue",
        "name:ja": "坂之上",
        "name:ko": "사카노우에",
        "network": "JR指宿枕崎線",
        "note": "National-Land Numerical Information (Railway) 2007, MLIT Japan",
        "note:ja": "国土数値情報（鉄道データ）平成19年 国土交通省",
        "operator": "九州旅客鉄道",
        "public_transport": "station",
        "railway": "station",
        "source": "KSJ2",
        "source_ref": "http://nlftp.mlit.go.jp/ksj/jpgis/datalist/KsjTmplt-N02-v1_1.html",
        "train": "yes",
        "wikidata": "Q870838",
        "wikipedia": "ja:坂之上駅"
      }
    },
    {
      "id": "kagoshima_station_265855812",
      "osmId": 265855812,
      "osmType": "node",
      "prefectureId": "kagoshima",
      "type": "station",
      "subtype": "jr",
      "name": "中名",
      "nameKana": null,
      "nameEn": "Nakamyo",
      "operator": "九州旅客鉄道",
      "network": "JR指宿枕崎線",
      "ref": null,
      "latitude": 31.3937383,
      "longitude": 130.5350362,
      "countryCode": "jp",
      "rawTags": {
        "KSJ2:LIN": "指宿枕崎線",
        "KSJ2:STN": "中名",
        "name": "中名",
        "name:en": "Nakamyo",
        "name:ja": "中名",
        "name:ja_rm": "Nakamyō",
        "name:ko": "나카묘",
        "network": "JR指宿枕崎線",
        "note": "National-Land Numerical Information (Railway) 2007, MLIT Japan",
        "note:ja": "国土数値情報（鉄道データ）平成19年　国土交通省",
        "operator": "九州旅客鉄道",
        "public_transport": "station",
        "railway": "station",
        "source": "KSJ2",
        "source_ref": "http://nlftp.mlit.go.jp/ksj/jpgis/datalist/KsjTmplt-N02-v1_1.html",
        "train": "yes",
        "wikidata": "Q871029",
        "wikipedia": "ja:中名駅"
      }
    },
    {
      "id": "kagoshima_station_265855920",
      "osmId": 265855920,
      "osmType": "node",
      "prefectureId": "kagoshima",
      "type": "station",
      "subtype": "jr",
      "name": "生見",
      "nameKana": null,
      "nameEn": "Nukumi",
      "operator": "九州旅客鉄道",
      "network": "JR指宿枕崎線",
      "ref": null,
      "latitude": 31.3071929,
      "longitude": 130.5778428,
      "countryCode": "jp",
      "rawTags": {
        "KSJ2:LIN": "指宿枕崎線",
        "KSJ2:STN": "生見",
        "name": "生見",
        "name:en": "Nukumi",
        "name:ja": "生見",
        "name:ko": "누쿠미",
        "network": "JR指宿枕崎線",
        "note": "National-Land Numerical Information (Railway) 2007, MLIT Japan",
        "note:ja": "国土数値情報（鉄道データ）平成19年　国土交通省",
        "operator": "九州旅客鉄道",
        "public_transport": "station",
        "railway": "station",
        "source": "KSJ2",
        "source_ref": "http://nlftp.mlit.go.jp/ksj/jpgis/datalist/KsjTmplt-N02-v1_1.html",
        "wikidata": "Q872607",
        "wikipedia": "ja:生見駅"
      }
    },
    {
      "id": "kagoshima_station_265856006",
      "osmId": 265856006,
      "osmType": "node",
      "prefectureId": "kagoshima",
      "type": "station",
      "subtype": "jr",
      "name": "頴娃大川",
      "nameKana": null,
      "nameEn": "Ei-Okawa",
      "operator": "九州旅客鉄道",
      "network": "JR指宿枕崎線",
      "ref": null,
      "latitude": 31.2577772,
      "longitude": 130.4137038,
      "countryCode": "jp",
      "rawTags": {
        "KSJ2:LIN": "指宿枕崎線",
        "KSJ2:STN": "頴娃大川",
        "name": "頴娃大川",
        "name:en": "Ei-Okawa",
        "name:ja": "頴娃大川",
        "name:ja_rm": "Ei-Ōkawa",
        "name:ko": "에이오카와",
        "network": "JR指宿枕崎線",
        "note": "National-Land Numerical Information (Railway) 2007, MLIT Japan",
        "note:ja": "国土数値情報（鉄道データ）平成19年　国土交通省",
        "operator": "九州旅客鉄道",
        "public_transport": "station",
        "railway": "station",
        "source": "KSJ2",
        "source_ref": "http://nlftp.mlit.go.jp/ksj/jpgis/datalist/KsjTmplt-N02-v1_1.html",
        "wikidata": "Q5348688",
        "wikipedia": "ja:頴娃大川駅"
      }
    },
    {
      "id": "kagoshima_station_265856032",
      "osmId": 265856032,
      "osmType": "node",
      "prefectureId": "kagoshima",
      "type": "station",
      "subtype": "jr",
      "name": "薩摩川尻",
      "nameKana": null,
      "nameEn": "Satsuma-Kawashiri",
      "operator": "九州旅客鉄道",
      "network": "JR指宿枕崎線",
      "ref": null,
      "latitude": 31.194674,
      "longitude": 130.5658512,
      "countryCode": "jp",
      "rawTags": {
        "name": "薩摩川尻",
        "name:en": "Satsuma-Kawashiri",
        "name:ja": "薩摩川尻",
        "name:ko": "사쓰마카와시리",
        "network": "JR指宿枕崎線",
        "operator": "九州旅客鉄道",
        "operator:en": "Kyushu Railway Company",
        "public_transport": "station",
        "railway": "station",
        "source": "KSJ2",
        "train": "yes",
        "wikidata": "Q7426498",
        "wikipedia": "ja:薩摩川尻駅"
      }
    },
    {
      "id": "kagoshima_station_265856247",
      "osmId": 265856247,
      "osmType": "node",
      "prefectureId": "kagoshima",
      "type": "station",
      "subtype": "jr",
      "name": "薩摩今和泉",
      "nameKana": null,
      "nameEn": "Satsuma-Imaizumi",
      "operator": "九州旅客鉄道",
      "network": "JR指宿枕崎線",
      "ref": null,
      "latitude": 31.2906892,
      "longitude": 130.5991188,
      "countryCode": "jp",
      "rawTags": {
        "KSJ2:LIN": "指宿枕崎線",
        "KSJ2:STN": "薩摩今和泉",
        "name": "薩摩今和泉",
        "name:en": "Satsuma-Imaizumi",
        "name:ja": "薩摩今和泉",
        "name:ko": "사쓰마이마이즈미",
        "network": "JR指宿枕崎線",
        "note": "National-Land Numerical Information (Railway) 2007, MLIT Japan",
        "note:ja": "国土数値情報（鉄道データ）平成19年　国土交通省",
        "operator": "九州旅客鉄道",
        "public_transport": "station",
        "railway": "station",
        "source": "KSJ2",
        "source_ref": "http://nlftp.mlit.go.jp/ksj/jpgis/datalist/KsjTmplt-N02-v1_1.html",
        "wikidata": "Q873048",
        "wikipedia": "ja:薩摩今和泉駅"
      }
    },
    {
      "id": "kagoshima_station_265856259",
      "osmId": 265856259,
      "osmType": "node",
      "prefectureId": "kagoshima",
      "type": "station",
      "subtype": "jr",
      "name": "喜入",
      "nameKana": null,
      "nameEn": "Kiire",
      "operator": "九州旅客鉄道",
      "network": "JR指宿枕崎線",
      "ref": null,
      "latitude": 31.3713388,
      "longitude": 130.5389133,
      "countryCode": "jp",
      "rawTags": {
        "KSJ2:LIN": "指宿枕崎線",
        "KSJ2:STN": "喜入",
        "name": "喜入",
        "name:en": "Kiire",
        "name:ja": "喜入",
        "name:ko": "기이레",
        "network": "JR指宿枕崎線",
        "note": "National-Land Numerical Information (Railway) 2007, MLIT Japan",
        "note:ja": "国土数値情報（鉄道データ）平成19年　国土交通省",
        "operator": "九州旅客鉄道",
        "public_transport": "station",
        "railway": "station",
        "source": "KSJ2",
        "source_ref": "http://nlftp.mlit.go.jp/ksj/jpgis/datalist/KsjTmplt-N02-v1_1.html",
        "wikidata": "Q872715",
        "wikipedia": "ja:喜入駅"
      }
    },
    {
      "id": "kagoshima_station_265856262",
      "osmId": 265856262,
      "osmType": "node",
      "prefectureId": "kagoshima",
      "type": "station",
      "subtype": "jr",
      "name": "頴娃",
      "nameKana": null,
      "nameEn": "Ei",
      "operator": "九州旅客鉄道",
      "network": "JR指宿枕崎線",
      "ref": null,
      "latitude": 31.2290864,
      "longitude": 130.5003552,
      "countryCode": "jp",
      "rawTags": {
        "KSJ2:LIN": "指宿枕崎線",
        "KSJ2:STN": "頴娃",
        "name": "頴娃",
        "name:en": "Ei",
        "name:ja": "頴娃",
        "name:ko": "에이",
        "network": "JR指宿枕崎線",
        "note": "National-Land Numerical Information (Railway) 2007, MLIT Japan",
        "note:ja": "国土数値情報（鉄道データ）平成19年　国土交通省",
        "operator": "九州旅客鉄道",
        "public_transport": "station",
        "railway": "station",
        "source": "KSJ2",
        "source_ref": "http://nlftp.mlit.go.jp/ksj/jpgis/datalist/KsjTmplt-N02-v1_1.html",
        "wikidata": "Q5348694",
        "wikipedia": "ja:頴娃駅"
      }
    },
    {
      "id": "kagoshima_station_265856265",
      "osmId": 265856265,
      "osmType": "node",
      "prefectureId": "kagoshima",
      "type": "station",
      "subtype": "jr",
      "name": "水成川",
      "nameKana": null,
      "nameEn": "Mizunarikawa",
      "operator": "九州旅客鉄道",
      "network": "JR指宿枕崎線",
      "ref": null,
      "latitude": 31.2570218,
      "longitude": 130.430502,
      "countryCode": "jp",
      "rawTags": {
        "KSJ2:LIN": "指宿枕崎線",
        "KSJ2:STN": "水成川",
        "name": "水成川",
        "name:en": "Mizunarikawa",
        "name:ja": "水成川",
        "name:ko": "미즈나리카와",
        "network": "JR指宿枕崎線",
        "note": "National-Land Numerical Information (Railway) 2007, MLIT Japan",
        "note:ja": "国土数値情報（鉄道データ）平成19年　国土交通省",
        "operator": "九州旅客鉄道",
        "public_transport": "station",
        "railway": "station",
        "source": "KSJ2",
        "source_ref": "http://nlftp.mlit.go.jp/ksj/jpgis/datalist/KsjTmplt-N02-v1_1.html",
        "wikidata": "Q6884868",
        "wikipedia": "ja:水成川駅"
      }
    },
    {
      "id": "kagoshima_station_265856274",
      "osmId": 265856274,
      "osmType": "node",
      "prefectureId": "kagoshima",
      "type": "station",
      "subtype": "jr",
      "name": "郡元",
      "nameKana": "こおりもと",
      "nameEn": "Korimoto",
      "operator": "九州旅客鉄道",
      "network": "JR指宿枕崎線",
      "ref": null,
      "latitude": 31.5652499,
      "longitude": 130.5423179,
      "countryCode": "jp",
      "rawTags": {
        "KSJ2:LIN": "指宿枕崎線",
        "KSJ2:STN": "郡元",
        "name": "郡元",
        "name:en": "Korimoto",
        "name:ja": "郡元",
        "name:ja-Hira": "こおりもと",
        "name:ja_rm": "Kōrimoto",
        "network": "JR指宿枕崎線",
        "note": "National-Land Numerical Information (Railway) 2007, MLIT Japan",
        "note:ja": "国土数値情報（鉄道データ）平成19年　国土交通省",
        "operator": "九州旅客鉄道",
        "public_transport": "station",
        "railway": "station",
        "source": "KSJ2",
        "source_ref": "http://nlftp.mlit.go.jp/ksj/jpgis/datalist/KsjTmplt-N02-v1_1.html",
        "train": "yes",
        "wikidata": "Q869329",
        "wikipedia": "ja:郡元駅"
      }
    },
    {
      "id": "kagoshima_station_265856370",
      "osmId": 265856370,
      "osmType": "node",
      "prefectureId": "kagoshima",
      "type": "station",
      "subtype": "jr",
      "name": "二月田",
      "nameKana": null,
      "nameEn": "Nigatsuden",
      "operator": "九州旅客鉄道",
      "network": "JR指宿枕崎線",
      "ref": null,
      "latitude": 31.2542459,
      "longitude": 130.63012,
      "countryCode": "jp",
      "rawTags": {
        "KSJ2:LIN": "指宿枕崎線",
        "KSJ2:STN": "二月田",
        "name": "二月田",
        "name:en": "Nigatsuden",
        "name:ja": "二月田",
        "name:ko": "니가쓰덴",
        "network": "JR指宿枕崎線",
        "note": "National-Land Numerical Information (Railway) 2007, MLIT Japan",
        "note:ja": "国土数値情報（鉄道データ）平成19年　国土交通省",
        "operator": "九州旅客鉄道",
        "public_transport": "station",
        "railway": "station",
        "source": "KSJ2",
        "source_ref": "http://nlftp.mlit.go.jp/ksj/jpgis/datalist/KsjTmplt-N02-v1_1.html",
        "wikidata": "Q872642",
        "wikipedia": "ja:二月田駅"
      }
    },
    {
      "id": "kagoshima_station_265856411",
      "osmId": 265856411,
      "osmType": "node",
      "prefectureId": "kagoshima",
      "type": "station",
      "subtype": "jr",
      "name": "谷山",
      "nameKana": null,
      "nameEn": "Taniyama",
      "operator": "九州旅客鉄道",
      "network": "JR指宿枕崎線",
      "ref": null,
      "latitude": 31.5267756,
      "longitude": 130.5182922,
      "countryCode": "jp",
      "rawTags": {
        "KSJ2:LIN": "指宿枕崎線",
        "name": "谷山",
        "name:en": "Taniyama",
        "name:ja": "谷山",
        "name:ko": "다니야마",
        "network": "JR指宿枕崎線",
        "operator": "九州旅客鉄道",
        "public_transport": "station",
        "railway": "station",
        "train": "yes",
        "wikidata": "Q869075",
        "wikipedia": "ja:谷山駅 (鹿児島県)"
      }
    },
    {
      "id": "kagoshima_station_265856459",
      "osmId": 265856459,
      "osmType": "node",
      "prefectureId": "kagoshima",
      "type": "station",
      "subtype": "jr",
      "name": "入野",
      "nameKana": null,
      "nameEn": "Irino",
      "operator": "九州旅客鉄道",
      "network": "JR指宿枕崎線",
      "ref": null,
      "latitude": 31.2050422,
      "longitude": 130.518642,
      "countryCode": "jp",
      "rawTags": {
        "KSJ2:LIN": "指宿枕崎線",
        "KSJ2:STN": "入野",
        "name": "入野",
        "name:en": "Irino",
        "name:ja": "入野",
        "name:ko": "이리노",
        "network": "JR指宿枕崎線",
        "note": "National-Land Numerical Information (Railway) 2007, MLIT Japan",
        "note:ja": "国土数値情報（鉄道データ）平成19年　国土交通省",
        "operator": "九州旅客鉄道",
        "public_transport": "station",
        "railway": "station",
        "source": "KSJ2",
        "source_ref": "http://nlftp.mlit.go.jp/ksj/jpgis/datalist/KsjTmplt-N02-v1_1.html",
        "train": "yes",
        "wikidata": "Q6070036",
        "wikipedia": "ja:入野駅 (鹿児島県)"
      }
    },
    {
      "id": "kagoshima_station_265856461",
      "osmId": 265856461,
      "osmType": "node",
      "prefectureId": "kagoshima",
      "type": "station",
      "subtype": "jr",
      "name": "宮ヶ浜",
      "nameKana": null,
      "nameEn": "Miyagahama",
      "operator": "九州旅客鉄道",
      "network": "JR指宿枕崎線",
      "ref": null,
      "latitude": 31.2771063,
      "longitude": 130.6199101,
      "countryCode": "jp",
      "rawTags": {
        "KSJ2:LIN": "指宿枕崎線",
        "KSJ2:STN": "宮ヶ浜",
        "name": "宮ヶ浜",
        "name:en": "Miyagahama",
        "name:ja": "宮ヶ浜",
        "name:ko": "미야가하마",
        "network": "JR指宿枕崎線",
        "note": "National-Land Numerical Information (Railway) 2007, MLIT Japan",
        "note:ja": "国土数値情報（鉄道データ）平成19年　国土交通省",
        "operator": "九州旅客鉄道",
        "public_transport": "station",
        "railway": "station",
        "source": "KSJ2",
        "source_ref": "http://nlftp.mlit.go.jp/ksj/jpgis/datalist/KsjTmplt-N02-v1_1.html",
        "wikidata": "Q872805",
        "wikipedia": "ja:宮ケ浜駅"
      }
    },
    {
      "id": "kagoshima_station_265856492",
      "osmId": 265856492,
      "osmType": "node",
      "prefectureId": "kagoshima",
      "type": "station",
      "subtype": "jr",
      "name": "五位野",
      "nameKana": null,
      "nameEn": "Goino",
      "operator": "九州旅客鉄道",
      "network": "JR指宿枕崎線",
      "ref": null,
      "latitude": 31.4751918,
      "longitude": 130.5040722,
      "countryCode": "jp",
      "rawTags": {
        "KSJ2:LIN": "指宿枕崎線",
        "KSJ2:STN": "五位野",
        "name": "五位野",
        "name:en": "Goino",
        "name:ja": "五位野",
        "name:ko": "고이노",
        "network": "JR指宿枕崎線",
        "note": "National-Land Numerical Information (Railway) 2007, MLIT Japan",
        "note:ja": "国土数値情報（鉄道データ）平成19年　国土交通省",
        "operator": "九州旅客鉄道",
        "public_transport": "station",
        "railway": "station",
        "source": "KSJ2",
        "source_ref": "http://nlftp.mlit.go.jp/ksj/jpgis/datalist/KsjTmplt-N02-v1_1.html",
        "train": "yes",
        "wikidata": "Q870525",
        "wikipedia": "ja:五位野駅"
      }
    },
    {
      "id": "kagoshima_station_265857247",
      "osmId": 265857247,
      "osmType": "node",
      "prefectureId": "kagoshima",
      "type": "station",
      "subtype": "jr",
      "name": "薩摩板敷",
      "nameKana": null,
      "nameEn": "Satsuma-Itashiki",
      "operator": "九州旅客鉄道",
      "network": "JR指宿枕崎線",
      "ref": null,
      "latitude": 31.2623737,
      "longitude": 130.3310071,
      "countryCode": "jp",
      "rawTags": {
        "KSJ2:LIN": "指宿枕崎線",
        "KSJ2:STN": "薩摩板敷",
        "name": "薩摩板敷",
        "name:en": "Satsuma-Itashiki",
        "name:ja": "薩摩板敷",
        "name:ko": "사쓰마이타시키",
        "network": "JR指宿枕崎線",
        "note": "National-Land Numerical Information (Railway) 2007, MLIT Japan",
        "note:ja": "国土数値情報（鉄道データ）平成19年　国土交通省",
        "operator": "九州旅客鉄道",
        "public_transport": "station",
        "railway": "station",
        "source": "KSJ2",
        "source_ref": "http://nlftp.mlit.go.jp/ksj/jpgis/datalist/KsjTmplt-N02-v1_1.html",
        "wikidata": "Q5374483",
        "wikipedia": "ja:薩摩板敷駅"
      }
    },
    {
      "id": "kagoshima_station_265857264",
      "osmId": 265857264,
      "osmType": "node",
      "prefectureId": "kagoshima",
      "type": "station",
      "subtype": "private",
      "name": "慈眼寺",
      "nameKana": null,
      "nameEn": "Jigenji",
      "operator": null,
      "network": null,
      "ref": null,
      "latitude": 31.5169609,
      "longitude": 130.5058516,
      "countryCode": "jp",
      "rawTags": {
        "KSJ2:LIN": "指宿枕崎線",
        "KSJ2:STN": "慈眼寺",
        "name": "慈眼寺",
        "name:en": "Jigenji",
        "name:ja": "慈眼寺",
        "name:ko": "지겐지",
        "note": "National-Land Numerical Information (Railway) 2007, MLIT Japan",
        "note:ja": "国土数値情報（鉄道データ）平成19年　国土交通省",
        "public_transport": "station",
        "railway": "station",
        "source": "KSJ2",
        "source_ref": "http://nlftp.mlit.go.jp/ksj/jpgis/datalist/KsjTmplt-N02-v1_1.html",
        "wikidata": "Q869268",
        "wikipedia": "ja:慈眼寺駅"
      }
    },
    {
      "id": "kagoshima_station_265857286",
      "osmId": 265857286,
      "osmType": "node",
      "prefectureId": "kagoshima",
      "type": "station",
      "subtype": "private",
      "name": "前之浜",
      "nameKana": null,
      "nameEn": "Maenohama",
      "operator": null,
      "network": null,
      "ref": null,
      "latitude": 31.3433715,
      "longitude": 130.5569817,
      "countryCode": "jp",
      "rawTags": {
        "KSJ2:LIN": "指宿枕崎線",
        "KSJ2:STN": "前之浜",
        "name": "前之浜",
        "name:en": "Maenohama",
        "name:ja": "前之浜",
        "name:ko": "마에노하마",
        "note": "National-Land Numerical Information (Railway) 2007, MLIT Japan",
        "note:ja": "国土数値情報（鉄道データ）平成19年　国土交通省",
        "public_transport": "station",
        "railway": "station",
        "source": "KSJ2",
        "source_ref": "http://nlftp.mlit.go.jp/ksj/jpgis/datalist/KsjTmplt-N02-v1_1.html",
        "wikidata": "Q872681",
        "wikipedia": "ja:前之浜駅"
      }
    },
    {
      "id": "kagoshima_station_265857292",
      "osmId": 265857292,
      "osmType": "node",
      "prefectureId": "kagoshima",
      "type": "station",
      "subtype": "jr",
      "name": "指宿",
      "nameKana": null,
      "nameEn": "Ibusuki",
      "operator": "九州旅客鉄道",
      "network": "JR指宿枕崎線",
      "ref": null,
      "latitude": 31.2368332,
      "longitude": 130.6426613,
      "countryCode": "jp",
      "rawTags": {
        "KSJ2:LIN": "指宿枕崎線",
        "KSJ2:STN": "指宿",
        "name": "指宿",
        "name:de": "Ibusuki",
        "name:en": "Ibusuki",
        "name:ja": "指宿",
        "name:ko": "이부스키",
        "network": "JR指宿枕崎線",
        "note": "National-Land Numerical Information (Railway) 2007, MLIT Japan",
        "note:ja": "国土数値情報（鉄道データ）平成19年　国土交通省",
        "operator": "九州旅客鉄道",
        "public_transport": "station",
        "railway": "station",
        "source": "KSJ2",
        "source_ref": "http://nlftp.mlit.go.jp/ksj/jpgis/datalist/KsjTmplt-N02-v1_1.html",
        "wikidata": "Q872956",
        "wikipedia": "ja:指宿駅"
      }
    },
    {
      "id": "kagoshima_station_265857383",
      "osmId": 265857383,
      "osmType": "node",
      "prefectureId": "kagoshima",
      "type": "station",
      "subtype": "jr",
      "name": "御領",
      "nameKana": null,
      "nameEn": "Goryo",
      "operator": "九州旅客鉄道",
      "network": "JR指宿枕崎線",
      "ref": null,
      "latitude": 31.2520111,
      "longitude": 130.4685927,
      "countryCode": "jp",
      "rawTags": {
        "KSJ2:LIN": "指宿枕崎線",
        "KSJ2:STN": "御領",
        "name": "御領",
        "name:en": "Goryo",
        "name:ja": "御領",
        "name:ja_rm": "Goryō",
        "name:ko": "고료",
        "network": "JR指宿枕崎線",
        "note": "National-Land Numerical Information (Railway) 2007, MLIT Japan",
        "note:ja": "国土数値情報（鉄道データ）平成19年　国土交通省",
        "operator": "九州旅客鉄道",
        "public_transport": "station",
        "railway": "station",
        "source": "KSJ2",
        "source_ref": "http://nlftp.mlit.go.jp/ksj/jpgis/datalist/KsjTmplt-N02-v1_1.html",
        "wikidata": "Q5587024",
        "wikipedia": "ja:御領駅 (鹿児島県)"
      }
    },
    {
      "id": "kagoshima_station_265857554",
      "osmId": 265857554,
      "osmType": "node",
      "prefectureId": "kagoshima",
      "type": "station",
      "subtype": "jr",
      "name": "平川",
      "nameKana": null,
      "nameEn": "Hirakawa",
      "operator": "九州旅客鉄道",
      "network": "JR指宿枕崎線",
      "ref": null,
      "latitude": 31.4500151,
      "longitude": 130.5137193,
      "countryCode": "jp",
      "rawTags": {
        "KSJ2:LIN": "指宿枕崎線",
        "KSJ2:STN": "平川",
        "name": "平川",
        "name:en": "Hirakawa",
        "name:ja": "平川",
        "name:ko": "히라카와",
        "network": "JR指宿枕崎線",
        "note": "National-Land Numerical Information (Railway) 2007, MLIT Japan",
        "note:ja": "国土数値情報（鉄道データ）平成19年　国土交通省",
        "operator": "九州旅客鉄道",
        "public_transport": "station",
        "railway": "station",
        "source": "KSJ2",
        "source_ref": "http://nlftp.mlit.go.jp/ksj/jpgis/datalist/KsjTmplt-N02-v1_1.html",
        "train": "yes",
        "wikidata": "Q870832",
        "wikipedia": "ja:平川駅"
      }
    },
    {
      "id": "kagoshima_station_265857943",
      "osmId": 265857943,
      "osmType": "node",
      "prefectureId": "kagoshima",
      "type": "station",
      "subtype": "jr",
      "name": "大山",
      "nameKana": null,
      "nameEn": "Oyama",
      "operator": "九州旅客鉄道",
      "network": "JR指宿枕崎線",
      "ref": null,
      "latitude": 31.1949423,
      "longitude": 130.5991785,
      "countryCode": "jp",
      "rawTags": {
        "name": "大山",
        "name:en": "Oyama",
        "name:ja": "大山",
        "name:ja_rm": "Ōyama",
        "name:ko": "오야마",
        "network": "JR指宿枕崎線",
        "operator": "九州旅客鉄道",
        "public_transport": "station",
        "railway": "station",
        "source": "KSJ2",
        "train": "yes",
        "wikidata": "Q8081812",
        "wikipedia": "ja:大山駅 (鹿児島県)"
      }
    },
    {
      "id": "kagoshima_station_265858043",
      "osmId": 265858043,
      "osmType": "node",
      "prefectureId": "kagoshima",
      "type": "station",
      "subtype": "jr",
      "name": "山川",
      "nameKana": null,
      "nameEn": "Yamakawa",
      "operator": "九州旅客鉄道",
      "network": "JR指宿枕崎線",
      "ref": null,
      "latitude": 31.2113606,
      "longitude": 130.6297909,
      "countryCode": "jp",
      "rawTags": {
        "KSJ2:LIN": "指宿枕崎線",
        "KSJ2:STN": "山川",
        "name": "山川",
        "name:de": "Yamakawa",
        "name:en": "Yamakawa",
        "name:ja": "山川",
        "name:ko": "야마카와",
        "network": "JR指宿枕崎線",
        "note": "National-Land Numerical Information (Railway) 2007, MLIT Japan",
        "note:ja": "国土数値情報（鉄道データ）平成19年　国土交通省",
        "operator": "九州旅客鉄道",
        "public_transport": "station",
        "railway": "station",
        "source": "KSJ2",
        "source_ref": "http://nlftp.mlit.go.jp/ksj/jpgis/datalist/KsjTmplt-N02-v1_1.html",
        "wikidata": "Q8047840",
        "wikipedia": "ja:山川駅"
      }
    },
    {
      "id": "kagoshima_station_265858146",
      "osmId": 265858146,
      "osmType": "node",
      "prefectureId": "kagoshima",
      "type": "station",
      "subtype": "jr",
      "name": "白沢",
      "nameKana": null,
      "nameEn": "Shirasawa",
      "operator": "九州旅客鉄道",
      "network": "JR指宿枕崎線",
      "ref": null,
      "latitude": 31.2570091,
      "longitude": 130.3568108,
      "countryCode": "jp",
      "rawTags": {
        "KSJ2:LIN": "指宿枕崎線",
        "KSJ2:STN": "白沢",
        "name": "白沢",
        "name:en": "Shirasawa",
        "name:ja": "白沢",
        "name:ko": "시라사와",
        "network": "JR指宿枕崎線",
        "note": "National-Land Numerical Information (Railway) 2007, MLIT Japan",
        "note:ja": "国土数値情報（鉄道データ）平成19年　国土交通省",
        "operator": "九州旅客鉄道",
        "public_transport": "station",
        "railway": "station",
        "source": "KSJ2",
        "source_ref": "http://nlftp.mlit.go.jp/ksj/jpgis/datalist/KsjTmplt-N02-v1_1.html",
        "wikidata": "Q5374545",
        "wikipedia": "ja:白沢駅 (鹿児島県)"
      }
    },
    {
      "id": "kagoshima_station_265858216",
      "osmId": 265858216,
      "osmType": "node",
      "prefectureId": "kagoshima",
      "type": "station",
      "subtype": "jr",
      "name": "宇宿",
      "nameKana": null,
      "nameEn": "Usuki",
      "operator": "九州旅客鉄道",
      "network": "JR指宿枕崎線",
      "ref": null,
      "latitude": 31.5441911,
      "longitude": 130.5363399,
      "countryCode": "jp",
      "rawTags": {
        "KSJ2:LIN": "指宿枕崎線",
        "KSJ2:STN": "宇宿",
        "name": "宇宿",
        "name:en": "Usuki",
        "name:ja": "宇宿",
        "name:ko": "우스키",
        "network": "JR指宿枕崎線",
        "note": "National-Land Numerical Information (Railway) 2007, MLIT Japan",
        "note:ja": "国土数値情報（鉄道データ）平成19年　国土交通省",
        "operator": "九州旅客鉄道",
        "public_transport": "station",
        "railway": "station",
        "source": "KSJ2",
        "source_ref": "http://nlftp.mlit.go.jp/ksj/jpgis/datalist/KsjTmplt-N02-v1_1.html",
        "wikidata": "Q869464",
        "wikipedia": "ja:宇宿駅"
      }
    },
    {
      "id": "kagoshima_station_265858269",
      "osmId": 265858269,
      "osmType": "node",
      "prefectureId": "kagoshima",
      "type": "station",
      "subtype": "jr",
      "name": "松ヶ浦",
      "nameKana": null,
      "nameEn": "Matsugaura",
      "operator": "九州旅客鉄道",
      "network": "JR指宿枕崎線",
      "ref": null,
      "latitude": 31.2589636,
      "longitude": 130.3944151,
      "countryCode": "jp",
      "rawTags": {
        "KSJ2:LIN": "指宿枕崎線",
        "KSJ2:STN": "松ヶ浦",
        "name": "松ヶ浦",
        "name:en": "Matsugaura",
        "name:ja": "松ヶ浦",
        "name:ko": "마쓰가우라",
        "network": "JR指宿枕崎線",
        "note": "National-Land Numerical Information (Railway) 2007, MLIT Japan",
        "note:ja": "国土数値情報（鉄道データ）平成19年　国土交通省",
        "operator": "九州旅客鉄道",
        "public_transport": "station",
        "railway": "station",
        "source": "KSJ2",
        "source_ref": "http://nlftp.mlit.go.jp/ksj/jpgis/datalist/KsjTmplt-N02-v1_1.html",
        "wikidata": "Q252322",
        "wikipedia": "ja:松ケ浦駅"
      }
    },
    {
      "id": "kagoshima_station_265858271",
      "osmId": 265858271,
      "osmType": "node",
      "prefectureId": "kagoshima",
      "type": "station",
      "subtype": "jr",
      "name": "南鹿児島",
      "nameKana": null,
      "nameEn": "Minami-Kagoshima",
      "operator": "九州旅客鉄道",
      "network": "JR指宿枕崎線",
      "ref": null,
      "latitude": 31.5551584,
      "longitude": 130.5438937,
      "countryCode": "jp",
      "rawTags": {
        "KSJ2:LIN": "指宿枕崎線",
        "KSJ2:STN": "南鹿児島",
        "name": "南鹿児島",
        "name:en": "Minami-Kagoshima",
        "name:ja": "南鹿児島",
        "name:ko": "미나미가고시마",
        "network": "JR指宿枕崎線",
        "note": "National-Land Numerical Information (Railway) 2007, MLIT Japan",
        "note:ja": "国土数値情報（鉄道データ）平成19年　国土交通省",
        "operator": "九州旅客鉄道",
        "public_transport": "station",
        "railway": "station",
        "source": "KSJ2",
        "source_ref": "http://nlftp.mlit.go.jp/ksj/jpgis/datalist/KsjTmplt-N02-v1_1.html",
        "train": "yes",
        "wikidata": "Q869240",
        "wikipedia": "ja:南鹿児島駅"
      }
    },
    {
      "id": "kagoshima_station_265858842",
      "osmId": 265858842,
      "osmType": "node",
      "prefectureId": "kagoshima",
      "type": "station",
      "subtype": "jr",
      "name": "瀬々串",
      "nameKana": null,
      "nameEn": "Sesekushi",
      "operator": "九州旅客鉄道",
      "network": "JR指宿枕崎線",
      "ref": null,
      "latitude": 31.421801,
      "longitude": 130.5228342,
      "countryCode": "jp",
      "rawTags": {
        "KSJ2:LIN": "指宿枕崎線",
        "KSJ2:STN": "瀬々串",
        "name": "瀬々串",
        "name:en": "Sesekushi",
        "name:ja": "瀬々串",
        "name:ko": "세세쿠시",
        "network": "JR指宿枕崎線",
        "note": "National-Land Numerical Information (Railway) 2007, MLIT Japan",
        "note:ja": "国土数値情報（鉄道データ）平成19年　国土交通省",
        "operator": "九州旅客鉄道",
        "public_transport": "station",
        "railway": "station",
        "source": "KSJ2",
        "source_ref": "http://nlftp.mlit.go.jp/ksj/jpgis/datalist/KsjTmplt-N02-v1_1.html",
        "wikidata": "Q870563",
        "wikipedia": "ja:瀬々串駅"
      }
    },
    {
      "id": "kagoshima_station_265921370",
      "osmId": 265921370,
      "osmType": "node",
      "prefectureId": "kagoshima",
      "type": "station",
      "subtype": "jr",
      "name": "中福良",
      "nameKana": null,
      "nameEn": "Nakafukura",
      "operator": "九州旅客鉄道",
      "network": "JR肥薩線",
      "ref": null,
      "latitude": 31.814166,
      "longitude": 130.732755,
      "countryCode": "jp",
      "rawTags": {
        "KSJ2:LIN": "肥薩線",
        "KSJ2:STN": "中福良",
        "name": "中福良",
        "name:en": "Nakafukura",
        "name:ja": "中福良",
        "name:ko": "나카후쿠라",
        "network": "JR肥薩線",
        "note": "National-Land Numerical Information (Railway) 2007, MLIT Japan",
        "note:ja": "国土数値情報（鉄道データ）平成19年　国土交通省",
        "operator": "九州旅客鉄道",
        "operator:en": "Kyushu Railway Company",
        "operator:ja": "九州旅客鉄道",
        "public_transport": "station",
        "railway": "station",
        "source": "KSJ2",
        "source_ref": "http://nlftp.mlit.go.jp/ksj/jpgis/datalist/KsjTmplt-N02-v1_1.html",
        "train": "yes",
        "wikidata": "Q5375706",
        "wikipedia": "ja:中福良駅"
      }
    },
    {
      "id": "kagoshima_station_265921575",
      "osmId": 265921575,
      "osmType": "node",
      "prefectureId": "kagoshima",
      "type": "station",
      "subtype": "jr",
      "name": "表木山",
      "nameKana": null,
      "nameEn": "Hyōkiyama",
      "operator": "九州旅客鉄道",
      "network": "JR肥薩線",
      "ref": null,
      "latitude": 31.7964449,
      "longitude": 130.7452663,
      "countryCode": "jp",
      "rawTags": {
        "KSJ2:LIN": "肥薩線",
        "KSJ2:STN": "表木山",
        "name": "表木山",
        "name:en": "Hyōkiyama",
        "name:ja": "表木山",
        "name:ko": "효키야마",
        "network": "JR肥薩線",
        "note": "National-Land Numerical Information (Railway) 2007, MLIT Japan",
        "note:ja": "国土数値情報（鉄道データ）平成19年　国土交通省",
        "operator": "九州旅客鉄道",
        "operator:en": "Kyushu Railway Company",
        "operator:ja": "九州旅客鉄道",
        "public_transport": "station",
        "railway": "station",
        "source": "KSJ2",
        "source_ref": "http://nlftp.mlit.go.jp/ksj/jpgis/datalist/KsjTmplt-N02-v1_1.html",
        "train": "yes",
        "wikidata": "Q5375751",
        "wikipedia": "ja:表木山駅"
      }
    },
    {
      "id": "kagoshima_station_265922040",
      "osmId": 265922040,
      "osmType": "node",
      "prefectureId": "kagoshima",
      "type": "station",
      "subtype": "jr",
      "name": "栗野",
      "nameKana": null,
      "nameEn": "Kurino",
      "operator": "九州旅客鉄道",
      "network": "JR肥薩線",
      "ref": null,
      "latitude": 31.9502158,
      "longitude": 130.7225826,
      "countryCode": "jp",
      "rawTags": {
        "KSJ2:LIN": "肥薩線",
        "KSJ2:STN": "栗野",
        "name": "栗野",
        "name:en": "Kurino",
        "name:ja": "栗野",
        "name:ko": "구리노",
        "network": "JR肥薩線",
        "note": "National-Land Numerical Information (Railway) 2007, MLIT Japan",
        "note:ja": "国土数値情報（鉄道データ）平成19年　国土交通省",
        "operator": "九州旅客鉄道",
        "operator:en": "Kyushu Railway Company",
        "operator:ja": "九州旅客鉄道",
        "public_transport": "station",
        "railway": "station",
        "source": "KSJ2",
        "source_ref": "http://nlftp.mlit.go.jp/ksj/jpgis/datalist/KsjTmplt-N02-v1_1.html",
        "wikidata": "Q5375458",
        "wikipedia": "ja:栗野駅"
      }
    },
    {
      "id": "kagoshima_station_265922055",
      "osmId": 265922055,
      "osmType": "node",
      "prefectureId": "kagoshima",
      "type": "station",
      "subtype": "jr",
      "name": "植村",
      "nameKana": null,
      "nameEn": "Uemura",
      "operator": "九州旅客鉄道",
      "network": "JR肥薩線",
      "ref": null,
      "latitude": 31.8899135,
      "longitude": 130.724304,
      "countryCode": "jp",
      "rawTags": {
        "KSJ2:LIN": "肥薩線",
        "KSJ2:STN": "植村",
        "name": "植村",
        "name:en": "Uemura",
        "name:ja": "植村",
        "name:ko": "우에무라",
        "network": "JR肥薩線",
        "note": "National-Land Numerical Information (Railway) 2007, MLIT Japan",
        "note:ja": "国土数値情報（鉄道データ）平成19年　国土交通省",
        "operator": "九州旅客鉄道",
        "operator:en": "Kyushu Railway Company",
        "operator:ja": "九州旅客鉄道",
        "public_transport": "station",
        "railway": "station",
        "source": "KSJ2",
        "source_ref": "http://nlftp.mlit.go.jp/ksj/jpgis/datalist/KsjTmplt-N02-v1_1.html",
        "wikidata": "Q5375531",
        "wikipedia": "ja:植村駅"
      }
    },
    {
      "id": "kagoshima_station_265922334",
      "osmId": 265922334,
      "osmType": "node",
      "prefectureId": "kagoshima",
      "type": "station",
      "subtype": "jr",
      "name": "嘉例川",
      "nameKana": null,
      "nameEn": "Kareigawa",
      "operator": "九州旅客鉄道",
      "network": "JR肥薩線",
      "ref": null,
      "latitude": 31.8267663,
      "longitude": 130.7227244,
      "countryCode": "jp",
      "rawTags": {
        "KSJ2:LIN": "肥薩線",
        "KSJ2:STN": "嘉例川",
        "name": "嘉例川",
        "name:en": "Kareigawa",
        "name:ja": "嘉例川",
        "name:ko": "가레이가와",
        "network": "JR肥薩線",
        "note": "National-Land Numerical Information (Railway) 2007, MLIT Japan",
        "note:ja": "国土数値情報（鉄道データ）平成19年　国土交通省",
        "operator": "九州旅客鉄道",
        "operator:en": "Kyushu Railway Company",
        "operator:ja": "九州旅客鉄道",
        "public_transport": "station",
        "railway": "station",
        "source": "KSJ2",
        "source_ref": "http://nlftp.mlit.go.jp/ksj/jpgis/datalist/KsjTmplt-N02-v1_1.html",
        "train": "yes",
        "wikidata": "Q5375650",
        "wikipedia": "ja:嘉例川駅"
      }
    },
    {
      "id": "kagoshima_station_265922678",
      "osmId": 265922678,
      "osmType": "node",
      "prefectureId": "kagoshima",
      "type": "station",
      "subtype": "jr",
      "name": "大隅横川",
      "nameKana": null,
      "nameEn": "Ōsumi-Yokogawa",
      "operator": "九州旅客鉄道",
      "network": "JR肥薩線",
      "ref": null,
      "latitude": 31.9057345,
      "longitude": 130.7032271,
      "countryCode": "jp",
      "rawTags": {
        "KSJ2:LIN": "肥薩線",
        "KSJ2:STN": "大隅横川",
        "name": "大隅横川",
        "name:en": "Ōsumi-Yokogawa",
        "name:ja": "大隅横川",
        "name:ko": "오스미요코가와",
        "network": "JR肥薩線",
        "note": "National-Land Numerical Information (Railway) 2007, MLIT Japan",
        "note:ja": "国土数値情報（鉄道データ）平成19年　国土交通省",
        "operator": "九州旅客鉄道",
        "operator:en": "Kyushu Railway Company",
        "operator:ja": "九州旅客鉄道",
        "public_transport": "station",
        "railway": "station",
        "source": "KSJ2",
        "source_ref": "http://nlftp.mlit.go.jp/ksj/jpgis/datalist/KsjTmplt-N02-v1_1.html",
        "wikidata": "Q5375494",
        "wikipedia": "ja:大隅横川駅"
      }
    },
    {
      "id": "kagoshima_station_265922682",
      "osmId": 265922682,
      "osmType": "node",
      "prefectureId": "kagoshima",
      "type": "station",
      "subtype": "jr",
      "name": "霧島温泉",
      "nameKana": null,
      "nameEn": "Kirishima-Onsen",
      "operator": "九州旅客鉄道",
      "network": "JR肥薩線",
      "ref": null,
      "latitude": 31.868439,
      "longitude": 130.734309,
      "countryCode": "jp",
      "rawTags": {
        "KSJ2:LIN": "肥薩線",
        "KSJ2:STN": "霧島温泉",
        "alt_name:ko": "기리시마온센",
        "name": "霧島温泉",
        "name:en": "Kirishima-Onsen",
        "name:ja": "霧島温泉",
        "name:ko": "기리시마온천",
        "network": "JR肥薩線",
        "note": "National-Land Numerical Information (Railway) 2007, MLIT Japan",
        "note:ja": "国土数値情報（鉄道データ）平成19年　国土交通省",
        "operator": "九州旅客鉄道",
        "operator:en": "Kyushu Railway Company",
        "operator:ja": "九州旅客鉄道",
        "railway": "station",
        "source": "KSJ2",
        "source_ref": "http://nlftp.mlit.go.jp/ksj/jpgis/datalist/KsjTmplt-N02-v1_1.html",
        "wikidata": "Q5375612",
        "wikipedia": "ja:霧島温泉駅"
      }
    },
    {
      "id": "kagoshima_station_265923414",
      "osmId": 265923414,
      "osmType": "node",
      "prefectureId": "kagoshima",
      "type": "station",
      "subtype": "jr",
      "name": "日当山",
      "nameKana": null,
      "nameEn": "Hinatayama",
      "operator": "九州旅客鉄道",
      "network": "JR肥薩線",
      "ref": null,
      "latitude": 31.76349,
      "longitude": 130.7499028,
      "countryCode": "jp",
      "rawTags": {
        "KSJ2:LIN": "肥薩線",
        "KSJ2:STN": "日当山",
        "internet_access": "no",
        "name": "日当山",
        "name:en": "Hinatayama",
        "name:ja": "日当山",
        "name:ko": "히나타야마",
        "network": "JR肥薩線",
        "note": "National-Land Numerical Information (Railway) 2007, MLIT Japan",
        "note:ja": "国土数値情報（鉄道データ）平成19年　国土交通省",
        "operator": "九州旅客鉄道",
        "operator:en": "Kyushu Railway Company",
        "operator:ja": "九州旅客鉄道",
        "public_transport": "station",
        "railway": "station",
        "source": "KSJ2",
        "source_ref": "http://nlftp.mlit.go.jp/ksj/jpgis/datalist/KsjTmplt-N02-v1_1.html",
        "train": "yes",
        "wikidata": "Q5375847",
        "wikipedia": "ja:日当山駅"
      }
    },
    {
      "id": "kagoshima_ferry_terminal_478944767",
      "osmId": 478944767,
      "osmType": "node",
      "prefectureId": "kagoshima",
      "type": "ferry_terminal",
      "subtype": null,
      "name": "桜島フェリー",
      "nameKana": null,
      "nameEn": "Sakurajima Port Ferry Terminal",
      "operator": null,
      "network": null,
      "ref": null,
      "latitude": 31.592602,
      "longitude": 130.6000526,
      "countryCode": "jp",
      "rawTags": {
        "addr:postcode": "892-8677",
        "amenity": "ferry_terminal",
        "ferry": "yes",
        "level": "1",
        "name": "桜島フェリー",
        "name:en": "Sakurajima Port Ferry Terminal",
        "name:ja": "桜島フェリー",
        "name:ko": "사쿠라지마 페리",
        "name:zh": "櫻島渡輪碼頭",
        "public_transport": "station",
        "wheelchair": "yes"
      }
    },
    {
      "id": "kagoshima_ferry_terminal_588859391",
      "osmId": 588859391,
      "osmType": "node",
      "prefectureId": "kagoshima",
      "type": "ferry_terminal",
      "subtype": null,
      "name": "トッピーターミナル",
      "nameKana": null,
      "nameEn": "Toppy & Rocket Terminal",
      "operator": "種子屋久高速船株式会社",
      "network": null,
      "ref": null,
      "latitude": 30.3171171,
      "longitude": 130.6591499,
      "countryCode": "jp",
      "rawTags": {
        "amenity": "ferry_terminal",
        "ferry": "yes",
        "name": "トッピーターミナル",
        "name:en": "Toppy & Rocket Terminal",
        "name:fr": "Terminal Toppy & Rocket",
        "name:ja": "トッピー ターミナル",
        "operator": "種子屋久高速船株式会社",
        "public_transport": "station",
        "wheelchair": "yes"
      }
    },
    {
      "id": "kagoshima_ferry_terminal_589014781",
      "osmId": 589014781,
      "osmType": "node",
      "prefectureId": "kagoshima",
      "type": "ferry_terminal",
      "subtype": null,
      "name": "安房港",
      "nameKana": null,
      "nameEn": null,
      "operator": null,
      "network": null,
      "ref": null,
      "latitude": 30.3165415,
      "longitude": 130.6587619,
      "countryCode": "jp",
      "rawTags": {
        "amenity": "ferry_terminal",
        "ferry": "yes",
        "name": "安房港",
        "public_transport": "station",
        "wheelchair": "yes"
      }
    },
    {
      "id": "kagoshima_bus_terminal_872919582",
      "osmId": 872919582,
      "osmType": "node",
      "prefectureId": "kagoshima",
      "type": "bus_terminal",
      "subtype": null,
      "name": "鹿児島中央駅バスターミナル",
      "nameKana": null,
      "nameEn": "Kagoshima-chuo station",
      "operator": null,
      "network": null,
      "ref": null,
      "latitude": 31.5846568,
      "longitude": 130.5434963,
      "countryCode": "jp",
      "rawTags": {
        "amenity": "bus_station",
        "bus": "yes",
        "name": "鹿児島中央駅バスターミナル",
        "name:en": "Kagoshima-chuo station",
        "name:ja": "鹿児島中央駅バスターミナル",
        "public_transport": "station",
        "wheelchair": "yes"
      }
    },
    {
      "id": "kagoshima_airport_1042055932",
      "osmId": 1042055932,
      "osmType": "node",
      "prefectureId": "kagoshima",
      "type": "airport",
      "subtype": "military",
      "name": "鹿屋航空基地",
      "nameKana": null,
      "nameEn": "Kanoya Airport",
      "operator": null,
      "network": null,
      "ref": "RJFY",
      "latitude": 31.3703561,
      "longitude": 130.8356581,
      "countryCode": "jp",
      "rawTags": {
        "aeroway": "aerodrome",
        "icao": "RJFY",
        "landuse": "military",
        "military": "airfield",
        "name": "鹿屋航空基地",
        "name:en": "Kanoya Airport",
        "name:ja": "鹿屋航空基地",
        "source": "ourairports.com",
        "wikidata": "Q8214194"
      }
    },
    {
      "id": "kagoshima_ferry_terminal_1309833622",
      "osmId": 1309833622,
      "osmType": "node",
      "prefectureId": "kagoshima",
      "type": "ferry_terminal",
      "subtype": null,
      "name": "島間",
      "nameKana": null,
      "nameEn": null,
      "operator": null,
      "network": null,
      "ref": null,
      "latitude": 30.4658242,
      "longitude": 130.8614066,
      "countryCode": "jp",
      "rawTags": {
        "amenity": "ferry_terminal",
        "ferry": "yes",
        "name": "島間",
        "public_transport": "station"
      }
    },
    {
      "id": "kagoshima_ferry_terminal_1316934688",
      "osmId": 1316934688,
      "osmType": "node",
      "prefectureId": "kagoshima",
      "type": "ferry_terminal",
      "subtype": null,
      "name": "垂水港フェリー乗り場",
      "nameKana": null,
      "nameEn": null,
      "operator": null,
      "network": null,
      "ref": null,
      "latitude": 31.4838858,
      "longitude": 130.691775,
      "countryCode": "jp",
      "rawTags": {
        "addr:street": "垂水市潮朝彩１",
        "amenity": "ferry_terminal",
        "ferry": "yes",
        "name": "垂水港フェリー乗り場",
        "phone": "+81-994-32-0001",
        "public_transport": "station",
        "wheelchair": "yes",
        "wheelchair:description": "垂水市新ターミナルは・・・スロープ・多目的駐車場・エレベーターなどが完備されています。"
      }
    },
    {
      "id": "kagoshima_ferry_terminal_1441976895",
      "osmId": 1441976895,
      "osmType": "node",
      "prefectureId": "kagoshima",
      "type": "ferry_terminal",
      "subtype": null,
      "name": "和泊",
      "nameKana": null,
      "nameEn": null,
      "operator": null,
      "network": null,
      "ref": null,
      "latitude": 27.3974161,
      "longitude": 128.665921,
      "countryCode": "jp",
      "rawTags": {
        "amenity": "ferry_terminal",
        "name": "和泊"
      }
    },
    {
      "id": "kagoshima_ferry_terminal_1441990093",
      "osmId": 1441990093,
      "osmType": "node",
      "prefectureId": "kagoshima",
      "type": "ferry_terminal",
      "subtype": null,
      "name": "平土野",
      "nameKana": null,
      "nameEn": null,
      "operator": null,
      "network": null,
      "ref": null,
      "latitude": 27.8122907,
      "longitude": 128.8915872,
      "countryCode": "jp",
      "rawTags": {
        "amenity": "ferry_terminal",
        "name": "平土野"
      }
    },
    {
      "id": "kagoshima_ferry_terminal_1442188634",
      "osmId": 1442188634,
      "osmType": "node",
      "prefectureId": "kagoshima",
      "type": "ferry_terminal",
      "subtype": null,
      "name": "口之島",
      "nameKana": null,
      "nameEn": null,
      "operator": null,
      "network": null,
      "ref": null,
      "latitude": 29.9912414,
      "longitude": 129.9128025,
      "countryCode": "jp",
      "rawTags": {
        "amenity": "ferry_terminal",
        "ferry": "yes",
        "name": "口之島",
        "public_transport": "station"
      }
    },
    {
      "id": "kagoshima_ferry_terminal_1842664302",
      "osmId": 1842664302,
      "osmType": "node",
      "prefectureId": "kagoshima",
      "type": "ferry_terminal",
      "subtype": null,
      "name": "鹿児島(鴨池)港",
      "nameKana": null,
      "nameEn": null,
      "operator": null,
      "network": null,
      "ref": null,
      "latitude": 31.55329,
      "longitude": 130.5603978,
      "countryCode": "jp",
      "rawTags": {
        "amenity": "ferry_terminal",
        "ferry": "yes",
        "name": "鹿児島(鴨池)港",
        "public_transport": "station"
      }
    },
    {
      "id": "kagoshima_ferry_terminal_1862640292",
      "osmId": 1862640292,
      "osmType": "node",
      "prefectureId": "kagoshima",
      "type": "ferry_terminal",
      "subtype": null,
      "name": "名瀬",
      "nameKana": null,
      "nameEn": null,
      "operator": null,
      "network": null,
      "ref": null,
      "latitude": 28.3880785,
      "longitude": 129.4954145,
      "countryCode": "jp",
      "rawTags": {
        "amenity": "ferry_terminal",
        "ferry": "yes",
        "name": "名瀬",
        "public_transport": "station"
      }
    },
    {
      "id": "kagoshima_ferry_terminal_1862640373",
      "osmId": 1862640373,
      "osmType": "node",
      "prefectureId": "kagoshima",
      "type": "ferry_terminal",
      "subtype": null,
      "name": "名瀬新港フェリーターミナル",
      "nameKana": null,
      "nameEn": null,
      "operator": null,
      "network": null,
      "ref": null,
      "latitude": 28.3879499,
      "longitude": 129.4949457,
      "countryCode": "jp",
      "rawTags": {
        "amenity": "ferry_terminal",
        "ferry": "yes",
        "name": "名瀬新港フェリーターミナル",
        "public_transport": "station"
      }
    },
    {
      "id": "kagoshima_ferry_terminal_1862683928",
      "osmId": 1862683928,
      "osmType": "node",
      "prefectureId": "kagoshima",
      "type": "ferry_terminal",
      "subtype": null,
      "name": "湾港フェリーターミナル",
      "nameKana": null,
      "nameEn": null,
      "operator": null,
      "network": null,
      "ref": null,
      "latitude": 28.3264371,
      "longitude": 129.9370757,
      "countryCode": "jp",
      "rawTags": {
        "amenity": "ferry_terminal",
        "name": "湾港フェリーターミナル"
      }
    },
    {
      "id": "kagoshima_station_1926467260",
      "osmId": 1926467260,
      "osmType": "node",
      "prefectureId": "kagoshima",
      "type": "station",
      "subtype": "private",
      "name": "折口",
      "nameKana": null,
      "nameEn": "Origuchi",
      "operator": "肥薩おれんじ鉄道線",
      "network": null,
      "ref": null,
      "latitude": 32.0610871,
      "longitude": 130.2174726,
      "countryCode": "jp",
      "rawTags": {
        "name": "折口",
        "name:en": "Origuchi",
        "operator": "肥薩おれんじ鉄道線",
        "railway": "station",
        "wikidata": "Q11497502",
        "wikipedia": "ja:折口駅"
      }
    },
    {
      "id": "kagoshima_station_1975074711",
      "osmId": 1975074711,
      "osmType": "node",
      "prefectureId": "kagoshima",
      "type": "station",
      "subtype": "jr",
      "name": "伊集院",
      "nameKana": null,
      "nameEn": "Ijuin",
      "operator": "九州旅客鉄道",
      "network": null,
      "ref": null,
      "latitude": 31.6300861,
      "longitude": 130.3964779,
      "countryCode": "jp",
      "rawTags": {
        "name": "伊集院",
        "name:en": "Ijuin",
        "name:ja": "伊集院",
        "name:ja_rm": "Ijūin",
        "operator": "九州旅客鉄道",
        "operator:en": "Kyushu Railway Company",
        "operator:ja": "九州旅客鉄道",
        "public_transport": "station",
        "railway": "station",
        "train": "yes",
        "wikidata": "Q5296702",
        "wikipedia": "ja:伊集院駅"
      }
    },
    {
      "id": "kagoshima_station_1975075722",
      "osmId": 1975075722,
      "osmType": "node",
      "prefectureId": "kagoshima",
      "type": "station",
      "subtype": "private",
      "name": "東市来",
      "nameKana": "ひがしいちき",
      "nameEn": "Higashi-Ichiki",
      "operator": null,
      "network": null,
      "ref": null,
      "latitude": 31.6554903,
      "longitude": 130.3472373,
      "countryCode": "jp",
      "rawTags": {
        "name": "東市来",
        "name:en": "Higashi-Ichiki",
        "name:ja": "東市来",
        "name:ja-Hira": "ひがしいちき",
        "public_transport": "station",
        "railway": "station",
        "wikidata": "Q5297150",
        "wikipedia": "ja:東市来駅"
      }
    },
    {
      "id": "kagoshima_station_1975076826",
      "osmId": 1975076826,
      "osmType": "node",
      "prefectureId": "kagoshima",
      "type": "station",
      "subtype": "private",
      "name": "市来",
      "nameKana": null,
      "nameEn": "Ichiki",
      "operator": null,
      "network": null,
      "ref": null,
      "latitude": 31.6893711,
      "longitude": 130.3033114,
      "countryCode": "jp",
      "rawTags": {
        "name": "市来",
        "name:en": "Ichiki",
        "name:ja": "市来",
        "public_transport": "station",
        "railway": "station",
        "wikidata": "Q5297389",
        "wikipedia": "ja:市来駅"
      }
    },
    {
      "id": "kagoshima_station_1975076828",
      "osmId": 1975076828,
      "osmType": "node",
      "prefectureId": "kagoshima",
      "type": "station",
      "subtype": "jr",
      "name": "湯之元",
      "nameKana": "ゆのもと",
      "nameEn": "Yunomoto",
      "operator": "九州旅客鉄道",
      "network": null,
      "ref": null,
      "latitude": 31.6738772,
      "longitude": 130.3367121,
      "countryCode": "jp",
      "rawTags": {
        "name": "湯之元",
        "name:en": "Yunomoto",
        "name:ja": "湯之元",
        "name:ja-Hira": "ゆのもと",
        "operator": "九州旅客鉄道",
        "operator:en": "Kyushu Railway Company",
        "operator:ja": "九州旅客鉄道",
        "public_transport": "station",
        "railway": "station",
        "train": "yes",
        "wikidata": "Q5297319",
        "wikipedia": "ja:湯之元駅"
      }
    },
    {
      "id": "kagoshima_station_1975081053",
      "osmId": 1975081053,
      "osmType": "node",
      "prefectureId": "kagoshima",
      "type": "station",
      "subtype": "private",
      "name": "木場茶屋",
      "nameKana": null,
      "nameEn": "Kobanchaya",
      "operator": null,
      "network": null,
      "ref": null,
      "latitude": 31.7654363,
      "longitude": 130.3080878,
      "countryCode": "jp",
      "rawTags": {
        "name": "木場茶屋",
        "name:en": "Kobanchaya",
        "name:ja": "木場茶屋",
        "public_transport": "station",
        "railway": "station",
        "wikidata": "Q5297680",
        "wikipedia": "ja:木場茶屋駅"
      }
    },
    {
      "id": "kagoshima_station_1975081056",
      "osmId": 1975081056,
      "osmType": "node",
      "prefectureId": "kagoshima",
      "type": "station",
      "subtype": "jr",
      "name": "串木野",
      "nameKana": null,
      "nameEn": "Kushikino",
      "operator": "九州旅客鉄道",
      "network": "JR鹿児島本線",
      "ref": null,
      "latitude": 31.7212541,
      "longitude": 130.2744046,
      "countryCode": "jp",
      "rawTags": {
        "name": "串木野",
        "name:en": "Kushikino",
        "name:ja": "串木野",
        "network": "JR鹿児島本線",
        "operator": "九州旅客鉄道",
        "operator:ja": "九州旅客鉄道",
        "public_transport": "station",
        "railway": "station",
        "wikidata": "Q5297573",
        "wikipedia": "ja:串木野駅"
      }
    },
    {
      "id": "kagoshima_station_2009132888",
      "osmId": 2009132888,
      "osmType": "node",
      "prefectureId": "kagoshima",
      "type": "station",
      "subtype": "private",
      "name": "野田郷",
      "nameKana": null,
      "nameEn": "Nodagou",
      "operator": "肥薩おれんじ鉄道",
      "network": null,
      "ref": null,
      "latitude": 32.0631928,
      "longitude": 130.267709,
      "countryCode": "jp",
      "rawTags": {
        "name": "野田郷",
        "name:en": "Nodagou",
        "operator": "肥薩おれんじ鉄道",
        "public_transport": "station",
        "railway": "station",
        "train": "yes",
        "wikidata": "Q11646063"
      }
    },
    {
      "id": "kagoshima_station_2067867565",
      "osmId": 2067867565,
      "osmType": "node",
      "prefectureId": "kagoshima",
      "type": "station",
      "subtype": "jr",
      "name": "広木",
      "nameKana": null,
      "nameEn": "Hiroki",
      "operator": "九州旅客鉄道",
      "network": null,
      "ref": null,
      "latitude": 31.5766658,
      "longitude": 130.5045162,
      "countryCode": "jp",
      "rawTags": {
        "name": "広木",
        "name:en": "Hiroki",
        "name:ja": "広木",
        "name:ko": "히로키",
        "operator": "九州旅客鉄道",
        "operator:ja": "九州旅客鉄道",
        "public_transport": "station",
        "railway": "station",
        "wikidata": "Q5296556",
        "wikipedia": "ja:広木駅"
      }
    },
    {
      "id": "kagoshima_ferry_terminal_2911889105",
      "osmId": 2911889105,
      "osmType": "node",
      "prefectureId": "kagoshima",
      "type": "ferry_terminal",
      "subtype": null,
      "name": "与論",
      "nameKana": null,
      "nameEn": "Yoron Port",
      "operator": null,
      "network": null,
      "ref": null,
      "latitude": 27.0363658,
      "longitude": 128.4009696,
      "countryCode": "jp",
      "rawTags": {
        "amenity": "ferry_terminal",
        "ferry": "yes",
        "name": "与論",
        "name:en": "Yoron Port",
        "public_transport": "station"
      }
    },
    {
      "id": "kagoshima_ferry_terminal_2941186990",
      "osmId": 2941186990,
      "osmType": "node",
      "prefectureId": "kagoshima",
      "type": "ferry_terminal",
      "subtype": null,
      "name": "持木港(持木港)",
      "nameKana": null,
      "nameEn": null,
      "operator": null,
      "network": null,
      "ref": null,
      "latitude": 31.5569173,
      "longitude": 130.6276362,
      "countryCode": "jp",
      "rawTags": {
        "amenity": "ferry_terminal",
        "name": "持木港(持木港)",
        "note": "Evacuation port"
      }
    },
    {
      "id": "kagoshima_ferry_terminal_2941186991",
      "osmId": 2941186991,
      "osmType": "node",
      "prefectureId": "kagoshima",
      "type": "ferry_terminal",
      "subtype": null,
      "name": "湯之港(退避港)",
      "nameKana": null,
      "nameEn": null,
      "operator": null,
      "network": null,
      "ref": null,
      "latitude": 31.5538002,
      "longitude": 130.632284,
      "countryCode": "jp",
      "rawTags": {
        "amenity": "ferry_terminal",
        "name": "湯之港(退避港)",
        "note": "Evacuation port"
      }
    },
    {
      "id": "kagoshima_bus_terminal_3070309777",
      "osmId": 3070309777,
      "osmType": "node",
      "prefectureId": "kagoshima",
      "type": "bus_terminal",
      "subtype": null,
      "name": "広木農協前",
      "nameKana": null,
      "nameEn": null,
      "operator": null,
      "network": null,
      "ref": null,
      "latitude": 31.5640944,
      "longitude": 130.5156933,
      "countryCode": "jp",
      "rawTags": {
        "amenity": "bus_station",
        "bus": "yes",
        "name": "広木農協前",
        "public_transport": "station"
      }
    },
    {
      "id": "kagoshima_bus_terminal_3080149969",
      "osmId": 3080149969,
      "osmType": "node",
      "prefectureId": "kagoshima",
      "type": "bus_terminal",
      "subtype": null,
      "name": "伊作",
      "nameKana": null,
      "nameEn": "Izaku",
      "operator": "鹿児島交通",
      "network": null,
      "ref": null,
      "latitude": 31.5086376,
      "longitude": 130.346091,
      "countryCode": "jp",
      "rawTags": {
        "amenity": "bus_station",
        "bus": "yes",
        "name": "伊作",
        "name:en": "Izaku",
        "operator": "鹿児島交通",
        "public_transport": "station",
        "wikidata": "Q11378900",
        "wikipedia": "ja:伊作駅"
      }
    },
    {
      "id": "kagoshima_bus_terminal_3086970997",
      "osmId": 3086970997,
      "osmType": "node",
      "prefectureId": "kagoshima",
      "type": "bus_terminal",
      "subtype": null,
      "name": "湯之元",
      "nameKana": null,
      "nameEn": "Yunomoto",
      "operator": null,
      "network": null,
      "ref": null,
      "latitude": 31.6712338,
      "longitude": 130.3358542,
      "countryCode": "jp",
      "rawTags": {
        "amenity": "bus_station",
        "bus": "yes",
        "name": "湯之元",
        "name:en": "Yunomoto",
        "public_transport": "station"
      }
    },
    {
      "id": "kagoshima_ferry_terminal_3557281632",
      "osmId": 3557281632,
      "osmType": "node",
      "prefectureId": "kagoshima",
      "type": "ferry_terminal",
      "subtype": null,
      "name": "宮之浦",
      "nameKana": null,
      "nameEn": "Miyanoura",
      "operator": null,
      "network": null,
      "ref": null,
      "latitude": 30.4317008,
      "longitude": 130.5740898,
      "countryCode": "jp",
      "rawTags": {
        "amenity": "ferry_terminal",
        "ferry": "yes",
        "name": "宮之浦",
        "name:en": "Miyanoura",
        "public_transport": "station"
      }
    },
    {
      "id": "kagoshima_ferry_terminal_3557281670",
      "osmId": 3557281670,
      "osmType": "node",
      "prefectureId": "kagoshima",
      "type": "ferry_terminal",
      "subtype": null,
      "name": "口永良部",
      "nameKana": null,
      "nameEn": null,
      "operator": null,
      "network": null,
      "ref": null,
      "latitude": 30.4622255,
      "longitude": 130.1911913,
      "countryCode": "jp",
      "rawTags": {
        "amenity": "ferry_terminal",
        "ferry": "yes",
        "name": "口永良部",
        "public_transport": "station"
      }
    },
    {
      "id": "kagoshima_ferry_terminal_3923477172",
      "osmId": 3923477172,
      "osmType": "node",
      "prefectureId": "kagoshima",
      "type": "ferry_terminal",
      "subtype": null,
      "name": "小宝島",
      "nameKana": null,
      "nameEn": null,
      "operator": null,
      "network": null,
      "ref": null,
      "latitude": 29.2210096,
      "longitude": 129.3214437,
      "countryCode": "jp",
      "rawTags": {
        "amenity": "ferry_terminal",
        "ferry": "yes",
        "name": "小宝島",
        "public_transport": "station"
      }
    },
    {
      "id": "kagoshima_ferry_terminal_3923477177",
      "osmId": 3923477177,
      "osmType": "node",
      "prefectureId": "kagoshima",
      "type": "ferry_terminal",
      "subtype": null,
      "name": "悪石島",
      "nameKana": null,
      "nameEn": null,
      "operator": null,
      "network": null,
      "ref": null,
      "latitude": 29.4549174,
      "longitude": 129.5941229,
      "countryCode": "jp",
      "rawTags": {
        "amenity": "ferry_terminal",
        "ferry": "yes",
        "name": "悪石島",
        "public_transport": "station"
      }
    },
    {
      "id": "kagoshima_ferry_terminal_3923477188",
      "osmId": 3923477188,
      "osmType": "node",
      "prefectureId": "kagoshima",
      "type": "ferry_terminal",
      "subtype": null,
      "name": "諏訪之瀬島",
      "nameKana": null,
      "nameEn": null,
      "operator": null,
      "network": null,
      "ref": null,
      "latitude": 29.6101433,
      "longitude": 129.7124135,
      "countryCode": "jp",
      "rawTags": {
        "amenity": "ferry_terminal",
        "ferry": "yes",
        "name": "諏訪之瀬島",
        "public_transport": "station"
      }
    },
    {
      "id": "kagoshima_ferry_terminal_3923477196",
      "osmId": 3923477196,
      "osmType": "node",
      "prefectureId": "kagoshima",
      "type": "ferry_terminal",
      "subtype": null,
      "name": "平島",
      "nameKana": null,
      "nameEn": null,
      "operator": null,
      "network": null,
      "ref": null,
      "latitude": 29.6789491,
      "longitude": 129.531693,
      "countryCode": "jp",
      "rawTags": {
        "amenity": "ferry_terminal",
        "ferry": "yes",
        "name": "平島",
        "public_transport": "station"
      }
    },
    {
      "id": "kagoshima_ferry_terminal_3923477205",
      "osmId": 3923477205,
      "osmType": "node",
      "prefectureId": "kagoshima",
      "type": "ferry_terminal",
      "subtype": null,
      "name": "中之島",
      "nameKana": null,
      "nameEn": null,
      "operator": null,
      "network": null,
      "ref": null,
      "latitude": 29.8387052,
      "longitude": 129.8502106,
      "countryCode": "jp",
      "rawTags": {
        "amenity": "ferry_terminal",
        "ferry": "yes",
        "name": "中之島",
        "public_transport": "station"
      }
    },
    {
      "id": "kagoshima_ferry_terminal_3923477241",
      "osmId": 3923477241,
      "osmType": "node",
      "prefectureId": "kagoshima",
      "type": "ferry_terminal",
      "subtype": null,
      "name": "硫黄島",
      "nameKana": null,
      "nameEn": null,
      "operator": null,
      "network": null,
      "ref": null,
      "latitude": 30.7799055,
      "longitude": 130.2797526,
      "countryCode": "jp",
      "rawTags": {
        "amenity": "ferry_terminal",
        "ferry": "yes",
        "name": "硫黄島",
        "public_transport": "station"
      }
    },
    {
      "id": "kagoshima_ferry_terminal_3923477245",
      "osmId": 3923477245,
      "osmType": "node",
      "prefectureId": "kagoshima",
      "type": "ferry_terminal",
      "subtype": null,
      "name": "竹島",
      "nameKana": null,
      "nameEn": null,
      "operator": null,
      "network": null,
      "ref": null,
      "latitude": 30.8154343,
      "longitude": 130.4190003,
      "countryCode": "jp",
      "rawTags": {
        "amenity": "ferry_terminal",
        "ferry": "yes",
        "name": "竹島",
        "public_transport": "station"
      }
    },
    {
      "id": "kagoshima_ferry_terminal_3923477262",
      "osmId": 3923477262,
      "osmType": "node",
      "prefectureId": "kagoshima",
      "type": "ferry_terminal",
      "subtype": null,
      "name": "黒島・大里",
      "nameKana": null,
      "nameEn": null,
      "operator": null,
      "network": null,
      "ref": null,
      "latitude": 30.8362787,
      "longitude": 129.9577268,
      "countryCode": "jp",
      "rawTags": {
        "amenity": "ferry_terminal",
        "ferry": "yes",
        "name": "黒島・大里",
        "public_transport": "station"
      }
    },
    {
      "id": "kagoshima_station_4029601740",
      "osmId": 4029601740,
      "osmType": "node",
      "prefectureId": "kagoshima",
      "type": "station",
      "subtype": "private",
      "name": "西出水",
      "nameKana": null,
      "nameEn": "Nishi-Izumi",
      "operator": "肥薩おれんじ鉄道",
      "network": null,
      "ref": null,
      "latitude": 32.0754349,
      "longitude": 130.3391546,
      "countryCode": "jp",
      "rawTags": {
        "name": "西出水",
        "name:en": "Nishi-Izumi",
        "operator": "肥薩おれんじ鉄道",
        "public_transport": "station",
        "railway": "station",
        "train": "yes",
        "wikidata": "Q11627281"
      }
    },
    {
      "id": "kagoshima_ferry_terminal_4233866173",
      "osmId": 4233866173,
      "osmType": "node",
      "prefectureId": "kagoshima",
      "type": "ferry_terminal",
      "subtype": null,
      "name": "亀徳",
      "nameKana": null,
      "nameEn": null,
      "operator": null,
      "network": null,
      "ref": null,
      "latitude": 27.7378107,
      "longitude": 129.0243281,
      "countryCode": "jp",
      "rawTags": {
        "amenity": "ferry_terminal",
        "name": "亀徳"
      }
    },
    {
      "id": "kagoshima_ferry_terminal_4271537756",
      "osmId": 4271537756,
      "osmType": "node",
      "prefectureId": "kagoshima",
      "type": "ferry_terminal",
      "subtype": null,
      "name": "黒島・片泊",
      "nameKana": null,
      "nameEn": null,
      "operator": null,
      "network": null,
      "ref": null,
      "latitude": 30.8305538,
      "longitude": 129.9064709,
      "countryCode": "jp",
      "rawTags": {
        "amenity": "ferry_terminal",
        "ferry": "yes",
        "name": "黒島・片泊",
        "public_transport": "station"
      }
    },
    {
      "id": "kagoshima_ferry_terminal_4588764097",
      "osmId": 4588764097,
      "osmType": "node",
      "prefectureId": "kagoshima",
      "type": "ferry_terminal",
      "subtype": null,
      "name": "西之表",
      "nameKana": null,
      "nameEn": "Nishinoomote",
      "operator": "コスモライン",
      "network": null,
      "ref": null,
      "latitude": 30.7315278,
      "longitude": 130.9906242,
      "countryCode": "jp",
      "rawTags": {
        "amenity": "ferry_terminal",
        "ferry": "yes",
        "name": "西之表",
        "name:en": "Nishinoomote",
        "name:fr": "Nishinoomote",
        "operator": "コスモライン",
        "public_transport": "station"
      }
    },
    {
      "id": "kagoshima_ferry_terminal_4588764612",
      "osmId": 4588764612,
      "osmType": "node",
      "prefectureId": "kagoshima",
      "type": "ferry_terminal",
      "subtype": null,
      "name": "古仁屋港",
      "nameKana": null,
      "nameEn": null,
      "operator": null,
      "network": null,
      "ref": null,
      "latitude": 28.1456875,
      "longitude": 129.3086902,
      "countryCode": "jp",
      "rawTags": {
        "amenity": "ferry_terminal",
        "name": "古仁屋港"
      }
    },
    {
      "id": "kagoshima_ferry_terminal_4590686331",
      "osmId": 4590686331,
      "osmType": "node",
      "prefectureId": "kagoshima",
      "type": "ferry_terminal",
      "subtype": null,
      "name": "宝島",
      "nameKana": null,
      "nameEn": null,
      "operator": null,
      "network": null,
      "ref": null,
      "latitude": 29.1570477,
      "longitude": 129.2038586,
      "countryCode": "jp",
      "rawTags": {
        "amenity": "ferry_terminal",
        "ferry": "yes",
        "name": "宝島",
        "public_transport": "station"
      }
    },
    {
      "id": "kagoshima_ferry_terminal_4590686479",
      "osmId": 4590686479,
      "osmType": "node",
      "prefectureId": "kagoshima",
      "type": "ferry_terminal",
      "subtype": null,
      "name": "古仁屋",
      "nameKana": null,
      "nameEn": null,
      "operator": null,
      "network": null,
      "ref": null,
      "latitude": 28.1444598,
      "longitude": 129.3095557,
      "countryCode": "jp",
      "rawTags": {
        "amenity": "ferry_terminal",
        "name": "古仁屋"
      }
    },
    {
      "id": "kagoshima_ferry_terminal_4590686522",
      "osmId": 4590686522,
      "osmType": "node",
      "prefectureId": "kagoshima",
      "type": "ferry_terminal",
      "subtype": null,
      "name": "池地港",
      "nameKana": null,
      "nameEn": null,
      "operator": null,
      "network": null,
      "ref": null,
      "latitude": 28.0332659,
      "longitude": 129.2343674,
      "countryCode": "jp",
      "rawTags": {
        "amenity": "ferry_terminal",
        "name": "池地港"
      }
    },
    {
      "id": "kagoshima_ferry_terminal_4590686596",
      "osmId": 4590686596,
      "osmType": "node",
      "prefectureId": "kagoshima",
      "type": "ferry_terminal",
      "subtype": null,
      "name": "請阿室港",
      "nameKana": null,
      "nameEn": null,
      "operator": null,
      "network": null,
      "ref": null,
      "latitude": 28.0316933,
      "longitude": 129.2547961,
      "countryCode": "jp",
      "rawTags": {
        "amenity": "ferry_terminal",
        "name": "請阿室港"
      }
    },
    {
      "id": "kagoshima_ferry_terminal_4590686750",
      "osmId": 4590686750,
      "osmType": "node",
      "prefectureId": "kagoshima",
      "type": "ferry_terminal",
      "subtype": null,
      "name": "与路港",
      "nameKana": null,
      "nameEn": null,
      "operator": null,
      "network": null,
      "ref": null,
      "latitude": 28.0454688,
      "longitude": 129.1665601,
      "countryCode": "jp",
      "rawTags": {
        "amenity": "ferry_terminal",
        "name": "与路港"
      }
    },
    {
      "id": "kagoshima_ferry_terminal_4590856269",
      "osmId": 4590856269,
      "osmType": "node",
      "prefectureId": "kagoshima",
      "type": "ferry_terminal",
      "subtype": null,
      "name": "鹿児島 (谷山港)",
      "nameKana": null,
      "nameEn": "Kagoshima (Taniyama port)",
      "operator": null,
      "network": null,
      "ref": null,
      "latitude": 31.4824073,
      "longitude": 130.5162867,
      "countryCode": "jp",
      "rawTags": {
        "amenity": "ferry_terminal",
        "ferry": "yes",
        "name": "鹿児島 (谷山港)",
        "name:en": "Kagoshima (Taniyama port)",
        "name:ja": "鹿児島 (谷山港)",
        "public_transport": "station",
        "wheelchair": "yes"
      }
    },
    {
      "id": "kagoshima_ferry_terminal_4591940687",
      "osmId": 4591940687,
      "osmType": "node",
      "prefectureId": "kagoshima",
      "type": "ferry_terminal",
      "subtype": null,
      "name": "屋久島",
      "nameKana": null,
      "nameEn": "Yakushima",
      "operator": null,
      "network": null,
      "ref": null,
      "latitude": 30.4320621,
      "longitude": 130.5729638,
      "countryCode": "jp",
      "rawTags": {
        "amenity": "ferry_terminal",
        "ferry": "yes",
        "name": "屋久島",
        "name:en": "Yakushima",
        "public_transport": "station"
      }
    },
    {
      "id": "kagoshima_station_4838040971",
      "osmId": 4838040971,
      "osmType": "node",
      "prefectureId": "kagoshima",
      "type": "station",
      "subtype": "private",
      "name": "阿久根",
      "nameKana": null,
      "nameEn": "Akune",
      "operator": "肥薩おれんじ鉄道",
      "network": null,
      "ref": null,
      "latitude": 32.0229799,
      "longitude": 130.1963782,
      "countryCode": "jp",
      "rawTags": {
        "name": "阿久根",
        "name:en": "Akune",
        "operator": "肥薩おれんじ鉄道",
        "public_transport": "station",
        "railway": "station",
        "wikidata": "Q11657159"
      }
    },
    {
      "id": "kagoshima_station_4838105022",
      "osmId": 4838105022,
      "osmType": "node",
      "prefectureId": "kagoshima",
      "type": "station",
      "subtype": "jr",
      "name": "枕崎",
      "nameKana": null,
      "nameEn": "Makurazaki",
      "operator": "九州旅客鉄道",
      "network": "JR指宿枕崎線",
      "ref": null,
      "latitude": 31.2721658,
      "longitude": 130.2994434,
      "countryCode": "jp",
      "rawTags": {
        "KSJ2:LIN": "指宿枕崎線",
        "KSJ2:STN": "枕崎",
        "name": "枕崎",
        "name:en": "Makurazaki",
        "name:ja": "枕崎",
        "name:ko": "마쿠라자키",
        "network": "JR指宿枕崎線",
        "note": "National-Land Numerical Information (Railway) 2007, MLIT Japan",
        "note:ja": "国土数値情報（鉄道データ）平成19年　国土交通省",
        "operator": "九州旅客鉄道",
        "public_transport": "station",
        "railway": "station",
        "source": "KSJ2",
        "source_ref": "http://nlftp.mlit.go.jp/ksj/jpgis/datalist/KsjTmplt-N02-v1_1.html",
        "train": "yes",
        "wikidata": "Q5374442",
        "wikipedia": "ja:枕崎駅"
      }
    },
    {
      "id": "kagoshima_station_4838112998",
      "osmId": 4838112998,
      "osmType": "node",
      "prefectureId": "kagoshima",
      "type": "station",
      "subtype": "private",
      "name": "志布志",
      "nameKana": null,
      "nameEn": "Shibushi",
      "operator": null,
      "network": null,
      "ref": null,
      "latitude": 31.4731555,
      "longitude": 131.0983649,
      "countryCode": "jp",
      "rawTags": {
        "KSJ2:LIN": "日南線",
        "KSJ2:STN": "志布志",
        "name": "志布志",
        "name:en": "Shibushi",
        "name:ja": "志布志",
        "name:ko": "시부시",
        "note": "National-Land Numerical Information (Railway) 2007, MLIT Japan",
        "note:ja": "国土数値情報（鉄道データ）平成19年 国土交通省",
        "public_transport": "station",
        "railway": "station",
        "source": "KSJ2",
        "source_ref": "http://nlftp.mlit.go.jp/ksj/jpgis/datalist/KsjTmplt-N02-v1_1.html",
        "wikidata": "Q7496088",
        "wikipedia": "ja:志布志駅"
      }
    },
    {
      "id": "kagoshima_bus_terminal_4867371428",
      "osmId": 4867371428,
      "osmType": "node",
      "prefectureId": "kagoshima",
      "type": "bus_terminal",
      "subtype": null,
      "name": "湯泊",
      "nameKana": null,
      "nameEn": "Yudomari",
      "operator": null,
      "network": null,
      "ref": null,
      "latitude": 30.2349188,
      "longitude": 130.4801474,
      "countryCode": "jp",
      "rawTags": {
        "amenity": "bus_station",
        "name": "湯泊",
        "name:en": "Yudomari",
        "name:ko": "114. 유도마리 정류장"
      }
    },
    {
      "id": "kagoshima_ferry_terminal_5487453107",
      "osmId": 5487453107,
      "osmType": "node",
      "prefectureId": "kagoshima",
      "type": "ferry_terminal",
      "subtype": null,
      "name": "Okinawa line",
      "nameKana": null,
      "nameEn": null,
      "operator": null,
      "network": null,
      "ref": null,
      "latitude": 31.5809678,
      "longitude": 130.5688052,
      "countryCode": "jp",
      "rawTags": {
        "amenity": "ferry_terminal",
        "ferry": "yes",
        "name": "Okinawa line",
        "public_transport": "station"
      }
    },
    {
      "id": "kagoshima_bus_terminal_5500192025",
      "osmId": 5500192025,
      "osmType": "node",
      "prefectureId": "kagoshima",
      "type": "bus_terminal",
      "subtype": null,
      "name": "栗生小前",
      "nameKana": null,
      "nameEn": "Kurio Sho-mae",
      "operator": null,
      "network": null,
      "ref": null,
      "latitude": 30.2732823,
      "longitude": 130.4248029,
      "countryCode": "jp",
      "rawTags": {
        "amenity": "bus_station",
        "bus": "yes",
        "name": "栗生小前",
        "name:en": "Kurio Sho-mae",
        "name:ko": "126. 쿠리오 앞",
        "public_transport": "station"
      }
    },
    {
      "id": "kagoshima_bus_terminal_5500192127",
      "osmId": 5500192127,
      "osmType": "node",
      "prefectureId": "kagoshima",
      "type": "bus_terminal",
      "subtype": null,
      "name": "栗生",
      "nameKana": null,
      "nameEn": "Kurio",
      "operator": null,
      "network": null,
      "ref": null,
      "latitude": 30.2709933,
      "longitude": 130.424399,
      "countryCode": "jp",
      "rawTags": {
        "amenity": "bus_station",
        "bus": "yes",
        "name": "栗生",
        "name:en": "Kurio",
        "name:ko": "125. 쿠리오 버스정류장",
        "public_transport": "station"
      }
    },
    {
      "id": "kagoshima_bus_terminal_5500204722",
      "osmId": 5500204722,
      "osmType": "node",
      "prefectureId": "kagoshima",
      "type": "bus_terminal",
      "subtype": null,
      "name": "栗生入口",
      "nameKana": null,
      "nameEn": "Kurio Iriguchi",
      "operator": null,
      "network": null,
      "ref": null,
      "latitude": 30.2681149,
      "longitude": 130.4226003,
      "countryCode": "jp",
      "rawTags": {
        "amenity": "bus_station",
        "bus": "yes",
        "name": "栗生入口",
        "name:en": "Kurio Iriguchi",
        "name:ko": "124. 쿠리오입구 버스정류장",
        "public_transport": "station"
      }
    },
    {
      "id": "kagoshima_station_5603040079",
      "osmId": 5603040079,
      "osmType": "node",
      "prefectureId": "kagoshima",
      "type": "station",
      "subtype": "jr",
      "name": "鹿児島中央",
      "nameKana": null,
      "nameEn": "Kagoshima-Chūō",
      "operator": "九州旅客鉄道",
      "network": null,
      "ref": null,
      "latitude": 31.5837134,
      "longitude": 130.5417909,
      "countryCode": "jp",
      "rawTags": {
        "alt_name": "中央駅前",
        "name": "鹿児島中央",
        "name:de": "Kagoshima Zentrum",
        "name:en": "Kagoshima-Chūō",
        "name:ja": "鹿児島中央",
        "name:ko": "가고시마 중앙역",
        "operator": "九州旅客鉄道",
        "operator:ja": "九州旅客鉄道",
        "public_transport": "station",
        "railway": "station",
        "wheelchair": "yes",
        "wikidata": "Q1316913",
        "wikipedia": "ja:鹿児島中央駅"
      }
    },
    {
      "id": "kagoshima_bus_terminal_5653684343",
      "osmId": 5653684343,
      "osmType": "node",
      "prefectureId": "kagoshima",
      "type": "bus_terminal",
      "subtype": null,
      "name": "加世田",
      "nameKana": null,
      "nameEn": "Kaseda",
      "operator": null,
      "network": null,
      "ref": null,
      "latitude": 31.4208229,
      "longitude": 130.3195833,
      "countryCode": "jp",
      "rawTags": {
        "amenity": "bus_station",
        "bus": "yes",
        "name": "加世田",
        "name:en": "Kaseda",
        "public_transport": "station",
        "wikidata": "Q11398467",
        "wikipedia": "ja:加世田駅"
      }
    },
    {
      "id": "kagoshima_bus_terminal_5679432198",
      "osmId": 5679432198,
      "osmType": "node",
      "prefectureId": "kagoshima",
      "type": "bus_terminal",
      "subtype": null,
      "name": "枕崎",
      "nameKana": null,
      "nameEn": "Makurazaki",
      "operator": "鹿児島交通",
      "network": null,
      "ref": null,
      "latitude": 31.2728101,
      "longitude": 130.2987074,
      "countryCode": "jp",
      "rawTags": {
        "amenity": "bus_station",
        "bus": "yes",
        "name": "枕崎",
        "name:en": "Makurazaki",
        "operator": "鹿児島交通",
        "public_transport": "station"
      }
    },
    {
      "id": "kagoshima_bus_terminal_5712831312",
      "osmId": 5712831312,
      "osmType": "node",
      "prefectureId": "kagoshima",
      "type": "bus_terminal",
      "subtype": null,
      "name": "卸本町中央",
      "nameKana": null,
      "nameEn": "Oroshihommachi chuo",
      "operator": null,
      "network": null,
      "ref": null,
      "latitude": 31.5149004,
      "longitude": 130.5221488,
      "countryCode": "jp",
      "rawTags": {
        "amenity": "bus_station",
        "bus": "yes",
        "description": "鹿児島空港方面",
        "description:en": "to Kagoshima airport",
        "highway": "bus_stop",
        "name": "卸本町中央",
        "name:en": "Oroshihommachi chuo",
        "public_transport": "station"
      }
    },
    {
      "id": "kagoshima_station_5746757756",
      "osmId": 5746757756,
      "osmType": "node",
      "prefectureId": "kagoshima",
      "type": "station",
      "subtype": "private",
      "name": "高尾野",
      "nameKana": null,
      "nameEn": "Takaono",
      "operator": "肥薩おれんじ鉄道",
      "network": null,
      "ref": null,
      "latitude": 32.0625035,
      "longitude": 130.301803,
      "countryCode": "jp",
      "rawTags": {
        "name": "高尾野",
        "name:en": "Takaono",
        "operator": "肥薩おれんじ鉄道",
        "public_transport": "station",
        "railway": "station",
        "train": "yes",
        "wikidata": "Q11669264"
      }
    },
    {
      "id": "kagoshima_ferry_terminal_5865500088",
      "osmId": 5865500088,
      "osmType": "node",
      "prefectureId": "kagoshima",
      "type": "ferry_terminal",
      "subtype": null,
      "name": "高速船 なんきゅう10号",
      "nameKana": null,
      "nameEn": null,
      "operator": null,
      "network": null,
      "ref": null,
      "latitude": 31.2165972,
      "longitude": 130.7620242,
      "countryCode": "jp",
      "rawTags": {
        "amenity": "ferry_terminal",
        "cargo": "passengers;bicycle",
        "ferry": "yes",
        "mooring": "ferry",
        "name": "高速船 なんきゅう10号",
        "public_transport": "station",
        "website": "http://nankyu-ferry.com/home/"
      }
    },
    {
      "id": "kagoshima_ferry_terminal_5915518103",
      "osmId": 5915518103,
      "osmType": "node",
      "prefectureId": "kagoshima",
      "type": "ferry_terminal",
      "subtype": null,
      "name": "フェリー「はいびすかす」",
      "nameKana": null,
      "nameEn": "Ferry 'Hibiscus'",
      "operator": null,
      "network": null,
      "ref": null,
      "latitude": 31.4825688,
      "longitude": 130.5164822,
      "countryCode": "jp",
      "rawTags": {
        "addr:block_number": "40",
        "addr:city": "鹿児島市",
        "addr:housenumber": "4",
        "addr:neighbourhood": "七ツ島一丁目",
        "addr:province": "鹿児島県",
        "amenity": "ferry_terminal",
        "ferry": "yes",
        "name": "フェリー「はいびすかす」",
        "name:en": "Ferry 'Hibiscus'",
        "name:pl": "Prom \"Hibiscus\"",
        "phone": "(099) 261-7000",
        "public_transport": "station",
        "website": "https://www.yakushimaferry.com",
        "wheelchair": "yes"
      }
    },
    {
      "id": "kagoshima_bus_terminal_5963442685",
      "osmId": 5963442685,
      "osmType": "node",
      "prefectureId": "kagoshima",
      "type": "bus_terminal",
      "subtype": null,
      "name": "南国交通 出水バスセンター",
      "nameKana": null,
      "nameEn": null,
      "operator": null,
      "network": null,
      "ref": null,
      "latitude": 32.0903068,
      "longitude": 130.3573327,
      "countryCode": "jp",
      "rawTags": {
        "amenity": "bus_station",
        "name": "南国交通 出水バスセンター"
      }
    },
    {
      "id": "kagoshima_bus_terminal_5985297562",
      "osmId": 5985297562,
      "osmType": "node",
      "prefectureId": "kagoshima",
      "type": "bus_terminal",
      "subtype": null,
      "name": "脇田電停",
      "nameKana": null,
      "nameEn": "Wakida-dentei",
      "operator": null,
      "network": null,
      "ref": null,
      "latitude": 31.544303,
      "longitude": 130.5376194,
      "countryCode": "jp",
      "rawTags": {
        "amenity": "bus_station",
        "bus": "yes",
        "name": "脇田電停",
        "name:en": "Wakida-dentei",
        "public_transport": "station"
      }
    },
    {
      "id": "kagoshima_bus_terminal_6002486907",
      "osmId": 6002486907,
      "osmType": "node",
      "prefectureId": "kagoshima",
      "type": "bus_terminal",
      "subtype": null,
      "name": "知覧",
      "nameKana": null,
      "nameEn": "Chiran",
      "operator": null,
      "network": null,
      "ref": null,
      "latitude": 31.3733893,
      "longitude": 130.436305,
      "countryCode": "jp",
      "rawTags": {
        "amenity": "bus_station",
        "bus": "yes",
        "name": "知覧",
        "name:en": "Chiran",
        "public_transport": "station",
        "wikidata": "Q11584657"
      }
    },
    {
      "id": "kagoshima_station_6050995341",
      "osmId": 6050995341,
      "osmType": "node",
      "prefectureId": "kagoshima",
      "type": "station",
      "subtype": "jr",
      "name": "鹿児島",
      "nameKana": null,
      "nameEn": "Kagoshima",
      "operator": "九州旅客鉄道",
      "network": null,
      "ref": null,
      "latitude": 31.6021426,
      "longitude": 130.5640944,
      "countryCode": "jp",
      "rawTags": {
        "name": "鹿児島",
        "name:en": "Kagoshima",
        "name:ja": "鹿児島",
        "name:ja_rm": "Kagoshima",
        "note": "National-Land Numerical Information (Railway) 2007, MLIT Japan",
        "note:ja": "国土数値情報（鉄道データ）平成19年　国土交通省",
        "operator": "九州旅客鉄道",
        "operator:ja": "九州旅客鉄道",
        "public_transport": "station",
        "railway": "station",
        "source": "KSJ2",
        "source_ref": "http://nlftp.mlit.go.jp/ksj/jpgis/datalist/KsjTmplt-N02-v1_1.html",
        "wikidata": "Q874167",
        "wikipedia": "ja:鹿児島駅"
      }
    },
    {
      "id": "kagoshima_station_6055017024",
      "osmId": 6055017024,
      "osmType": "node",
      "prefectureId": "kagoshima",
      "type": "station",
      "subtype": "private",
      "name": "川内",
      "nameKana": null,
      "nameEn": "Sendai",
      "operator": null,
      "network": null,
      "ref": null,
      "latitude": 31.8137835,
      "longitude": 130.3122563,
      "countryCode": "jp",
      "rawTags": {
        "name": "川内",
        "name:de": "Sendai",
        "name:en": "Sendai",
        "public_transport": "station",
        "railway": "station",
        "wikidata": "Q1136688",
        "wikimedia_commons": "Category:Sendai Station (Kagoshima)",
        "wikipedia": "ja:川内駅 (鹿児島県)"
      }
    },
    {
      "id": "kagoshima_station_6055027103",
      "osmId": 6055027103,
      "osmType": "node",
      "prefectureId": "kagoshima",
      "type": "station",
      "subtype": "jr",
      "name": "薩摩松元",
      "nameKana": null,
      "nameEn": "Satsuma-Matsumoto",
      "operator": "九州旅客鉄道",
      "network": null,
      "ref": null,
      "latitude": 31.6053927,
      "longitude": 130.4387983,
      "countryCode": "jp",
      "rawTags": {
        "name": "薩摩松元",
        "name:en": "Satsuma-Matsumoto",
        "name:ja": "薩摩松元",
        "operator": "九州旅客鉄道",
        "operator:en": "Kyushu Railway Company",
        "operator:ja": "九州旅客鉄道",
        "public_transport": "station",
        "railway": "station",
        "wikidata": "Q5296625",
        "wikipedia": "ja:薩摩松元駅"
      }
    },
    {
      "id": "kagoshima_station_6055895544",
      "osmId": 6055895544,
      "osmType": "node",
      "prefectureId": "kagoshima",
      "type": "station",
      "subtype": "jr",
      "name": "上伊集院",
      "nameKana": null,
      "nameEn": "Kami-Ijūin",
      "operator": "九州旅客鉄道",
      "network": null,
      "ref": null,
      "latitude": 31.5939724,
      "longitude": 130.4594667,
      "countryCode": "jp",
      "rawTags": {
        "name": "上伊集院",
        "name:en": "Kami-Ijūin",
        "name:ja": "上伊集院",
        "operator": "九州旅客鉄道",
        "operator:ja": "九州旅客鉄道",
        "public_transport": "station",
        "railway": "station",
        "train": "yes",
        "wikidata": "Q5296432",
        "wikipedia": "ja:上伊集院駅"
      }
    },
    {
      "id": "kagoshima_bus_terminal_6222228832",
      "osmId": 6222228832,
      "osmType": "node",
      "prefectureId": "kagoshima",
      "type": "bus_terminal",
      "subtype": null,
      "name": "出水駅",
      "nameKana": null,
      "nameEn": null,
      "operator": "南国交通",
      "network": null,
      "ref": null,
      "latitude": 32.0898862,
      "longitude": 130.3573503,
      "countryCode": "jp",
      "rawTags": {
        "amenity": "bus_station",
        "bench": "yes",
        "bus": "yes",
        "lit": "yes",
        "name": "出水駅",
        "operator": "南国交通",
        "passenger_information_display": "yes",
        "public_transport": "station",
        "shelter": "yes"
      }
    },
    {
      "id": "kagoshima_station_6372364103",
      "osmId": 6372364103,
      "osmType": "node",
      "prefectureId": "kagoshima",
      "type": "station",
      "subtype": "jr",
      "name": "西大山",
      "nameKana": null,
      "nameEn": "Nishi-Oyama",
      "operator": "九州旅客鉄道",
      "network": "JR指宿枕崎線",
      "ref": null,
      "latitude": 31.1903006,
      "longitude": 130.5764579,
      "countryCode": "jp",
      "rawTags": {
        "name": "西大山",
        "name:en": "Nishi-Oyama",
        "name:ja": "西大山",
        "name:ja_rm": "Nishi-Ōyama",
        "name:ko": "니시오야마",
        "network": "JR指宿枕崎線",
        "operator": "九州旅客鉄道",
        "operator:en": "Kyushu Railway Company",
        "public_transport": "station",
        "railway": "station",
        "source": "KSJ2",
        "wikidata": "Q801260",
        "wikipedia": "ja:西大山駅"
      }
    },
    {
      "id": "kagoshima_station_6375694030",
      "osmId": 6375694030,
      "osmType": "node",
      "prefectureId": "kagoshima",
      "type": "station",
      "subtype": "jr",
      "name": "吉松",
      "nameKana": null,
      "nameEn": "Yoshimatsu",
      "operator": "九州旅客鉄道",
      "network": null,
      "ref": null,
      "latitude": 32.0120072,
      "longitude": 130.7381295,
      "countryCode": "jp",
      "rawTags": {
        "KSJ2:STN": "吉松",
        "name": "吉松",
        "name:en": "Yoshimatsu",
        "name:ja": "吉松",
        "name:ko": "요시마쓰",
        "operator": "九州旅客鉄道",
        "operator:en": "Kyushu Railway Company",
        "operator:ja": "九州旅客鉄道",
        "railway": "station",
        "wikidata": "Q5375416",
        "wikipedia": "ja:吉松駅"
      }
    },
    {
      "id": "kagoshima_bus_terminal_7093339854",
      "osmId": 7093339854,
      "osmType": "node",
      "prefectureId": "kagoshima",
      "type": "bus_terminal",
      "subtype": null,
      "name": "交通局北営業所前",
      "nameKana": null,
      "nameEn": "Koutsuukyoku Kita-eigyousho mae",
      "operator": null,
      "network": null,
      "ref": null,
      "latitude": 31.6268514,
      "longitude": 130.5473067,
      "countryCode": "jp",
      "rawTags": {
        "amenity": "bus_station",
        "bus": "yes",
        "name": "交通局北営業所前",
        "name:en": "Koutsuukyoku Kita-eigyousho mae",
        "public_transport": "station"
      }
    },
    {
      "id": "kagoshima_station_7104163750",
      "osmId": 7104163750,
      "osmType": "node",
      "prefectureId": "kagoshima",
      "type": "station",
      "subtype": "private",
      "name": "上川内",
      "nameKana": null,
      "nameEn": "Kami Sendai",
      "operator": "肥薩おれんじ鉄道",
      "network": null,
      "ref": null,
      "latitude": 31.8354412,
      "longitude": 130.2925234,
      "countryCode": "jp",
      "rawTags": {
        "name": "上川内",
        "name:en": "Kami Sendai",
        "operator": "肥薩おれんじ鉄道",
        "public_transport": "station",
        "railway": "station",
        "wikidata": "Q11358946",
        "wikipedia": "ja:上川内駅"
      }
    },
    {
      "id": "kagoshima_bus_terminal_7162500941",
      "osmId": 7162500941,
      "osmType": "node",
      "prefectureId": "kagoshima",
      "type": "bus_terminal",
      "subtype": null,
      "name": "明和",
      "nameKana": null,
      "nameEn": "Meiwa",
      "operator": null,
      "network": null,
      "ref": null,
      "latitude": 31.59584,
      "longitude": 130.516695,
      "countryCode": "jp",
      "rawTags": {
        "amenity": "bus_station",
        "bus": "yes",
        "name": "明和",
        "name:en": "Meiwa",
        "public_transport": "station"
      }
    },
    {
      "id": "kagoshima_bus_terminal_7198968355",
      "osmId": 7198968355,
      "osmType": "node",
      "prefectureId": "kagoshima",
      "type": "bus_terminal",
      "subtype": null,
      "name": "鹿児島中央バスターミナル",
      "nameKana": null,
      "nameEn": null,
      "operator": null,
      "network": null,
      "ref": null,
      "latitude": 31.5834284,
      "longitude": 130.5445031,
      "countryCode": "jp",
      "rawTags": {
        "amenity": "bus_station",
        "bus": "yes",
        "name": "鹿児島中央バスターミナル",
        "public_transport": "station"
      }
    },
    {
      "id": "kagoshima_bus_terminal_7398328918",
      "osmId": 7398328918,
      "osmType": "node",
      "prefectureId": "kagoshima",
      "type": "bus_terminal",
      "subtype": null,
      "name": "鴨池港",
      "nameKana": null,
      "nameEn": "Kamoike-kou",
      "operator": null,
      "network": null,
      "ref": null,
      "latitude": 31.5531741,
      "longitude": 130.5596209,
      "countryCode": "jp",
      "rawTags": {
        "amenity": "bus_station",
        "bus": "yes",
        "name": "鴨池港",
        "name:en": "Kamoike-kou",
        "public_transport": "station"
      }
    },
    {
      "id": "kagoshima_station_8071684983",
      "osmId": 8071684983,
      "osmType": "node",
      "prefectureId": "kagoshima",
      "type": "station",
      "subtype": "jr",
      "name": "東開聞",
      "nameKana": null,
      "nameEn": "Higashi-Kaimon",
      "operator": "九州旅客鉄道",
      "network": "JR指宿枕崎線",
      "ref": null,
      "latitude": 31.201265,
      "longitude": 130.5489499,
      "countryCode": "jp",
      "rawTags": {
        "name": "東開聞",
        "name:en": "Higashi-Kaimon",
        "name:ja": "東開聞",
        "name:ko": "히가시카이몬",
        "network": "JR指宿枕崎線",
        "operator": "九州旅客鉄道",
        "operator:en": "Kyushu Railway Company",
        "public_transport": "station",
        "railway": "station",
        "source": "KSJ2",
        "wikidata": "Q5753585",
        "wikipedia": "ja:東開聞駅"
      }
    },
    {
      "id": "kagoshima_station_8071684986",
      "osmId": 8071684986,
      "osmType": "node",
      "prefectureId": "kagoshima",
      "type": "station",
      "subtype": "jr",
      "name": "開聞",
      "nameKana": null,
      "nameEn": "Kaimon",
      "operator": "九州旅客鉄道",
      "network": "JR指宿枕崎線",
      "ref": null,
      "latitude": 31.2039573,
      "longitude": 130.5346933,
      "countryCode": "jp",
      "rawTags": {
        "name": "開聞",
        "name:en": "Kaimon",
        "name:ja": "開聞",
        "name:ko": "가이몬",
        "network": "JR指宿枕崎線",
        "operator": "九州旅客鉄道",
        "operator:en": "Kyushu Railway Company",
        "public_transport": "station",
        "railway": "station",
        "source": "KSJ2",
        "wikidata": "Q6348036",
        "wikipedia": "ja:開聞駅"
      }
    },
    {
      "id": "kagoshima_bus_terminal_8222346694",
      "osmId": 8222346694,
      "osmType": "node",
      "prefectureId": "kagoshima",
      "type": "bus_terminal",
      "subtype": null,
      "name": "宮之城駅",
      "nameKana": null,
      "nameEn": "Miyanojo-eki",
      "operator": null,
      "network": null,
      "ref": null,
      "latitude": 31.9052314,
      "longitude": 130.4567471,
      "countryCode": "jp",
      "rawTags": {
        "amenity": "bus_station",
        "bus": "yes",
        "name": "宮之城駅",
        "name:en": "Miyanojo-eki",
        "public_transport": "station",
        "wikidata": "Q11453234",
        "wikipedia": "ja:宮之城駅"
      }
    },
    {
      "id": "kagoshima_station_8254355246",
      "osmId": 8254355246,
      "osmType": "node",
      "prefectureId": "kagoshima",
      "type": "station",
      "subtype": "private",
      "name": "西方",
      "nameKana": null,
      "nameEn": "Nishikata",
      "operator": "肥薩おれんじ鉄道",
      "network": null,
      "ref": null,
      "latitude": 31.9162244,
      "longitude": 130.2237408,
      "countryCode": "jp",
      "rawTags": {
        "name": "西方",
        "name:en": "Nishikata",
        "name:ja": "西方",
        "name:ko": "니시카타",
        "name:zh": "西方",
        "operator": "肥薩おれんじ鉄道",
        "operator:ja": "肥薩おれんじ鉄道",
        "public_transport": "station",
        "railway": "station",
        "train": "yes",
        "wikidata": "Q11628347"
      }
    },
    {
      "id": "kagoshima_station_8259015619",
      "osmId": 8259015619,
      "osmType": "node",
      "prefectureId": "kagoshima",
      "type": "station",
      "subtype": "private",
      "name": "薩摩大川",
      "nameKana": null,
      "nameEn": "Satsuma-Okawa",
      "operator": "肥薩おれんじ鉄道",
      "network": null,
      "ref": null,
      "latitude": 31.9494801,
      "longitude": 130.2190905,
      "countryCode": "jp",
      "rawTags": {
        "name": "薩摩大川",
        "name:en": "Satsuma-Okawa",
        "name:ja": "薩摩大川",
        "operator": "肥薩おれんじ鉄道",
        "operator:ja": "肥薩おれんじ鉄道",
        "public_transport": "station",
        "railway": "station",
        "train": "yes",
        "wikidata": "Q11622286",
        "wikipedia": "ja:薩摩大川駅"
      }
    },
    {
      "id": "kagoshima_station_8259015620",
      "osmId": 8259015620,
      "osmType": "node",
      "prefectureId": "kagoshima",
      "type": "station",
      "subtype": "private",
      "name": "薩摩高城",
      "nameKana": null,
      "nameEn": "Satsuma-Taki",
      "operator": null,
      "network": null,
      "ref": null,
      "latitude": 31.8926568,
      "longitude": 130.2205114,
      "countryCode": "jp",
      "rawTags": {
        "name": "薩摩高城",
        "name:en": "Satsuma-Taki",
        "name:ja": "薩摩高城",
        "ope": "肥薩おれんじ鉄道",
        "public_transport": "station",
        "railway": "station",
        "train": "yes",
        "wikidata": "Q11622356"
      }
    },
    {
      "id": "kagoshima_station_8259015622",
      "osmId": 8259015622,
      "osmType": "node",
      "prefectureId": "kagoshima",
      "type": "station",
      "subtype": "private",
      "name": "草道",
      "nameKana": null,
      "nameEn": "Kusamichi",
      "operator": "肥薩おれんじ鉄道",
      "network": null,
      "ref": null,
      "latitude": 31.854425,
      "longitude": 130.2335563,
      "countryCode": "jp",
      "rawTags": {
        "name": "草道",
        "name:en": "Kusamichi",
        "name:ja": "草道",
        "operator": "肥薩おれんじ鉄道",
        "operator:ja": "肥薩おれんじ鉄道",
        "public_transport": "station",
        "railway": "station",
        "train": "yes",
        "wikidata": "Q11618235"
      }
    },
    {
      "id": "kagoshima_station_8259015623",
      "osmId": 8259015623,
      "osmType": "node",
      "prefectureId": "kagoshima",
      "type": "station",
      "subtype": "private",
      "name": "牛ノ浜",
      "nameKana": null,
      "nameEn": "Ushinohama",
      "operator": "肥薩おれんじ鉄道",
      "network": null,
      "ref": null,
      "latitude": 31.9741976,
      "longitude": 130.2068965,
      "countryCode": "jp",
      "rawTags": {
        "name": "牛ノ浜",
        "name:en": "Ushinohama",
        "name:ja": "牛ノ浜",
        "operator": "肥薩おれんじ鉄道",
        "operator:ja": "肥薩おれんじ鉄道",
        "platforms": "2",
        "public_transport": "station",
        "railway": "station",
        "train": "yes",
        "wikidata": "Q11570025",
        "wikipedia": "ja:牛ノ浜駅"
      }
    },
    {
      "id": "kagoshima_station_8259015626",
      "osmId": 8259015626,
      "osmType": "node",
      "prefectureId": "kagoshima",
      "type": "station",
      "subtype": "jr",
      "name": "出水",
      "nameKana": null,
      "nameEn": "Izumi",
      "operator": "九州旅客鉄道",
      "network": null,
      "ref": null,
      "latitude": 32.089725,
      "longitude": 130.3577842,
      "countryCode": "jp",
      "rawTags": {
        "name": "出水",
        "name:de": "Izumi",
        "name:en": "Izumi",
        "name:ja": "出水",
        "name:ko": "이즈미",
        "operator": "九州旅客鉄道",
        "operator:en": "Kyushu Railway Company",
        "operator:ja": "九州旅客鉄道",
        "public_transport": "station",
        "railway": "station",
        "source": "Bing",
        "wikidata": "Q1136682",
        "wikipedia": "ja:出水駅",
        "wikipedia:en": "Izumi Station (Kagoshima)"
      }
    },
    {
      "id": "kagoshima_station_8259730111",
      "osmId": 8259730111,
      "osmType": "node",
      "prefectureId": "kagoshima",
      "type": "station",
      "subtype": "private",
      "name": "米ノ津",
      "nameKana": null,
      "nameEn": "Komenotsu",
      "operator": "肥薩おれんじ鉄道",
      "network": null,
      "ref": null,
      "latitude": 32.1221193,
      "longitude": 130.3420047,
      "countryCode": "jp",
      "rawTags": {
        "name": "米ノ津",
        "name:en": "Komenotsu",
        "name:ja": "米ノ津",
        "operator": "肥薩おれんじ鉄道",
        "public_transport": "station",
        "railway": "station",
        "train": "yes",
        "wikidata": "Q11603963"
      }
    },
    {
      "id": "kagoshima_station_8285345352",
      "osmId": 8285345352,
      "osmType": "node",
      "prefectureId": "kagoshima",
      "type": "station",
      "subtype": "jr",
      "name": "神村学園前",
      "nameKana": null,
      "nameEn": "Kamimuragakuen-mae",
      "operator": "九州旅客鉄道",
      "network": null,
      "ref": null,
      "latitude": 31.7038675,
      "longitude": 130.2839725,
      "countryCode": "jp",
      "rawTags": {
        "name": "神村学園前",
        "name:en": "Kamimuragakuen-mae",
        "name:ja": "神村学園前",
        "operator": "九州旅客鉄道",
        "operator:en": "Kyushu Railway Company",
        "operator:ja": "九州旅客鉄道",
        "public_transport": "station",
        "railway": "station",
        "train": "yes",
        "wikidata": "Q5297473",
        "wikipedia": "ja:神村学園前駅"
      }
    },
    {
      "id": "kagoshima_station_8285659879",
      "osmId": 8285659879,
      "osmType": "node",
      "prefectureId": "kagoshima",
      "type": "station",
      "subtype": "jr",
      "name": "隈之城",
      "nameKana": null,
      "nameEn": "Kumanojo",
      "operator": "九州旅客鉄道",
      "network": null,
      "ref": null,
      "latitude": 31.792413,
      "longitude": 130.3071253,
      "countryCode": "jp",
      "rawTags": {
        "name": "隈之城",
        "name:en": "Kumanojo",
        "name:ja": "隈之城",
        "name:ja_rm": "Kumanojō",
        "operator": "九州旅客鉄道",
        "operator:en": "Kyushu Railway Company",
        "operator:ja": "九州旅客鉄道",
        "public_transport": "station",
        "railway": "station",
        "train": "yes",
        "wikidata": "Q5297757",
        "wikipedia": "ja:隈之城駅"
      }
    },
    {
      "id": "kagoshima_station_8287686242",
      "osmId": 8287686242,
      "osmType": "node",
      "prefectureId": "kagoshima",
      "type": "station",
      "subtype": "jr",
      "name": "竜ヶ水",
      "nameKana": null,
      "nameEn": "Ryugamizu",
      "operator": "九州旅客鉄道",
      "network": null,
      "ref": null,
      "latitude": 31.647373,
      "longitude": 130.6041116,
      "countryCode": "jp",
      "rawTags": {
        "name": "竜ヶ水",
        "name:en": "Ryugamizu",
        "name:ja": "竜ヶ水",
        "name:ko": "류가미즈",
        "note": "National-Land Numerical Information (Railway) 2007, MLIT Japan",
        "note:ja": "国土数値情報（鉄道データ）平成19年　国土交通省",
        "operator": "九州旅客鉄道",
        "operator:ja": "九州旅客鉄道",
        "public_transport": "station",
        "railway": "station",
        "source": "KSJ2",
        "source_ref": "http://nlftp.mlit.go.jp/ksj/jpgis/datalist/KsjTmplt-N02-v1_1.html",
        "train": "yes",
        "wikidata": "Q5373890",
        "wikipedia": "ja:竜ケ水駅"
      }
    },
    {
      "id": "kagoshima_bus_terminal_8850320428",
      "osmId": 8850320428,
      "osmType": "node",
      "prefectureId": "kagoshima",
      "type": "bus_terminal",
      "subtype": null,
      "name": "吉田インター前",
      "nameKana": null,
      "nameEn": "Yoshida I.C. mae",
      "operator": "南国交通",
      "network": null,
      "ref": null,
      "latitude": 31.6698352,
      "longitude": 130.5645942,
      "countryCode": "jp",
      "rawTags": {
        "amenity": "bus_station",
        "bus": "yes",
        "name": "吉田インター前",
        "name:en": "Yoshida I.C. mae",
        "operator": "南国交通",
        "public_transport": "station"
      }
    },
    {
      "id": "kagoshima_bus_terminal_8859325657",
      "osmId": 8859325657,
      "osmType": "node",
      "prefectureId": "kagoshima",
      "type": "bus_terminal",
      "subtype": null,
      "name": "星ヶ峯",
      "nameKana": null,
      "nameEn": "Hoshigamine",
      "operator": null,
      "network": null,
      "ref": null,
      "latitude": 31.5734659,
      "longitude": 130.4827086,
      "countryCode": "jp",
      "rawTags": {
        "amenity": "bus_station",
        "bus": "yes",
        "name": "星ヶ峯",
        "name:en": "Hoshigamine",
        "public_transport": "station"
      }
    },
    {
      "id": "kagoshima_station_9144650615",
      "osmId": 9144650615,
      "osmType": "node",
      "prefectureId": "kagoshima",
      "type": "station",
      "subtype": "jr",
      "name": "加治木",
      "nameKana": null,
      "nameEn": "Kajiki",
      "operator": "九州旅客鉄道",
      "network": "JR日豊線",
      "ref": null,
      "latitude": 31.739267,
      "longitude": 130.6706122,
      "countryCode": "jp",
      "rawTags": {
        "KSJ2:LIN": "日豊線",
        "KSJ2:STN": "加治木",
        "mapillary": "109279435342705",
        "name": "加治木",
        "name:en": "Kajiki",
        "name:ja": "加治木",
        "name:ko": "가지키",
        "network": "JR日豊線",
        "operator": "九州旅客鉄道",
        "operator:en": "Kyushu Railway Company",
        "public_transport": "station",
        "railway": "station",
        "wikidata": "Q5357424",
        "wikipedia": "ja:加治木駅"
      }
    },
    {
      "id": "kagoshima_bus_terminal_9956765886",
      "osmId": 9956765886,
      "osmType": "node",
      "prefectureId": "kagoshima",
      "type": "bus_terminal",
      "subtype": null,
      "name": "山川桟橋",
      "nameKana": null,
      "nameEn": "Yamagawa-sambashi",
      "operator": null,
      "network": null,
      "ref": null,
      "latitude": 31.2048402,
      "longitude": 130.6350034,
      "countryCode": "jp",
      "rawTags": {
        "amenity": "bus_station",
        "bus": "yes",
        "name": "山川桟橋",
        "name:en": "Yamagawa-sambashi",
        "public_transport": "station"
      }
    },
    {
      "id": "kagoshima_station_12103645338",
      "osmId": 12103645338,
      "osmType": "node",
      "prefectureId": "kagoshima",
      "type": "station",
      "subtype": "jr",
      "name": "仙巌園",
      "nameKana": null,
      "nameEn": "Sengan-en",
      "operator": "九州旅客鉄道",
      "network": null,
      "ref": null,
      "latitude": 31.6166224,
      "longitude": 130.5766252,
      "countryCode": "jp",
      "rawTags": {
        "name": "仙巌園",
        "name:en": "Sengan-en",
        "name:ja": "仙巌園",
        "name:zh-Hant": "仙巖園",
        "operator": "九州旅客鉄道",
        "operator:en": "Kyushu Railway Company",
        "operator:ja": "九州旅客鉄道",
        "operator:short": "JR九州",
        "operator:short:en": "JR Kyushu",
        "operator:short:ja": "JR九州",
        "operator:wikidata": "Q498366",
        "public_transport": "station",
        "railway": "station",
        "railway:position": "460.5",
        "start_date": "2025-03-15",
        "train": "yes",
        "wikidata": "Q49854035",
        "wikipedia": "ja:仙巌園駅"
      }
    },
    {
      "id": "kagoshima_ferry_terminal_12107920188",
      "osmId": 12107920188,
      "osmType": "node",
      "prefectureId": "kagoshima",
      "type": "ferry_terminal",
      "subtype": null,
      "name": "新島港",
      "nameKana": null,
      "nameEn": null,
      "operator": null,
      "network": null,
      "ref": null,
      "latitude": 31.6187263,
      "longitude": 130.7212433,
      "countryCode": "jp",
      "rawTags": {
        "amenity": "ferry_terminal",
        "name": "新島港"
      }
    },
    {
      "id": "kagoshima_ferry_terminal_12107920192",
      "osmId": 12107920192,
      "osmType": "node",
      "prefectureId": "kagoshima",
      "type": "ferry_terminal",
      "subtype": null,
      "name": "浦之前港",
      "nameKana": null,
      "nameEn": null,
      "operator": null,
      "network": null,
      "ref": null,
      "latitude": 31.6079782,
      "longitude": 130.7089092,
      "countryCode": "jp",
      "rawTags": {
        "amenity": "ferry_terminal",
        "name": "浦之前港"
      }
    },
    {
      "id": "kagoshima_station_12411667780",
      "osmId": 12411667780,
      "osmType": "node",
      "prefectureId": "kagoshima",
      "type": "station",
      "subtype": "private",
      "name": "客室棟",
      "nameKana": null,
      "nameEn": null,
      "operator": null,
      "network": null,
      "ref": null,
      "latitude": 31.8677438,
      "longitude": 130.8715116,
      "countryCode": "jp",
      "rawTags": {
        "name": "客室棟",
        "public_transport": "station",
        "railway": "station",
        "station": "funicular"
      }
    },
    {
      "id": "kagoshima_station_12411667785",
      "osmId": 12411667785,
      "osmType": "node",
      "prefectureId": "kagoshima",
      "type": "station",
      "subtype": "private",
      "name": "湯浴み小屋",
      "nameKana": null,
      "nameEn": null,
      "operator": null,
      "network": null,
      "ref": null,
      "latitude": 31.8667403,
      "longitude": 130.8702671,
      "countryCode": "jp",
      "rawTags": {
        "name": "湯浴み小屋",
        "public_transport": "station",
        "railway": "station",
        "station": "funicular"
      }
    },
    {
      "id": "kagoshima_airport_57011285",
      "osmId": 57011285,
      "osmType": "way",
      "prefectureId": "kagoshima",
      "type": "airport",
      "subtype": "domestic",
      "name": "与論空港",
      "nameKana": null,
      "nameEn": null,
      "operator": null,
      "network": null,
      "ref": "RNJ",
      "latitude": 27.0438387,
      "longitude": 128.4017008,
      "countryCode": "jp",
      "rawTags": {
        "KSJ2:AAC": "46535",
        "KSJ2:AAC_label": "鹿児島県大島郡与論町",
        "KSJ2:AD2": "5",
        "KSJ2:AD2_label": "都道府県",
        "KSJ2:ARP": "27.0438888889 128.4016666667",
        "KSJ2:ATB": "27.0432222200 128.3998333000",
        "KSJ2:CLT": "18 30",
        "KSJ2:COA": "空港整備法に基づく第三種空港",
        "KSJ2:CompositeCurve": "cv87Airport",
        "KSJ2:DSA": "特定飛行場以外",
        "KSJ2:INP": "5",
        "KSJ2:INP_label": "都道府県",
        "KSJ2:IUC": "供用中",
        "KSJ2:NA3": "与論空港",
        "KSJ2:OPT": "08 30",
        "KSJ2:REF": "2",
        "KSJ2:REF_label": "プロペラ定期便が就航している場合",
        "KSJ2:airport_id": "cf02_56",
        "KSJ2:runways": "1200 30",
        "aeroway": "aerodrome",
        "barrier": "fence",
        "iata": "RNJ",
        "icao": "RORY",
        "name": "与論空港",
        "note": "National-Land Numerical Information (Airport) 2007, MLIT Japan",
        "note:ja": "国土数値情報（空港データ）平成19年　国土交通省",
        "source": "KSJ2",
        "source_ref": "http://nlftp.mlit.go.jp/ksj/jpgis/datalist/KsjTmplt-C28-v1_1.html",
        "wikidata": "Q1927310",
        "wikipedia": "ja:与論空港"
      }
    },
    {
      "id": "kagoshima_airport_57011413",
      "osmId": 57011413,
      "osmType": "way",
      "prefectureId": "kagoshima",
      "type": "airport",
      "subtype": "domestic",
      "name": "徳之島子宝空港",
      "nameKana": null,
      "nameEn": null,
      "operator": null,
      "network": null,
      "ref": "TKN",
      "latitude": 27.835353,
      "longitude": 128.8821383,
      "countryCode": "jp",
      "rawTags": {
        "KSJ2:AAC": "46531",
        "KSJ2:AAC_label": "鹿児島県大島郡天城町",
        "KSJ2:AD2": "5",
        "KSJ2:AD2_label": "都道府県",
        "KSJ2:ARP": "27.8363888889 128.8813888889",
        "KSJ2:ATB": "27.8321944400 128.8832778000",
        "KSJ2:CLT": "18 30",
        "KSJ2:COA": "空港整備法に基づく第三種空港",
        "KSJ2:CompositeCurve": "cv85Airport",
        "KSJ2:DSA": "特定飛行場以外",
        "KSJ2:INP": "5",
        "KSJ2:INP_label": "都道府県",
        "KSJ2:IUC": "供用中",
        "KSJ2:NA3": "徳之島空港",
        "KSJ2:OPT": "08 30",
        "KSJ2:REF": "1",
        "KSJ2:REF_label": "ジェット定期便が就航している場合",
        "KSJ2:airport_id": "cf02_84",
        "KSJ2:runways": "2000 45",
        "aeroway": "aerodrome",
        "barrier": "fence",
        "iata": "TKN",
        "icao": "RJKN",
        "name": "徳之島子宝空港",
        "note": "National-Land Numerical Information (Airport) 2007, MLIT Japan",
        "note:ja": "国土数値情報（空港データ）平成19年　国土交通省",
        "official_name": "徳之島空港",
        "source": "KSJ2",
        "source_ref": "http://nlftp.mlit.go.jp/ksj/jpgis/datalist/KsjTmplt-C28-v1_1.html",
        "wikidata": "Q1141847",
        "wikipedia": "ja:徳之島空港"
      }
    },
    {
      "id": "kagoshima_airport_57011474",
      "osmId": 57011474,
      "osmType": "way",
      "prefectureId": "kagoshima",
      "type": "airport",
      "subtype": "domestic",
      "name": "喜界空港",
      "nameKana": null,
      "nameEn": "Kikai Airport",
      "operator": null,
      "network": null,
      "ref": "KKX",
      "latitude": 28.3215459,
      "longitude": 129.9278878,
      "countryCode": "jp",
      "rawTags": {
        "KSJ2:AAC": "46529",
        "KSJ2:AAC_label": "鹿児島県大島郡喜界町",
        "KSJ2:AD2": "5",
        "KSJ2:AD2_label": "都道府県",
        "KSJ2:ARP": "28.3213888889 129.9280555556",
        "KSJ2:ATB": "28.3196115400 129.9272354000",
        "KSJ2:CLT": "18 30",
        "KSJ2:COA": "空港整備法に基づく第三種空港",
        "KSJ2:CompositeCurve": "cv84Airport",
        "KSJ2:DSA": "特定飛行場以外",
        "KSJ2:INP": "5",
        "KSJ2:INP_label": "都道府県",
        "KSJ2:IUC": "供用中",
        "KSJ2:NA3": "喜界空港",
        "KSJ2:OPT": "08 30",
        "KSJ2:REF": "2",
        "KSJ2:REF_label": "プロペラ定期便が就航している場合",
        "KSJ2:airport_id": "cf02_85",
        "KSJ2:runways": "1200 30",
        "aeroway": "aerodrome",
        "fenced": "yes",
        "iata": "KKX",
        "icao": "RJKI",
        "layer": "1",
        "name": "喜界空港",
        "name:en": "Kikai Airport",
        "name:ja": "喜界空港",
        "name:ja_rm": "Kikai Kuko",
        "name:ko": "기카이공항",
        "natural": "heath",
        "note": "National-Land Numerical Information (Airport) 2007, MLIT Japan",
        "note:ja": "国土数値情報（空港データ）平成19年　国土交通省",
        "source": "KSJ2",
        "source_ref": "http://nlftp.mlit.go.jp/ksj/jpgis/datalist/KsjTmplt-C28-v1_1.html",
        "wikidata": "Q1927346",
        "wikipedia": "ja:喜界空港"
      }
    },
    {
      "id": "kagoshima_airport_57011480",
      "osmId": 57011480,
      "osmType": "way",
      "prefectureId": "kagoshima",
      "type": "airport",
      "subtype": "domestic",
      "name": "屋久島空港",
      "nameKana": "くしまくうこう",
      "nameEn": "Yakushima Airport",
      "operator": null,
      "network": null,
      "ref": "KUM",
      "latitude": 30.3855446,
      "longitude": 130.6591886,
      "countryCode": "jp",
      "rawTags": {
        "KSJ2:AAC": "46503",
        "KSJ2:AAC_label": "鹿児島県熊毛郡上屋久町",
        "KSJ2:AD2": "5",
        "KSJ2:AD2_label": "都道府県",
        "KSJ2:ARP": "30.3855555556 130.6591666667",
        "KSJ2:ATB": "30.3834166700 130.6588611000",
        "KSJ2:CLT": "18 30",
        "KSJ2:COA": "空港整備法に基づく第三種空港",
        "KSJ2:CompositeCurve": "cv82Airport",
        "KSJ2:DSA": "特定飛行場以外",
        "KSJ2:INP": "5",
        "KSJ2:INP_label": "都道府県",
        "KSJ2:IUC": "供用中",
        "KSJ2:NA3": "屋久島空港",
        "KSJ2:OPT": "08 30",
        "KSJ2:REF": "2",
        "KSJ2:REF_label": "プロペラ定期便が就航している場合",
        "KSJ2:airport_id": "cf02_47",
        "KSJ2:runways": "1500 45",
        "aeroway": "aerodrome",
        "barrier": "fence",
        "ele": "37",
        "iata": "KUM",
        "icao": "RJFC",
        "internet_access:fee": "no",
        "name": "屋久島空港",
        "name:en": "Yakushima Airport",
        "name:fr": "Aéroport de Yakushima",
        "name:ja": "屋久島空港",
        "name:ja-Hira": "くしまくうこう",
        "name:ja-Latn": "Yakushima-kūkō",
        "name:ko": "야쿠시마공항",
        "source": "KSJ2",
        "wikidata": "Q1433247",
        "wikimedia_commons": "Category:Yakushima Airport",
        "wikipedia": "ja:屋久島空港"
      }
    },
    {
      "id": "kagoshima_airport_57011543",
      "osmId": 57011543,
      "osmType": "way",
      "prefectureId": "kagoshima",
      "type": "airport",
      "subtype": "domestic",
      "name": "種子島空港",
      "nameKana": null,
      "nameEn": "Tanegashima Airport",
      "operator": null,
      "network": null,
      "ref": "TNE",
      "latitude": 30.6046355,
      "longitude": 130.9916096,
      "countryCode": "jp",
      "rawTags": {
        "KSJ2:ARP": "30.6050000000 130.9916666667",
        "KSJ2:ATB": "30.6090763100 130.9915193000",
        "KSJ2:CLT": "18 30",
        "KSJ2:COA": "空港整備法に基づく第三種空港",
        "KSJ2:DSA": "特定飛行場以外",
        "KSJ2:IUC": "供用中",
        "KSJ2:NA3": "新種子島空港",
        "KSJ2:OPT": "08 30",
        "KSJ2:REF": "2",
        "KSJ2:REF_label": "プロペラ定期便が就航している場合",
        "KSJ2:airport_id": "cf02_46",
        "KSJ2:runways": "2000 45",
        "aeroway": "aerodrome",
        "barrier": "fence",
        "iata": "TNE",
        "icao": "RJFG",
        "name": "種子島空港",
        "name:en": "Tanegashima Airport",
        "name:ja": "種子島空港",
        "name:ja_rm": "Tanegashima Kuko",
        "name:ko": "타네시마공항",
        "note": "National-Land Numerical Information (Airport) 2007, MLIT Japan",
        "note:ja": "国土数値情報（空港データ）平成19年　国土交通省",
        "old_name": "新種子島空港",
        "old_name:en": "Shin-Tanegashima Airport",
        "old_name:ja": "新種子島空港",
        "old_name:ko": "신타네가시마공항",
        "source": "KSJ2",
        "source_ref": "http://nlftp.mlit.go.jp/ksj/jpgis/datalist/KsjTmplt-C28-v1_1.html",
        "wikidata": "Q1432159",
        "wikipedia": "ja:種子島空港"
      }
    },
    {
      "id": "kagoshima_airport_57011590",
      "osmId": 57011590,
      "osmType": "way",
      "prefectureId": "kagoshima",
      "type": "airport",
      "subtype": "domestic",
      "name": "奄美空港",
      "nameKana": null,
      "nameEn": "Amami Airport",
      "operator": null,
      "network": null,
      "ref": "ASJ",
      "latitude": 28.431206,
      "longitude": 129.7122505,
      "countryCode": "jp",
      "rawTags": {
        "KSJ2:AAC": "46222",
        "KSJ2:AAC_label": "鹿児島県, *",
        "KSJ2:AD2": "5",
        "KSJ2:AD2_label": "都道府県",
        "KSJ2:ARP": "28.4308333333 129.7125000000",
        "KSJ2:ATB": "28.4317222200 129.7082222000",
        "KSJ2:CLT": "19 30",
        "KSJ2:COA": "空港整備法に基づく第三種空港",
        "KSJ2:CompositeCurve": "cv83Airport",
        "KSJ2:DSA": "特定飛行場以外",
        "KSJ2:INP": "5",
        "KSJ2:INP_label": "都道府県",
        "KSJ2:IUC": "供用中",
        "KSJ2:NA3": "奄美空港",
        "KSJ2:OPT": "08 00",
        "KSJ2:REF": "1",
        "KSJ2:REF_label": "ジェット定期便が就航している場合",
        "KSJ2:airport_id": "cf02_97",
        "KSJ2:runways": "2000 45",
        "aeroway": "aerodrome",
        "barrier": "fence",
        "iata": "ASJ",
        "icao": "RJKA",
        "name": "奄美空港",
        "name:en": "Amami Airport",
        "name:ja": "奄美空港",
        "name:ko": "아마미공항",
        "note": "National-Land Numerical Information (Airport) 2007, MLIT Japan",
        "note:ja": "国土数値情報（空港データ）平成19年　国土交通省",
        "source": "KSJ2",
        "source_ref": "http://nlftp.mlit.go.jp/ksj/jpgis/datalist/KsjTmplt-C28-v1_1.html",
        "wikidata": "Q1430769",
        "wikipedia": "ja:奄美空港"
      }
    },
    {
      "id": "kagoshima_airport_57011702",
      "osmId": 57011702,
      "osmType": "way",
      "prefectureId": "kagoshima",
      "type": "airport",
      "subtype": "domestic",
      "name": "鹿児島空港",
      "nameKana": "かごしまくうこう",
      "nameEn": "Kagoshima Airport",
      "operator": "鹿児島空港ビルディング",
      "network": null,
      "ref": "KOJ",
      "latitude": 31.8039367,
      "longitude": 130.7189889,
      "countryCode": "jp",
      "rawTags": {
        "KSJ2:AAC": "46218",
        "KSJ2:AAC_label": "鹿児島県, *",
        "KSJ2:AD2": "1",
        "KSJ2:AD2_label": "国土交通大臣",
        "KSJ2:ARP": "31.8033333333 130.7194444444",
        "KSJ2:ATB": "31.8009166700 130.7163056000",
        "KSJ2:CLT": "21 30",
        "KSJ2:COA": "空港整備法に基づく第二種空港",
        "KSJ2:CompositeCurve": "cv79Airport",
        "KSJ2:DSA": "周辺整備空港に指定されていない特定飛行場",
        "KSJ2:INP": "1",
        "KSJ2:INP_label": "国土交通大臣",
        "KSJ2:IUC": "供用中",
        "KSJ2:NA3": "鹿児島空港",
        "KSJ2:OPT": "07 30",
        "KSJ2:REF": "1",
        "KSJ2:REF_label": "ジェット定期便が就航している場合",
        "KSJ2:airport_id": "cf02_44",
        "KSJ2:runways": "3000 45",
        "addr:block_number": "822",
        "addr:city": "霧島市",
        "addr:neighbourhood": "溝辺町麓",
        "addr:postcode": "899-6494",
        "addr:province": "鹿児島県",
        "aeroway": "aerodrome",
        "barrier": "fence",
        "ele": "276",
        "iata": "KOJ",
        "icao": "RJFK",
        "name": "鹿児島空港",
        "name:en": "Kagoshima Airport",
        "name:ja": "鹿児島空港",
        "name:ja-Hira": "かごしまくうこう",
        "name:ko": "가고시마 공항",
        "note": "National-Land Numerical Information (Airport) 2007, MLIT Japan",
        "note:ja": "国土数値情報（空港データ）平成19年　国土交通省",
        "operator": "鹿児島空港ビルディング",
        "phone": "+81 995-73-3638",
        "source": "KSJ2",
        "source_ref": "http://nlftp.mlit.go.jp/ksj/jpgis/datalist/KsjTmplt-C28-v1_1.html",
        "website": "https://www.koj-ab.co.jp/",
        "wikidata": "Q1156310",
        "wikipedia": "ja:鹿児島空港"
      }
    },
    {
      "id": "kagoshima_ferry_terminal_173445497",
      "osmId": 173445497,
      "osmType": "way",
      "prefectureId": "kagoshima",
      "type": "ferry_terminal",
      "subtype": null,
      "name": "みしまフェリーターミナル",
      "nameKana": null,
      "nameEn": "Mishima Ferry Terminal",
      "operator": null,
      "network": null,
      "ref": null,
      "latitude": 31.5921529,
      "longitude": 130.5652736,
      "countryCode": "jp",
      "rawTags": {
        "amenity": "ferry_terminal",
        "ferry": "yes",
        "name": "みしまフェリーターミナル",
        "name:en": "Mishima Ferry Terminal",
        "name:ja": "みしまフェリーターミナル",
        "public_transport": "station"
      }
    },
    {
      "id": "kagoshima_ferry_terminal_173461584",
      "osmId": 173461584,
      "osmType": "way",
      "prefectureId": "kagoshima",
      "type": "ferry_terminal",
      "subtype": null,
      "name": "種子・屋久高速船旅客ターミナル",
      "nameKana": null,
      "nameEn": "Tane Yaku Jetfoil Terminal",
      "operator": null,
      "network": null,
      "ref": null,
      "latitude": 31.5903716,
      "longitude": 130.56335,
      "countryCode": "jp",
      "rawTags": {
        "alt_name:en": "Toppy Ferry Terminal",
        "amenity": "ferry_terminal",
        "ferry": "yes",
        "name": "種子・屋久高速船旅客ターミナル",
        "name:en": "Tane Yaku Jetfoil Terminal",
        "public_transport": "station",
        "source": "survey",
        "wikidata": "Q130278410"
      }
    },
    {
      "id": "kagoshima_ferry_terminal_173461592",
      "osmId": 173461592,
      "osmType": "way",
      "prefectureId": "kagoshima",
      "type": "ferry_terminal",
      "subtype": null,
      "name": "桜島フェリーターミナル",
      "nameKana": null,
      "nameEn": "Sakurajima Ferry Terminal",
      "operator": null,
      "network": null,
      "ref": null,
      "latitude": 31.5965406,
      "longitude": 130.562797,
      "countryCode": "jp",
      "rawTags": {
        "amenity": "ferry_terminal",
        "building": "yes",
        "building:levels": "2",
        "ferry": "yes",
        "layer": "3",
        "name": "桜島フェリーターミナル",
        "name:en": "Sakurajima Ferry Terminal",
        "name:ja": "桜島フェリーターミナル",
        "name:ko": "사쿠라지마 페리 터미널",
        "name:zh": "櫻島渡輪碼頭",
        "public_transport": "station",
        "smoking": "isolated"
      }
    },
    {
      "id": "kagoshima_ferry_terminal_264162657",
      "osmId": 264162657,
      "osmType": "way",
      "prefectureId": "kagoshima",
      "type": "ferry_terminal",
      "subtype": null,
      "name": "宮之浦港フェリーターミナル",
      "nameKana": null,
      "nameEn": "Miyanoura Port Ferry Terminal",
      "operator": null,
      "network": null,
      "ref": null,
      "latitude": 30.4323574,
      "longitude": 130.5724369,
      "countryCode": "jp",
      "rawTags": {
        "addr:block_number": "1208",
        "addr:city": "屋久島町",
        "addr:county": "熊毛郡",
        "addr:housenumber": "11",
        "addr:province": "鹿児島県",
        "addr:quarter": "宮之浦",
        "amenity": "ferry_terminal",
        "ferry": "yes",
        "name": "宮之浦港フェリーターミナル",
        "name:en": "Miyanoura Port Ferry Terminal",
        "name:fr": "Terminal de ferry",
        "name:ja": "宮之浦港フェリーターミナル",
        "public_transport": "station",
        "source": "bing",
        "wheelchair": "yes"
      }
    },
    {
      "id": "kagoshima_bus_terminal_304032528",
      "osmId": 304032528,
      "osmType": "way",
      "prefectureId": "kagoshima",
      "type": "bus_terminal",
      "subtype": null,
      "name": "鹿屋バスセンター跡",
      "nameKana": null,
      "nameEn": null,
      "operator": null,
      "network": null,
      "ref": null,
      "latitude": 31.3901357,
      "longitude": 130.8501295,
      "countryCode": "jp",
      "rawTags": {
        "amenity": "bus_station",
        "bus": "yes",
        "name": "鹿屋バスセンター跡",
        "public_transport": "station"
      }
    },
    {
      "id": "kagoshima_airport_316395408",
      "osmId": 316395408,
      "osmType": "way",
      "prefectureId": "kagoshima",
      "type": "airport",
      "subtype": "domestic",
      "name": "薩摩硫黄島飛行場",
      "nameKana": null,
      "nameEn": "Satsuma Iōjima Airport",
      "operator": "鹿児島県鹿児島郡三島村",
      "network": null,
      "ref": "RJX7",
      "latitude": 30.7844051,
      "longitude": 130.2708973,
      "countryCode": "jp",
      "rawTags": {
        "aeroway": "aerodrome",
        "ele": "103",
        "icao": "RJX7",
        "int_name": "Satsuma Iōjima Airport",
        "name": "薩摩硫黄島飛行場",
        "name:en": "Satsuma Iōjima Airport",
        "operator": "鹿児島県鹿児島郡三島村",
        "source": "Mapbox Satelite",
        "wikidata": "Q8383318",
        "wikimedia_commons": "Category:Satsuma Iojima Airfield",
        "wikipedia": "ja:薩摩硫黄島飛行場"
      }
    },
    {
      "id": "kagoshima_bus_terminal_331825004",
      "osmId": 331825004,
      "osmType": "way",
      "prefectureId": "kagoshima",
      "type": "bus_terminal",
      "subtype": null,
      "name": "薩摩郡山駅",
      "nameKana": null,
      "nameEn": null,
      "operator": null,
      "network": null,
      "ref": null,
      "latitude": 31.6781634,
      "longitude": 130.473811,
      "countryCode": "jp",
      "rawTags": {
        "amenity": "bus_station",
        "bus": "yes",
        "name": "薩摩郡山駅",
        "public_transport": "station"
      }
    },
    {
      "id": "kagoshima_ferry_terminal_432777819",
      "osmId": 432777819,
      "osmType": "way",
      "prefectureId": "kagoshima",
      "type": "ferry_terminal",
      "subtype": null,
      "name": "奄美・沖縄フェリーターミナル",
      "nameKana": null,
      "nameEn": null,
      "operator": null,
      "network": null,
      "ref": null,
      "latitude": 31.5803983,
      "longitude": 130.5686917,
      "countryCode": "jp",
      "rawTags": {
        "amenity": "ferry_terminal",
        "building": "yes",
        "building:levels": "3",
        "ferry": "yes",
        "name": "奄美・沖縄フェリーターミナル",
        "public_transport": "station",
        "source": "Kagoshima ortho"
      }
    },
    {
      "id": "kagoshima_ferry_terminal_451354044",
      "osmId": 451354044,
      "osmType": "way",
      "prefectureId": "kagoshima",
      "type": "ferry_terminal",
      "subtype": null,
      "name": "大湊待合所",
      "nameKana": null,
      "nameEn": null,
      "operator": null,
      "network": null,
      "ref": null,
      "latitude": 28.1453822,
      "longitude": 129.3090053,
      "countryCode": "jp",
      "rawTags": {
        "alt_name": "せとうち海の駅",
        "amenity": "ferry_terminal",
        "building": "yes",
        "name": "大湊待合所"
      }
    },
    {
      "id": "kagoshima_ferry_terminal_918184916",
      "osmId": 918184916,
      "osmType": "way",
      "prefectureId": "kagoshima",
      "type": "ferry_terminal",
      "subtype": null,
      "name": "天長フェリー 諸浦港乗船券売場",
      "nameKana": null,
      "nameEn": null,
      "operator": null,
      "network": null,
      "ref": null,
      "latitude": 32.2550659,
      "longitude": 130.1834281,
      "countryCode": "jp",
      "rawTags": {
        "amenity": "ferry_terminal",
        "building:levels": "1",
        "ferry": "yes",
        "name": "天長フェリー 諸浦港乗船券売場",
        "public_transport": "station"
      }
    },
    {
      "id": "kagoshima_ferry_terminal_919606622",
      "osmId": 919606622,
      "osmType": "way",
      "prefectureId": "kagoshima",
      "type": "ferry_terminal",
      "subtype": null,
      "name": "三和フェリー",
      "nameKana": null,
      "nameEn": "Ezax Sanwa Ferry",
      "operator": null,
      "network": null,
      "ref": null,
      "latitude": 32.1884517,
      "longitude": 130.1033906,
      "countryCode": "jp",
      "rawTags": {
        "amenity": "ferry_terminal",
        "ferry": "yes",
        "name": "三和フェリー",
        "name:en": "Ezax Sanwa Ferry",
        "name:ja": "三和フェリー",
        "public_transport": "station"
      }
    },
    {
      "id": "kagoshima_ferry_terminal_919609428",
      "osmId": 919609428,
      "osmType": "way",
      "prefectureId": "kagoshima",
      "type": "ferry_terminal",
      "subtype": null,
      "name": "天長フェリー 片側港乗船券売場",
      "nameKana": null,
      "nameEn": null,
      "operator": null,
      "network": null,
      "ref": null,
      "latitude": 32.2786129,
      "longitude": 130.2156667,
      "countryCode": "jp",
      "rawTags": {
        "amenity": "ferry_terminal",
        "ferry": "yes",
        "name": "天長フェリー 片側港乗船券売場",
        "public_transport": "station"
      }
    },
    {
      "id": "kagoshima_ferry_terminal_919610627",
      "osmId": 919610627,
      "osmType": "way",
      "prefectureId": "kagoshima",
      "type": "ferry_terminal",
      "subtype": null,
      "name": "幣串港旅客船待合所",
      "nameKana": null,
      "nameEn": null,
      "operator": null,
      "network": null,
      "ref": null,
      "latitude": 32.2618086,
      "longitude": 130.2258597,
      "countryCode": "jp",
      "rawTags": {
        "amenity": "ferry_terminal",
        "ferry": "yes",
        "name": "幣串港旅客船待合所",
        "public_transport": "station"
      }
    },
    {
      "id": "kagoshima_station_977384969",
      "osmId": 977384969,
      "osmType": "way",
      "prefectureId": "kagoshima",
      "type": "station",
      "subtype": "private",
      "name": "帖佐駅",
      "nameKana": null,
      "nameEn": null,
      "operator": null,
      "network": null,
      "ref": null,
      "latitude": 31.7269561,
      "longitude": 130.6326952,
      "countryCode": "jp",
      "rawTags": {
        "building": "train_station",
        "name": "帖佐駅",
        "public_transport": "station",
        "railway": "station",
        "train": "yes"
      }
    },
    {
      "id": "kagoshima_ferry_terminal_993370531",
      "osmId": 993370531,
      "osmType": "way",
      "prefectureId": "kagoshima",
      "type": "ferry_terminal",
      "subtype": null,
      "name": "志布志港フェリー旅客待合所",
      "nameKana": null,
      "nameEn": "Shibushi Port Passengers Terminal",
      "operator": null,
      "network": null,
      "ref": null,
      "latitude": 31.4610166,
      "longitude": 131.0981492,
      "countryCode": "jp",
      "rawTags": {
        "amenity": "ferry_terminal",
        "building": "yes",
        "cargo": "passengers;vehicle",
        "ferry": "yes",
        "name": "志布志港フェリー旅客待合所",
        "name:en": "Shibushi Port Passengers Terminal",
        "public_transport": "station"
      }
    },
    {
      "id": "kagoshima_ferry_terminal_993372650",
      "osmId": 993372650,
      "osmType": "way",
      "prefectureId": "kagoshima",
      "type": "ferry_terminal",
      "subtype": null,
      "name": "マルエーフェリー",
      "nameKana": null,
      "nameEn": null,
      "operator": null,
      "network": null,
      "ref": null,
      "latitude": 31.4718426,
      "longitude": 131.1072281,
      "countryCode": "jp",
      "rawTags": {
        "amenity": "ferry_terminal",
        "building": "yes",
        "ferry": "yes",
        "name": "マルエーフェリー",
        "public_transport": "station"
      }
    },
    {
      "id": "kagoshima_airport_1136978938",
      "osmId": 1136978938,
      "osmType": "way",
      "prefectureId": "kagoshima",
      "type": "airport",
      "subtype": "heliport",
      "name": "枕崎ヘリポート",
      "nameKana": null,
      "nameEn": null,
      "operator": "枕崎市",
      "network": null,
      "ref": null,
      "latitude": 31.2679092,
      "longitude": 130.3581393,
      "countryCode": "jp",
      "rawTags": {
        "aeroway": "aerodrome",
        "name": "枕崎ヘリポート",
        "operator": "枕崎市"
      }
    },
    {
      "id": "kagoshima_ferry_terminal_1165232874",
      "osmId": 1165232874,
      "osmType": "way",
      "prefectureId": "kagoshima",
      "type": "ferry_terminal",
      "subtype": null,
      "name": "トッピー＆ロケット 西之表港待合所",
      "nameKana": null,
      "nameEn": "Toppy & Rocket Jetfoils Terminal – Nishinoomote Port (Tanegashima)",
      "operator": null,
      "network": null,
      "ref": null,
      "latitude": 30.7315624,
      "longitude": 130.9898617,
      "countryCode": "jp",
      "rawTags": {
        "air_conditioning": "yes",
        "amenity": "ferry_terminal",
        "building": "yes",
        "ferry": "yes",
        "internet_access": "wlan",
        "internet_access:fee": "no",
        "name": "トッピー＆ロケット 西之表港待合所",
        "name:en": "Toppy & Rocket Jetfoils Terminal – Nishinoomote Port (Tanegashima)",
        "name:fr": "Terminal Jetfoils Toppy & Rocket – Port de Nishinoomote (Tanegashima)",
        "public_transport": "station"
      }
    },
    {
      "id": "kagoshima_ferry_terminal_1165232875",
      "osmId": 1165232875,
      "osmType": "way",
      "prefectureId": "kagoshima",
      "type": "ferry_terminal",
      "subtype": null,
      "name": "種子島 西之表港待合所",
      "nameKana": null,
      "nameEn": "Nishinoomote Port Ferry Terminal (Tanegashima)",
      "operator": null,
      "network": null,
      "ref": null,
      "latitude": 30.7317668,
      "longitude": 130.9904799,
      "countryCode": "jp",
      "rawTags": {
        "air_conditioning": "yes",
        "amenity": "ferry_terminal",
        "building": "yes",
        "ferry": "yes",
        "internet_access": "wlan",
        "internet_access:fee": "no",
        "name": "種子島 西之表港待合所",
        "name:en": "Nishinoomote Port Ferry Terminal (Tanegashima)",
        "name:fr": "Terminal Ferry de Nishinoomote (Tanegashima)",
        "public_transport": "station",
        "wheelchair": "yes"
      }
    },
    {
      "id": "kagoshima_ferry_terminal_1451926008",
      "osmId": 1451926008,
      "osmType": "way",
      "prefectureId": "kagoshima",
      "type": "ferry_terminal",
      "subtype": null,
      "name": "北埠頭旅客ターミナル",
      "nameKana": null,
      "nameEn": null,
      "operator": null,
      "network": null,
      "ref": null,
      "latitude": 31.5952903,
      "longitude": 130.566339,
      "countryCode": "jp",
      "rawTags": {
        "amenity": "ferry_terminal",
        "building": "yes",
        "ferry": "yes",
        "layer": "1",
        "name": "北埠頭旅客ターミナル",
        "public_transport": "station"
      }
    },
    {
      "id": "kagoshima_airport_7007109",
      "osmId": 7007109,
      "osmType": "relation",
      "prefectureId": "kagoshima",
      "type": "airport",
      "subtype": "domestic",
      "name": "諏訪之瀬島飛行場",
      "nameKana": null,
      "nameEn": null,
      "operator": "十島村",
      "network": null,
      "ref": null,
      "latitude": 29.6065004,
      "longitude": 129.7019322,
      "countryCode": "jp",
      "rawTags": {
        "aeroway": "aerodrome",
        "name": "諏訪之瀬島飛行場",
        "operator": "十島村",
        "type": "multipolygon",
        "wikidata": "Q38267000",
        "wikipedia": "ja:諏訪之瀬島飛行場"
      }
    },
    {
      "id": "kagoshima_airport_12537205",
      "osmId": 12537205,
      "osmType": "relation",
      "prefectureId": "kagoshima",
      "type": "airport",
      "subtype": "domestic",
      "name": "沖永良部空港",
      "nameKana": null,
      "nameEn": "Okinoerabu Airport",
      "operator": null,
      "network": null,
      "ref": "OKE",
      "latitude": 27.4314834,
      "longitude": 128.7051311,
      "countryCode": "jp",
      "rawTags": {
        "KSJ2:AAC": "46533",
        "KSJ2:AAC_label": "鹿児島県大島郡和泊町",
        "KSJ2:AD2": "5",
        "KSJ2:AD2_label": "都道府県",
        "KSJ2:ARP": "27.4316666667 128.7055555556",
        "KSJ2:ATB": "27.4328214400 128.7043607000",
        "KSJ2:CLT": "18 30",
        "KSJ2:COA": "空港整備法に基づく第三種空港",
        "KSJ2:CompositeCurve": "cv86Airport",
        "KSJ2:DSA": "特定飛行場以外",
        "KSJ2:INP": "5",
        "KSJ2:INP_label": "都道府県",
        "KSJ2:IUC": "供用中",
        "KSJ2:NA3": "沖永良部空港",
        "KSJ2:OPT": "08 30",
        "KSJ2:REF": "2",
        "KSJ2:REF_label": "プロペラ定期便が就航している場合",
        "KSJ2:airport_id": "cf02_55",
        "KSJ2:runways": "1350 45",
        "aeroway": "aerodrome",
        "alt_name": "えらぶゆりの島空港",
        "alt_name:ja": "えらぶゆりの島空港",
        "barrier": "fence",
        "iata": "OKE",
        "icao": "RJKB",
        "name": "沖永良部空港",
        "name:en": "Okinoerabu Airport",
        "name:ja": "沖永良部空港",
        "note": "National-Land Numerical Information (Airport) 2007, MLIT Japan",
        "note:ja": "国土数値情報（空港データ）平成19年　国土交通省",
        "source": "KSJ2",
        "source_ref": "http://nlftp.mlit.go.jp/ksj/jpgis/datalist/KsjTmplt-C28-v1_1.html",
        "type": "multipolygon",
        "wikidata": "Q2901234",
        "wikipedia": "ja:沖永良部空港"
      }
    }
  ]
}