{
  "fetchedAt": "2025-12-12T05:36:06.825Z",
  "prefectureId": "kochi",
  "prefectureName": "高知県",
  "stats": {
    "station": 94,
    "airport": 1,
    "ferry_terminal": 18,
    "bus_terminal": 7,
    "total": 120
  },
  "data": [
    {
      "id": "kochi_station_265002975",
      "osmId": 265002975,
      "osmType": "node",
      "prefectureId": "kochi",
      "type": "station",
      "subtype": "private",
      "name": "若井",
      "nameKana": null,
      "nameEn": "Wakai",
      "operator": "土佐くろしお鉄道",
      "network": "土佐くろしお鉄道中村線",
      "ref": "TK27",
      "latitude": 33.1880575,
      "longitude": 133.1059971,
      "countryCode": "jp",
      "rawTags": {
        "KSJ2:STN": "若井",
        "name": "若井",
        "name:en": "Wakai",
        "name:ja": "若井",
        "name:ko": "와카이",
        "network": "土佐くろしお鉄道中村線",
        "note": "National-Land Numerical Information (Railway) 2007, MLIT Japan",
        "note:ja": "国土数値情報（鉄道データ）平成19年　国土交通省",
        "operator": "土佐くろしお鉄道",
        "public_transport": "station",
        "railway": "station",
        "ref": "TK27",
        "source": "KSJ2",
        "source_ref": "http://nlftp.mlit.go.jp/ksj/jpgis/datalist/KsjTmplt-N02-v1_1.html",
        "wikidata": "Q7960771",
        "wikipedia": "ja:若井駅"
      }
    },
    {
      "id": "kochi_station_265003515",
      "osmId": 265003515,
      "osmType": "node",
      "prefectureId": "kochi",
      "type": "station",
      "subtype": "jr",
      "name": "十川",
      "nameKana": null,
      "nameEn": "Tōkawa",
      "operator": "四国旅客鉄道",
      "network": null,
      "ref": null,
      "latitude": 33.2347403,
      "longitude": 132.8557833,
      "countryCode": "jp",
      "rawTags": {
        "KSJ2:LIN": "予土線",
        "KSJ2:STN": "十川",
        "name": "十川",
        "name:en": "Tōkawa",
        "name:ja": "十川",
        "name:ko": "도카와",
        "note": "National-Land Numerical Information (Railway) 2007, MLIT Japan",
        "note:ja": "国土数値情報（鉄道データ）平成19年　国土交通省",
        "operator": "四国旅客鉄道",
        "public_transport": "station",
        "railway": "station",
        "source": "KSJ2",
        "source_ref": "http://nlftp.mlit.go.jp/ksj/jpgis/datalist/KsjTmplt-N02-v1_1.html",
        "wikidata": "Q7862690",
        "wikipedia": "ja:十川駅 (高知県)"
      }
    },
    {
      "id": "kochi_station_265004152",
      "osmId": 265004152,
      "osmType": "node",
      "prefectureId": "kochi",
      "type": "station",
      "subtype": "jr",
      "name": "半家",
      "nameKana": null,
      "nameEn": "Hage",
      "operator": "四国旅客鉄道",
      "network": null,
      "ref": null,
      "latitude": 33.2015364,
      "longitude": 132.7915311,
      "countryCode": "jp",
      "rawTags": {
        "KSJ2:LIN": "予土線",
        "KSJ2:STN": "半家",
        "name": "半家",
        "name:en": "Hage",
        "name:ja": "半家",
        "name:ko": "하게",
        "note": "National-Land Numerical Information (Railway) 2007, MLIT Japan",
        "note:ja": "国土数値情報（鉄道データ）平成19年　国土交通省",
        "operator": "四国旅客鉄道",
        "railway": "station",
        "source": "KSJ2",
        "source_ref": "http://nlftp.mlit.go.jp/ksj/jpgis/datalist/KsjTmplt-N02-v1_1.html",
        "wikidata": "Q5638579",
        "wikipedia": "ja:半家駅"
      }
    },
    {
      "id": "kochi_station_265004228",
      "osmId": 265004228,
      "osmType": "node",
      "prefectureId": "kochi",
      "type": "station",
      "subtype": "jr",
      "name": "西ヶ方",
      "nameKana": null,
      "nameEn": "Nishigahō",
      "operator": "四国旅客鉄道",
      "network": null,
      "ref": null,
      "latitude": 33.1872335,
      "longitude": 132.7672444,
      "countryCode": "jp",
      "rawTags": {
        "KSJ2:LIN": "予土線",
        "KSJ2:STN": "西ヶ方",
        "name": "西ヶ方",
        "name:en": "Nishigahō",
        "name:ja": "西ヶ方",
        "name:ko": "니시가호",
        "note": "National-Land Numerical Information (Railway) 2007, MLIT Japan",
        "note:ja": "国土数値情報（鉄道データ）平成19年　国土交通省",
        "operator": "四国旅客鉄道",
        "public_transport": "station",
        "railway": "station",
        "source": "KSJ2",
        "source_ref": "http://nlftp.mlit.go.jp/ksj/jpgis/datalist/KsjTmplt-N02-v1_1.html",
        "wikidata": "Q303925",
        "wikipedia": "ja:西ケ方駅"
      }
    },
    {
      "id": "kochi_station_265005008",
      "osmId": 265005008,
      "osmType": "node",
      "prefectureId": "kochi",
      "type": "station",
      "subtype": "jr",
      "name": "土佐昭和",
      "nameKana": null,
      "nameEn": "Tosa-Shōwa",
      "operator": "四国旅客鉄道",
      "network": null,
      "ref": null,
      "latitude": 33.220106,
      "longitude": 132.8971802,
      "countryCode": "jp",
      "rawTags": {
        "KSJ2:LIN": "予土線",
        "KSJ2:STN": "土佐昭和",
        "name": "土佐昭和",
        "name:en": "Tosa-Shōwa",
        "name:ja": "土佐昭和",
        "name:ko": "도사쇼와",
        "note": "National-Land Numerical Information (Railway) 2007, MLIT Japan",
        "note:ja": "国土数値情報（鉄道データ）平成19年　国土交通省",
        "operator": "四国旅客鉄道",
        "railway": "station",
        "source": "KSJ2",
        "source_ref": "http://nlftp.mlit.go.jp/ksj/jpgis/datalist/KsjTmplt-N02-v1_1.html",
        "wikidata": "Q7827534",
        "wikipedia": "ja:土佐昭和駅"
      }
    },
    {
      "id": "kochi_station_265019964",
      "osmId": 265019964,
      "osmType": "node",
      "prefectureId": "kochi",
      "type": "station",
      "subtype": "private",
      "name": "宿毛",
      "nameKana": null,
      "nameEn": "Sukumo",
      "operator": "土佐くろしお鉄道",
      "network": null,
      "ref": "TK47",
      "latitude": 32.9325416,
      "longitude": 132.713119,
      "countryCode": "jp",
      "rawTags": {
        "KSJ2:LIN": "宿毛線",
        "KSJ2:STN": "宿毛",
        "name": "宿毛",
        "name:en": "Sukumo",
        "name:ja": "宿毛",
        "name:ko": "스쿠모",
        "note": "National-Land Numerical Information (Railway) 2007, MLIT Japan",
        "note:ja": "国土数値情報（鉄道データ）平成19年　国土交通省",
        "operator": "土佐くろしお鉄道",
        "public_transport": "station",
        "railway": "station",
        "ref": "TK47",
        "source": "KSJ2",
        "source_ref": "http://nlftp.mlit.go.jp/ksj/jpgis/datalist/KsjTmplt-N02-v1_1.html",
        "wikidata": "Q7635924",
        "wikipedia": "ja:宿毛駅"
      }
    },
    {
      "id": "kochi_station_265020404",
      "osmId": 265020404,
      "osmType": "node",
      "prefectureId": "kochi",
      "type": "station",
      "subtype": "private",
      "name": "唐浜",
      "nameKana": "とうのはま",
      "nameEn": "Tōnohama",
      "operator": null,
      "network": null,
      "ref": "GN24",
      "latitude": 33.4460634,
      "longitude": 133.9657079,
      "countryCode": "jp",
      "rawTags": {
        "KSJ2:LIN": "阿佐線",
        "KSJ2:STN": "唐浜",
        "name": "唐浜",
        "name:en": "Tōnohama",
        "name:ja": "唐浜",
        "name:ja-Hira": "とうのはま",
        "name:ko": "도노하마",
        "note": "National-Land Numerical Information (Railway) 2007, MLIT Japan",
        "note:ja": "国土数値情報（鉄道データ）平成19年　国土交通省",
        "public_transport": "station",
        "railway": "station",
        "ref": "GN24",
        "source": "KSJ2",
        "source_ref": "http://nlftp.mlit.go.jp/ksj/jpgis/datalist/KsjTmplt-N02-v1_1.html",
        "wikidata": "Q7862704",
        "wikipedia": "ja:唐浜駅"
      }
    },
    {
      "id": "kochi_station_265020421",
      "osmId": 265020421,
      "osmType": "node",
      "prefectureId": "kochi",
      "type": "station",
      "subtype": "private",
      "name": "奈半利",
      "nameKana": "なはり",
      "nameEn": "Nahari",
      "operator": null,
      "network": null,
      "ref": "GN21",
      "latitude": 33.4250589,
      "longitude": 134.0181116,
      "countryCode": "jp",
      "rawTags": {
        "KSJ2:LIN": "阿佐線",
        "KSJ2:STN": "奈半利",
        "name": "奈半利",
        "name:en": "Nahari",
        "name:ja": "奈半利",
        "name:ja-Hira": "なはり",
        "name:ko": "나하리",
        "note": "National-Land Numerical Information (Railway) 2007, MLIT Japan",
        "note:ja": "国土数値情報（鉄道データ）平成19年　国土交通省",
        "public_transport": "station",
        "railway": "station",
        "ref": "GN21",
        "source": "KSJ2",
        "source_ref": "http://nlftp.mlit.go.jp/ksj/jpgis/datalist/KsjTmplt-N02-v1_1.html",
        "train": "yes",
        "wikidata": "Q6959204",
        "wikipedia": "ja:奈半利駅"
      }
    },
    {
      "id": "kochi_station_265020423",
      "osmId": 265020423,
      "osmType": "node",
      "prefectureId": "kochi",
      "type": "station",
      "subtype": "private",
      "name": "安田",
      "nameKana": "やすだ",
      "nameEn": "Yasuda",
      "operator": null,
      "network": null,
      "ref": "GN23",
      "latitude": 33.4433864,
      "longitude": 133.9841267,
      "countryCode": "jp",
      "rawTags": {
        "KSJ2:LIN": "阿佐線",
        "KSJ2:STN": "安田",
        "name": "安田",
        "name:en": "Yasuda",
        "name:ja": "安田",
        "name:ja-Hira": "やすだ",
        "name:ko": "야스다",
        "note": "National-Land Numerical Information (Railway) 2007, MLIT Japan",
        "note:ja": "国土数値情報（鉄道データ）平成19年　国土交通省",
        "public_transport": "station",
        "railway": "station",
        "ref": "GN23",
        "source": "KSJ2",
        "source_ref": "http://nlftp.mlit.go.jp/ksj/jpgis/datalist/KsjTmplt-N02-v1_1.html",
        "wikidata": "Q8049946",
        "wikipedia": "ja:安田駅 (高知県)"
      }
    },
    {
      "id": "kochi_station_265020465",
      "osmId": 265020465,
      "osmType": "node",
      "prefectureId": "kochi",
      "type": "station",
      "subtype": "private",
      "name": "田野",
      "nameKana": "たの",
      "nameEn": "Tano",
      "operator": null,
      "network": null,
      "ref": "GN22",
      "latitude": 33.4302838,
      "longitude": 134.0081722,
      "countryCode": "jp",
      "rawTags": {
        "KSJ2:LIN": "阿佐線",
        "KSJ2:STN": "田野",
        "name": "田野",
        "name:en": "Tano",
        "name:ja": "田野",
        "name:ja-Hira": "たの",
        "name:ko": "다노",
        "note": "National-Land Numerical Information (Railway) 2007, MLIT Japan",
        "note:ja": "国土数値情報（鉄道データ）平成19年　国土交通省",
        "railway": "station",
        "ref": "GN22",
        "source": "KSJ2",
        "source_ref": "http://nlftp.mlit.go.jp/ksj/jpgis/datalist/KsjTmplt-N02-v1_1.html",
        "wikidata": "Q7683718",
        "wikipedia": "ja:田野駅 (高知県)"
      }
    },
    {
      "id": "kochi_station_265020572",
      "osmId": 265020572,
      "osmType": "node",
      "prefectureId": "kochi",
      "type": "station",
      "subtype": "private",
      "name": "夜須",
      "nameKana": null,
      "nameEn": "Yasu",
      "operator": null,
      "network": null,
      "ref": "GN33",
      "latitude": 33.5344491,
      "longitude": 133.7542596,
      "countryCode": "jp",
      "rawTags": {
        "KSJ2:LIN": "阿佐線",
        "KSJ2:STN": "夜須",
        "name": "夜須",
        "name:en": "Yasu",
        "name:ja": "夜須",
        "name:ko": "야스",
        "note": "National-Land Numerical Information (Railway) 2007, MLIT Japan",
        "note:ja": "国土数値情報（鉄道データ）平成19年　国土交通省",
        "railway": "station",
        "ref": "GN33",
        "source": "KSJ2",
        "source_ref": "http://nlftp.mlit.go.jp/ksj/jpgis/datalist/KsjTmplt-N02-v1_1.html",
        "wikidata": "Q8049937",
        "wikipedia": "ja:夜須駅"
      }
    },
    {
      "id": "kochi_station_265020573",
      "osmId": 265020573,
      "osmType": "node",
      "prefectureId": "kochi",
      "type": "station",
      "subtype": "private",
      "name": "穴内",
      "nameKana": "あなない",
      "nameEn": "Ananai",
      "operator": null,
      "network": null,
      "ref": "GN29",
      "latitude": 33.5061809,
      "longitude": 133.8639131,
      "countryCode": "jp",
      "rawTags": {
        "KSJ2:LIN": "阿佐線",
        "KSJ2:STN": "穴内",
        "name": "穴内",
        "name:en": "Ananai",
        "name:ja": "穴内",
        "name:ja-Hira": "あなない",
        "name:ko": "아나나이",
        "note": "National-Land Numerical Information (Railway) 2007, MLIT Japan",
        "note:ja": "国土数値情報（鉄道データ）平成19年　国土交通省",
        "public_transport": "station",
        "railway": "station",
        "ref": "GN29",
        "source": "KSJ2",
        "source_ref": "http://nlftp.mlit.go.jp/ksj/jpgis/datalist/KsjTmplt-N02-v1_1.html",
        "wikidata": "Q4751220",
        "wikipedia": "ja:穴内駅"
      }
    },
    {
      "id": "kochi_station_265020583",
      "osmId": 265020583,
      "osmType": "node",
      "prefectureId": "kochi",
      "type": "station",
      "subtype": "private",
      "name": "立田",
      "nameKana": "たてだ",
      "nameEn": "Tateda",
      "operator": null,
      "network": null,
      "ref": "GN38",
      "latitude": 33.5707451,
      "longitude": 133.6705406,
      "countryCode": "jp",
      "rawTags": {
        "KSJ2:LIN": "阿佐線",
        "KSJ2:STN": "立田",
        "name": "立田",
        "name:en": "Tateda",
        "name:ja": "立田",
        "name:ja-Hira": "たてだ",
        "name:ko": "다테다",
        "note": "National-Land Numerical Information (Railway) 2007, MLIT Japan",
        "note:ja": "国土数値情報（鉄道データ）平成19年　国土交通省",
        "public_transport": "station",
        "railway": "station",
        "ref": "GN38",
        "source": "KSJ2",
        "source_ref": "http://nlftp.mlit.go.jp/ksj/jpgis/datalist/KsjTmplt-N02-v1_1.html",
        "wikidata": "Q7687988",
        "wikipedia": "ja:立田駅"
      }
    },
    {
      "id": "kochi_station_265020708",
      "osmId": 265020708,
      "osmType": "node",
      "prefectureId": "kochi",
      "type": "station",
      "subtype": "private",
      "name": "安芸",
      "nameKana": "あき",
      "nameEn": "Aki",
      "operator": null,
      "network": null,
      "ref": "GN27",
      "latitude": 33.5046582,
      "longitude": 133.9064534,
      "countryCode": "jp",
      "rawTags": {
        "KSJ2:LIN": "阿佐線",
        "KSJ2:STN": "安芸",
        "name": "安芸",
        "name:en": "Aki",
        "name:ja": "安芸",
        "name:ja-Hira": "あき",
        "name:ko": "아키",
        "note": "National-Land Numerical Information (Railway) 2007, MLIT Japan",
        "note:ja": "国土数値情報（鉄道データ）平成19年　国土交通省",
        "railway": "station",
        "ref": "GN27",
        "source": "KSJ2",
        "source_ref": "http://nlftp.mlit.go.jp/ksj/jpgis/datalist/KsjTmplt-N02-v1_1.html",
        "wikidata": "Q4700860",
        "wikipedia": "ja:安芸駅"
      }
    },
    {
      "id": "kochi_station_265020711",
      "osmId": 265020711,
      "osmType": "node",
      "prefectureId": "kochi",
      "type": "station",
      "subtype": "private",
      "name": "和食",
      "nameKana": "わじき",
      "nameEn": "Wajiki",
      "operator": null,
      "network": null,
      "ref": "GN31",
      "latitude": 33.5178986,
      "longitude": 133.8092126,
      "countryCode": "jp",
      "rawTags": {
        "KSJ2:LIN": "阿佐線",
        "KSJ2:STN": "和食",
        "name": "和食",
        "name:en": "Wajiki",
        "name:ja": "和食",
        "name:ja-Hira": "わじき",
        "name:ko": "와지키",
        "note": "National-Land Numerical Information (Railway) 2007, MLIT Japan",
        "note:ja": "国土数値情報（鉄道データ）平成19年　国土交通省",
        "railway": "station",
        "ref": "GN31",
        "source": "KSJ2",
        "source_ref": "http://nlftp.mlit.go.jp/ksj/jpgis/datalist/KsjTmplt-N02-v1_1.html",
        "wikidata": "Q7960713",
        "wikipedia": "ja:和食駅"
      }
    },
    {
      "id": "kochi_station_265020714",
      "osmId": 265020714,
      "osmType": "node",
      "prefectureId": "kochi",
      "type": "station",
      "subtype": "private",
      "name": "後免町",
      "nameKana": null,
      "nameEn": "Gomenmachi",
      "operator": null,
      "network": null,
      "ref": "GN39",
      "latitude": 33.5745988,
      "longitude": 133.6514074,
      "countryCode": "jp",
      "rawTags": {
        "KSJ2:LIN": "阿佐線",
        "KSJ2:STN": "後免町",
        "name": "後免町",
        "name:en": "Gomenmachi",
        "name:ja": "後免町",
        "name:ko": "고멘마치",
        "note": "National-Land Numerical Information (Railway) 2007, MLIT Japan",
        "note:ja": "国土数値情報（鉄道データ）平成19年　国土交通省",
        "railway": "station",
        "ref": "GN39",
        "source": "KSJ2",
        "source_ref": "http://nlftp.mlit.go.jp/ksj/jpgis/datalist/KsjTmplt-N02-v1_1.html",
        "wikidata": "Q5581162",
        "wikipedia": "ja:後免町駅"
      }
    },
    {
      "id": "kochi_station_265020809",
      "osmId": 265020809,
      "osmType": "node",
      "prefectureId": "kochi",
      "type": "station",
      "subtype": "private",
      "name": "赤野",
      "nameKana": "あかの",
      "nameEn": "Akano",
      "operator": null,
      "network": null,
      "ref": "GN30",
      "latitude": 33.5160147,
      "longitude": 133.825034,
      "countryCode": "jp",
      "rawTags": {
        "KSJ2:LIN": "阿佐線",
        "KSJ2:STN": "赤野",
        "name": "赤野",
        "name:en": "Akano",
        "name:ja": "赤野",
        "name:ja-Hira": "あかの",
        "name:ko": "아카노",
        "note": "National-Land Numerical Information (Railway) 2007, MLIT Japan",
        "note:ja": "国土数値情報（鉄道データ）平成19年　国土交通省",
        "railway": "station",
        "ref": "GN30",
        "source": "KSJ2",
        "source_ref": "http://nlftp.mlit.go.jp/ksj/jpgis/datalist/KsjTmplt-N02-v1_1.html",
        "wikidata": "Q4700269",
        "wikipedia": "ja:赤野駅"
      }
    },
    {
      "id": "kochi_station_265020811",
      "osmId": 265020811,
      "osmType": "node",
      "prefectureId": "kochi",
      "type": "station",
      "subtype": "private",
      "name": "西分",
      "nameKana": "にしぶん",
      "nameEn": "Nishibun",
      "operator": null,
      "network": null,
      "ref": "GN32",
      "latitude": 33.5177184,
      "longitude": 133.790302,
      "countryCode": "jp",
      "rawTags": {
        "KSJ2:LIN": "阿佐線",
        "KSJ2:STN": "西分",
        "name": "西分",
        "name:en": "Nishibun",
        "name:ja": "西分",
        "name:ja-Hira": "にしぶん",
        "name:ko": "니시분",
        "note": "National-Land Numerical Information (Railway) 2007, MLIT Japan",
        "note:ja": "国土数値情報（鉄道データ）平成19年　国土交通省",
        "railway": "station",
        "ref": "GN32",
        "source": "KSJ2",
        "source_ref": "http://nlftp.mlit.go.jp/ksj/jpgis/datalist/KsjTmplt-N02-v1_1.html",
        "wikidata": "Q7040523",
        "wikipedia": "ja:西分駅"
      }
    },
    {
      "id": "kochi_station_265020826",
      "osmId": 265020826,
      "osmType": "node",
      "prefectureId": "kochi",
      "type": "station",
      "subtype": "private",
      "name": "伊尾木",
      "nameKana": "いおき",
      "nameEn": "Ioki",
      "operator": null,
      "network": null,
      "ref": "GN26",
      "latitude": 33.4909458,
      "longitude": 133.929092,
      "countryCode": "jp",
      "rawTags": {
        "KSJ2:LIN": "阿佐線",
        "KSJ2:STN": "伊尾木",
        "name": "伊尾木",
        "name:en": "Ioki",
        "name:ja": "伊尾木",
        "name:ja-Hira": "いおき",
        "name:ko": "이오키",
        "note": "National-Land Numerical Information (Railway) 2007, MLIT Japan",
        "note:ja": "国土数値情報（鉄道データ）平成19年　国土交通省",
        "public_transport": "station",
        "railway": "station",
        "ref": "GN26",
        "source": "KSJ2",
        "source_ref": "http://nlftp.mlit.go.jp/ksj/jpgis/datalist/KsjTmplt-N02-v1_1.html",
        "wikidata": "Q6062387",
        "wikipedia": "ja:伊尾木駅"
      }
    },
    {
      "id": "kochi_station_265020971",
      "osmId": 265020971,
      "osmType": "node",
      "prefectureId": "kochi",
      "type": "station",
      "subtype": "private",
      "name": "球場前",
      "nameKana": "きゅうじょうまえ",
      "nameEn": "Kyūjōmae",
      "operator": null,
      "network": null,
      "ref": "GN28",
      "latitude": 33.5026276,
      "longitude": 133.8912761,
      "countryCode": "jp",
      "rawTags": {
        "KSJ2:LIN": "阿佐線",
        "KSJ2:STN": "球場前",
        "alt_name:ko": "규조마에",
        "name": "球場前",
        "name:en": "Kyūjōmae",
        "name:ja": "球場前",
        "name:ja-Hira": "きゅうじょうまえ",
        "name:ko": "구장앞",
        "note": "National-Land Numerical Information (Railway) 2007, MLIT Japan",
        "note:ja": "国土数値情報（鉄道データ）平成19年　国土交通省",
        "public_transport": "station",
        "railway": "station",
        "ref": "GN28",
        "source": "KSJ2",
        "source_ref": "http://nlftp.mlit.go.jp/ksj/jpgis/datalist/KsjTmplt-N02-v1_1.html",
        "wikidata": "Q389571",
        "wikipedia": "ja:球場前駅 (高知県)"
      }
    },
    {
      "id": "kochi_station_265021149",
      "osmId": 265021149,
      "osmType": "node",
      "prefectureId": "kochi",
      "type": "station",
      "subtype": "private",
      "name": "のいち",
      "nameKana": null,
      "nameEn": "Noichi",
      "operator": null,
      "network": null,
      "ref": "GN37",
      "latitude": 33.5619089,
      "longitude": 133.6979873,
      "countryCode": "jp",
      "rawTags": {
        "KSJ2:LIN": "阿佐線",
        "KSJ2:STN": "のいち",
        "name": "のいち",
        "name:en": "Noichi",
        "name:ja": "のいち",
        "name:ko": "노이치",
        "note": "National-Land Numerical Information (Railway) 2007, MLIT Japan",
        "note:ja": "国土数値情報（鉄道データ）平成19年　国土交通省",
        "public_transport": "station",
        "railway": "station",
        "ref": "GN37",
        "source": "KSJ2",
        "source_ref": "http://nlftp.mlit.go.jp/ksj/jpgis/datalist/KsjTmplt-N02-v1_1.html",
        "wikidata": "Q7047593",
        "wikipedia": "ja:のいち駅"
      }
    },
    {
      "id": "kochi_station_265021209",
      "osmId": 265021209,
      "osmType": "node",
      "prefectureId": "kochi",
      "type": "station",
      "subtype": "private",
      "name": "下山",
      "nameKana": "しもやま",
      "nameEn": "Shimoyama",
      "operator": null,
      "network": null,
      "ref": "GN25",
      "latitude": 33.4582931,
      "longitude": 133.9481018,
      "countryCode": "jp",
      "rawTags": {
        "KSJ2:LIN": "阿佐線",
        "KSJ2:STN": "下山",
        "name": "下山",
        "name:en": "Shimoyama",
        "name:ja": "下山",
        "name:ja-Hira": "しもやま",
        "name:ko": "시모야마",
        "note": "National-Land Numerical Information (Railway) 2007, MLIT Japan",
        "note:ja": "国土数値情報（鉄道データ）平成19年　国土交通省",
        "public_transport": "station",
        "railway": "station",
        "ref": "GN25",
        "source": "KSJ2",
        "source_ref": "http://nlftp.mlit.go.jp/ksj/jpgis/datalist/KsjTmplt-N02-v1_1.html",
        "wikidata": "Q7497024",
        "wikipedia": "ja:下山駅 (高知県)"
      }
    },
    {
      "id": "kochi_station_265021250",
      "osmId": 265021250,
      "osmType": "node",
      "prefectureId": "kochi",
      "type": "station",
      "subtype": "private",
      "name": "あかおか",
      "nameKana": null,
      "nameEn": "Akaoka",
      "operator": null,
      "network": null,
      "ref": "GN35",
      "latitude": 33.5398659,
      "longitude": 133.7221029,
      "countryCode": "jp",
      "rawTags": {
        "KSJ2:LIN": "阿佐線",
        "KSJ2:STN": "あかおか",
        "name": "あかおか",
        "name:en": "Akaoka",
        "name:ja": "あかおか",
        "name:ko": "아카오카",
        "note": "National-Land Numerical Information (Railway) 2007, MLIT Japan",
        "note:ja": "国土数値情報（鉄道データ）平成19年　国土交通省",
        "railway": "station",
        "ref": "GN35",
        "source": "KSJ2",
        "source_ref": "http://nlftp.mlit.go.jp/ksj/jpgis/datalist/KsjTmplt-N02-v1_1.html",
        "wikidata": "Q4700280",
        "wikipedia": "ja:あかおか駅"
      }
    },
    {
      "id": "kochi_station_265021294",
      "osmId": 265021294,
      "osmType": "node",
      "prefectureId": "kochi",
      "type": "station",
      "subtype": "private",
      "name": "よしかわ",
      "nameKana": null,
      "nameEn": "Yoshikawa",
      "operator": null,
      "network": null,
      "ref": "GN36",
      "latitude": 33.5461153,
      "longitude": 133.7101274,
      "countryCode": "jp",
      "rawTags": {
        "KSJ2:LIN": "阿佐線",
        "KSJ2:STN": "よしかわ",
        "name": "よしかわ",
        "name:en": "Yoshikawa",
        "name:ja": "よしかわ",
        "name:ko": "요시카와",
        "note": "National-Land Numerical Information (Railway) 2007, MLIT Japan",
        "note:ja": "国土数値情報（鉄道データ）平成19年　国土交通省",
        "railway": "station",
        "ref": "GN36",
        "source": "KSJ2",
        "source_ref": "http://nlftp.mlit.go.jp/ksj/jpgis/datalist/KsjTmplt-N02-v1_1.html",
        "wikidata": "Q8056109",
        "wikipedia": "ja:よしかわ駅"
      }
    },
    {
      "id": "kochi_station_265021295",
      "osmId": 265021295,
      "osmType": "node",
      "prefectureId": "kochi",
      "type": "station",
      "subtype": "private",
      "name": "香我美",
      "nameKana": null,
      "nameEn": "Kagami",
      "operator": null,
      "network": null,
      "ref": "GN34",
      "latitude": 33.5393136,
      "longitude": 133.7374319,
      "countryCode": "jp",
      "rawTags": {
        "KSJ2:LIN": "阿佐線",
        "KSJ2:STN": "香我美",
        "name": "香我美",
        "name:en": "Kagami",
        "name:ja": "香我美",
        "name:ko": "가가미",
        "note": "National-Land Numerical Information (Railway) 2007, MLIT Japan",
        "note:ja": "国土数値情報（鉄道データ）平成19年　国土交通省",
        "railway": "station",
        "ref": "GN34",
        "source": "KSJ2",
        "source_ref": "http://nlftp.mlit.go.jp/ksj/jpgis/datalist/KsjTmplt-N02-v1_1.html",
        "wikidata": "Q6346344",
        "wikipedia": "ja:香我美駅"
      }
    },
    {
      "id": "kochi_bus_terminal_599799648",
      "osmId": 599799648,
      "osmType": "node",
      "prefectureId": "kochi",
      "type": "bus_terminal",
      "subtype": null,
      "name": "高知駅バスターミナル",
      "nameKana": null,
      "nameEn": "Kōchi Station Bus Terminal",
      "operator": null,
      "network": null,
      "ref": null,
      "latitude": 33.5675624,
      "longitude": 133.544397,
      "countryCode": "jp",
      "rawTags": {
        "amenity": "bus_station",
        "bus": "yes",
        "name": "高知駅バスターミナル",
        "name:en": "Kōchi Station Bus Terminal",
        "public_transport": "station"
      }
    },
    {
      "id": "kochi_ferry_terminal_1441655209",
      "osmId": 1441655209,
      "osmType": "node",
      "prefectureId": "kochi",
      "type": "ferry_terminal",
      "subtype": null,
      "name": "須ノ浦",
      "nameKana": "すのうら",
      "nameEn": null,
      "operator": null,
      "network": null,
      "ref": null,
      "latitude": 33.4181272,
      "longitude": 133.3801379,
      "countryCode": "jp",
      "rawTags": {
        "amenity": "ferry_terminal",
        "name": "須ノ浦",
        "name:ja_kana": "すのうら"
      }
    },
    {
      "id": "kochi_station_3915866253",
      "osmId": 3915866253,
      "osmType": "node",
      "prefectureId": "kochi",
      "type": "station",
      "subtype": "private",
      "name": "佐川",
      "nameKana": null,
      "nameEn": "Sakawa",
      "operator": null,
      "network": null,
      "ref": "K13",
      "latitude": 33.5001983,
      "longitude": 133.2925174,
      "countryCode": "jp",
      "rawTags": {
        "KSJ2:STN": "佐川",
        "name": "佐川",
        "name:en": "Sakawa",
        "name:ja": "佐川",
        "name:ko": "사카와",
        "public_transport": "station",
        "railway": "station",
        "ref": "K13",
        "source": "GSImaps/ort",
        "wikidata": "Q7402876",
        "wikipedia": "ja:佐川駅"
      }
    },
    {
      "id": "kochi_station_3915866254",
      "osmId": 3915866254,
      "osmType": "node",
      "prefectureId": "kochi",
      "type": "station",
      "subtype": "jr",
      "name": "西佐川",
      "nameKana": null,
      "nameEn": "Nishi-Sakawa",
      "operator": "四国旅客鉄道",
      "network": null,
      "ref": "K12",
      "latitude": 33.5126227,
      "longitude": 133.2867657,
      "countryCode": "jp",
      "rawTags": {
        "KSJ2:LIN": "土讃線",
        "KSJ2:STN": "西佐川",
        "name": "西佐川",
        "name:en": "Nishi-Sakawa",
        "name:ja": "西佐川",
        "name:ko": "니시사카와",
        "operator": "四国旅客鉄道",
        "public_transport": "station",
        "railway": "station",
        "ref": "K12",
        "source": "GSImaps/ort",
        "wikidata": "Q7040397",
        "wikipedia": "ja:西佐川駅"
      }
    },
    {
      "id": "kochi_ferry_terminal_3928406903",
      "osmId": 3928406903,
      "osmType": "node",
      "prefectureId": "kochi",
      "type": "ferry_terminal",
      "subtype": null,
      "name": "宿毛定期船乗場(沖の島鵜来島)",
      "nameKana": null,
      "nameEn": null,
      "operator": null,
      "network": null,
      "ref": null,
      "latitude": 32.9206771,
      "longitude": 132.6976262,
      "countryCode": "jp",
      "rawTags": {
        "amenity": "ferry_terminal",
        "ferry": "yes",
        "name": "宿毛定期船乗場(沖の島鵜来島)",
        "public_transport": "station"
      }
    },
    {
      "id": "kochi_ferry_terminal_3928430403",
      "osmId": 3928430403,
      "osmType": "node",
      "prefectureId": "kochi",
      "type": "ferry_terminal",
      "subtype": null,
      "name": "宿毛フェリー 宿毛港",
      "nameKana": null,
      "nameEn": null,
      "operator": null,
      "network": null,
      "ref": null,
      "latitude": 32.9211613,
      "longitude": 132.6966074,
      "countryCode": "jp",
      "rawTags": {
        "amenity": "ferry_terminal",
        "ferry": "yes",
        "name": "宿毛フェリー 宿毛港",
        "public_transport": "station"
      }
    },
    {
      "id": "kochi_ferry_terminal_3957029079",
      "osmId": 3957029079,
      "osmType": "node",
      "prefectureId": "kochi",
      "type": "ferry_terminal",
      "subtype": null,
      "name": "坂内",
      "nameKana": "さかうち",
      "nameEn": null,
      "operator": null,
      "network": null,
      "ref": null,
      "latitude": 33.4087494,
      "longitude": 133.3594562,
      "countryCode": "jp",
      "rawTags": {
        "amenity": "ferry_terminal",
        "ferry": "yes",
        "name": "坂内",
        "name:ja_kana": "さかうち",
        "public_transport": "station"
      }
    },
    {
      "id": "kochi_ferry_terminal_3957029799",
      "osmId": 3957029799,
      "osmType": "node",
      "prefectureId": "kochi",
      "type": "ferry_terminal",
      "subtype": null,
      "name": "下中山",
      "nameKana": "しもなかやま",
      "nameEn": null,
      "operator": null,
      "network": null,
      "ref": null,
      "latitude": 33.4338279,
      "longitude": 133.4226532,
      "countryCode": "jp",
      "rawTags": {
        "amenity": "ferry_terminal",
        "name": "下中山",
        "name:ja_kana": "しもなかやま"
      }
    },
    {
      "id": "kochi_ferry_terminal_3957029802",
      "osmId": 3957029802,
      "osmType": "node",
      "prefectureId": "kochi",
      "type": "ferry_terminal",
      "subtype": null,
      "name": "今川内",
      "nameKana": "こんがうち",
      "nameEn": null,
      "operator": null,
      "network": null,
      "ref": null,
      "latitude": 33.4259854,
      "longitude": 133.4086118,
      "countryCode": "jp",
      "rawTags": {
        "amenity": "ferry_terminal",
        "name": "今川内",
        "name:ja_kana": "こんがうち"
      }
    },
    {
      "id": "kochi_ferry_terminal_3957029806",
      "osmId": 3957029806,
      "osmType": "node",
      "prefectureId": "kochi",
      "type": "ferry_terminal",
      "subtype": null,
      "name": "埋立",
      "nameKana": "うめたて",
      "nameEn": null,
      "operator": null,
      "network": null,
      "ref": null,
      "latitude": 33.437497,
      "longitude": 133.4300828,
      "countryCode": "jp",
      "rawTags": {
        "amenity": "ferry_terminal",
        "name": "埋立",
        "name:ja_kana": "うめたて"
      }
    },
    {
      "id": "kochi_ferry_terminal_3957029808",
      "osmId": 3957029808,
      "osmType": "node",
      "prefectureId": "kochi",
      "type": "ferry_terminal",
      "subtype": null,
      "name": "塩間",
      "nameKana": "しわい",
      "nameEn": null,
      "operator": null,
      "network": null,
      "ref": null,
      "latitude": 33.4473832,
      "longitude": 133.4054129,
      "countryCode": "jp",
      "rawTags": {
        "amenity": "ferry_terminal",
        "name": "塩間",
        "name:ja_kana": "しわい"
      }
    },
    {
      "id": "kochi_ferry_terminal_3957029816",
      "osmId": 3957029816,
      "osmType": "node",
      "prefectureId": "kochi",
      "type": "ferry_terminal",
      "subtype": null,
      "name": "松ヶ崎",
      "nameKana": "まつがさき",
      "nameEn": null,
      "operator": null,
      "network": null,
      "ref": null,
      "latitude": 33.4300798,
      "longitude": 133.4291181,
      "countryCode": "jp",
      "rawTags": {
        "amenity": "ferry_terminal",
        "name": "松ヶ崎",
        "name:ja_kana": "まつがさき"
      }
    },
    {
      "id": "kochi_ferry_terminal_3957029817",
      "osmId": 3957029817,
      "osmType": "node",
      "prefectureId": "kochi",
      "type": "ferry_terminal",
      "subtype": null,
      "name": "横浪",
      "nameKana": "よこなみ",
      "nameEn": null,
      "operator": null,
      "network": null,
      "ref": null,
      "latitude": 33.4282418,
      "longitude": 133.3651667,
      "countryCode": "jp",
      "rawTags": {
        "amenity": "ferry_terminal",
        "name": "横浪",
        "name:ja_kana": "よこなみ"
      }
    },
    {
      "id": "kochi_ferry_terminal_3957029820",
      "osmId": 3957029820,
      "osmType": "node",
      "prefectureId": "kochi",
      "type": "ferry_terminal",
      "subtype": null,
      "name": "深浦",
      "nameKana": "ふかうら",
      "nameEn": null,
      "operator": null,
      "network": null,
      "ref": null,
      "latitude": 33.4437447,
      "longitude": 133.4139381,
      "countryCode": "jp",
      "rawTags": {
        "amenity": "ferry_terminal",
        "name": "深浦",
        "name:ja_kana": "ふかうら"
      }
    },
    {
      "id": "kochi_ferry_terminal_3957029825",
      "osmId": 3957029825,
      "osmType": "node",
      "prefectureId": "kochi",
      "type": "ferry_terminal",
      "subtype": null,
      "name": "福良",
      "nameKana": "ふくら",
      "nameEn": null,
      "operator": null,
      "network": null,
      "ref": null,
      "latitude": 33.4177131,
      "longitude": 133.4035147,
      "countryCode": "jp",
      "rawTags": {
        "amenity": "ferry_terminal",
        "name": "福良",
        "name:ja_kana": "ふくら"
      }
    },
    {
      "id": "kochi_ferry_terminal_3957029838",
      "osmId": 3957029838,
      "osmType": "node",
      "prefectureId": "kochi",
      "type": "ferry_terminal",
      "subtype": null,
      "name": "長崎",
      "nameKana": "ながさき",
      "nameEn": null,
      "operator": null,
      "network": null,
      "ref": null,
      "latitude": 33.4342437,
      "longitude": 133.411043,
      "countryCode": "jp",
      "rawTags": {
        "amenity": "ferry_terminal",
        "name": "長崎",
        "name:ja_kana": "ながさき"
      }
    },
    {
      "id": "kochi_ferry_terminal_3957029839",
      "osmId": 3957029839,
      "osmType": "node",
      "prefectureId": "kochi",
      "type": "ferry_terminal",
      "subtype": null,
      "name": "鳴無",
      "nameKana": "おとなし",
      "nameEn": null,
      "operator": null,
      "network": null,
      "ref": null,
      "latitude": 33.4144069,
      "longitude": 133.3686472,
      "countryCode": "jp",
      "rawTags": {
        "amenity": "ferry_terminal",
        "name": "鳴無",
        "name:ja_kana": "おとなし"
      }
    },
    {
      "id": "kochi_ferry_terminal_3968917094",
      "osmId": 3968917094,
      "osmType": "node",
      "prefectureId": "kochi",
      "type": "ferry_terminal",
      "subtype": null,
      "name": "梶ヶ浦渡船場",
      "nameKana": null,
      "nameEn": null,
      "operator": null,
      "network": null,
      "ref": null,
      "latitude": 33.501383,
      "longitude": 133.5580152,
      "countryCode": "jp",
      "rawTags": {
        "amenity": "ferry_terminal",
        "name": "梶ヶ浦渡船場"
      }
    },
    {
      "id": "kochi_ferry_terminal_3968917095",
      "osmId": 3968917095,
      "osmType": "node",
      "prefectureId": "kochi",
      "type": "ferry_terminal",
      "subtype": null,
      "name": "種崎渡船場",
      "nameKana": null,
      "nameEn": null,
      "operator": null,
      "network": null,
      "ref": null,
      "latitude": 33.5043836,
      "longitude": 133.5630001,
      "countryCode": "jp",
      "rawTags": {
        "amenity": "ferry_terminal",
        "name": "種崎渡船場"
      }
    },
    {
      "id": "kochi_station_3976328248",
      "osmId": 3976328248,
      "osmType": "node",
      "prefectureId": "kochi",
      "type": "station",
      "subtype": "private",
      "name": "伊野",
      "nameKana": "いの",
      "nameEn": "Ino",
      "operator": null,
      "network": null,
      "ref": "K07",
      "latitude": 33.5474113,
      "longitude": 133.4304885,
      "countryCode": "jp",
      "rawTags": {
        "KSJ2:LIN": "土讃線",
        "KSJ2:STN": "伊野",
        "name": "伊野",
        "name:en": "Ino",
        "name:ja": "伊野",
        "name:ja-Hira": "いの",
        "name:ko": "이노",
        "public_transport": "station",
        "railway": "station",
        "ref": "K07",
        "source": "GSImaps/ort",
        "wikidata": "Q10885165",
        "wikipedia": "ja:伊野駅"
      }
    },
    {
      "id": "kochi_station_3976328251",
      "osmId": 3976328251,
      "osmType": "node",
      "prefectureId": "kochi",
      "type": "station",
      "subtype": "private",
      "name": "朝倉",
      "nameKana": "あさくら",
      "nameEn": "Asakura",
      "operator": null,
      "network": null,
      "ref": "K05",
      "latitude": 33.551573,
      "longitude": 133.4853416,
      "countryCode": "jp",
      "rawTags": {
        "KSJ2:LIN": "土讃線",
        "KSJ2:STN": "朝倉",
        "name": "朝倉",
        "name:en": "Asakura",
        "name:ja": "朝倉",
        "name:ja-Hira": "あさくら",
        "name:ko": "아사쿠라",
        "public_transport": "station",
        "railway": "station",
        "ref": "K05",
        "source": "GSImaps/ort",
        "wikidata": "Q4803441",
        "wikipedia": "ja:朝倉駅 (高知県)"
      }
    },
    {
      "id": "kochi_station_5151491154",
      "osmId": 5151491154,
      "osmType": "node",
      "prefectureId": "kochi",
      "type": "station",
      "subtype": "jr",
      "name": "江川崎",
      "nameKana": null,
      "nameEn": "Ekawasaki",
      "operator": "四国旅客鉄道",
      "network": "JR予土線",
      "ref": "G34",
      "latitude": 33.178334,
      "longitude": 132.7830794,
      "countryCode": "jp",
      "rawTags": {
        "KSJ2:LIN": "予土線",
        "KSJ2:STN": "江川崎",
        "name": "江川崎",
        "name:en": "Ekawasaki",
        "name:ja": "江川崎",
        "name:ko": "에카와사키",
        "network": "JR予土線",
        "note": "National-Land Numerical Information (Railway) 2007, MLIT Japan",
        "note:ja": "国土数値情報（鉄道データ）平成19年　国土交通省",
        "operator": "四国旅客鉄道",
        "public_transport": "station",
        "railway": "station",
        "ref": "G34",
        "source": "KSJ2",
        "source_ref": "http://nlftp.mlit.go.jp/ksj/jpgis/datalist/KsjTmplt-N02-v1_1.html",
        "wikidata": "Q5350363",
        "wikipedia": "ja:江川崎駅"
      }
    },
    {
      "id": "kochi_bus_terminal_5963332688",
      "osmId": 5963332688,
      "osmType": "node",
      "prefectureId": "kochi",
      "type": "bus_terminal",
      "subtype": null,
      "name": "とさでん交通一宮バスターミナル",
      "nameKana": null,
      "nameEn": null,
      "operator": "とさでん交通",
      "network": null,
      "ref": null,
      "latitude": 33.5813045,
      "longitude": 133.5661138,
      "countryCode": "jp",
      "rawTags": {
        "air_conditioning": "yes",
        "amenity": "bus_station",
        "bus": "yes",
        "highway": "bus_stop",
        "internet_access": "no",
        "name": "とさでん交通一宮バスターミナル",
        "operator": "とさでん交通",
        "public_transport": "station"
      }
    },
    {
      "id": "kochi_station_8383580472",
      "osmId": 8383580472,
      "osmType": "node",
      "prefectureId": "kochi",
      "type": "station",
      "subtype": "jr",
      "name": "土佐大正",
      "nameKana": null,
      "nameEn": "Tosa-Taishō",
      "operator": "四国旅客鉄道",
      "network": null,
      "ref": null,
      "latitude": 33.194622,
      "longitude": 132.9753774,
      "countryCode": "jp",
      "rawTags": {
        "KSJ2:LIN": "予土線",
        "KSJ2:STN": "土佐大正",
        "name": "土佐大正",
        "name:en": "Tosa-Taishō",
        "name:ja": "土佐大正",
        "name:ko": "도사타이쇼",
        "note": "National-Land Numerical Information (Railway) 2007, MLIT Japan",
        "note:ja": "国土数値情報（鉄道データ）平成19年　国土交通省",
        "operator": "四国旅客鉄道",
        "operator:ja": "四国旅客鉄道",
        "public_transport": "station",
        "railway": "station",
        "source": "KSJ2",
        "source_ref": "http://nlftp.mlit.go.jp/ksj/jpgis/datalist/KsjTmplt-N02-v1_1.html",
        "wikidata": "Q7827536",
        "wikipedia": "ja:土佐大正駅"
      }
    },
    {
      "id": "kochi_station_8383580473",
      "osmId": 8383580473,
      "osmType": "node",
      "prefectureId": "kochi",
      "type": "station",
      "subtype": "jr",
      "name": "打井川",
      "nameKana": null,
      "nameEn": "Utsuigawa",
      "operator": "四国旅客鉄道",
      "network": null,
      "ref": null,
      "latitude": 33.1755516,
      "longitude": 133.0294588,
      "countryCode": "jp",
      "rawTags": {
        "KSJ2:LIN": "予土線",
        "KSJ2:STN": "打井川",
        "name": "打井川",
        "name:en": "Utsuigawa",
        "name:ja": "打井川",
        "name:ko": "우쓰이가와",
        "note": "National-Land Numerical Information (Railway) 2007, MLIT Japan",
        "note:ja": "国土数値情報（鉄道データ）平成19年　国土交通省",
        "operator": "四国旅客鉄道",
        "public_transport": "station",
        "railway": "station",
        "source": "KSJ2",
        "source_ref": "http://nlftp.mlit.go.jp/ksj/jpgis/datalist/KsjTmplt-N02-v1_1.html",
        "wikidata": "Q7903274",
        "wikipedia": "ja:打井川駅"
      }
    },
    {
      "id": "kochi_station_8383580475",
      "osmId": 8383580475,
      "osmType": "node",
      "prefectureId": "kochi",
      "type": "station",
      "subtype": "jr",
      "name": "家地川",
      "nameKana": null,
      "nameEn": "Iejigawa",
      "operator": null,
      "network": "JR予土線",
      "ref": null,
      "latitude": 33.161476,
      "longitude": 133.074695,
      "countryCode": "jp",
      "rawTags": {
        "KSJ2:LIN": "予土線",
        "KSJ2:STN": "家地川",
        "name": "家地川",
        "name:en": "Iejigawa",
        "name:ja": "家地川",
        "name:ko": "이에지가와",
        "network": "JR予土線",
        "note": "National-Land Numerical Information (Railway) 2007, MLIT Japan",
        "note:ja": "国土数値情報（鉄道データ）平成19年　国土交通省",
        "public_transport": "station",
        "railway": "station",
        "source": "KSJ2",
        "source_ref": "http://nlftp.mlit.go.jp/ksj/jpgis/datalist/KsjTmplt-N02-v1_1.html",
        "wikidata": "Q5990007",
        "wikipedia": "ja:家地川駅"
      }
    },
    {
      "id": "kochi_station_8383580480",
      "osmId": 8383580480,
      "osmType": "node",
      "prefectureId": "kochi",
      "type": "station",
      "subtype": "jr",
      "name": "土佐北川",
      "nameKana": null,
      "nameEn": "Tosa-Kitagawa",
      "operator": "四国旅客鉄道",
      "network": null,
      "ref": "D33",
      "latitude": 33.714746,
      "longitude": 133.6862887,
      "countryCode": "jp",
      "rawTags": {
        "KSJ2:LIN": "土讃線",
        "KSJ2:STN": "土佐北川",
        "name": "土佐北川",
        "name:en": "Tosa-Kitagawa",
        "name:ja": "土佐北川",
        "name:ko": "도사키타가와",
        "note": "National-Land Numerical Information (Railway) 2007, MLIT Japan",
        "note:ja": "国土数値情報（鉄道データ）平成19年　国土交通省",
        "operator": "四国旅客鉄道",
        "public_transport": "station",
        "railway": "station",
        "ref": "D33",
        "source": "KSJ2",
        "source_ref": "http://nlftp.mlit.go.jp/ksj/jpgis/datalist/KsjTmplt-N02-v1_1.html",
        "wikidata": "Q900718",
        "wikipedia": "ja:土佐北川駅"
      }
    },
    {
      "id": "kochi_station_8383580481",
      "osmId": 8383580481,
      "osmType": "node",
      "prefectureId": "kochi",
      "type": "station",
      "subtype": "jr",
      "name": "角茂谷",
      "nameKana": null,
      "nameEn": "Kakumodani",
      "operator": "四国旅客鉄道",
      "network": null,
      "ref": "D34",
      "latitude": 33.6961327,
      "longitude": 133.6925438,
      "countryCode": "jp",
      "rawTags": {
        "KSJ2:LIN": "土讃線",
        "name": "角茂谷",
        "name:en": "Kakumodani",
        "note": "National-Land Numerical Information (Railway) 2007, MLIT Japan",
        "note:ja": "国土数値情報（鉄道データ）平成19年　国土交通省",
        "operator": "四国旅客鉄道",
        "public_transport": "station",
        "railway": "station",
        "ref": "D34",
        "source": "KSJ2",
        "source_ref": "http://nlftp.mlit.go.jp/ksj/jpgis/datalist/KsjTmplt-N02-v1_1.html",
        "wikidata": "Q901030",
        "wikipedia": "ja:角茂谷駅"
      }
    },
    {
      "id": "kochi_station_8383580482",
      "osmId": 8383580482,
      "osmType": "node",
      "prefectureId": "kochi",
      "type": "station",
      "subtype": "jr",
      "name": "繁藤",
      "nameKana": null,
      "nameEn": "Shigetō",
      "operator": "四国旅客鉄道",
      "network": null,
      "ref": "D35",
      "latitude": 33.6805103,
      "longitude": 133.6899233,
      "countryCode": "jp",
      "rawTags": {
        "KSJ2:LIN": "土讃線",
        "KSJ2:STN": "繁藤",
        "name": "繁藤",
        "name:en": "Shigetō",
        "name:ja": "繁藤",
        "name:ko": "시게토",
        "note": "National-Land Numerical Information (Railway) 2007, MLIT Japan",
        "note:ja": "国土数値情報（鉄道データ）平成19年　国土交通省",
        "operator": "四国旅客鉄道",
        "public_transport": "station",
        "railway": "station",
        "ref": "D35",
        "source": "KSJ2",
        "source_ref": "http://nlftp.mlit.go.jp/ksj/jpgis/datalist/KsjTmplt-N02-v1_1.html",
        "wikidata": "Q901424",
        "wikipedia": "ja:繁藤駅"
      }
    },
    {
      "id": "kochi_station_8383580483",
      "osmId": 8383580483,
      "osmType": "node",
      "prefectureId": "kochi",
      "type": "station",
      "subtype": "jr",
      "name": "新改",
      "nameKana": null,
      "nameEn": "Shingai",
      "operator": "四国旅客鉄道",
      "network": "JR土讃線",
      "ref": "D36",
      "latitude": 33.6495806,
      "longitude": 133.6956793,
      "countryCode": "jp",
      "rawTags": {
        "name": "新改",
        "name:en": "Shingai",
        "network": "JR土讃線",
        "operator": "四国旅客鉄道",
        "public_transport": "station",
        "railway": "station",
        "ref": "D36",
        "wikidata": "Q901037",
        "wikipedia": "ja:新改駅"
      }
    },
    {
      "id": "kochi_station_8383580484",
      "osmId": 8383580484,
      "osmType": "node",
      "prefectureId": "kochi",
      "type": "station",
      "subtype": "jr",
      "name": "山田西町",
      "nameKana": null,
      "nameEn": "Yamada-Nishimachi",
      "operator": "四国旅客鉄道",
      "network": null,
      "ref": "D38",
      "latitude": 33.6048084,
      "longitude": 133.6775127,
      "countryCode": "jp",
      "rawTags": {
        "KSJ2:LIN": "土讃線",
        "KSJ2:STN": "山田西町",
        "name": "山田西町",
        "name:en": "Yamada-Nishimachi",
        "name:ja": "山田西町",
        "name:ko": "야마다니시마치",
        "note": "National-Land Numerical Information (Railway) 2007, MLIT Japan",
        "note:ja": "国土数値情報（鉄道データ）平成19年　国土交通省",
        "operator": "四国旅客鉄道",
        "public_transport": "station",
        "railway": "station",
        "ref": "D38",
        "source": "KSJ2",
        "source_ref": "http://nlftp.mlit.go.jp/ksj/jpgis/datalist/KsjTmplt-N02-v1_1.html",
        "wikidata": "Q901061",
        "wikipedia": "ja:山田西町駅"
      }
    },
    {
      "id": "kochi_station_8383580485",
      "osmId": 8383580485,
      "osmType": "node",
      "prefectureId": "kochi",
      "type": "station",
      "subtype": "jr",
      "name": "土佐長岡",
      "nameKana": null,
      "nameEn": "Tosa-Nagaoka",
      "operator": "四国旅客鉄道",
      "network": null,
      "ref": "D39",
      "latitude": 33.591521,
      "longitude": 133.6619787,
      "countryCode": "jp",
      "rawTags": {
        "KSJ2:LIN": "土讃線",
        "KSJ2:STN": "土佐長岡",
        "name": "土佐長岡",
        "name:en": "Tosa-Nagaoka",
        "name:ja": "土佐長岡",
        "name:ko": "도사나가오카",
        "note": "National-Land Numerical Information (Railway) 2007, MLIT Japan",
        "note:ja": "国土数値情報（鉄道データ）平成19年　国土交通省",
        "operator": "四国旅客鉄道",
        "public_transport": "station",
        "railway": "station",
        "ref": "D39",
        "source": "KSJ2",
        "source_ref": "http://nlftp.mlit.go.jp/ksj/jpgis/datalist/KsjTmplt-N02-v1_1.html",
        "wikidata": "Q900975",
        "wikipedia": "ja:土佐長岡駅"
      }
    },
    {
      "id": "kochi_station_8383580486",
      "osmId": 8383580486,
      "osmType": "node",
      "prefectureId": "kochi",
      "type": "station",
      "subtype": "jr",
      "name": "土佐大津",
      "nameKana": null,
      "nameEn": "Tosa-Ōtsu",
      "operator": "四国旅客鉄道",
      "network": null,
      "ref": "D41",
      "latitude": 33.5765694,
      "longitude": 133.6116719,
      "countryCode": "jp",
      "rawTags": {
        "KSJ2:LIN": "土讃線",
        "KSJ2:STN": "土佐大津",
        "name": "土佐大津",
        "name:en": "Tosa-Ōtsu",
        "name:ja": "土佐大津",
        "name:ko": "도사오쓰",
        "operator": "四国旅客鉄道",
        "public_transport": "station",
        "railway": "station",
        "ref": "D41",
        "source": "KSJ2",
        "source_ref": "http://nlftp.mlit.go.jp/ksj/jpgis/datalist/KsjTmplt-N02-v1_1.html",
        "wheelchair": "limited",
        "wikidata": "Q901337",
        "wikipedia": "ja:土佐大津駅"
      }
    },
    {
      "id": "kochi_station_8383580487",
      "osmId": 8383580487,
      "osmType": "node",
      "prefectureId": "kochi",
      "type": "station",
      "subtype": "jr",
      "name": "布師田",
      "nameKana": "ぬのしだ",
      "nameEn": "Nunoshida",
      "operator": "四国旅客鉄道",
      "network": null,
      "ref": "D42",
      "latitude": 33.5757656,
      "longitude": 133.5902189,
      "countryCode": "jp",
      "rawTags": {
        "KSJ2:LIN": "土讃線",
        "KSJ2:STN": "布師田",
        "name": "布師田",
        "name:en": "Nunoshida",
        "name:ja": "布師田",
        "name:ja-Hira": "ぬのしだ",
        "name:ja-Latn": "Nunoshida",
        "name:ko": "누노시다",
        "operator": "四国旅客鉄道",
        "public_transport": "station",
        "railway": "station",
        "ref": "D42",
        "source": "KSJ2",
        "source_ref": "http://nlftp.mlit.go.jp/ksj/jpgis/datalist/KsjTmplt-N02-v1_1.html",
        "wikidata": "Q7069914",
        "wikipedia": "ja:布師田駅"
      }
    },
    {
      "id": "kochi_station_8383580488",
      "osmId": 8383580488,
      "osmType": "node",
      "prefectureId": "kochi",
      "type": "station",
      "subtype": "jr",
      "name": "土佐一宮",
      "nameKana": null,
      "nameEn": "Tosa-Ikku",
      "operator": "四国旅客鉄道",
      "network": null,
      "ref": "D43",
      "latitude": 33.5791745,
      "longitude": 133.5769433,
      "countryCode": "jp",
      "rawTags": {
        "KSJ2:LIN": "土讃線",
        "KSJ2:STN": "土佐一宮",
        "name": "土佐一宮",
        "name:en": "Tosa-Ikku",
        "name:ja": "土佐一宮",
        "name:ko": "도사잇쿠",
        "operator": "四国旅客鉄道",
        "public_transport": "station",
        "railway": "station",
        "ref": "D43",
        "source": "KSJ2",
        "source_ref": "http://nlftp.mlit.go.jp/ksj/jpgis/datalist/KsjTmplt-N02-v1_1.html",
        "wikidata": "Q7827524",
        "wikipedia": "ja:土佐一宮駅"
      }
    },
    {
      "id": "kochi_station_8383580489",
      "osmId": 8383580489,
      "osmType": "node",
      "prefectureId": "kochi",
      "type": "station",
      "subtype": "jr",
      "name": "薊野",
      "nameKana": null,
      "nameEn": "Azōno",
      "operator": "四国旅客鉄道",
      "network": null,
      "ref": "D44",
      "latitude": 33.5785352,
      "longitude": 133.5606697,
      "countryCode": "jp",
      "rawTags": {
        "KSJ2:LIN": "土讃線",
        "KSJ2:STN": "薊野",
        "name": "薊野",
        "name:en": "Azōno",
        "name:ja": "薊野",
        "name:ko": "아조노",
        "operator": "四国旅客鉄道",
        "public_transport": "station",
        "railway": "station",
        "ref": "D44",
        "source": "KSJ2",
        "source_ref": "http://nlftp.mlit.go.jp/ksj/jpgis/datalist/KsjTmplt-N02-v1_1.html",
        "wikidata": "Q4833213",
        "wikipedia": "ja:薊野駅"
      }
    },
    {
      "id": "kochi_station_8383580490",
      "osmId": 8383580490,
      "osmType": "node",
      "prefectureId": "kochi",
      "type": "station",
      "subtype": "jr",
      "name": "入明",
      "nameKana": null,
      "nameEn": "Iriake",
      "operator": "四国旅客鉄道",
      "network": null,
      "ref": "K01",
      "latitude": 33.567223,
      "longitude": 133.5300985,
      "countryCode": "jp",
      "rawTags": {
        "KSJ2:LIN": "土讃線",
        "KSJ2:STN": "入明",
        "name": "入明",
        "name:en": "Iriake",
        "name:ja": "入明",
        "name:ko": "이리아케",
        "operator": "四国旅客鉄道",
        "public_transport": "station",
        "railway": "station",
        "ref": "K01",
        "source": "KSJ2",
        "source_ref": "http://nlftp.mlit.go.jp/ksj/jpgis/datalist/KsjTmplt-N02-v1_1.html",
        "wikidata": "Q6069531",
        "wikipedia": "ja:入明駅"
      }
    },
    {
      "id": "kochi_station_8383580491",
      "osmId": 8383580491,
      "osmType": "node",
      "prefectureId": "kochi",
      "type": "station",
      "subtype": "jr",
      "name": "円行寺口",
      "nameKana": "えんぎょうじぐち",
      "nameEn": "Engyōjiguchi",
      "operator": "四国旅客鉄道",
      "network": null,
      "ref": "K02",
      "latitude": 33.5657913,
      "longitude": 133.5208742,
      "countryCode": "jp",
      "rawTags": {
        "KSJ2:LIN": "土讃線",
        "KSJ2:STN": "円行寺口",
        "name": "円行寺口",
        "name:en": "Engyōjiguchi",
        "name:ja": "円行寺口",
        "name:ja-Hira": "えんぎょうじぐち",
        "name:ko": "엔교지구치",
        "operator": "四国旅客鉄道",
        "public_transport": "station",
        "railway": "station",
        "ref": "K02",
        "source": "Bing",
        "source_ref": "http://nlftp.mlit.go.jp/ksj/jpgis/datalist/KsjTmplt-N02-v1_1.html",
        "wikidata": "Q5378763",
        "wikipedia": "ja:円行寺口駅"
      }
    },
    {
      "id": "kochi_station_8383580492",
      "osmId": 8383580492,
      "osmType": "node",
      "prefectureId": "kochi",
      "type": "station",
      "subtype": "jr",
      "name": "旭",
      "nameKana": "あさひ",
      "nameEn": "Asahi",
      "operator": "四国旅客鉄道",
      "network": null,
      "ref": "K03",
      "latitude": 33.5588048,
      "longitude": 133.5085872,
      "countryCode": "jp",
      "rawTags": {
        "name": "旭",
        "name:en": "Asahi",
        "name:ja-Hira": "あさひ",
        "operator": "四国旅客鉄道",
        "public_transport": "station",
        "railway": "station",
        "ref": "K03",
        "wikidata": "Q4803372",
        "wikipedia": "ja:旭駅 (高知県)"
      }
    },
    {
      "id": "kochi_station_8383580493",
      "osmId": 8383580493,
      "osmType": "node",
      "prefectureId": "kochi",
      "type": "station",
      "subtype": "jr",
      "name": "高知商業前",
      "nameKana": null,
      "nameEn": "Kōchi-Shōgyō-Mae",
      "operator": "四国旅客鉄道",
      "network": null,
      "ref": "K04",
      "latitude": 33.5584007,
      "longitude": 133.49723,
      "countryCode": "jp",
      "rawTags": {
        "KSJ2:LIN": "土讃線",
        "KSJ2:STN": "高知商業前",
        "name": "高知商業前",
        "name:en": "Kōchi-Shōgyō-Mae",
        "name:ja": "高知商業前",
        "name:ko": "고치쇼교마에",
        "operator": "四国旅客鉄道",
        "public_transport": "station",
        "railway": "station",
        "ref": "K04",
        "source": "KSJ2",
        "source_ref": "http://nlftp.mlit.go.jp/ksj/jpgis/datalist/KsjTmplt-N02-v1_1.html",
        "wikidata": "Q6455082",
        "wikipedia": "ja:高知商業前駅"
      }
    },
    {
      "id": "kochi_station_8383580495",
      "osmId": 8383580495,
      "osmType": "node",
      "prefectureId": "kochi",
      "type": "station",
      "subtype": "jr",
      "name": "枝川",
      "nameKana": null,
      "nameEn": "Edagawa",
      "operator": "四国旅客鉄道",
      "network": null,
      "ref": "K06",
      "latitude": 33.5507288,
      "longitude": 133.4484069,
      "countryCode": "jp",
      "rawTags": {
        "KSJ2:LIN": "土讃線",
        "KSJ2:STN": "枝川",
        "bus": "no",
        "ferry": "no",
        "internet_access": "no",
        "level": "0",
        "light_rail": "no",
        "monorail": "no",
        "name": "枝川",
        "name:en": "Edagawa",
        "name:ja": "枝川",
        "name:ko": "에다가와",
        "operator": "四国旅客鉄道",
        "public_transport": "station",
        "railway": "station",
        "ref": "K06",
        "source": "GSImaps/ort",
        "subway": "no",
        "train": "yes",
        "tram": "no",
        "trolleybus": "no",
        "wheelchair": "yes",
        "wikidata": "Q5335654",
        "wikipedia": "ja:枝川駅"
      }
    },
    {
      "id": "kochi_station_8383580496",
      "osmId": 8383580496,
      "osmType": "node",
      "prefectureId": "kochi",
      "type": "station",
      "subtype": "jr",
      "name": "波川",
      "nameKana": null,
      "nameEn": "Hakawa",
      "operator": "四国旅客鉄道",
      "network": null,
      "ref": "K08",
      "latitude": 33.5437062,
      "longitude": 133.414215,
      "countryCode": "jp",
      "rawTags": {
        "KSJ2:LIN": "土讃線",
        "KSJ2:STN": "波川",
        "name": "波川",
        "name:en": "Hakawa",
        "name:ja": "波川",
        "name:ko": "하카와",
        "operator": "四国旅客鉄道",
        "public_transport": "station",
        "railway": "station",
        "ref": "K08",
        "source": "KSJ2",
        "source_ref": "http://nlftp.mlit.go.jp/ksj/jpgis/datalist/KsjTmplt-N02-v1_1.html",
        "wikidata": "Q5640366",
        "wikipedia": "ja:波川駅"
      }
    },
    {
      "id": "kochi_station_8383580497",
      "osmId": 8383580497,
      "osmType": "node",
      "prefectureId": "kochi",
      "type": "station",
      "subtype": "jr",
      "name": "小村神社前",
      "nameKana": null,
      "nameEn": "Omurajinjamae",
      "operator": "四国旅客鉄道",
      "network": "JR土讃線",
      "ref": "K08-1",
      "latitude": 33.540069,
      "longitude": 133.392874,
      "countryCode": "jp",
      "rawTags": {
        "KSJ2:LIN": "土讃線",
        "KSJ2:STN": "小村神社前",
        "alt_name:ko": "오무라진자마에",
        "name": "小村神社前",
        "name:en": "Omurajinjamae",
        "name:ja": "小村神社前",
        "name:ko": "오무라신사앞",
        "network": "JR土讃線",
        "operator": "四国旅客鉄道",
        "public_transport": "station",
        "railway": "station",
        "ref": "K08-1",
        "source": "KSJ2",
        "source_ref": "http://nlftp.mlit.go.jp/ksj/jpgis/datalist/KsjTmplt-N02-v1_1.html",
        "wikidata": "Q7090804",
        "wikipedia": "ja:小村神社前駅"
      }
    },
    {
      "id": "kochi_station_8383580498",
      "osmId": 8383580498,
      "osmType": "node",
      "prefectureId": "kochi",
      "type": "station",
      "subtype": "private",
      "name": "日下",
      "nameKana": null,
      "nameEn": "Kusaka",
      "operator": null,
      "network": null,
      "ref": "K09",
      "latitude": 33.5335049,
      "longitude": 133.3713225,
      "countryCode": "jp",
      "rawTags": {
        "KSJ2:LIN": "土讃線",
        "KSJ2:STN": "日下",
        "name": "日下",
        "name:en": "Kusaka",
        "name:ja": "日下",
        "name:ko": "구사카",
        "note": "National-Land Numerical Information (Railway) 2007, MLIT Japan",
        "note:ja": "国土数値情報（鉄道データ）平成19年　国土交通省",
        "public_transport": "station",
        "railway": "station",
        "ref": "K09",
        "source": "KSJ2",
        "source_ref": "http://nlftp.mlit.go.jp/ksj/jpgis/datalist/KsjTmplt-N02-v1_1.html",
        "wikidata": "Q6447751",
        "wikipedia": "ja:日下駅"
      }
    },
    {
      "id": "kochi_station_8383580499",
      "osmId": 8383580499,
      "osmType": "node",
      "prefectureId": "kochi",
      "type": "station",
      "subtype": "private",
      "name": "岡花",
      "nameKana": null,
      "nameEn": "Okabana",
      "operator": null,
      "network": null,
      "ref": "K10",
      "latitude": 33.5298739,
      "longitude": 133.3508921,
      "countryCode": "jp",
      "rawTags": {
        "KSJ2:LIN": "土讃線",
        "KSJ2:STN": "岡花",
        "name": "岡花",
        "name:en": "Okabana",
        "name:ja": "岡花",
        "name:ko": "오카바나",
        "note": "National-Land Numerical Information (Railway) 2007, MLIT Japan",
        "note:ja": "国土数値情報（鉄道データ）平成19年　国土交通省",
        "public_transport": "station",
        "railway": "station",
        "ref": "K10",
        "source": "KSJ2",
        "source_ref": "http://nlftp.mlit.go.jp/ksj/jpgis/datalist/KsjTmplt-N02-v1_1.html",
        "wikidata": "Q7081711",
        "wikipedia": "ja:岡花駅"
      }
    },
    {
      "id": "kochi_station_8383580500",
      "osmId": 8383580500,
      "osmType": "node",
      "prefectureId": "kochi",
      "type": "station",
      "subtype": "private",
      "name": "土佐加茂",
      "nameKana": null,
      "nameEn": "Tosa-Kamo",
      "operator": null,
      "network": null,
      "ref": "K11",
      "latitude": 33.5236825,
      "longitude": 133.3217016,
      "countryCode": "jp",
      "rawTags": {
        "KSJ2:LIN": "土讃線",
        "KSJ2:STN": "土佐加茂",
        "name": "土佐加茂",
        "name:en": "Tosa-Kamo",
        "name:ja": "土佐加茂",
        "name:ko": "도사카모",
        "note": "National-Land Numerical Information (Railway) 2007, MLIT Japan",
        "note:ja": "国土数値情報（鉄道データ）平成19年　国土交通省",
        "public_transport": "station",
        "railway": "station",
        "ref": "K11",
        "source": "KSJ2",
        "source_ref": "http://nlftp.mlit.go.jp/ksj/jpgis/datalist/KsjTmplt-N02-v1_1.html",
        "wikidata": "Q7827528",
        "wikipedia": "ja:土佐加茂駅"
      }
    },
    {
      "id": "kochi_station_8383580502",
      "osmId": 8383580502,
      "osmType": "node",
      "prefectureId": "kochi",
      "type": "station",
      "subtype": "private",
      "name": "襟野々",
      "nameKana": null,
      "nameEn": "Erinono",
      "operator": null,
      "network": null,
      "ref": "K14",
      "latitude": 33.4885695,
      "longitude": 133.3004826,
      "countryCode": "jp",
      "rawTags": {
        "KSJ2:LIN": "土讃線",
        "KSJ2:STN": "襟野々",
        "name": "襟野々",
        "name:en": "Erinono",
        "name:ja": "襟野々",
        "name:ko": "에리노노",
        "note": "National-Land Numerical Information (Railway) 2007, MLIT Japan",
        "note:ja": "国土数値情報（鉄道データ）平成19年　国土交通省",
        "public_transport": "station",
        "railway": "station",
        "ref": "K14",
        "source": "KSJ2",
        "source_ref": "http://nlftp.mlit.go.jp/ksj/jpgis/datalist/KsjTmplt-N02-v1_1.html",
        "wikidata": "Q5389283",
        "wikipedia": "ja:襟野々駅"
      }
    },
    {
      "id": "kochi_station_8383580504",
      "osmId": 8383580504,
      "osmType": "node",
      "prefectureId": "kochi",
      "type": "station",
      "subtype": "private",
      "name": "斗賀野",
      "nameKana": null,
      "nameEn": "Togano",
      "operator": null,
      "network": null,
      "ref": "K15",
      "latitude": 33.4755338,
      "longitude": 133.2862455,
      "countryCode": "jp",
      "rawTags": {
        "KSJ2:LIN": "土讃線",
        "KSJ2:STN": "斗賀野",
        "name": "斗賀野",
        "name:en": "Togano",
        "name:ja": "斗賀野",
        "name:ko": "도가노",
        "note": "National-Land Numerical Information (Railway) 2007, MLIT Japan",
        "note:ja": "国土数値情報（鉄道データ）平成19年　国土交通省",
        "public_transport": "station",
        "railway": "station",
        "ref": "K15",
        "source": "KSJ2",
        "source_ref": "http://nlftp.mlit.go.jp/ksj/jpgis/datalist/KsjTmplt-N02-v1_1.html",
        "wheelchair": "limited",
        "wikidata": "Q7813039",
        "wikipedia": "ja:斗賀野駅"
      }
    },
    {
      "id": "kochi_station_8383580505",
      "osmId": 8383580505,
      "osmType": "node",
      "prefectureId": "kochi",
      "type": "station",
      "subtype": "jr",
      "name": "吾桑",
      "nameKana": null,
      "nameEn": "Asō",
      "operator": "四国旅客鉄道",
      "network": null,
      "ref": "K16",
      "latitude": 33.4300871,
      "longitude": 133.2957888,
      "countryCode": "jp",
      "rawTags": {
        "KSJ2:LIN": "土讃線",
        "KSJ2:STN": "吾桑",
        "name": "吾桑",
        "name:en": "Asō",
        "name:ja": "吾桑",
        "name:ko": "아소",
        "note": "National-Land Numerical Information (Railway) 2007, MLIT Japan",
        "note:ja": "国土数値情報（鉄道データ）平成19年　国土交通省",
        "operator": "四国旅客鉄道",
        "public_transport": "station",
        "railway": "station",
        "ref": "K16",
        "source": "KSJ2",
        "source_ref": "http://nlftp.mlit.go.jp/ksj/jpgis/datalist/KsjTmplt-N02-v1_1.html",
        "wikidata": "Q4812260",
        "wikipedia": "ja:吾桑駅"
      }
    },
    {
      "id": "kochi_station_8383580506",
      "osmId": 8383580506,
      "osmType": "node",
      "prefectureId": "kochi",
      "type": "station",
      "subtype": "jr",
      "name": "多ノ郷",
      "nameKana": null,
      "nameEn": "Ōnogō",
      "operator": "四国旅客鉄道",
      "network": null,
      "ref": "K17",
      "latitude": 33.4108319,
      "longitude": 133.2948607,
      "countryCode": "jp",
      "rawTags": {
        "KSJ2:LIN": "土讃線",
        "KSJ2:STN": "多ノ郷",
        "name": "多ノ郷",
        "name:en": "Ōnogō",
        "name:ja": "多ノ郷",
        "name:ko": "오노고",
        "note": "National-Land Numerical Information (Railway) 2007, MLIT Japan",
        "note:ja": "国土数値情報（鉄道データ）平成19年　国土交通省",
        "operator": "四国旅客鉄道",
        "public_transport": "station",
        "railway": "station",
        "ref": "K17",
        "source": "KSJ2",
        "source_ref": "http://nlftp.mlit.go.jp/ksj/jpgis/datalist/KsjTmplt-N02-v1_1.html",
        "wikidata": "Q8081667",
        "wikipedia": "ja:多ノ郷駅"
      }
    },
    {
      "id": "kochi_station_8383580507",
      "osmId": 8383580507,
      "osmType": "node",
      "prefectureId": "kochi",
      "type": "station",
      "subtype": "jr",
      "name": "大間",
      "nameKana": null,
      "nameEn": "Ōma",
      "operator": "四国旅客鉄道",
      "network": null,
      "ref": "K18",
      "latitude": 33.4068342,
      "longitude": 133.2875919,
      "countryCode": "jp",
      "rawTags": {
        "KSJ2:LIN": "土讃線",
        "KSJ2:STN": "大間",
        "name": "大間",
        "name:en": "Ōma",
        "name:ja": "大間",
        "name:ko": "오마",
        "note": "National-Land Numerical Information (Railway) 2007, MLIT Japan",
        "note:ja": "国土数値情報（鉄道データ）平成19年　国土交通省",
        "operator": "四国旅客鉄道",
        "public_transport": "station",
        "railway": "station",
        "ref": "K18",
        "source": "KSJ2",
        "source_ref": "http://nlftp.mlit.go.jp/ksj/jpgis/datalist/KsjTmplt-N02-v1_1.html",
        "wikidata": "Q8081594",
        "wikipedia": "ja:大間駅"
      }
    },
    {
      "id": "kochi_station_8383580508",
      "osmId": 8383580508,
      "osmType": "node",
      "prefectureId": "kochi",
      "type": "station",
      "subtype": "private",
      "name": "須崎",
      "nameKana": null,
      "nameEn": "Susaki",
      "operator": null,
      "network": null,
      "ref": "K19",
      "latitude": 33.3926318,
      "longitude": 133.2931682,
      "countryCode": "jp",
      "rawTags": {
        "KSJ2:LIN": "土讃線",
        "KSJ2:STN": "須崎",
        "name": "須崎",
        "name:en": "Susaki",
        "name:ja": "須崎",
        "name:ko": "스사키",
        "note": "National-Land Numerical Information (Railway) 2007, MLIT Japan",
        "note:ja": "国土数値情報（鉄道データ）平成19年　国土交通省",
        "public_transport": "station",
        "railway": "station",
        "ref": "K19",
        "source": "KSJ2",
        "source_ref": "http://nlftp.mlit.go.jp/ksj/jpgis/datalist/KsjTmplt-N02-v1_1.html",
        "wikidata": "Q7647477",
        "wikipedia": "ja:須崎駅"
      }
    },
    {
      "id": "kochi_station_8383580509",
      "osmId": 8383580509,
      "osmType": "node",
      "prefectureId": "kochi",
      "type": "station",
      "subtype": "jr",
      "name": "土佐新荘",
      "nameKana": null,
      "nameEn": "Tosa-Shinjō",
      "operator": "四国旅客鉄道",
      "network": null,
      "ref": "K20",
      "latitude": 33.3864776,
      "longitude": 133.2780902,
      "countryCode": "jp",
      "rawTags": {
        "KSJ2:LIN": "土讃線",
        "KSJ2:STN": "土佐新荘",
        "name": "土佐新荘",
        "name:en": "Tosa-Shinjō",
        "name:ja": "土佐新荘",
        "name:ko": "도사신조",
        "note": "National-Land Numerical Information (Railway) 2007, MLIT Japan",
        "note:ja": "国土数値情報（鉄道データ）平成19年　国土交通省",
        "operator": "四国旅客鉄道",
        "operator:ja": "四国旅客鉄道",
        "public_transport": "station",
        "railway": "station",
        "ref": "K20",
        "source": "KSJ2",
        "source_ref": "http://nlftp.mlit.go.jp/ksj/jpgis/datalist/KsjTmplt-N02-v1_1.html",
        "wikidata": "Q7827531",
        "wikipedia": "ja:土佐新荘駅"
      }
    },
    {
      "id": "kochi_station_8383580510",
      "osmId": 8383580510,
      "osmType": "node",
      "prefectureId": "kochi",
      "type": "station",
      "subtype": "private",
      "name": "工業団地",
      "nameKana": "こうぎょうだんち",
      "nameEn": "Kogyo-danchi",
      "operator": "土佐くろしお鉄道",
      "network": null,
      "ref": "TK44",
      "latitude": 32.9564743,
      "longitude": 132.8016569,
      "countryCode": "jp",
      "rawTags": {
        "alt_name:ko": "고교단치",
        "name": "工業団地",
        "name:en": "Kogyo-danchi",
        "name:ja": "工業団地",
        "name:ja-Hira": "こうぎょうだんち",
        "name:ja-Latn": "Kōgyō-danchi",
        "name:ko": "공업단지",
        "operator": "土佐くろしお鉄道",
        "public_transport": "station",
        "railway": "station",
        "ref": "TK44",
        "wikidata": "Q6455120",
        "wikipedia": "ja:工業団地駅"
      }
    },
    {
      "id": "kochi_station_8383580511",
      "osmId": 8383580511,
      "osmType": "node",
      "prefectureId": "kochi",
      "type": "station",
      "subtype": "private",
      "name": "有岡",
      "nameKana": null,
      "nameEn": "Arioka",
      "operator": "土佐くろしお鉄道",
      "network": null,
      "ref": "TK43",
      "latitude": 32.9613779,
      "longitude": 132.8330514,
      "countryCode": "jp",
      "rawTags": {
        "KSJ2:LIN": "宿毛線",
        "KSJ2:STN": "有岡",
        "name": "有岡",
        "name:en": "Arioka",
        "name:ja": "有岡",
        "name:ko": "아리오카",
        "note": "National-Land Numerical Information (Railway) 2007, MLIT Japan",
        "note:ja": "国土数値情報（鉄道データ）平成19年　国土交通省",
        "operator": "土佐くろしお鉄道",
        "public_transport": "station",
        "railway": "station",
        "ref": "TK43",
        "source": "KSJ2",
        "source_ref": "http://nlftp.mlit.go.jp/ksj/jpgis/datalist/KsjTmplt-N02-v1_1.html",
        "wikidata": "Q4790749",
        "wikipedia": "ja:有岡駅"
      }
    },
    {
      "id": "kochi_station_8383580512",
      "osmId": 8383580512,
      "osmType": "node",
      "prefectureId": "kochi",
      "type": "station",
      "subtype": "private",
      "name": "安和",
      "nameKana": null,
      "nameEn": "Awa",
      "operator": null,
      "network": null,
      "ref": "K21",
      "latitude": 33.3669866,
      "longitude": 133.2588387,
      "countryCode": "jp",
      "rawTags": {
        "KSJ2:LIN": "土讃線",
        "KSJ2:STN": "安和",
        "name": "安和",
        "name:en": "Awa",
        "name:ja": "安和",
        "name:ko": "아와",
        "note": "National-Land Numerical Information (Railway) 2007, MLIT Japan",
        "note:ja": "国土数値情報（鉄道データ）平成19年　国土交通省",
        "public_transport": "station",
        "railway": "station",
        "ref": "K21",
        "source": "KSJ2",
        "source_ref": "http://nlftp.mlit.go.jp/ksj/jpgis/datalist/KsjTmplt-N02-v1_1.html",
        "wikidata": "Q4829648",
        "wikipedia": "ja:安和駅"
      }
    },
    {
      "id": "kochi_station_8383580513",
      "osmId": 8383580513,
      "osmType": "node",
      "prefectureId": "kochi",
      "type": "station",
      "subtype": "jr",
      "name": "土佐久礼",
      "nameKana": null,
      "nameEn": "Tosa-Kure",
      "operator": "四国旅客鉄道",
      "network": null,
      "ref": "K22",
      "latitude": 33.3290402,
      "longitude": 133.2266924,
      "countryCode": "jp",
      "rawTags": {
        "KSJ2:LIN": "土讃線",
        "KSJ2:STN": "土佐久礼",
        "name": "土佐久礼",
        "name:en": "Tosa-Kure",
        "name:ja": "土佐久礼",
        "name:ko": "도사쿠레",
        "note": "National-Land Numerical Information (Railway) 2007, MLIT Japan",
        "note:ja": "国土数値情報（鉄道データ）平成19年　国土交通省",
        "operator": "四国旅客鉄道",
        "public_transport": "station",
        "railway": "station",
        "ref": "K22",
        "source": "KSJ2",
        "source_ref": "http://nlftp.mlit.go.jp/ksj/jpgis/datalist/KsjTmplt-N02-v1_1.html",
        "wikidata": "Q7827529",
        "wikipedia": "ja:土佐久礼駅"
      }
    },
    {
      "id": "kochi_station_8383580514",
      "osmId": 8383580514,
      "osmType": "node",
      "prefectureId": "kochi",
      "type": "station",
      "subtype": "jr",
      "name": "影野",
      "nameKana": null,
      "nameEn": "Kageno",
      "operator": "四国旅客鉄道",
      "network": null,
      "ref": "K23",
      "latitude": 33.2764983,
      "longitude": 133.1741264,
      "countryCode": "jp",
      "rawTags": {
        "KSJ2:LIN": "土讃線",
        "KSJ2:STN": "影野",
        "name": "影野",
        "name:en": "Kageno",
        "name:ja": "影野",
        "name:ko": "가게노",
        "note": "National-Land Numerical Information (Railway) 2007, MLIT Japan",
        "note:ja": "国土数値情報（鉄道データ）平成19年　国土交通省",
        "operator": "四国旅客鉄道",
        "public_transport": "station",
        "railway": "station",
        "ref": "K23",
        "source": "KSJ2",
        "source_ref": "http://nlftp.mlit.go.jp/ksj/jpgis/datalist/KsjTmplt-N02-v1_1.html",
        "wikidata": "Q6346468",
        "wikipedia": "ja:影野駅"
      }
    },
    {
      "id": "kochi_station_8383580515",
      "osmId": 8383580515,
      "osmType": "node",
      "prefectureId": "kochi",
      "type": "station",
      "subtype": "jr",
      "name": "六反地",
      "nameKana": null,
      "nameEn": "Rokutanji",
      "operator": "四国旅客鉄道",
      "network": null,
      "ref": "K24",
      "latitude": 33.2618631,
      "longitude": 133.1694648,
      "countryCode": "jp",
      "rawTags": {
        "KSJ2:LIN": "土讃線",
        "KSJ2:STN": "六反地",
        "name": "六反地",
        "name:en": "Rokutanji",
        "name:ja": "六反地",
        "name:ko": "로쿠탄지",
        "note": "National-Land Numerical Information (Railway) 2007, MLIT Japan",
        "note:ja": "国土数値情報（鉄道データ）平成19年　国土交通省",
        "operator": "四国旅客鉄道",
        "public_transport": "station",
        "railway": "station",
        "ref": "K24",
        "source": "KSJ2",
        "source_ref": "http://nlftp.mlit.go.jp/ksj/jpgis/datalist/KsjTmplt-N02-v1_1.html",
        "wikidata": "Q10893121",
        "wikipedia": "ja:六反地駅"
      }
    },
    {
      "id": "kochi_station_8383580516",
      "osmId": 8383580516,
      "osmType": "node",
      "prefectureId": "kochi",
      "type": "station",
      "subtype": "private",
      "name": "仁井田",
      "nameKana": null,
      "nameEn": "Niida",
      "operator": null,
      "network": null,
      "ref": "K25",
      "latitude": 33.2448791,
      "longitude": 133.1613028,
      "countryCode": "jp",
      "rawTags": {
        "KSJ2:LIN": "土讃線",
        "KSJ2:STN": "仁井田",
        "name": "仁井田",
        "name:en": "Niida",
        "name:ja": "仁井田",
        "name:ko": "니다",
        "note": "National-Land Numerical Information (Railway) 2007, MLIT Japan",
        "note:ja": "国土数値情報（鉄道データ）平成19年　国土交通省",
        "public_transport": "station",
        "railway": "station",
        "ref": "K25",
        "source": "KSJ2",
        "source_ref": "http://nlftp.mlit.go.jp/ksj/jpgis/datalist/KsjTmplt-N02-v1_1.html",
        "wikidata": "Q3249375",
        "wikipedia": "ja:仁井田駅 (高知県)"
      }
    },
    {
      "id": "kochi_station_8383599017",
      "osmId": 8383599017,
      "osmType": "node",
      "prefectureId": "kochi",
      "type": "station",
      "subtype": "jr",
      "name": "窪川",
      "nameKana": null,
      "nameEn": "Kubokawa",
      "operator": "四国旅客鉄道",
      "network": "土佐くろしお鉄道中村線",
      "ref": "K26;TK26",
      "latitude": 33.2124259,
      "longitude": 133.1373574,
      "countryCode": "jp",
      "rawTags": {
        "KSJ2:LIN": "土讃線",
        "KSJ2:STN": "窪川",
        "name": "窪川",
        "name:en": "Kubokawa",
        "name:ja": "窪川",
        "name:ko": "구보카와",
        "network": "土佐くろしお鉄道中村線",
        "note": "National-Land Numerical Information (Railway) 2007, MLIT Japan",
        "note:ja": "国土数値情報（鉄道データ）平成19年　国土交通省",
        "operator": "四国旅客鉄道",
        "public_transport": "station",
        "railway": "station",
        "ref": "K26;TK26",
        "source": "KSJ2",
        "source_ref": "http://nlftp.mlit.go.jp/ksj/jpgis/datalist/KsjTmplt-N02-v1_1.html",
        "wikidata": "Q6441296",
        "wikipedia": "ja:窪川駅"
      }
    },
    {
      "id": "kochi_station_8383599018",
      "osmId": 8383599018,
      "osmType": "node",
      "prefectureId": "kochi",
      "type": "station",
      "subtype": "private",
      "name": "荷稲",
      "nameKana": null,
      "nameEn": "Kaina",
      "operator": "土佐くろしお鉄道",
      "network": "土佐くろしお鉄道中村線",
      "ref": "TK28",
      "latitude": 33.1331153,
      "longitude": 133.1162041,
      "countryCode": "jp",
      "rawTags": {
        "KSJ2:LIN": "中村線",
        "KSJ2:STN": "荷稲",
        "name": "荷稲",
        "name:en": "Kaina",
        "name:ja": "荷稲",
        "name:ko": "가이나",
        "network": "土佐くろしお鉄道中村線",
        "note": "National-Land Numerical Information (Railway) 2007, MLIT Japan",
        "note:ja": "国土数値情報（鉄道データ）平成19年　国土交通省",
        "operator": "土佐くろしお鉄道",
        "public_transport": "station",
        "railway": "station",
        "ref": "TK28",
        "source": "KSJ2",
        "source_ref": "http://nlftp.mlit.go.jp/ksj/jpgis/datalist/KsjTmplt-N02-v1_1.html",
        "wikidata": "Q8188907",
        "wikipedia": "ja:荷稲駅"
      }
    },
    {
      "id": "kochi_station_8383599019",
      "osmId": 8383599019,
      "osmType": "node",
      "prefectureId": "kochi",
      "type": "station",
      "subtype": "private",
      "name": "伊与喜",
      "nameKana": null,
      "nameEn": "Iyoki",
      "operator": "土佐くろしお鉄道",
      "network": "土佐くろしお鉄道中村線",
      "ref": "TK29",
      "latitude": 33.1051358,
      "longitude": 133.0986196,
      "countryCode": "jp",
      "rawTags": {
        "KSJ2:LIN": "中村線",
        "KSJ2:STN": "伊与喜",
        "name": "伊与喜",
        "name:en": "Iyoki",
        "name:ja": "伊与喜",
        "name:ko": "이요키",
        "network": "土佐くろしお鉄道中村線",
        "note": "National-Land Numerical Information (Railway) 2007, MLIT Japan",
        "note:ja": "国土数値情報（鉄道データ）平成19年　国土交通省",
        "operator": "土佐くろしお鉄道",
        "public_transport": "station",
        "railway": "station",
        "ref": "TK29",
        "source": "KSJ2",
        "source_ref": "http://nlftp.mlit.go.jp/ksj/jpgis/datalist/KsjTmplt-N02-v1_1.html",
        "wikidata": "Q6101348",
        "wikipedia": "ja:伊与喜駅"
      }
    },
    {
      "id": "kochi_station_8383599020",
      "osmId": 8383599020,
      "osmType": "node",
      "prefectureId": "kochi",
      "type": "station",
      "subtype": "private",
      "name": "土佐佐賀",
      "nameKana": null,
      "nameEn": "Tosa-Saga",
      "operator": "土佐くろしお鉄道",
      "network": "土佐くろしお鉄道中村線",
      "ref": "TK30",
      "latitude": 33.0809006,
      "longitude": 133.1014976,
      "countryCode": "jp",
      "rawTags": {
        "KSJ2:LIN": "中村線",
        "KSJ2:STN": "土佐佐賀",
        "name": "土佐佐賀",
        "name:en": "Tosa-Saga",
        "name:ja": "土佐佐賀",
        "name:ko": "도사사가",
        "network": "土佐くろしお鉄道中村線",
        "note": "National-Land Numerical Information (Railway) 2007, MLIT Japan",
        "note:ja": "国土数値情報（鉄道データ）平成19年　国土交通省",
        "operator": "土佐くろしお鉄道",
        "public_transport": "station",
        "railway": "station",
        "ref": "TK30",
        "source": "KSJ2",
        "source_ref": "http://nlftp.mlit.go.jp/ksj/jpgis/datalist/KsjTmplt-N02-v1_1.html",
        "wikidata": "Q7827530",
        "wikipedia": "ja:土佐佐賀駅"
      }
    },
    {
      "id": "kochi_station_8383599021",
      "osmId": 8383599021,
      "osmType": "node",
      "prefectureId": "kochi",
      "type": "station",
      "subtype": "private",
      "name": "佐賀公園",
      "nameKana": null,
      "nameEn": "Saga-Kōen",
      "operator": "土佐くろしお鉄道",
      "network": "土佐くろしお鉄道中村線",
      "ref": "TK31",
      "latitude": 33.0641186,
      "longitude": 133.1063692,
      "countryCode": "jp",
      "rawTags": {
        "KSJ2:LIN": "中村線",
        "KSJ2:STN": "佐賀公園",
        "alt_name:ko": "사가코엔",
        "name": "佐賀公園",
        "name:en": "Saga-Kōen",
        "name:ja": "佐賀公園",
        "name:ko": "사가공원",
        "network": "土佐くろしお鉄道中村線",
        "note": "National-Land Numerical Information (Railway) 2007, MLIT Japan",
        "note:ja": "国土数値情報（鉄道データ）平成19年　国土交通省",
        "operator": "土佐くろしお鉄道",
        "public_transport": "station",
        "railway": "station",
        "ref": "TK31",
        "source": "KSJ2",
        "source_ref": "http://nlftp.mlit.go.jp/ksj/jpgis/datalist/KsjTmplt-N02-v1_1.html",
        "wikidata": "Q7398884",
        "wikipedia": "ja:佐賀公園駅"
      }
    },
    {
      "id": "kochi_station_8383599022",
      "osmId": 8383599022,
      "osmType": "node",
      "prefectureId": "kochi",
      "type": "station",
      "subtype": "private",
      "name": "土佐白浜",
      "nameKana": null,
      "nameEn": "Tosa-Shirahama",
      "operator": "土佐くろしお鉄道",
      "network": "土佐くろしお鉄道中村線",
      "ref": "TK32",
      "latitude": 33.0566465,
      "longitude": 133.0975185,
      "countryCode": "jp",
      "rawTags": {
        "KSJ2:LIN": "中村線",
        "KSJ2:STN": "土佐白浜",
        "name": "土佐白浜",
        "name:en": "Tosa-Shirahama",
        "name:ja": "土佐白浜",
        "name:ko": "도사시라하마",
        "network": "土佐くろしお鉄道中村線",
        "note": "National-Land Numerical Information (Railway) 2007, MLIT Japan",
        "note:ja": "国土数値情報（鉄道データ）平成19年　国土交通省",
        "operator": "土佐くろしお鉄道",
        "public_transport": "station",
        "railway": "station",
        "ref": "TK32",
        "source": "KSJ2",
        "source_ref": "http://nlftp.mlit.go.jp/ksj/jpgis/datalist/KsjTmplt-N02-v1_1.html",
        "wikidata": "Q7827533",
        "wikipedia": "ja:土佐白浜駅"
      }
    },
    {
      "id": "kochi_station_8383599023",
      "osmId": 8383599023,
      "osmType": "node",
      "prefectureId": "kochi",
      "type": "station",
      "subtype": "private",
      "name": "有井川",
      "nameKana": null,
      "nameEn": "Ariigawa",
      "operator": "土佐くろしお鉄道",
      "network": "土佐くろしお鉄道中村線",
      "ref": null,
      "latitude": 33.0390414,
      "longitude": 133.0710304,
      "countryCode": "jp",
      "rawTags": {
        "KSJ2:LIN": "中村線",
        "KSJ2:STN": "有井川",
        "name": "有井川",
        "name:en": "Ariigawa",
        "name:ja": "有井川",
        "name:ko": "아리이가와",
        "network": "土佐くろしお鉄道中村線",
        "note": "National-Land Numerical Information (Railway) 2007, MLIT Japan",
        "note:ja": "国土数値情報（鉄道データ）平成19年　国土交通省",
        "operator": "土佐くろしお鉄道",
        "public_transport": "station",
        "railway": "station",
        "source": "KSJ2",
        "source_ref": "http://nlftp.mlit.go.jp/ksj/jpgis/datalist/KsjTmplt-N02-v1_1.html",
        "wikidata": "Q8189168",
        "wikipedia": "ja:有井川駅"
      }
    },
    {
      "id": "kochi_station_8383599024",
      "osmId": 8383599024,
      "osmType": "node",
      "prefectureId": "kochi",
      "type": "station",
      "subtype": "private",
      "name": "土佐上川口",
      "nameKana": null,
      "nameEn": "Tosa-Kamikawaguchi",
      "operator": "土佐くろしお鉄道",
      "network": "土佐くろしお鉄道中村線",
      "ref": "TK34",
      "latitude": 33.0429964,
      "longitude": 133.0560945,
      "countryCode": "jp",
      "rawTags": {
        "KSJ2:LIN": "中村線",
        "KSJ2:STN": "土佐上川口",
        "name": "土佐上川口",
        "name:en": "Tosa-Kamikawaguchi",
        "name:ja": "土佐上川口",
        "name:ko": "도사카미카와구치",
        "network": "土佐くろしお鉄道中村線",
        "note": "National-Land Numerical Information (Railway) 2007, MLIT Japan",
        "note:ja": "国土数値情報（鉄道データ）平成19年　国土交通省",
        "operator": "土佐くろしお鉄道",
        "public_transport": "station",
        "railway": "station",
        "ref": "TK34",
        "source": "KSJ2",
        "source_ref": "http://nlftp.mlit.go.jp/ksj/jpgis/datalist/KsjTmplt-N02-v1_1.html",
        "wikidata": "Q7827527",
        "wikipedia": "ja:土佐上川口駅"
      }
    },
    {
      "id": "kochi_station_8383599025",
      "osmId": 8383599025,
      "osmType": "node",
      "prefectureId": "kochi",
      "type": "station",
      "subtype": "private",
      "name": "海の王迎",
      "nameKana": null,
      "nameEn": "Uminoōmukae",
      "operator": "土佐くろしお鉄道",
      "network": "土佐くろしお鉄道中村線",
      "ref": "TK35",
      "latitude": 33.0406693,
      "longitude": 133.0474216,
      "countryCode": "jp",
      "rawTags": {
        "KSJ2:LIN": "中村線",
        "KSJ2:STN": "海の王迎",
        "name": "海の王迎",
        "name:en": "Uminoōmukae",
        "name:ja": "海の王迎",
        "name:ko": "우미노오무카에",
        "network": "土佐くろしお鉄道中村線",
        "note": "National-Land Numerical Information (Railway) 2007, MLIT Japan",
        "note:ja": "国土数値情報（鉄道データ）平成19年　国土交通省",
        "operator": "土佐くろしお鉄道",
        "public_transport": "station",
        "railway": "station",
        "ref": "TK35",
        "source": "KSJ2",
        "source_ref": "http://nlftp.mlit.go.jp/ksj/jpgis/datalist/KsjTmplt-N02-v1_1.html",
        "wikidata": "Q7881584",
        "wikipedia": "ja:海の王迎駅"
      }
    },
    {
      "id": "kochi_station_8383599026",
      "osmId": 8383599026,
      "osmType": "node",
      "prefectureId": "kochi",
      "type": "station",
      "subtype": "private",
      "name": "浮鞭",
      "nameKana": null,
      "nameEn": "Ukibuchi",
      "operator": "土佐くろしお鉄道",
      "network": "土佐くろしお鉄道中村線",
      "ref": "TK36",
      "latitude": 33.0394686,
      "longitude": 133.030006,
      "countryCode": "jp",
      "rawTags": {
        "KSJ2:LIN": "中村線",
        "KSJ2:STN": "浮鞭",
        "name": "浮鞭",
        "name:en": "Ukibuchi",
        "name:ja": "浮鞭",
        "name:ko": "우키부치",
        "network": "土佐くろしお鉄道中村線",
        "note": "National-Land Numerical Information (Railway) 2007, MLIT Japan",
        "note:ja": "国土数値情報（鉄道データ）平成19年　国土交通省",
        "operator": "土佐くろしお鉄道",
        "public_transport": "station",
        "railway": "station",
        "ref": "TK36",
        "source": "KSJ2",
        "source_ref": "http://nlftp.mlit.go.jp/ksj/jpgis/datalist/KsjTmplt-N02-v1_1.html",
        "wikidata": "Q7878312",
        "wikipedia": "ja:浮鞭駅"
      }
    },
    {
      "id": "kochi_station_8383599027",
      "osmId": 8383599027,
      "osmType": "node",
      "prefectureId": "kochi",
      "type": "station",
      "subtype": "private",
      "name": "中村",
      "nameKana": null,
      "nameEn": "Nakamura",
      "operator": "土佐くろしお鉄道",
      "network": null,
      "ref": "TK40",
      "latitude": 32.9843748,
      "longitude": 132.9440278,
      "countryCode": "jp",
      "rawTags": {
        "KSJ2:LIN": "宿毛線",
        "KSJ2:STN": "中村",
        "name": "中村",
        "name:en": "Nakamura",
        "name:ja": "中村",
        "name:ko": "나카무라",
        "note": "National-Land Numerical Information (Railway) 2007, MLIT Japan",
        "note:ja": "国土数値情報（鉄道データ）平成19年　国土交通省",
        "operator": "土佐くろしお鉄道",
        "public_transport": "station",
        "railway": "station",
        "ref": "TK40",
        "source": "KSJ2",
        "source_ref": "http://nlftp.mlit.go.jp/ksj/jpgis/datalist/KsjTmplt-N02-v1_1.html",
        "wikidata": "Q8190561",
        "wikipedia": "ja:中村駅"
      }
    },
    {
      "id": "kochi_station_8383599028",
      "osmId": 8383599028,
      "osmType": "node",
      "prefectureId": "kochi",
      "type": "station",
      "subtype": "private",
      "name": "土佐入野",
      "nameKana": null,
      "nameEn": "Tosa-Irino",
      "operator": "土佐くろしお鉄道",
      "network": "土佐くろしお鉄道中村線",
      "ref": "TK37",
      "latitude": 33.023883,
      "longitude": 133.011606,
      "countryCode": "jp",
      "rawTags": {
        "KSJ2:LIN": "中村線",
        "KSJ2:STN": "土佐入野",
        "name": "土佐入野",
        "name:en": "Tosa-Irino",
        "name:ja": "土佐入野",
        "name:ko": "도사이리노",
        "network": "土佐くろしお鉄道中村線",
        "note": "National-Land Numerical Information (Railway) 2007, MLIT Japan",
        "note:ja": "国土数値情報（鉄道データ）平成19年　国土交通省",
        "operator": "土佐くろしお鉄道",
        "public_transport": "station",
        "railway": "station",
        "ref": "TK37",
        "source": "KSJ2",
        "source_ref": "http://nlftp.mlit.go.jp/ksj/jpgis/datalist/KsjTmplt-N02-v1_1.html",
        "toilets": "yes",
        "wikidata": "Q7827526",
        "wikipedia": "ja:土佐入野駅"
      }
    },
    {
      "id": "kochi_station_8383599029",
      "osmId": 8383599029,
      "osmType": "node",
      "prefectureId": "kochi",
      "type": "station",
      "subtype": "private",
      "name": "西大方",
      "nameKana": null,
      "nameEn": "Nishi-Ōgata",
      "operator": "土佐くろしお鉄道",
      "network": "土佐くろしお鉄道中村線",
      "ref": "TK38",
      "latitude": 33.0089514,
      "longitude": 132.9869378,
      "countryCode": "jp",
      "rawTags": {
        "KSJ2:LIN": "中村線",
        "KSJ2:STN": "西大方",
        "name": "西大方",
        "name:en": "Nishi-Ōgata",
        "name:ja": "西大方",
        "name:ko": "니시오가타",
        "network": "土佐くろしお鉄道中村線",
        "note": "National-Land Numerical Information (Railway) 2007, MLIT Japan",
        "note:ja": "国土数値情報（鉄道データ）平成19年　国土交通省",
        "operator": "土佐くろしお鉄道",
        "public_transport": "station",
        "railway": "station",
        "ref": "TK38",
        "source": "KSJ2",
        "source_ref": "http://nlftp.mlit.go.jp/ksj/jpgis/datalist/KsjTmplt-N02-v1_1.html",
        "wikidata": "Q7040471",
        "wikipedia": "ja:西大方駅"
      }
    },
    {
      "id": "kochi_station_8383599030",
      "osmId": 8383599030,
      "osmType": "node",
      "prefectureId": "kochi",
      "type": "station",
      "subtype": "private",
      "name": "古津賀",
      "nameKana": "こつか",
      "nameEn": "Kotsuka",
      "operator": "土佐くろしお鉄道",
      "network": "土佐くろしお鉄道中村線",
      "ref": "TK39",
      "latitude": 32.9862287,
      "longitude": 132.9623741,
      "countryCode": "jp",
      "rawTags": {
        "KSJ2:LIN": "中村線",
        "KSJ2:STN": "古津賀",
        "name": "古津賀",
        "name:en": "Kotsuka",
        "name:ja": "古津賀",
        "name:ja-Hira": "こつか",
        "name:ko": "고쓰카",
        "network": "土佐くろしお鉄道中村線",
        "note": "National-Land Numerical Information (Railway) 2007, MLIT Japan",
        "note:ja": "国土数値情報（鉄道データ）平成19年　国土交通省",
        "operator": "土佐くろしお鉄道",
        "public_transport": "station",
        "railway": "station",
        "ref": "TK39",
        "source": "KSJ2",
        "source_ref": "http://nlftp.mlit.go.jp/ksj/jpgis/datalist/KsjTmplt-N02-v1_1.html",
        "wikidata": "Q6434253",
        "wikipedia": "ja:古津賀駅"
      }
    },
    {
      "id": "kochi_station_8383599031",
      "osmId": 8383599031,
      "osmType": "node",
      "prefectureId": "kochi",
      "type": "station",
      "subtype": "private",
      "name": "具同",
      "nameKana": "ぐどう",
      "nameEn": "Gudō",
      "operator": "土佐くろしお鉄道",
      "network": null,
      "ref": "TK41",
      "latitude": 32.9793957,
      "longitude": 132.9152477,
      "countryCode": "jp",
      "rawTags": {
        "KSJ2:LIN": "宿毛線",
        "KSJ2:STN": "具同",
        "name": "具同",
        "name:en": "Gudō",
        "name:ja": "具同",
        "name:ja-Hira": "ぐどう",
        "name:ko": "구도",
        "note": "National-Land Numerical Information (Railway) 2007, MLIT Japan",
        "note:ja": "国土数値情報（鉄道データ）平成19年　国土交通省",
        "operator": "土佐くろしお鉄道",
        "public_transport": "station",
        "railway": "station",
        "ref": "TK41",
        "source": "KSJ2",
        "source_ref": "http://nlftp.mlit.go.jp/ksj/jpgis/datalist/KsjTmplt-N02-v1_1.html",
        "wikidata": "Q5614728",
        "wikipedia": "ja:具同駅"
      }
    },
    {
      "id": "kochi_station_8383599032",
      "osmId": 8383599032,
      "osmType": "node",
      "prefectureId": "kochi",
      "type": "station",
      "subtype": "private",
      "name": "国見",
      "nameKana": null,
      "nameEn": "Kunimi",
      "operator": "土佐くろしお鉄道",
      "network": null,
      "ref": "TK42",
      "latitude": 32.9789524,
      "longitude": 132.8837371,
      "countryCode": "jp",
      "rawTags": {
        "KSJ2:LIN": "宿毛線",
        "KSJ2:STN": "国見",
        "name": "国見",
        "name:en": "Kunimi",
        "name:ja": "国見",
        "name:ko": "구니미",
        "note": "National-Land Numerical Information (Railway) 2007, MLIT Japan",
        "note:ja": "国土数値情報（鉄道データ）平成19年　国土交通省",
        "operator": "土佐くろしお鉄道",
        "public_transport": "station",
        "railway": "station",
        "ref": "TK42",
        "source": "KSJ2",
        "source_ref": "http://nlftp.mlit.go.jp/ksj/jpgis/datalist/KsjTmplt-N02-v1_1.html",
        "wikidata": "Q267545",
        "wikipedia": "ja:国見駅 (高知県)"
      }
    },
    {
      "id": "kochi_station_8383599033",
      "osmId": 8383599033,
      "osmType": "node",
      "prefectureId": "kochi",
      "type": "station",
      "subtype": "private",
      "name": "東宿毛",
      "nameKana": null,
      "nameEn": "Higashi-Sukumo",
      "operator": "土佐くろしお鉄道",
      "network": null,
      "ref": "TK46",
      "latitude": 32.9337243,
      "longitude": 132.7284721,
      "countryCode": "jp",
      "rawTags": {
        "KSJ2:LIN": "宿毛線",
        "KSJ2:STN": "東宿毛",
        "name": "東宿毛",
        "name:en": "Higashi-Sukumo",
        "name:ja": "東宿毛",
        "name:ko": "히가시스쿠모",
        "note": "National-Land Numerical Information (Railway) 2007, MLIT Japan",
        "note:ja": "国土数値情報（鉄道データ）平成19年　国土交通省",
        "operator": "土佐くろしお鉄道",
        "public_transport": "station",
        "railway": "station",
        "ref": "TK46",
        "source": "KSJ2",
        "source_ref": "http://nlftp.mlit.go.jp/ksj/jpgis/datalist/KsjTmplt-N02-v1_1.html",
        "wikidata": "Q5753854",
        "wikipedia": "ja:東宿毛駅"
      }
    },
    {
      "id": "kochi_station_8383599814",
      "osmId": 8383599814,
      "osmType": "node",
      "prefectureId": "kochi",
      "type": "station",
      "subtype": "private",
      "name": "後免",
      "nameKana": null,
      "nameEn": "Gomen",
      "operator": null,
      "network": null,
      "ref": "D40",
      "latitude": 33.5792327,
      "longitude": 133.6453255,
      "countryCode": "jp",
      "rawTags": {
        "KSJ2:LIN": "土讃線;阿佐線",
        "KSJ2:STN": "後免",
        "name": "後免",
        "name:de": "Gomen",
        "name:en": "Gomen",
        "name:ja": "後免",
        "name:ko": "고멘",
        "public_transport": "station",
        "railway": "station",
        "ref": "D40",
        "source": "KSJ2",
        "source_ref": "http://nlftp.mlit.go.jp/ksj/jpgis/datalist/KsjTmplt-N02-v1_1.html",
        "toilets:wheelchair": "yes",
        "wheelchair": "yes",
        "wikidata": "Q900981",
        "wikipedia": "ja:後免駅"
      }
    },
    {
      "id": "kochi_station_8383599815",
      "osmId": 8383599815,
      "osmType": "node",
      "prefectureId": "kochi",
      "type": "station",
      "subtype": "private",
      "name": "土佐山田",
      "nameKana": null,
      "nameEn": "Tosa-Yamada",
      "operator": null,
      "network": null,
      "ref": "D37",
      "latitude": 33.6071484,
      "longitude": 133.6850108,
      "countryCode": "jp",
      "rawTags": {
        "KSJ2:LIN": "土讃線",
        "KSJ2:STN": "土佐山田",
        "name": "土佐山田",
        "name:de": "Tosa-Yamada",
        "name:en": "Tosa-Yamada",
        "name:ja": "土佐山田",
        "name:ko": "도사야마다",
        "note": "National-Land Numerical Information (Railway) 2007, MLIT Japan",
        "note:ja": "国土数値情報（鉄道データ）平成19年　国土交通省",
        "public_transport": "station",
        "railway": "station",
        "ref": "D37",
        "source": "KSJ2",
        "source_ref": "http://nlftp.mlit.go.jp/ksj/jpgis/datalist/KsjTmplt-N02-v1_1.html",
        "wikidata": "Q901123",
        "wikipedia": "ja:土佐山田駅"
      }
    },
    {
      "id": "kochi_station_8543216547",
      "osmId": 8543216547,
      "osmType": "node",
      "prefectureId": "kochi",
      "type": "station",
      "subtype": "private",
      "name": "あき総合病院前",
      "nameKana": "あきそうごうびょういんまえ",
      "nameEn": "Aki General Hospital",
      "operator": null,
      "network": null,
      "ref": null,
      "latitude": 33.5043533,
      "longitude": 133.8976596,
      "countryCode": "jp",
      "rawTags": {
        "addr:city": "安芸市",
        "addr:postcode": "784-0023",
        "addr:province": "高知県",
        "addr:quarter": "染井町",
        "name": "あき総合病院前",
        "name:en": "Aki General Hospital",
        "name:ja": "あき総合病院前",
        "name:ja-Hira": "あきそうごうびょういんまえ",
        "name:ja-Latn": "Aki-Sōgōbyōimmae",
        "public_transport": "station",
        "railway": "station",
        "source": "survey",
        "start_date": "2021-03-13",
        "train": "yes",
        "wikidata": "Q104541066",
        "wikipedia": "ja:あき総合病院前駅"
      }
    },
    {
      "id": "kochi_station_8861427375",
      "osmId": 8861427375,
      "osmType": "node",
      "prefectureId": "kochi",
      "type": "station",
      "subtype": "jr",
      "name": "大杉",
      "nameKana": "おおすぎ",
      "nameEn": "Osugi",
      "operator": "四国旅客鉄道",
      "network": null,
      "ref": "D32",
      "latitude": 33.7612526,
      "longitude": 133.6643562,
      "countryCode": "jp",
      "rawTags": {
        "KSJ2:LIN": "土讃線",
        "KSJ2:STN": "大杉",
        "local_ref": "2",
        "name": "大杉",
        "name:en": "Osugi",
        "name:ja": "大杉",
        "name:ja-Hira": "おおすぎ",
        "name:ko": "오스기",
        "operator": "四国旅客鉄道",
        "public_transport": "station",
        "railway": "station",
        "ref": "D32",
        "wikidata": "Q901012",
        "wikipedia": "ja:大杉駅"
      }
    },
    {
      "id": "kochi_station_8862848035",
      "osmId": 8862848035,
      "osmType": "node",
      "prefectureId": "kochi",
      "type": "station",
      "subtype": "jr",
      "name": "土佐穴内",
      "nameKana": "とさあなない",
      "nameEn": "Tosaananai",
      "operator": "四国旅客鉄道",
      "network": null,
      "ref": "D31",
      "latitude": 33.7792786,
      "longitude": 133.6957688,
      "countryCode": "jp",
      "rawTags": {
        "KSJ2:LIN": "土讃線",
        "KSJ2:STN": "土佐穴内",
        "name": "土佐穴内",
        "name:en": "Tosaananai",
        "name:ja": "土佐穴内",
        "name:ja-Hira": "とさあなない",
        "name:ko": "도사아나나이",
        "operator": "四国旅客鉄道",
        "public_transport": "station",
        "railway": "station",
        "ref": "D31",
        "wikidata": "Q900641",
        "wikipedia": "ja:土佐穴内駅"
      }
    },
    {
      "id": "kochi_station_8864403330",
      "osmId": 8864403330,
      "osmType": "node",
      "prefectureId": "kochi",
      "type": "station",
      "subtype": "jr",
      "name": "大田口",
      "nameKana": "おおたぐち",
      "nameEn": "Otaguchi",
      "operator": "四国旅客鉄道",
      "network": null,
      "ref": "D30",
      "latitude": 33.7863363,
      "longitude": 133.7249818,
      "countryCode": "jp",
      "rawTags": {
        "KSJ2:LIN": "土讃線",
        "KSJ2:STN": "大田口",
        "name": "大田口",
        "name:en": "Otaguchi",
        "name:ja": "大田口",
        "name:ja-Hira": "おおたぐち",
        "name:ko": "오타구치",
        "operator": "四国旅客鉄道",
        "public_transport": "station",
        "railway": "station",
        "ref": "D30",
        "wikidata": "Q900670",
        "wikipedia": "ja:大田口駅"
      }
    },
    {
      "id": "kochi_station_8867301429",
      "osmId": 8867301429,
      "osmType": "node",
      "prefectureId": "kochi",
      "type": "station",
      "subtype": "jr",
      "name": "豊永",
      "nameKana": "とよなが",
      "nameEn": "Toyonaga",
      "operator": "四国旅客鉄道",
      "network": null,
      "ref": "D29",
      "latitude": 33.7967507,
      "longitude": 133.759196,
      "countryCode": "jp",
      "rawTags": {
        "KSJ2:LIN": "土讃線",
        "KSJ2:STN": "豊永",
        "name": "豊永",
        "name:en": "Toyonaga",
        "name:ja": "豊永",
        "name:ja-Hira": "とよなが",
        "name:ko": "도요나가",
        "operator": "四国旅客鉄道",
        "public_transport": "station",
        "railway": "station",
        "ref": "D29",
        "wikidata": "Q901431",
        "wikipedia": "ja:豊永駅"
      }
    },
    {
      "id": "kochi_station_8869236376",
      "osmId": 8869236376,
      "osmType": "node",
      "prefectureId": "kochi",
      "type": "station",
      "subtype": "jr",
      "name": "土佐岩原",
      "nameKana": "とさいわはら",
      "nameEn": "Tosaiwahara",
      "operator": "四国旅客鉄道",
      "network": null,
      "ref": "D28",
      "latitude": 33.8221746,
      "longitude": 133.787412,
      "countryCode": "jp",
      "rawTags": {
        "KSJ2:LIN": "土讃線",
        "KSJ2:STN": "土佐岩原",
        "name": "土佐岩原",
        "name:en": "Tosaiwahara",
        "name:ja": "土佐岩原",
        "name:ja-Hira": "とさいわはら",
        "name:ko": "도사이와하라",
        "operator": "四国旅客鉄道",
        "public_transport": "station",
        "railway": "station",
        "ref": "D28",
        "wikidata": "Q900635",
        "wikipedia": "ja:土佐岩原駅"
      }
    },
    {
      "id": "kochi_station_9960792085",
      "osmId": 9960792085,
      "osmType": "node",
      "prefectureId": "kochi",
      "type": "station",
      "subtype": "private",
      "name": "平田",
      "nameKana": "ひらた",
      "nameEn": "Hirata",
      "operator": "土佐くろしお鉄道",
      "network": null,
      "ref": "TK45",
      "latitude": 32.9556305,
      "longitude": 132.7951756,
      "countryCode": "jp",
      "rawTags": {
        "name": "平田",
        "name:en": "Hirata",
        "name:ja": "平田",
        "name:ja-Hira": "ひらた",
        "name:ja-Latn": "Hirata",
        "name:ko": "히라타",
        "operator": "土佐くろしお鉄道",
        "public_transport": "station",
        "railway": "station",
        "ref": "TK45",
        "train": "yes",
        "wikidata": "Q5769520",
        "wikipedia": "ja:平田駅 (高知県)"
      }
    },
    {
      "id": "kochi_bus_terminal_10043990218",
      "osmId": 10043990218,
      "osmType": "node",
      "prefectureId": "kochi",
      "type": "bus_terminal",
      "subtype": null,
      "name": "安芸駅",
      "nameKana": null,
      "nameEn": null,
      "operator": null,
      "network": null,
      "ref": null,
      "latitude": 33.5043488,
      "longitude": 133.9070824,
      "countryCode": "jp",
      "rawTags": {
        "amenity": "bus_station",
        "bus": "yes",
        "highway": "bus_stop",
        "name": "安芸駅",
        "public_transport": "station"
      }
    },
    {
      "id": "kochi_station_11576325257",
      "osmId": 11576325257,
      "osmType": "node",
      "prefectureId": "kochi",
      "type": "station",
      "subtype": "jr",
      "name": "高知",
      "nameKana": "こうち",
      "nameEn": "Kōchi",
      "operator": "四国旅客鉄道",
      "network": null,
      "ref": "D45;K00",
      "latitude": 33.5672072,
      "longitude": 133.5434889,
      "countryCode": "jp",
      "rawTags": {
        "name": "高知",
        "name:en": "Kōchi",
        "name:ja": "高知",
        "name:ja-Hira": "こうち",
        "name:ko": "고치",
        "operator": "四国旅客鉄道",
        "platforms": "4",
        "public_transport": "station",
        "railway": "station",
        "ref": "D45;K00",
        "train": "yes",
        "wheelchair": "yes",
        "wikidata": "Q869293",
        "wikipedia": "ja:高知駅"
      }
    },
    {
      "id": "kochi_ferry_terminal_13045035602",
      "osmId": 13045035602,
      "osmType": "node",
      "prefectureId": "kochi",
      "type": "ferry_terminal",
      "subtype": null,
      "name": "Shimoda Fishing Port",
      "nameKana": null,
      "nameEn": null,
      "operator": null,
      "network": null,
      "ref": null,
      "latitude": 32.9391186,
      "longitude": 132.9927797,
      "countryCode": "jp",
      "rawTags": {
        "amenity": "ferry_terminal",
        "name": "Shimoda Fishing Port",
        "name:ja": "下田漁港"
      }
    },
    {
      "id": "kochi_bus_terminal_120080490",
      "osmId": 120080490,
      "osmType": "way",
      "prefectureId": "kochi",
      "type": "bus_terminal",
      "subtype": null,
      "name": "アンパンマンバスのりば",
      "nameKana": null,
      "nameEn": null,
      "operator": null,
      "network": null,
      "ref": null,
      "latitude": 33.607045,
      "longitude": 133.6853081,
      "countryCode": "jp",
      "rawTags": {
        "amenity": "bus_station",
        "building": "roof",
        "bus": "yes",
        "name": "アンパンマンバスのりば",
        "public_transport": "station"
      }
    },
    {
      "id": "kochi_bus_terminal_120374467",
      "osmId": 120374467,
      "osmType": "way",
      "prefectureId": "kochi",
      "type": "bus_terminal",
      "subtype": null,
      "name": "東エントランス",
      "nameKana": null,
      "nameEn": null,
      "operator": null,
      "network": null,
      "ref": null,
      "latitude": 33.6208268,
      "longitude": 133.7216558,
      "countryCode": "jp",
      "rawTags": {
        "amenity": "bus_station",
        "name": "東エントランス"
      }
    },
    {
      "id": "kochi_bus_terminal_148364540",
      "osmId": 148364540,
      "osmType": "way",
      "prefectureId": "kochi",
      "type": "bus_terminal",
      "subtype": null,
      "name": "JR 美良布駅",
      "nameKana": null,
      "nameEn": null,
      "operator": null,
      "network": null,
      "ref": null,
      "latitude": 33.6483037,
      "longitude": 133.7806854,
      "countryCode": "jp",
      "rawTags": {
        "amenity": "bus_station",
        "building": "yes",
        "name": "JR 美良布駅"
      }
    },
    {
      "id": "kochi_bus_terminal_500634416",
      "osmId": 500634416,
      "osmType": "way",
      "prefectureId": "kochi",
      "type": "bus_terminal",
      "subtype": null,
      "name": "はりまや橋観光バスターミナル",
      "nameKana": null,
      "nameEn": null,
      "operator": null,
      "network": null,
      "ref": null,
      "latitude": 33.559165,
      "longitude": 133.5458589,
      "countryCode": "jp",
      "rawTags": {
        "amenity": "bus_station",
        "building": "yes",
        "bus": "yes",
        "name": "はりまや橋観光バスターミナル",
        "public_transport": "station",
        "wikidata": "Q11275865",
        "wikipedia": "ja:はりまや橋観光バスターミナル"
      }
    },
    {
      "id": "kochi_ferry_terminal_1372694859",
      "osmId": 1372694859,
      "osmType": "way",
      "prefectureId": "kochi",
      "type": "ferry_terminal",
      "subtype": null,
      "name": "高知新港客船ターミナル",
      "nameKana": null,
      "nameEn": "Kochi Cruise Terminal",
      "operator": null,
      "network": null,
      "ref": null,
      "latitude": 33.5116116,
      "longitude": 133.58984,
      "countryCode": "jp",
      "rawTags": {
        "amenity": "ferry_terminal",
        "building": "yes",
        "ferry": "yes",
        "name": "高知新港客船ターミナル",
        "name:en": "Kochi Cruise Terminal",
        "public_transport": "station"
      }
    },
    {
      "id": "kochi_airport_12028679",
      "osmId": 12028679,
      "osmType": "relation",
      "prefectureId": "kochi",
      "type": "airport",
      "subtype": "domestic",
      "name": "高知龍馬空港",
      "nameKana": null,
      "nameEn": "Kochi Ryoma Airport",
      "operator": "Kochi Airport",
      "network": null,
      "ref": "KCZ",
      "latitude": 33.5463462,
      "longitude": 133.668988,
      "countryCode": "jp",
      "rawTags": {
        "aerodrome:type": "public",
        "aeroway": "aerodrome",
        "closest_town": "Nankoku, Kōchi",
        "ele": "9",
        "iata": "KCZ",
        "icao": "RJOK",
        "name": "高知龍馬空港",
        "name:en": "Kochi Ryoma Airport",
        "name:fr": "Aéroport de Kōchi Ryoma",
        "name:ja": "高知龍馬空港",
        "name:ja_rm": "Kōchi Ryōma Kūkō",
        "operator": "Kochi Airport",
        "source": "wikipedia",
        "type": "multipolygon",
        "wikidata": "Q1156315",
        "wikipedia": "ja:高知空港",
        "wikipedia:en": "Kōchi Airport"
      }
    }
  ]
}