{
  "fetchedAt": "2025-12-12T05:37:53.517Z",
  "prefectureId": "kumamoto",
  "prefectureName": "熊本県",
  "stats": {
    "station": 124,
    "airport": 4,
    "ferry_terminal": 13,
    "bus_terminal": 8,
    "total": 149
  },
  "data": [
    {
      "id": "kumamoto_station_265855422",
      "osmId": 265855422,
      "osmType": "node",
      "prefectureId": "kumamoto",
      "type": "station",
      "subtype": "jr",
      "name": "瀬田",
      "nameKana": null,
      "nameEn": "Seta",
      "operator": "九州旅客鉄道",
      "network": "JR豊肥本線",
      "ref": null,
      "latitude": 32.8726723,
      "longitude": 130.9136156,
      "countryCode": "jp",
      "rawTags": {
        "KSJ2:LIN": "豊肥線",
        "KSJ2:STN": "瀬田",
        "name": "瀬田",
        "name:en": "Seta",
        "name:ja": "瀬田",
        "name:ko": "세타",
        "network": "JR豊肥本線",
        "note": "National-Land Numerical Information (Railway) 2007, MLIT Japan",
        "note:ja": "国土数値情報（鉄道データ）平成19年　国土交通省",
        "operator": "九州旅客鉄道",
        "public_transport": "station",
        "railway": "station",
        "source": "KSJ2",
        "source_ref": "http://nlftp.mlit.go.jp/ksj/jpgis/datalist/KsjTmplt-N02-v1_1.html",
        "wikidata": "Q7456324",
        "wikipedia": "ja:瀬田駅 (熊本県)"
      }
    },
    {
      "id": "kumamoto_station_265855797",
      "osmId": 265855797,
      "osmType": "node",
      "prefectureId": "kumamoto",
      "type": "station",
      "subtype": "jr",
      "name": "内牧",
      "nameKana": null,
      "nameEn": "Uchinomaki",
      "operator": "九州旅客鉄道",
      "network": "JR豊肥本線",
      "ref": null,
      "latitude": 32.9422172,
      "longitude": 131.0436601,
      "countryCode": "jp",
      "rawTags": {
        "KSJ2:LIN": "豊肥線",
        "KSJ2:STN": "内牧",
        "name": "内牧",
        "name:en": "Uchinomaki",
        "name:ja": "内牧",
        "name:ko": "우치노마키",
        "network": "JR豊肥本線",
        "note": "National-Land Numerical Information (Railway) 2007, MLIT Japan",
        "note:ja": "国土数値情報（鉄道データ）平成19年　国土交通省",
        "operator": "九州旅客鉄道",
        "railway": "station",
        "source": "KSJ2",
        "source_ref": "http://nlftp.mlit.go.jp/ksj/jpgis/datalist/KsjTmplt-N02-v1_1.html",
        "wheelchair": "limited",
        "wikidata": "Q7876736",
        "wikipedia": "ja:内牧駅"
      }
    },
    {
      "id": "kumamoto_station_265857288",
      "osmId": 265857288,
      "osmType": "node",
      "prefectureId": "kumamoto",
      "type": "station",
      "subtype": "jr",
      "name": "宮地",
      "nameKana": null,
      "nameEn": "Miyaji",
      "operator": "九州旅客鉄道",
      "network": "JR豊肥本線",
      "ref": null,
      "latitude": 32.9370943,
      "longitude": 131.1177775,
      "countryCode": "jp",
      "rawTags": {
        "KSJ2:LIN": "豊肥線",
        "KSJ2:STN": "宮地",
        "name": "宮地",
        "name:en": "Miyaji",
        "name:ja": "宮地",
        "name:ko": "미야지",
        "network": "JR豊肥本線",
        "note": "National-Land Numerical Information (Railway) 2007, MLIT Japan",
        "note:ja": "国土数値情報（鉄道データ）平成19年　国土交通省",
        "operator": "九州旅客鉄道",
        "public_transport": "station",
        "railway": "station",
        "source": "KSJ2",
        "source_ref": "http://nlftp.mlit.go.jp/ksj/jpgis/datalist/KsjTmplt-N02-v1_1.html",
        "wheelchair": "limited",
        "wikidata": "Q6884211",
        "wikipedia": "ja:宮地駅"
      }
    },
    {
      "id": "kumamoto_station_265857448",
      "osmId": 265857448,
      "osmType": "node",
      "prefectureId": "kumamoto",
      "type": "station",
      "subtype": "jr",
      "name": "波野",
      "nameKana": null,
      "nameEn": "Namino",
      "operator": "九州旅客鉄道",
      "network": "JR豊肥本線",
      "ref": null,
      "latitude": 32.9386458,
      "longitude": 131.1949259,
      "countryCode": "jp",
      "rawTags": {
        "KSJ2:LIN": "豊肥線",
        "KSJ2:STN": "波野",
        "name": "波野",
        "name:en": "Namino",
        "name:ja": "波野",
        "name:ko": "나미노",
        "network": "JR豊肥本線",
        "note": "National-Land Numerical Information (Railway) 2007, MLIT Japan",
        "note:ja": "国土数値情報（鉄道データ）平成19年　国土交通省",
        "operator": "九州旅客鉄道",
        "public_transport": "station",
        "railway": "station",
        "source": "KSJ2",
        "source_ref": "http://nlftp.mlit.go.jp/ksj/jpgis/datalist/KsjTmplt-N02-v1_1.html",
        "wikidata": "Q6961889",
        "wikipedia": "ja:波野駅"
      }
    },
    {
      "id": "kumamoto_station_265859609",
      "osmId": 265859609,
      "osmType": "node",
      "prefectureId": "kumamoto",
      "type": "station",
      "subtype": "jr",
      "name": "赤水",
      "nameKana": null,
      "nameEn": "Akamizu",
      "operator": "九州旅客鉄道",
      "network": "JR豊肥本線",
      "ref": null,
      "latitude": 32.913399,
      "longitude": 130.9929146,
      "countryCode": "jp",
      "rawTags": {
        "KSJ2:LIN": "豊肥線",
        "KSJ2:STN": "赤水",
        "name": "赤水",
        "name:en": "Akamizu",
        "name:ja": "赤水",
        "name:ko": "아카미즈",
        "network": "JR豊肥本線",
        "note": "National-Land Numerical Information (Railway) 2007, MLIT Japan",
        "note:ja": "国土数値情報（鉄道データ）平成19年　国土交通省",
        "operator": "九州旅客鉄道",
        "public_transport": "station",
        "railway": "station",
        "source": "KSJ2",
        "source_ref": "http://nlftp.mlit.go.jp/ksj/jpgis/datalist/KsjTmplt-N02-v1_1.html",
        "wikidata": "Q4700240",
        "wikipedia": "ja:赤水駅"
      }
    },
    {
      "id": "kumamoto_station_265861854",
      "osmId": 265861854,
      "osmType": "node",
      "prefectureId": "kumamoto",
      "type": "station",
      "subtype": "jr",
      "name": "いこいの村",
      "nameKana": null,
      "nameEn": "Ikoi no mura",
      "operator": "九州旅客鉄道",
      "network": "JR豊肥本線",
      "ref": null,
      "latitude": 32.936673,
      "longitude": 131.094941,
      "countryCode": "jp",
      "rawTags": {
        "KSJ2:LIN": "豊肥線",
        "KSJ2:STN": "いこいの村",
        "name": "いこいの村",
        "name:en": "Ikoi no mura",
        "name:ja": "いこいの村",
        "name:ko": "이코이노무라",
        "network": "JR豊肥本線",
        "note": "National-Land Numerical Information (Railway) 2007, MLIT Japan",
        "note:ja": "国土数値情報（鉄道データ）平成19年　国土交通省",
        "operator": "九州旅客鉄道",
        "railway": "station",
        "source": "KSJ2",
        "source_ref": "http://nlftp.mlit.go.jp/ksj/jpgis/datalist/KsjTmplt-N02-v1_1.html",
        "wikidata": "Q11259169",
        "wikipedia": "ja:いこいの村駅"
      }
    },
    {
      "id": "kumamoto_station_265861860",
      "osmId": 265861860,
      "osmType": "node",
      "prefectureId": "kumamoto",
      "type": "station",
      "subtype": "jr",
      "name": "市ノ川",
      "nameKana": null,
      "nameEn": "Ichinokawa",
      "operator": "九州旅客鉄道",
      "network": "JR豊肥本線",
      "ref": null,
      "latitude": 32.928226,
      "longitude": 131.007968,
      "countryCode": "jp",
      "rawTags": {
        "KSJ2:LIN": "豊肥線",
        "KSJ2:STN": "市ノ川",
        "name": "市ノ川",
        "name:en": "Ichinokawa",
        "name:ja": "市ノ川",
        "name:ko": "이치노카와",
        "network": "JR豊肥本線",
        "note": "National-Land Numerical Information (Railway) 2007, MLIT Japan",
        "note:ja": "国土数値情報（鉄道データ）平成19年　国土交通省",
        "operator": "九州旅客鉄道",
        "public_transport": "station",
        "railway": "station",
        "source": "KSJ2",
        "source_ref": "http://nlftp.mlit.go.jp/ksj/jpgis/datalist/KsjTmplt-N02-v1_1.html",
        "wikidata": "Q5986234",
        "wikipedia": "ja:市ノ川駅"
      }
    },
    {
      "id": "kumamoto_station_265861913",
      "osmId": 265861913,
      "osmType": "node",
      "prefectureId": "kumamoto",
      "type": "station",
      "subtype": "jr",
      "name": "滝水",
      "nameKana": null,
      "nameEn": "Takimizu",
      "operator": "九州旅客鉄道",
      "network": "JR豊肥本線",
      "ref": null,
      "latitude": 32.9333815,
      "longitude": 131.2428285,
      "countryCode": "jp",
      "rawTags": {
        "KSJ2:LIN": "豊肥線",
        "KSJ2:STN": "滝水",
        "name": "滝水",
        "name:en": "Takimizu",
        "name:ja": "滝水",
        "name:ko": "다키미즈",
        "network": "JR豊肥本線",
        "note": "National-Land Numerical Information (Railway) 2007, MLIT Japan",
        "note:ja": "国土数値情報（鉄道データ）平成19年　国土交通省",
        "operator": "九州旅客鉄道",
        "railway": "station",
        "source": "KSJ2",
        "source_ref": "http://nlftp.mlit.go.jp/ksj/jpgis/datalist/KsjTmplt-N02-v1_1.html",
        "wikidata": "Q7678300",
        "wikipedia": "ja:滝水駅"
      }
    },
    {
      "id": "kumamoto_station_265861915",
      "osmId": 265861915,
      "osmType": "node",
      "prefectureId": "kumamoto",
      "type": "station",
      "subtype": "jr",
      "name": "阿蘇",
      "nameKana": null,
      "nameEn": "Aso",
      "operator": "九州旅客鉄道",
      "network": "JR豊肥本線",
      "ref": null,
      "latitude": 32.9374013,
      "longitude": 131.0800572,
      "countryCode": "jp",
      "rawTags": {
        "KSJ2:LIN": "豊肥線",
        "KSJ2:STN": "阿蘇",
        "name": "阿蘇",
        "name:en": "Aso",
        "name:ja": "阿蘇",
        "name:ko": "아소",
        "network": "JR豊肥本線",
        "note": "National-Land Numerical Information (Railway) 2007, MLIT Japan",
        "note:ja": "国土数値情報（鉄道データ）平成19年　国土交通省",
        "operator": "九州旅客鉄道",
        "railway": "station",
        "source": "KSJ2",
        "source_ref": "http://nlftp.mlit.go.jp/ksj/jpgis/datalist/KsjTmplt-N02-v1_1.html",
        "wikidata": "Q4807479",
        "wikipedia": "ja:阿蘇駅"
      }
    },
    {
      "id": "kumamoto_station_265863392",
      "osmId": 265863392,
      "osmType": "node",
      "prefectureId": "kumamoto",
      "type": "station",
      "subtype": "jr",
      "name": "立野",
      "nameKana": null,
      "nameEn": "Tateno",
      "operator": "九州旅客鉄道",
      "network": "JR豊肥本線",
      "ref": null,
      "latitude": 32.877493,
      "longitude": 130.9655332,
      "countryCode": "jp",
      "rawTags": {
        "KSJ2:LIN": "高森線",
        "KSJ2:STN": "立野",
        "name": "立野",
        "name:en": "Tateno",
        "name:ja": "立野",
        "name:ko": "다테노",
        "network": "JR豊肥本線",
        "note": "National-Land Numerical Information (Railway) 2007, MLIT Japan",
        "note:ja": "国土数値情報（鉄道データ）平成19年　国土交通省",
        "operator": "九州旅客鉄道",
        "public_transport": "station",
        "railway": "station",
        "source": "KSJ2",
        "source_ref": "http://nlftp.mlit.go.jp/ksj/jpgis/datalist/KsjTmplt-N02-v1_1.html",
        "wikidata": "Q7688002",
        "wikipedia": "ja:立野駅 (熊本県)"
      }
    },
    {
      "id": "kumamoto_station_265878522",
      "osmId": 265878522,
      "osmType": "node",
      "prefectureId": "kumamoto",
      "type": "station",
      "subtype": "jr",
      "name": "波多浦",
      "nameKana": null,
      "nameEn": "Hataura",
      "operator": "九州旅客鉄道",
      "network": "JR三角線",
      "ref": null,
      "latitude": 32.6156344,
      "longitude": 130.488224,
      "countryCode": "jp",
      "rawTags": {
        "KSJ2:LIN": "三角線",
        "KSJ2:STN": "波多浦",
        "name": "波多浦",
        "name:en": "Hataura",
        "name:ja": "波多浦",
        "name:ko": "하타우라",
        "network": "JR三角線",
        "note": "National-Land Numerical Information (Railway) 2007, MLIT Japan",
        "note:ja": "国土数値情報（鉄道データ）平成19年　国土交通省",
        "operator": "九州旅客鉄道",
        "public_transport": "stop_position",
        "railway": "station",
        "source": "KSJ2",
        "source_ref": "http://nlftp.mlit.go.jp/ksj/jpgis/datalist/KsjTmplt-N02-v1_1.html"
      }
    },
    {
      "id": "kumamoto_station_265878570",
      "osmId": 265878570,
      "osmType": "node",
      "prefectureId": "kumamoto",
      "type": "station",
      "subtype": "jr",
      "name": "肥後長浜",
      "nameKana": null,
      "nameEn": "Higo-Nagahama",
      "operator": "九州旅客鉄道",
      "network": "JR三角線",
      "ref": null,
      "latitude": 32.6908277,
      "longitude": 130.5605608,
      "countryCode": "jp",
      "rawTags": {
        "KSJ2:LIN": "三角線",
        "KSJ2:STN": "肥後長浜",
        "name": "肥後長浜",
        "name:en": "Higo-Nagahama",
        "name:ja": "肥後長浜",
        "name:ko": "히고나가하마",
        "network": "JR三角線",
        "note": "National-Land Numerical Information (Railway) 2007, MLIT Japan",
        "note:ja": "国土数値情報（鉄道データ）平成19年　国土交通省",
        "operator": "九州旅客鉄道",
        "public_transport": "stop_position",
        "railway": "station",
        "source": "KSJ2",
        "source_ref": "http://nlftp.mlit.go.jp/ksj/jpgis/datalist/KsjTmplt-N02-v1_1.html",
        "train": "yes"
      }
    },
    {
      "id": "kumamoto_station_265878579",
      "osmId": 265878579,
      "osmType": "node",
      "prefectureId": "kumamoto",
      "type": "station",
      "subtype": "jr",
      "name": "赤瀬",
      "nameKana": null,
      "nameEn": "Akase",
      "operator": "九州旅客鉄道",
      "network": "JR三角線",
      "ref": null,
      "latitude": 32.6532077,
      "longitude": 130.5100629,
      "countryCode": "jp",
      "rawTags": {
        "KSJ2:LIN": "三角線",
        "KSJ2:STN": "赤瀬",
        "name": "赤瀬",
        "name:en": "Akase",
        "name:ja": "赤瀬",
        "name:ko": "아카세",
        "network": "JR三角線",
        "note": "National-Land Numerical Information (Railway) 2007, MLIT Japan",
        "note:ja": "国土数値情報（鉄道データ）平成19年　国土交通省",
        "operator": "九州旅客鉄道",
        "public_transport": "station",
        "railway": "station",
        "source": "KSJ2",
        "source_ref": "http://nlftp.mlit.go.jp/ksj/jpgis/datalist/KsjTmplt-N02-v1_1.html",
        "wikidata": "Q4700327",
        "wikipedia": "ja:赤瀬駅"
      }
    },
    {
      "id": "kumamoto_station_265878883",
      "osmId": 265878883,
      "osmType": "node",
      "prefectureId": "kumamoto",
      "type": "station",
      "subtype": "jr",
      "name": "三角",
      "nameKana": null,
      "nameEn": "Misumi",
      "operator": "九州旅客鉄道",
      "network": "JR三角線",
      "ref": null,
      "latitude": 32.6077458,
      "longitude": 130.4696756,
      "countryCode": "jp",
      "rawTags": {
        "KSJ2:LIN": "三角線",
        "KSJ2:STN": "三角",
        "name": "三角",
        "name:en": "Misumi",
        "name:ja": "三角",
        "name:ko": "미스미",
        "network": "JR三角線",
        "note": "National-Land Numerical Information (Railway) 2007, MLIT Japan",
        "note:ja": "国土数値情報（鉄道データ）平成19年　国土交通省",
        "operator": "九州旅客鉄道",
        "public_transport": "station",
        "railway": "station",
        "source": "KSJ2",
        "source_ref": "http://nlftp.mlit.go.jp/ksj/jpgis/datalist/KsjTmplt-N02-v1_1.html",
        "wikidata": "Q8189975",
        "wikipedia": "ja:三角駅"
      }
    },
    {
      "id": "kumamoto_station_265908658",
      "osmId": 265908658,
      "osmType": "node",
      "prefectureId": "kumamoto",
      "type": "station",
      "subtype": "jr",
      "name": "大畑",
      "nameKana": null,
      "nameEn": "Okoba",
      "operator": "九州旅客鉄道",
      "network": "JR肥薩線",
      "ref": null,
      "latitude": 32.1648294,
      "longitude": 130.7875085,
      "countryCode": "jp",
      "rawTags": {
        "KSJ2:LIN": "肥薩線",
        "KSJ2:STN": "大畑",
        "destroyed:railway": "station",
        "ele": "294",
        "name": "大畑",
        "name:en": "Okoba",
        "name:ja": "大畑",
        "name:ko": "오코바",
        "name:ru": "Окоба",
        "network": "JR肥薩線",
        "note": "National-Land Numerical Information (Railway) 2007, MLIT Japan",
        "note:ja": "国土数値情報（鉄道データ）平成19年　国土交通省",
        "operator": "九州旅客鉄道",
        "operator:en": "Kyushu Railway Company",
        "public_transport": "station",
        "railway": "station",
        "source": "survey",
        "source:ele": "survey",
        "source_ref": "http://nlftp.mlit.go.jp/ksj/jpgis/datalist/KsjTmplt-N02-v1_1.html",
        "train": "yes",
        "wikidata": "Q7082469",
        "wikipedia": "ja:大畑駅"
      }
    },
    {
      "id": "kumamoto_station_265909358",
      "osmId": 265909358,
      "osmType": "node",
      "prefectureId": "kumamoto",
      "type": "station",
      "subtype": "jr",
      "name": "瀬戸石",
      "nameKana": null,
      "nameEn": "Setoishi",
      "operator": "九州旅客鉄道",
      "network": "JR肥薩線",
      "ref": null,
      "latitude": 32.3716467,
      "longitude": 130.6463705,
      "countryCode": "jp",
      "rawTags": {
        "KSJ2:LIN": "肥薩線",
        "KSJ2:STN": "瀬戸石",
        "destroyed:railway": "station",
        "name": "瀬戸石",
        "name:en": "Setoishi",
        "name:ja": "瀬戸石",
        "name:ko": "세토이시",
        "network": "JR肥薩線",
        "note": "National-Land Numerical Information (Railway) 2007, MLIT Japan",
        "note:ja": "国土数値情報（鉄道データ）平成19年　国土交通省",
        "operator": "九州旅客鉄道",
        "operator:en": "Kyushu Railway Company",
        "public_transport": "station",
        "railway": "station",
        "source": "KSJ2",
        "source_ref": "http://nlftp.mlit.go.jp/ksj/jpgis/datalist/KsjTmplt-N02-v1_1.html",
        "train": "yes",
        "wikidata": "Q7456760",
        "wikipedia": "ja:瀬戸石駅"
      }
    },
    {
      "id": "kumamoto_station_265909633",
      "osmId": 265909633,
      "osmType": "node",
      "prefectureId": "kumamoto",
      "type": "station",
      "subtype": "jr",
      "name": "那良口",
      "nameKana": null,
      "nameEn": "Naraguchi",
      "operator": "九州旅客鉄道",
      "network": "JR肥薩線",
      "ref": null,
      "latitude": 32.2436585,
      "longitude": 130.6674754,
      "countryCode": "jp",
      "rawTags": {
        "KSJ2:LIN": "肥薩線",
        "KSJ2:STN": "那良口",
        "destroyed:railway": "station",
        "name": "那良口",
        "name:en": "Naraguchi",
        "name:ja": "那良口",
        "name:ko": "나라구치",
        "network": "JR肥薩線",
        "note": "National-Land Numerical Information (Railway) 2007, MLIT Japan",
        "note:ja": "国土数値情報（鉄道データ）平成19年　国土交通省",
        "operator": "九州旅客鉄道",
        "operator:en": "Kyushu Railway Company",
        "operator:ja": "九州旅客鉄道",
        "public_transport": "station",
        "railway": "station",
        "source": "KSJ2",
        "source_ref": "http://nlftp.mlit.go.jp/ksj/jpgis/datalist/KsjTmplt-N02-v1_1.html",
        "train": "yes",
        "wikidata": "Q6965273",
        "wikipedia": "ja:那良口駅"
      }
    },
    {
      "id": "kumamoto_station_265909635",
      "osmId": 265909635,
      "osmType": "node",
      "prefectureId": "kumamoto",
      "type": "station",
      "subtype": "jr",
      "name": "西人吉",
      "nameKana": null,
      "nameEn": "Nishihitoyoshi",
      "operator": "九州旅客鉄道",
      "network": "JR肥薩線",
      "ref": null,
      "latitude": 32.2285306,
      "longitude": 130.7253963,
      "countryCode": "jp",
      "rawTags": {
        "KSJ2:LIN": "肥薩線",
        "KSJ2:STN": "西人吉",
        "destroyed:railway": "station",
        "name": "西人吉",
        "name:en": "Nishihitoyoshi",
        "name:ja": "西人吉",
        "name:ko": "니시히토요시",
        "network": "JR肥薩線",
        "note": "National-Land Numerical Information (Railway) 2007, MLIT Japan",
        "note:ja": "国土数値情報（鉄道データ）平成19年　国土交通省",
        "operator": "九州旅客鉄道",
        "operator:en": "Kyushu Railway Company",
        "public_transport": "station",
        "railway": "station",
        "source": "KSJ2",
        "source_ref": "http://nlftp.mlit.go.jp/ksj/jpgis/datalist/KsjTmplt-N02-v1_1.html",
        "train": "yes",
        "wikidata": "Q7040348",
        "wikipedia": "ja:西人吉駅"
      }
    },
    {
      "id": "kumamoto_station_265909639",
      "osmId": 265909639,
      "osmType": "node",
      "prefectureId": "kumamoto",
      "type": "station",
      "subtype": "jr",
      "name": "渡",
      "nameKana": null,
      "nameEn": "Watari",
      "operator": "九州旅客鉄道",
      "network": "JR肥薩線",
      "ref": null,
      "latitude": 32.2369141,
      "longitude": 130.6947569,
      "countryCode": "jp",
      "rawTags": {
        "KSJ2:LIN": "肥薩線",
        "KSJ2:STN": "渡",
        "destroyed:railway": "station",
        "name": "渡",
        "name:en": "Watari",
        "name:ja": "渡",
        "name:ko": "와타리",
        "network": "JR肥薩線",
        "note": "National-Land Numerical Information (Railway) 2007, MLIT Japan",
        "note:ja": "国土数値情報（鉄道データ）平成19年　国土交通省",
        "operator": "九州旅客鉄道",
        "operator:en": "Kyushu Railway Company",
        "operator:ja": "九州旅客鉄道",
        "public_transport": "station",
        "railway": "station",
        "source": "KSJ2",
        "source_ref": "http://nlftp.mlit.go.jp/ksj/jpgis/datalist/KsjTmplt-N02-v1_1.html",
        "train": "yes",
        "wikidata": "Q7973006",
        "wikipedia": "ja:渡駅"
      }
    },
    {
      "id": "kumamoto_station_265909710",
      "osmId": 265909710,
      "osmType": "node",
      "prefectureId": "kumamoto",
      "type": "station",
      "subtype": "jr",
      "name": "一勝地",
      "nameKana": null,
      "nameEn": "Isshochi",
      "operator": "九州旅客鉄道",
      "network": "JR肥薩線",
      "ref": null,
      "latitude": 32.2501406,
      "longitude": 130.6521695,
      "countryCode": "jp",
      "rawTags": {
        "KSJ2:LIN": "肥薩線",
        "KSJ2:STN": "一勝地",
        "destroyed:railway": "station",
        "name": "一勝地",
        "name:en": "Isshochi",
        "name:ja": "一勝地",
        "name:ko": "잇쇼치",
        "network": "JR肥薩線",
        "note": "National-Land Numerical Information (Railway) 2007, MLIT Japan",
        "note:ja": "国土数値情報（鉄道データ）平成19年　国土交通省",
        "operator": "九州旅客鉄道",
        "operator:en": "Kyushu Railway Company",
        "public_transport": "station",
        "railway": "station",
        "source": "KSJ2",
        "source_ref": "http://nlftp.mlit.go.jp/ksj/jpgis/datalist/KsjTmplt-N02-v1_1.html",
        "train": "yes",
        "wikidata": "Q6088261",
        "wikipedia": "ja:一勝地駅"
      }
    },
    {
      "id": "kumamoto_station_265909878",
      "osmId": 265909878,
      "osmType": "node",
      "prefectureId": "kumamoto",
      "type": "station",
      "subtype": "jr",
      "name": "吉尾",
      "nameKana": null,
      "nameEn": "Yoshio",
      "operator": "九州旅客鉄道",
      "network": "JR肥薩線",
      "ref": null,
      "latitude": 32.3305625,
      "longitude": 130.6001248,
      "countryCode": "jp",
      "rawTags": {
        "KSJ2:LIN": "肥薩線",
        "KSJ2:STN": "吉尾",
        "destroyed:railway": "station",
        "name": "吉尾",
        "name:en": "Yoshio",
        "name:ja": "吉尾",
        "name:ko": "요시오",
        "network": "JR肥薩線",
        "note": "National-Land Numerical Information (Railway) 2007, MLIT Japan",
        "note:ja": "国土数値情報（鉄道データ）平成19年　国土交通省",
        "operator": "九州旅客鉄道",
        "operator:en": "Kyushu Railway Company",
        "public_transport": "station",
        "railway": "station",
        "source": "KSJ2",
        "source_ref": "http://nlftp.mlit.go.jp/ksj/jpgis/datalist/KsjTmplt-N02-v1_1.html",
        "train": "yes",
        "wikidata": "Q8056257",
        "wikipedia": "ja:吉尾駅"
      }
    },
    {
      "id": "kumamoto_station_265909899",
      "osmId": 265909899,
      "osmType": "node",
      "prefectureId": "kumamoto",
      "type": "station",
      "subtype": "jr",
      "name": "海路",
      "nameKana": null,
      "nameEn": "Kaiji",
      "operator": "九州旅客鉄道",
      "network": "JR肥薩線",
      "ref": null,
      "latitude": 32.3492095,
      "longitude": 130.6190892,
      "countryCode": "jp",
      "rawTags": {
        "KSJ2:LIN": "肥薩線",
        "KSJ2:STN": "海路",
        "destroyed:railway": "station",
        "name": "海路",
        "name:en": "Kaiji",
        "name:ja": "海路",
        "name:ko": "가이지",
        "network": "JR肥薩線",
        "note": "National-Land Numerical Information (Railway) 2007, MLIT Japan",
        "note:ja": "国土数値情報（鉄道データ）平成19年　国土交通省",
        "operator": "九州旅客鉄道",
        "operator:en": "Kyushu Railway Company",
        "public_transport": "station",
        "railway": "station",
        "source": "KSJ2",
        "source_ref": "http://nlftp.mlit.go.jp/ksj/jpgis/datalist/KsjTmplt-N02-v1_1.html",
        "train": "yes",
        "wikidata": "Q6347735",
        "wikipedia": "ja:海路駅"
      }
    },
    {
      "id": "kumamoto_station_265912818",
      "osmId": 265912818,
      "osmType": "node",
      "prefectureId": "kumamoto",
      "type": "station",
      "subtype": "jr",
      "name": "球泉洞",
      "nameKana": null,
      "nameEn": "Kyusendo",
      "operator": "九州旅客鉄道",
      "network": "JR肥薩線",
      "ref": null,
      "latitude": 32.2679909,
      "longitude": 130.6081653,
      "countryCode": "jp",
      "rawTags": {
        "KSJ2:LIN": "肥薩線",
        "KSJ2:STN": "球泉洞",
        "destroyed:railway": "station",
        "name": "球泉洞",
        "name:en": "Kyusendo",
        "name:ja": "球泉洞",
        "name:ko": "규센도",
        "network": "JR肥薩線",
        "note": "National-Land Numerical Information (Railway) 2007, MLIT Japan",
        "note:ja": "国土数値情報（鉄道データ）平成19年　国土交通省",
        "operator": "九州旅客鉄道",
        "operator:en": "Kyushu Railway Company",
        "public_transport": "station",
        "railway": "station",
        "source": "KSJ2",
        "source_ref": "http://nlftp.mlit.go.jp/ksj/jpgis/datalist/KsjTmplt-N02-v1_1.html",
        "train": "yes",
        "wikidata": "Q6453150",
        "wikipedia": "ja:球泉洞駅"
      }
    },
    {
      "id": "kumamoto_station_265912885",
      "osmId": 265912885,
      "osmType": "node",
      "prefectureId": "kumamoto",
      "type": "station",
      "subtype": "jr",
      "name": "葉木",
      "nameKana": null,
      "nameEn": "Haki",
      "operator": "九州旅客鉄道",
      "network": "JR肥薩線",
      "ref": null,
      "latitude": 32.4106196,
      "longitude": 130.6451645,
      "countryCode": "jp",
      "rawTags": {
        "KSJ2:LIN": "肥薩線",
        "KSJ2:STN": "葉木",
        "destroyed:railway": "station",
        "name": "葉木",
        "name:en": "Haki",
        "name:ja": "葉木",
        "name:ko": "하키",
        "network": "JR肥薩線",
        "note": "National-Land Numerical Information (Railway) 2007, MLIT Japan",
        "note:ja": "国土数値情報（鉄道データ）平成19年　国土交通省",
        "operator": "九州旅客鉄道",
        "operator:en": "Kyushu Railway Company",
        "public_transport": "station",
        "railway": "station",
        "source": "KSJ2",
        "source_ref": "http://nlftp.mlit.go.jp/ksj/jpgis/datalist/KsjTmplt-N02-v1_1.html",
        "train": "yes",
        "wikidata": "Q5640459",
        "wikipedia": "ja:葉木駅"
      }
    },
    {
      "id": "kumamoto_station_265913515",
      "osmId": 265913515,
      "osmType": "node",
      "prefectureId": "kumamoto",
      "type": "station",
      "subtype": "jr",
      "name": "白石",
      "nameKana": null,
      "nameEn": "Shiroishi",
      "operator": "九州旅客鉄道",
      "network": "JR肥薩線",
      "ref": null,
      "latitude": 32.305994,
      "longitude": 130.608664,
      "countryCode": "jp",
      "rawTags": {
        "KSJ2:LIN": "肥薩線",
        "KSJ2:STN": "白石",
        "destroyed:railway": "station",
        "name": "白石",
        "name:en": "Shiroishi",
        "name:ja": "白石",
        "name:ko": "시로이시",
        "network": "JR肥薩線",
        "note": "National-Land Numerical Information (Railway) 2007, MLIT Japan",
        "note:ja": "国土数値情報（鉄道データ）平成19年　国土交通省",
        "operator": "九州旅客鉄道",
        "operator:en": "Kyushu Railway Company",
        "public_transport": "station",
        "railway": "station",
        "source": "KSJ2",
        "source_ref": "http://nlftp.mlit.go.jp/ksj/jpgis/datalist/KsjTmplt-N02-v1_1.html",
        "train": "yes",
        "wikidata": "Q7498921",
        "wikipedia": "ja:白石駅 (熊本県)"
      }
    },
    {
      "id": "kumamoto_station_265913620",
      "osmId": 265913620,
      "osmType": "node",
      "prefectureId": "kumamoto",
      "type": "station",
      "subtype": "jr",
      "name": "段",
      "nameKana": null,
      "nameEn": "Dan",
      "operator": "九州旅客鉄道",
      "network": "JR肥薩線",
      "ref": null,
      "latitude": 32.4678697,
      "longitude": 130.6458441,
      "countryCode": "jp",
      "rawTags": {
        "KSJ2:LIN": "肥薩線",
        "KSJ2:STN": "段",
        "destroyed:railway": "station",
        "name": "段",
        "name:en": "Dan",
        "name:ja": "段",
        "name:ko": "단",
        "network": "JR肥薩線",
        "note": "National-Land Numerical Information (Railway) 2007, MLIT Japan",
        "note:ja": "国土数値情報（鉄道データ）平成19年　国土交通省",
        "operator": "九州旅客鉄道",
        "operator:en": "Kyushu Railway Company",
        "public_transport": "station",
        "railway": "station",
        "source": "KSJ2",
        "source_ref": "http://nlftp.mlit.go.jp/ksj/jpgis/datalist/KsjTmplt-N02-v1_1.html",
        "train": "yes",
        "wikidata": "Q5214441",
        "wikipedia": "ja:段駅"
      }
    },
    {
      "id": "kumamoto_station_265915756",
      "osmId": 265915756,
      "osmType": "node",
      "prefectureId": "kumamoto",
      "type": "station",
      "subtype": "jr",
      "name": "鎌瀬",
      "nameKana": null,
      "nameEn": "Kamase",
      "operator": "九州旅客鉄道",
      "network": "JR肥薩線",
      "ref": null,
      "latitude": 32.3909067,
      "longitude": 130.6547004,
      "countryCode": "jp",
      "rawTags": {
        "KSJ2:LIN": "肥薩線",
        "KSJ2:STN": "鎌瀬",
        "destroyed:railway": "station",
        "name": "鎌瀬",
        "name:en": "Kamase",
        "name:ja": "鎌瀬",
        "name:ko": "가마세",
        "network": "JR肥薩線",
        "note": "National-Land Numerical Information (Railway) 2007, MLIT Japan",
        "note:ja": "国土数値情報（鉄道データ）平成19年　国土交通省",
        "operator": "九州旅客鉄道",
        "operator:en": "Kyushu Railway Company",
        "public_transport": "station",
        "railway": "station",
        "source": "KSJ2",
        "source_ref": "http://nlftp.mlit.go.jp/ksj/jpgis/datalist/KsjTmplt-N02-v1_1.html",
        "train": "yes",
        "wikidata": "Q6356123",
        "wikipedia": "ja:鎌瀬駅"
      }
    },
    {
      "id": "kumamoto_station_265915961",
      "osmId": 265915961,
      "osmType": "node",
      "prefectureId": "kumamoto",
      "type": "station",
      "subtype": "jr",
      "name": "矢岳",
      "nameKana": null,
      "nameEn": "Yatake",
      "operator": "九州旅客鉄道",
      "network": "JR肥薩線",
      "ref": null,
      "latitude": 32.1043058,
      "longitude": 130.7698091,
      "countryCode": "jp",
      "rawTags": {
        "KSJ2:LIN": "肥薩線",
        "KSJ2:STN": "矢岳",
        "destroyed:railway": "station",
        "name": "矢岳",
        "name:en": "Yatake",
        "name:ja": "矢岳",
        "name:ko": "야타케",
        "network": "JR肥薩線",
        "note": "National-Land Numerical Information (Railway) 2007, MLIT Japan",
        "note:ja": "国土数値情報（鉄道データ）平成19年　国土交通省",
        "operator": "九州旅客鉄道",
        "operator:en": "Kyushu Railway Company",
        "operator:ja": "九州旅客鉄道",
        "public_transport": "station",
        "railway": "station",
        "source": "KSJ2",
        "source_ref": "http://nlftp.mlit.go.jp/ksj/jpgis/datalist/KsjTmplt-N02-v1_1.html",
        "train": "yes",
        "wikidata": "Q8050160",
        "wikipedia": "ja:矢岳駅"
      }
    },
    {
      "id": "kumamoto_station_265915964",
      "osmId": 265915964,
      "osmType": "node",
      "prefectureId": "kumamoto",
      "type": "station",
      "subtype": "jr",
      "name": "坂本",
      "nameKana": null,
      "nameEn": "Sakamoto",
      "operator": "九州旅客鉄道",
      "network": "JR肥薩線",
      "ref": null,
      "latitude": 32.4348828,
      "longitude": 130.6579493,
      "countryCode": "jp",
      "rawTags": {
        "KSJ2:LIN": "肥薩線",
        "KSJ2:STN": "坂本",
        "destroyed:railway": "station",
        "name": "坂本",
        "name:en": "Sakamoto",
        "name:ja": "坂本",
        "name:ko": "사카모토",
        "network": "JR肥薩線",
        "note": "National-Land Numerical Information (Railway) 2007, MLIT Japan",
        "note:ja": "国土数値情報（鉄道データ）平成19年　国土交通省",
        "operator": "九州旅客鉄道",
        "operator:en": "Kyushu Railway Company",
        "public_transport": "station",
        "railway": "station",
        "source": "KSJ2",
        "source_ref": "http://nlftp.mlit.go.jp/ksj/jpgis/datalist/KsjTmplt-N02-v1_1.html",
        "train": "yes",
        "wikidata": "Q7402814",
        "wikipedia": "ja:坂本駅 (熊本県)"
      }
    },
    {
      "id": "kumamoto_station_265926986",
      "osmId": 265926986,
      "osmType": "node",
      "prefectureId": "kumamoto",
      "type": "station",
      "subtype": "private",
      "name": "湯前",
      "nameKana": null,
      "nameEn": "Yunomae",
      "operator": "くま川鉄道",
      "network": "くま川鉄道湯前線",
      "ref": null,
      "latitude": 32.281475,
      "longitude": 130.979927,
      "countryCode": "jp",
      "rawTags": {
        "KSJ2:LIN": "湯前線",
        "KSJ2:STN": "湯前",
        "name": "湯前",
        "name:en": "Yunomae",
        "name:ja": "湯前",
        "name:ko": "유노마에",
        "network": "くま川鉄道湯前線",
        "note": "National-Land Numerical Information (Railway) 2007, MLIT Japan",
        "note:ja": "国土数値情報（鉄道データ）平成19年　国土交通省",
        "operator": "くま川鉄道",
        "railway": "station",
        "source": "KSJ2",
        "source_ref": "http://nlftp.mlit.go.jp/ksj/jpgis/datalist/KsjTmplt-N02-v1_1.html",
        "wikidata": "Q8061364",
        "wikipedia": "ja:湯前駅"
      }
    },
    {
      "id": "kumamoto_station_265926992",
      "osmId": 265926992,
      "osmType": "node",
      "prefectureId": "kumamoto",
      "type": "station",
      "subtype": "private",
      "name": "一武",
      "nameKana": null,
      "nameEn": "Ichibu",
      "operator": "くま川鉄道",
      "network": "くま川鉄道湯前線",
      "ref": null,
      "latitude": 32.2145539,
      "longitude": 130.8399247,
      "countryCode": "jp",
      "rawTags": {
        "KSJ2:LIN": "湯前線",
        "KSJ2:STN": "一武",
        "name": "一武",
        "name:en": "Ichibu",
        "name:ja": "一武",
        "name:ko": "이치부",
        "network": "くま川鉄道湯前線",
        "note": "National-Land Numerical Information (Railway) 2007, MLIT Japan",
        "note:ja": "国土数値情報（鉄道データ）平成19年　国土交通省",
        "operator": "くま川鉄道",
        "public_transport": "station",
        "railway": "station",
        "source": "KSJ2",
        "source_ref": "http://nlftp.mlit.go.jp/ksj/jpgis/datalist/KsjTmplt-N02-v1_1.html",
        "wikidata": "Q10863990",
        "wikipedia": "ja:一武駅"
      }
    },
    {
      "id": "kumamoto_station_265927179",
      "osmId": 265927179,
      "osmType": "node",
      "prefectureId": "kumamoto",
      "type": "station",
      "subtype": "private",
      "name": "多良木",
      "nameKana": null,
      "nameEn": "Taragi",
      "operator": "くま川鉄道",
      "network": "くま川鉄道湯前線",
      "ref": null,
      "latitude": 32.2629818,
      "longitude": 130.9336057,
      "countryCode": "jp",
      "rawTags": {
        "KSJ2:LIN": "湯前線",
        "KSJ2:STN": "多良木",
        "name": "多良木",
        "name:en": "Taragi",
        "name:ja": "多良木",
        "name:ko": "다라기",
        "network": "くま川鉄道湯前線",
        "note": "National-Land Numerical Information (Railway) 2007, MLIT Japan",
        "note:ja": "国土数値情報（鉄道データ）平成19年　国土交通省",
        "operator": "くま川鉄道",
        "public_transport": "station",
        "railway": "station",
        "source": "KSJ2",
        "source_ref": "http://nlftp.mlit.go.jp/ksj/jpgis/datalist/KsjTmplt-N02-v1_1.html",
        "wikidata": "Q10932958",
        "wikipedia": "ja:多良木駅"
      }
    },
    {
      "id": "kumamoto_station_265927185",
      "osmId": 265927185,
      "osmType": "node",
      "prefectureId": "kumamoto",
      "type": "station",
      "subtype": "private",
      "name": "木上",
      "nameKana": null,
      "nameEn": "Kinoe",
      "operator": "くま川鉄道",
      "network": "くま川鉄道湯前線",
      "ref": null,
      "latitude": 32.2241381,
      "longitude": 130.8586812,
      "countryCode": "jp",
      "rawTags": {
        "KSJ2:LIN": "湯前線",
        "KSJ2:STN": "木上",
        "name": "木上",
        "name:en": "Kinoe",
        "name:ja": "木上",
        "name:ko": "기노에",
        "network": "くま川鉄道湯前線",
        "note": "National-Land Numerical Information (Railway) 2007, MLIT Japan",
        "note:ja": "国土数値情報（鉄道データ）平成19年　国土交通省",
        "operator": "くま川鉄道",
        "public_transport": "station",
        "railway": "station",
        "source": "KSJ2",
        "source_ref": "http://nlftp.mlit.go.jp/ksj/jpgis/datalist/KsjTmplt-N02-v1_1.html",
        "wikidata": "Q11092820",
        "wikipedia": "ja:木上駅"
      }
    },
    {
      "id": "kumamoto_station_265927188",
      "osmId": 265927188,
      "osmType": "node",
      "prefectureId": "kumamoto",
      "type": "station",
      "subtype": "private",
      "name": "公立病院前",
      "nameKana": null,
      "nameEn": "Kōritsubyōinmae",
      "operator": "くま川鉄道",
      "network": "くま川鉄道湯前線",
      "ref": null,
      "latitude": 32.255852,
      "longitude": 130.921579,
      "countryCode": "jp",
      "rawTags": {
        "KSJ2:LIN": "湯前線",
        "KSJ2:STN": "公立病院前",
        "alt_name:ko": "고리쓰뵤인마에",
        "name": "公立病院前",
        "name:en": "Kōritsubyōinmae",
        "name:ja": "公立病院前",
        "name:ko": "공립병원앞",
        "network": "くま川鉄道湯前線",
        "note": "National-Land Numerical Information (Railway) 2007, MLIT Japan",
        "note:ja": "国土数値情報（鉄道データ）平成19年　国土交通省",
        "operator": "くま川鉄道",
        "public_transport": "station",
        "railway": "station",
        "source": "KSJ2",
        "source_ref": "http://nlftp.mlit.go.jp/ksj/jpgis/datalist/KsjTmplt-N02-v1_1.html",
        "wikidata": "Q10892986",
        "wikipedia": "ja:公立病院前駅"
      }
    },
    {
      "id": "kumamoto_station_265927239",
      "osmId": 265927239,
      "osmType": "node",
      "prefectureId": "kumamoto",
      "type": "station",
      "subtype": "private",
      "name": "あさぎり",
      "nameKana": null,
      "nameEn": "Asagiri",
      "operator": "くま川鉄道",
      "network": "くま川鉄道湯前線",
      "ref": null,
      "latitude": 32.2363192,
      "longitude": 130.8939365,
      "countryCode": "jp",
      "rawTags": {
        "KSJ2:LIN": "湯前線",
        "name": "あさぎり",
        "name:en": "Asagiri",
        "name:ja": "あさぎり",
        "name:ko": "아사기리",
        "network": "くま川鉄道湯前線",
        "old_name": "免田",
        "operator": "くま川鉄道",
        "public_transport": "station",
        "railway": "station",
        "source": "KSJ2",
        "source_ref": "http://nlftp.mlit.go.jp/ksj/jpgis/datalist/KsjTmplt-N02-v1_1.html",
        "wikidata": "Q11092703",
        "wikipedia": "ja:あさぎり駅"
      }
    },
    {
      "id": "kumamoto_station_265927760",
      "osmId": 265927760,
      "osmType": "node",
      "prefectureId": "kumamoto",
      "type": "station",
      "subtype": "private",
      "name": "東多良木",
      "nameKana": null,
      "nameEn": "Higashi-Taragi",
      "operator": "くま川鉄道",
      "network": "くま川鉄道湯前線",
      "ref": null,
      "latitude": 32.2721553,
      "longitude": 130.9504449,
      "countryCode": "jp",
      "rawTags": {
        "KSJ2:LIN": "湯前線",
        "KSJ2:STN": "東多良木",
        "name": "東多良木",
        "name:en": "Higashi-Taragi",
        "name:ja": "東多良木",
        "name:ko": "히가시타라기",
        "network": "くま川鉄道湯前線",
        "note": "National-Land Numerical Information (Railway) 2007, MLIT Japan",
        "note:ja": "国土数値情報（鉄道データ）平成19年　国土交通省",
        "operator": "くま川鉄道",
        "operator:ja": "九州旅客鉄道",
        "public_transport": "station",
        "railway": "station",
        "source": "KSJ2",
        "source_ref": "http://nlftp.mlit.go.jp/ksj/jpgis/datalist/KsjTmplt-N02-v1_1.html",
        "train": "yes",
        "wikidata": "Q11103224",
        "wikipedia": "ja:東多良木駅"
      }
    },
    {
      "id": "kumamoto_station_265927763",
      "osmId": 265927763,
      "osmType": "node",
      "prefectureId": "kumamoto",
      "type": "station",
      "subtype": "private",
      "name": "川村",
      "nameKana": null,
      "nameEn": "Kawamura",
      "operator": "くま川鉄道",
      "network": "くま川鉄道湯前線",
      "ref": null,
      "latitude": 32.2072475,
      "longitude": 130.7957172,
      "countryCode": "jp",
      "rawTags": {
        "KSJ2:LIN": "湯前線",
        "KSJ2:STN": "川村",
        "destroyed:railway": "station",
        "name": "川村",
        "name:en": "Kawamura",
        "name:ja": "川村",
        "name:ko": "가와무라",
        "network": "くま川鉄道湯前線",
        "note": "National-Land Numerical Information (Railway) 2007, MLIT Japan",
        "note:ja": "国土数値情報（鉄道データ）平成19年　国土交通省",
        "operator": "くま川鉄道",
        "public_transport": "station",
        "railway": "station",
        "source": "KSJ2",
        "source_ref": "http://nlftp.mlit.go.jp/ksj/jpgis/datalist/KsjTmplt-N02-v1_1.html",
        "train": "yes",
        "wikidata": "Q11055294",
        "wikipedia": "ja:川村駅 (熊本県)"
      }
    },
    {
      "id": "kumamoto_station_265928336",
      "osmId": 265928336,
      "osmType": "node",
      "prefectureId": "kumamoto",
      "type": "station",
      "subtype": "private",
      "name": "おかどめ幸福",
      "nameKana": null,
      "nameEn": "Okadome-Kōfuku",
      "operator": "くま川鉄道",
      "network": "くま川鉄道湯前線",
      "ref": null,
      "latitude": 32.231476,
      "longitude": 130.8751642,
      "countryCode": "jp",
      "rawTags": {
        "KSJ2:LIN": "湯前線",
        "KSJ2:STN": "おかどめ幸福",
        "alt_name:ko": "오카도메코후쿠",
        "name": "おかどめ幸福",
        "name:en": "Okadome-Kōfuku",
        "name:ja": "おかどめ幸福",
        "name:ko": "오카도메행복",
        "network": "くま川鉄道湯前線",
        "note": "National-Land Numerical Information (Railway) 2007, MLIT Japan",
        "note:ja": "国土数値情報（鉄道データ）平成19年　国土交通省",
        "operator": "くま川鉄道",
        "public_transport": "station",
        "railway": "station",
        "source": "KSJ2",
        "source_ref": "http://nlftp.mlit.go.jp/ksj/jpgis/datalist/KsjTmplt-N02-v1_1.html",
        "wikidata": "Q11048900",
        "wikipedia": "ja:おかどめ幸福駅"
      }
    },
    {
      "id": "kumamoto_station_265928341",
      "osmId": 265928341,
      "osmType": "node",
      "prefectureId": "kumamoto",
      "type": "station",
      "subtype": "private",
      "name": "新鶴羽",
      "nameKana": null,
      "nameEn": "Shin-Tsuruba",
      "operator": "くま川鉄道",
      "network": "くま川鉄道湯前線",
      "ref": null,
      "latitude": 32.2754172,
      "longitude": 130.9659264,
      "countryCode": "jp",
      "rawTags": {
        "KSJ2:LIN": "湯前線",
        "KSJ2:STN": "新鶴羽",
        "name": "新鶴羽",
        "name:en": "Shin-Tsuruba",
        "name:ja": "新鶴羽",
        "name:ko": "신쓰루바",
        "network": "くま川鉄道湯前線",
        "note": "National-Land Numerical Information (Railway) 2007, MLIT Japan",
        "note:ja": "国土数値情報（鉄道データ）平成19年　国土交通省",
        "operator": "くま川鉄道",
        "public_transport": "station",
        "railway": "station",
        "source": "KSJ2",
        "source_ref": "http://nlftp.mlit.go.jp/ksj/jpgis/datalist/KsjTmplt-N02-v1_1.html",
        "wikidata": "Q11084578",
        "wikipedia": "ja:新鶴羽駅"
      }
    },
    {
      "id": "kumamoto_station_265928422",
      "osmId": 265928422,
      "osmType": "node",
      "prefectureId": "kumamoto",
      "type": "station",
      "subtype": "private",
      "name": "肥後西村",
      "nameKana": null,
      "nameEn": "Higo-Nishinomura",
      "operator": "くま川鉄道",
      "network": "くま川鉄道湯前線",
      "ref": null,
      "latitude": 32.2023276,
      "longitude": 130.808893,
      "countryCode": "jp",
      "rawTags": {
        "KSJ2:LIN": "湯前線",
        "KSJ2:STN": "肥後西村",
        "name": "肥後西村",
        "name:en": "Higo-Nishinomura",
        "name:ja": "肥後西村",
        "name:ko": "히고니시노무라",
        "network": "くま川鉄道湯前線",
        "note": "National-Land Numerical Information (Railway) 2007, MLIT Japan",
        "note:ja": "国土数値情報（鉄道データ）平成19年　国土交通省",
        "operator": "くま川鉄道",
        "public_transport": "station",
        "railway": "station",
        "source": "KSJ2",
        "source_ref": "http://nlftp.mlit.go.jp/ksj/jpgis/datalist/KsjTmplt-N02-v1_1.html",
        "wikidata": "Q11611584",
        "wikipedia": "ja:肥後西村駅"
      }
    },
    {
      "id": "kumamoto_station_265928642",
      "osmId": 265928642,
      "osmType": "node",
      "prefectureId": "kumamoto",
      "type": "station",
      "subtype": "private",
      "name": "東免田",
      "nameKana": null,
      "nameEn": "Higashi-Menda",
      "operator": "くま川鉄道",
      "network": "くま川鉄道湯前線",
      "ref": null,
      "latitude": 32.250454,
      "longitude": 130.913356,
      "countryCode": "jp",
      "rawTags": {
        "KSJ2:LIN": "湯前線",
        "KSJ2:STN": "東免田",
        "name": "東免田",
        "name:en": "Higashi-Menda",
        "name:ja": "東免田",
        "name:ko": "히가시멘다",
        "network": "くま川鉄道湯前線",
        "note": "National-Land Numerical Information (Railway) 2007, MLIT Japan",
        "note:ja": "国土数値情報（鉄道データ）平成19年　国土交通省",
        "operator": "くま川鉄道",
        "public_transport": "station",
        "railway": "station",
        "source": "KSJ2",
        "source_ref": "http://nlftp.mlit.go.jp/ksj/jpgis/datalist/KsjTmplt-N02-v1_1.html",
        "wikidata": "Q11103071",
        "wikipedia": "ja:東免田駅"
      }
    },
    {
      "id": "kumamoto_station_265928862",
      "osmId": 265928862,
      "osmType": "node",
      "prefectureId": "kumamoto",
      "type": "station",
      "subtype": "private",
      "name": "相良藩願成寺",
      "nameKana": null,
      "nameEn": "Sagarahanganjoji",
      "operator": "くま川鉄道",
      "network": "くま川鉄道湯前線",
      "ref": null,
      "latitude": 32.218354,
      "longitude": 130.7695692,
      "countryCode": "jp",
      "rawTags": {
        "KSJ2:LIN": "湯前線",
        "KSJ2:STN": "相良藩願成寺",
        "destroyed:railway": "station",
        "name": "相良藩願成寺",
        "name:en": "Sagarahanganjoji",
        "name:ja": "相良藩願成寺",
        "name:ko": "사가라한간조지",
        "network": "くま川鉄道湯前線",
        "note": "National-Land Numerical Information (Railway) 2007, MLIT Japan",
        "note:ja": "国土数値情報（鉄道データ）平成19年　国土交通省",
        "operator": "くま川鉄道",
        "public_transport": "station",
        "railway": "station",
        "source": "KSJ2",
        "source_ref": "http://nlftp.mlit.go.jp/ksj/jpgis/datalist/KsjTmplt-N02-v1_1.html",
        "train": "yes",
        "wikidata": "Q11582377",
        "wikipedia": "ja:相良藩願成寺駅"
      }
    },
    {
      "id": "kumamoto_station_270882948",
      "osmId": 270882948,
      "osmType": "node",
      "prefectureId": "kumamoto",
      "type": "station",
      "subtype": "private",
      "name": "須屋",
      "nameKana": null,
      "nameEn": "Suya",
      "operator": "熊本電気鉄道",
      "network": "熊本電気鉄道菊池線",
      "ref": null,
      "latitude": 32.8578544,
      "longitude": 130.7364825,
      "countryCode": "jp",
      "rawTags": {
        "KSJ2:LIN": "菊池線",
        "KSJ2:STN": "須屋",
        "name": "須屋",
        "name:en": "Suya",
        "name:ja": "須屋",
        "name:ko": "스야",
        "network": "熊本電気鉄道菊池線",
        "note": "National-Land Numerical Information (Railway) 2007, MLIT Japan",
        "note:ja": "国土数値情報（鉄道データ）平成19年　国土交通省",
        "operator": "熊本電気鉄道",
        "public_transport": "station",
        "railway": "station",
        "source": "KSJ2",
        "source_ref": "http://nlftp.mlit.go.jp/ksj/jpgis/datalist/KsjTmplt-N02-v1_1.html",
        "wikidata": "Q11664530",
        "wikipedia": "ja:須屋駅"
      }
    },
    {
      "id": "kumamoto_station_270882963",
      "osmId": 270882963,
      "osmType": "node",
      "prefectureId": "kumamoto",
      "type": "station",
      "subtype": "private",
      "name": "黒石",
      "nameKana": null,
      "nameEn": "Kuroishi",
      "operator": "熊本電気鉄道",
      "network": "熊本電気鉄道菊池線",
      "ref": null,
      "latitude": 32.87037,
      "longitude": 130.7421145,
      "countryCode": "jp",
      "rawTags": {
        "KSJ2:LIN": "菊池線",
        "KSJ2:STN": "黒石",
        "name": "黒石",
        "name:en": "Kuroishi",
        "name:ja": "黒石",
        "name:ko": "구로이시",
        "network": "熊本電気鉄道菊池線",
        "note": "National-Land Numerical Information (Railway) 2007, MLIT Japan",
        "note:ja": "国土数値情報（鉄道データ）平成19年　国土交通省",
        "operator": "熊本電気鉄道",
        "public_transport": "station",
        "railway": "station",
        "source": "KSJ2",
        "source_ref": "http://nlftp.mlit.go.jp/ksj/jpgis/datalist/KsjTmplt-N02-v1_1.html",
        "wikidata": "Q11678754",
        "wikipedia": "ja:黒石駅 (熊本県)"
      }
    },
    {
      "id": "kumamoto_station_270882968",
      "osmId": 270882968,
      "osmType": "node",
      "prefectureId": "kumamoto",
      "type": "station",
      "subtype": "private",
      "name": "熊本高専前",
      "nameKana": null,
      "nameEn": "Kumamotokosen-mae",
      "operator": "熊本電気鉄道",
      "network": "熊本電気鉄道菊池線",
      "ref": null,
      "latitude": 32.8780629,
      "longitude": 130.7462118,
      "countryCode": "jp",
      "rawTags": {
        "KSJ2:LIN": "菊池線",
        "KSJ2:STN": "電波高専前",
        "name": "熊本高専前",
        "name:en": "Kumamotokosen-mae",
        "name:ja": "熊本高専前",
        "name:ko": "구마모토코센마에",
        "network": "熊本電気鉄道菊池線",
        "note": "National-Land Numerical Information (Railway) 2007, MLIT Japan",
        "note:ja": "国土数値情報（鉄道データ）平成19年　国土交通省",
        "operator": "熊本電気鉄道",
        "public_transport": "station",
        "railway": "station",
        "source": "KSJ2",
        "source_ref": "http://nlftp.mlit.go.jp/ksj/jpgis/datalist/KsjTmplt-N02-v1_1.html",
        "wikidata": "Q11568630",
        "wikipedia": "ja:熊本高専前駅"
      }
    },
    {
      "id": "kumamoto_station_270882995",
      "osmId": 270882995,
      "osmType": "node",
      "prefectureId": "kumamoto",
      "type": "station",
      "subtype": "private",
      "name": "堀川",
      "nameKana": null,
      "nameEn": "Horikawa",
      "operator": "熊本電気鉄道",
      "network": "熊本電気鉄道菊池線",
      "ref": null,
      "latitude": 32.8491817,
      "longitude": 130.7253738,
      "countryCode": "jp",
      "rawTags": {
        "KSJ2:STN": "堀川",
        "name": "堀川",
        "name:en": "Horikawa",
        "name:ja": "堀川",
        "name:ko": "호리카와",
        "network": "熊本電気鉄道菊池線",
        "note": "National-Land Numerical Information (Railway) 2007, MLIT Japan",
        "note:ja": "国土数値情報（鉄道データ）平成19年　国土交通省",
        "operator": "熊本電気鉄道",
        "public_transport": "station",
        "railway": "station",
        "source": "KSJ2",
        "source_ref": "http://nlftp.mlit.go.jp/ksj/jpgis/datalist/KsjTmplt-N02-v1_1.html",
        "wikidata": "Q11427461",
        "wikipedia": "ja:堀川駅"
      }
    },
    {
      "id": "kumamoto_station_270882996",
      "osmId": 270882996,
      "osmType": "node",
      "prefectureId": "kumamoto",
      "type": "station",
      "subtype": "private",
      "name": "韓々坂",
      "nameKana": null,
      "nameEn": "Kankanzaka",
      "operator": "熊本電気鉄道",
      "network": "熊本電気鉄道菊池線",
      "ref": null,
      "latitude": 32.8241696,
      "longitude": 130.7018919,
      "countryCode": "jp",
      "rawTags": {
        "KSJ2:LIN": "菊池線",
        "KSJ2:STN": "韓々坂",
        "name": "韓々坂",
        "name:en": "Kankanzaka",
        "name:ja": "韓々坂",
        "name:ko": "간칸자카",
        "network": "熊本電気鉄道菊池線",
        "note": "National-Land Numerical Information (Railway) 2007, MLIT Japan",
        "note:ja": "国土数値情報（鉄道データ）平成19年　国土交通省",
        "operator": "熊本電気鉄道",
        "public_transport": "station",
        "railway": "station",
        "source": "KSJ2",
        "source_ref": "http://nlftp.mlit.go.jp/ksj/jpgis/datalist/KsjTmplt-N02-v1_1.html",
        "wikidata": "Q11663954",
        "wikipedia": "ja:韓々坂駅"
      }
    },
    {
      "id": "kumamoto_station_270882998",
      "osmId": 270882998,
      "osmType": "node",
      "prefectureId": "kumamoto",
      "type": "station",
      "subtype": "private",
      "name": "三ツ石",
      "nameKana": null,
      "nameEn": "Mitsuishi",
      "operator": "熊本電気鉄道",
      "network": "熊本電気鉄道菊池線",
      "ref": null,
      "latitude": 32.8640617,
      "longitude": 130.738365,
      "countryCode": "jp",
      "rawTags": {
        "KSJ2:LIN": "菊池線",
        "KSJ2:STN": "三ツ石",
        "name": "三ツ石",
        "name:en": "Mitsuishi",
        "name:ja": "三ツ石",
        "name:ko": "미쓰이시",
        "network": "熊本電気鉄道菊池線",
        "note": "National-Land Numerical Information (Railway) 2007, MLIT Japan",
        "note:ja": "国土数値情報（鉄道データ）平成19年　国土交通省",
        "operator": "熊本電気鉄道",
        "public_transport": "station",
        "railway": "station",
        "source": "KSJ2",
        "source_ref": "http://nlftp.mlit.go.jp/ksj/jpgis/datalist/KsjTmplt-N02-v1_1.html",
        "wikidata": "Q11354042",
        "wikipedia": "ja:三ツ石駅"
      }
    },
    {
      "id": "kumamoto_station_270883013",
      "osmId": 270883013,
      "osmType": "node",
      "prefectureId": "kumamoto",
      "type": "station",
      "subtype": "private",
      "name": "打越",
      "nameKana": null,
      "nameEn": "Uchigoshi",
      "operator": "熊本電気鉄道",
      "network": "熊本電気鉄道菊池線",
      "ref": null,
      "latitude": 32.823725,
      "longitude": 130.7138201,
      "countryCode": "jp",
      "rawTags": {
        "KSJ2:LIN": "菊池線",
        "KSJ2:STN": "打越",
        "name": "打越",
        "name:en": "Uchigoshi",
        "name:ja": "打越",
        "name:ko": "우치고시",
        "network": "熊本電気鉄道菊池線",
        "note": "National-Land Numerical Information (Railway) 2007, MLIT Japan",
        "note:ja": "国土数値情報（鉄道データ）平成19年　国土交通省",
        "operator": "熊本電気鉄道",
        "public_transport": "station",
        "railway": "station",
        "source": "KSJ2",
        "source_ref": "http://nlftp.mlit.go.jp/ksj/jpgis/datalist/KsjTmplt-N02-v1_1.html",
        "wikidata": "Q11497271",
        "wikipedia": "ja:打越駅"
      }
    },
    {
      "id": "kumamoto_station_270883019",
      "osmId": 270883019,
      "osmType": "node",
      "prefectureId": "kumamoto",
      "type": "station",
      "subtype": "private",
      "name": "池田",
      "nameKana": null,
      "nameEn": "Ikeda",
      "operator": "熊本電気鉄道",
      "network": "熊本電気鉄道菊池線",
      "ref": null,
      "latitude": 32.8270635,
      "longitude": 130.7074969,
      "countryCode": "jp",
      "rawTags": {
        "KSJ2:LIN": "菊池線",
        "KSJ2:STN": "池田",
        "name": "池田",
        "name:en": "Ikeda",
        "name:ja": "池田",
        "name:ko": "이케다",
        "network": "熊本電気鉄道菊池線",
        "note": "National-Land Numerical Information (Railway) 2007, MLIT Japan",
        "note:ja": "国土数値情報（鉄道データ）平成19年　国土交通省",
        "operator": "熊本電気鉄道",
        "public_transport": "station",
        "railway": "station",
        "source": "KSJ2",
        "source_ref": "http://nlftp.mlit.go.jp/ksj/jpgis/datalist/KsjTmplt-N02-v1_1.html",
        "wikidata": "Q11552210",
        "wikipedia": "ja:池田駅 (熊本県)"
      }
    },
    {
      "id": "kumamoto_station_270883066",
      "osmId": 270883066,
      "osmType": "node",
      "prefectureId": "kumamoto",
      "type": "station",
      "subtype": "private",
      "name": "亀井",
      "nameKana": null,
      "nameEn": "Kamei",
      "operator": "熊本電気鉄道",
      "network": "熊本電気鉄道菊池線",
      "ref": null,
      "latitude": 32.8374676,
      "longitude": 130.7222167,
      "countryCode": "jp",
      "rawTags": {
        "KSJ2:LIN": "菊池線",
        "KSJ2:STN": "亀井",
        "name": "亀井",
        "name:en": "Kamei",
        "name:ja": "亀井",
        "name:ko": "가메이",
        "network": "熊本電気鉄道菊池線",
        "note": "National-Land Numerical Information (Railway) 2007, MLIT Japan",
        "note:ja": "国土数値情報（鉄道データ）平成19年　国土交通省",
        "operator": "熊本電気鉄道",
        "public_transport": "station",
        "railway": "station",
        "source": "KSJ2",
        "source_ref": "http://nlftp.mlit.go.jp/ksj/jpgis/datalist/KsjTmplt-N02-v1_1.html",
        "wikidata": "Q11370790",
        "wikipedia": "ja:亀井駅"
      }
    },
    {
      "id": "kumamoto_station_270883077",
      "osmId": 270883077,
      "osmType": "node",
      "prefectureId": "kumamoto",
      "type": "station",
      "subtype": "private",
      "name": "八景水谷",
      "nameKana": null,
      "nameEn": "Hakenomiya",
      "operator": "熊本電気鉄道",
      "network": "熊本電気鉄道菊池線",
      "ref": null,
      "latitude": 32.841456,
      "longitude": 130.7228019,
      "countryCode": "jp",
      "rawTags": {
        "KSJ2:LIN": "菊池線",
        "KSJ2:STN": "八景水谷",
        "name": "八景水谷",
        "name:en": "Hakenomiya",
        "name:ja": "八景水谷",
        "name:ko": "하케노미야",
        "network": "熊本電気鉄道菊池線",
        "note": "National-Land Numerical Information (Railway) 2007, MLIT Japan",
        "note:ja": "国土数値情報（鉄道データ）平成19年　国土交通省",
        "operator": "熊本電気鉄道",
        "public_transport": "station",
        "railway": "station",
        "source": "KSJ2",
        "source_ref": "http://nlftp.mlit.go.jp/ksj/jpgis/datalist/KsjTmplt-N02-v1_1.html",
        "wikidata": "Q11391262",
        "wikipedia": "ja:八景水谷駅"
      }
    },
    {
      "id": "kumamoto_station_270883421",
      "osmId": 270883421,
      "osmType": "node",
      "prefectureId": "kumamoto",
      "type": "station",
      "subtype": "private",
      "name": "坪井川公園",
      "nameKana": null,
      "nameEn": "Tsuboigawa-koen",
      "operator": "熊本電気鉄道",
      "network": "熊本電気鉄道菊池線",
      "ref": null,
      "latitude": 32.8214305,
      "longitude": 130.7187315,
      "countryCode": "jp",
      "rawTags": {
        "KSJ2:LIN": "菊池線",
        "KSJ2:STN": "坪井川公園",
        "alt_name:ko": "쓰보이가와코엔",
        "name": "坪井川公園",
        "name:en": "Tsuboigawa-koen",
        "name:ja": "坪井川公園",
        "name:ko": "쓰보이가와공원",
        "network": "熊本電気鉄道菊池線",
        "note": "National-Land Numerical Information (Railway) 2007, MLIT Japan",
        "note:ja": "国土数値情報（鉄道データ）平成19年　国土交通省",
        "operator": "熊本電気鉄道",
        "public_transport": "station",
        "railway": "station",
        "source": "KSJ2",
        "source_ref": "http://nlftp.mlit.go.jp/ksj/jpgis/datalist/KsjTmplt-N02-v1_1.html",
        "wikidata": "Q11425700",
        "wikipedia": "ja:坪井川公園駅"
      }
    },
    {
      "id": "kumamoto_station_270902069",
      "osmId": 270902069,
      "osmType": "node",
      "prefectureId": "kumamoto",
      "type": "station",
      "subtype": "private",
      "name": "黒髪町",
      "nameKana": null,
      "nameEn": "Kurokamimachi",
      "operator": "熊本電気鉄道",
      "network": null,
      "ref": null,
      "latitude": 32.8183497,
      "longitude": 130.7172317,
      "countryCode": "jp",
      "rawTags": {
        "KSJ2:LIN": "藤崎線",
        "KSJ2:STN": "黒髪町",
        "name": "黒髪町",
        "name:en": "Kurokamimachi",
        "name:ja": "黒髪町",
        "name:ko": "구로카미마치",
        "note": "National-Land Numerical Information (Railway) 2007, MLIT Japan",
        "note:ja": "国土数値情報（鉄道データ）平成19年　国土交通省",
        "operator": "熊本電気鉄道",
        "public_transport": "station",
        "railway": "station",
        "source": "KSJ2",
        "source_ref": "http://nlftp.mlit.go.jp/ksj/jpgis/datalist/KsjTmplt-N02-v1_1.html",
        "wikidata": "Q11678921",
        "wikipedia": "ja:黒髪町駅"
      }
    },
    {
      "id": "kumamoto_station_270902071",
      "osmId": 270902071,
      "osmType": "node",
      "prefectureId": "kumamoto",
      "type": "station",
      "subtype": "private",
      "name": "藤崎宮前",
      "nameKana": null,
      "nameEn": "Fujisakigu-mae",
      "operator": "熊本電気鉄道",
      "network": null,
      "ref": null,
      "latitude": 32.808672,
      "longitude": 130.713214,
      "countryCode": "jp",
      "rawTags": {
        "KSJ2:LIN": "藤崎線",
        "KSJ2:STN": "藤崎宮前",
        "alt_name:ko": "후지사키구마에",
        "name": "藤崎宮前",
        "name:en": "Fujisakigu-mae",
        "name:ja": "藤崎宮前",
        "name:ko": "후지사키궁앞",
        "note": "National-Land Numerical Information (Railway) 2007, MLIT Japan",
        "note:ja": "国土数値情報（鉄道データ）平成19年　国土交通省",
        "operator": "熊本電気鉄道",
        "public_transport": "station",
        "railway": "station",
        "source": "KSJ2",
        "source_ref": "http://nlftp.mlit.go.jp/ksj/jpgis/datalist/KsjTmplt-N02-v1_1.html",
        "wikidata": "Q11623974",
        "wikipedia": "ja:藤崎宮前駅"
      }
    },
    {
      "id": "kumamoto_station_360077659",
      "osmId": 360077659,
      "osmType": "node",
      "prefectureId": "kumamoto",
      "type": "station",
      "subtype": "private",
      "name": "南阿蘇水の生まれる里白水高原",
      "nameKana": null,
      "nameEn": "Minamiaso Mizu-no-Umareru-Sato Hakusui-Kōgen",
      "operator": "南阿蘇鉄道",
      "network": "南阿蘇鉄道高森線",
      "ref": null,
      "latitude": 32.8341732,
      "longitude": 131.0401642,
      "countryCode": "jp",
      "rawTags": {
        "KSJ2:LIN": "高森線",
        "KSJ2:STN": "南阿蘇水の生まれる里白水高原",
        "alt_name:ko": "미나미아소미즈노우마레루사토하쿠스이코겐",
        "name": "南阿蘇水の生まれる里白水高原",
        "name:en": "Minamiaso Mizu-no-Umareru-Sato Hakusui-Kōgen",
        "name:ja": "南阿蘇水の生まれる里白水高原",
        "name:ko": "미나미아소미즈노우마레루사토하쿠스이고원",
        "network": "南阿蘇鉄道高森線",
        "note": "National-Land Numerical Information (Railway) 2007, MLIT Japan",
        "note:ja": "国土数値情報（鉄道データ）平成19年　国土交通省",
        "operator": "南阿蘇鉄道",
        "public_transport": "station",
        "railway": "station",
        "source": "KSJ2",
        "source_ref": "http://nlftp.mlit.go.jp/ksj/jpgis/datalist/KsjTmplt-N02-v1_1.html",
        "wikidata": "Q6863063",
        "wikipedia": "ja:南阿蘇水の生まれる里白水高原駅"
      }
    },
    {
      "id": "kumamoto_station_360077663",
      "osmId": 360077663,
      "osmType": "node",
      "prefectureId": "kumamoto",
      "type": "station",
      "subtype": "private",
      "name": "長陽",
      "nameKana": null,
      "nameEn": "Chōyō",
      "operator": "南阿蘇鉄道",
      "network": "南阿蘇鉄道高森線",
      "ref": null,
      "latitude": 32.8541971,
      "longitude": 131.0039609,
      "countryCode": "jp",
      "rawTags": {
        "KSJ2:LIN": "高森線",
        "KSJ2:STN": "長陽",
        "name": "長陽",
        "name:en": "Chōyō",
        "name:ja": "長陽",
        "name:ko": "초요",
        "network": "南阿蘇鉄道高森線",
        "note": "National-Land Numerical Information (Railway) 2007, MLIT Japan",
        "note:ja": "国土数値情報（鉄道データ）平成19年　国土交通省",
        "operator": "南阿蘇鉄道",
        "public_transport": "station",
        "railway": "station",
        "source": "KSJ2",
        "source_ref": "http://nlftp.mlit.go.jp/ksj/jpgis/datalist/KsjTmplt-N02-v1_1.html",
        "wikidata": "Q11654908",
        "wikipedia": "ja:長陽駅"
      }
    },
    {
      "id": "kumamoto_station_360077825",
      "osmId": 360077825,
      "osmType": "node",
      "prefectureId": "kumamoto",
      "type": "station",
      "subtype": "private",
      "name": "阿蘇下田城ふれあい温泉",
      "nameKana": null,
      "nameEn": "Aso-Shimodajō-Fureai-Onsen",
      "operator": "南阿蘇鉄道",
      "network": "南阿蘇鉄道高森線",
      "ref": null,
      "latitude": 32.844346,
      "longitude": 131.024594,
      "countryCode": "jp",
      "rawTags": {
        "KSJ2:LIN": "高森線",
        "KSJ2:STN": "阿蘇下田城ふれあい温泉",
        "alt_name:ko": "아소시모다조후레아이온센",
        "name": "阿蘇下田城ふれあい温泉",
        "name:en": "Aso-Shimodajō-Fureai-Onsen",
        "name:ja": "阿蘇下田城ふれあい温泉",
        "name:ko": "아소시모다조후레아이온천",
        "network": "南阿蘇鉄道高森線",
        "note": "National-Land Numerical Information (Railway) 2007, MLIT Japan",
        "note:ja": "国土数値情報（鉄道データ）平成19年　国土交通省",
        "operator": "南阿蘇鉄道",
        "public_transport": "station",
        "railway": "station",
        "source": "KSJ2",
        "source_ref": "http://nlftp.mlit.go.jp/ksj/jpgis/datalist/KsjTmplt-N02-v1_1.html",
        "wikidata": "Q11657622",
        "wikipedia": "ja:阿蘇下田城ふれあい温泉駅"
      }
    },
    {
      "id": "kumamoto_station_360077848",
      "osmId": 360077848,
      "osmType": "node",
      "prefectureId": "kumamoto",
      "type": "station",
      "subtype": "private",
      "name": "阿蘇白川",
      "nameKana": null,
      "nameEn": "Aso-Shirakawa",
      "operator": "南阿蘇鉄道",
      "network": "南阿蘇鉄道高森線",
      "ref": null,
      "latitude": 32.8223464,
      "longitude": 131.0841912,
      "countryCode": "jp",
      "rawTags": {
        "KSJ2:LIN": "高森線",
        "KSJ2:STN": "阿蘇白川",
        "name": "阿蘇白川",
        "name:en": "Aso-Shirakawa",
        "name:ja": "阿蘇白川",
        "name:ko": "아소시라카와",
        "network": "南阿蘇鉄道高森線",
        "note": "National-Land Numerical Information (Railway) 2007, MLIT Japan",
        "note:ja": "国土数値情報（鉄道データ）平成19年　国土交通省",
        "operator": "南阿蘇鉄道",
        "public_transport": "station",
        "railway": "station",
        "source": "KSJ2",
        "source_ref": "http://nlftp.mlit.go.jp/ksj/jpgis/datalist/KsjTmplt-N02-v1_1.html",
        "wikidata": "Q11657660",
        "wikipedia": "ja:阿蘇白川駅"
      }
    },
    {
      "id": "kumamoto_station_360077902",
      "osmId": 360077902,
      "osmType": "node",
      "prefectureId": "kumamoto",
      "type": "station",
      "subtype": "private",
      "name": "中松",
      "nameKana": null,
      "nameEn": "Nakamatsu",
      "operator": "南阿蘇鉄道",
      "network": "南阿蘇鉄道高森線",
      "ref": null,
      "latitude": 32.8274526,
      "longitude": 131.0535291,
      "countryCode": "jp",
      "rawTags": {
        "KSJ2:LIN": "高森線",
        "KSJ2:STN": "中松",
        "name": "中松",
        "name:en": "Nakamatsu",
        "name:ja": "中松",
        "name:ko": "나카마쓰",
        "network": "南阿蘇鉄道高森線",
        "note": "National-Land Numerical Information (Railway) 2007, MLIT Japan",
        "note:ja": "国土数値情報（鉄道データ）平成19年　国土交通省",
        "operator": "南阿蘇鉄道",
        "public_transport": "station",
        "railway": "station",
        "source": "KSJ2",
        "source_ref": "http://nlftp.mlit.go.jp/ksj/jpgis/datalist/KsjTmplt-N02-v1_1.html",
        "wikidata": "Q17229474",
        "wikipedia": "ja:中松駅"
      }
    },
    {
      "id": "kumamoto_station_360077913",
      "osmId": 360077913,
      "osmType": "node",
      "prefectureId": "kumamoto",
      "type": "station",
      "subtype": "private",
      "name": "加勢",
      "nameKana": null,
      "nameEn": "Kase",
      "operator": "南阿蘇鉄道",
      "network": "南阿蘇鉄道高森線",
      "ref": null,
      "latitude": 32.847476,
      "longitude": 131.010223,
      "countryCode": "jp",
      "rawTags": {
        "KSJ2:LIN": "高森線",
        "KSJ2:STN": "加勢",
        "name": "加勢",
        "name:en": "Kase",
        "name:ja": "加勢",
        "name:ko": "가세",
        "network": "南阿蘇鉄道高森線",
        "note": "National-Land Numerical Information (Railway) 2007, MLIT Japan",
        "note:ja": "国土数値情報（鉄道データ）平成19年　国土交通省",
        "operator": "南阿蘇鉄道",
        "public_transport": "station",
        "railway": "station",
        "source": "KSJ2",
        "source_ref": "http://nlftp.mlit.go.jp/ksj/jpgis/datalist/KsjTmplt-N02-v1_1.html",
        "wikidata": "Q11398493",
        "wikipedia": "ja:加勢駅"
      }
    },
    {
      "id": "kumamoto_station_360077969",
      "osmId": 360077969,
      "osmType": "node",
      "prefectureId": "kumamoto",
      "type": "station",
      "subtype": "private",
      "name": "高森",
      "nameKana": null,
      "nameEn": "Takamori",
      "operator": "南阿蘇鉄道",
      "network": "南阿蘇鉄道高森線",
      "ref": null,
      "latitude": 32.8193294,
      "longitude": 131.1225347,
      "countryCode": "jp",
      "rawTags": {
        "KSJ2:LIN": "高森線",
        "KSJ2:STN": "高森",
        "name": "高森",
        "name:en": "Takamori",
        "name:ja": "高森",
        "name:ko": "다카모리",
        "network": "南阿蘇鉄道高森線",
        "note": "National-Land Numerical Information (Railway) 2007, MLIT Japan",
        "note:ja": "国土数値情報（鉄道データ）平成19年　国土交通省",
        "operator": "南阿蘇鉄道",
        "public_transport": "station",
        "railway": "station",
        "source": "KSJ2",
        "source_ref": "http://nlftp.mlit.go.jp/ksj/jpgis/datalist/KsjTmplt-N02-v1_1.html",
        "wikidata": "Q11670738",
        "wikipedia": "ja:高森駅"
      }
    },
    {
      "id": "kumamoto_station_360077976",
      "osmId": 360077976,
      "osmType": "node",
      "prefectureId": "kumamoto",
      "type": "station",
      "subtype": "private",
      "name": "見晴台",
      "nameKana": null,
      "nameEn": "Miharashidai",
      "operator": "南阿蘇鉄道",
      "network": "南阿蘇鉄道高森線",
      "ref": null,
      "latitude": 32.8175191,
      "longitude": 131.1097956,
      "countryCode": "jp",
      "rawTags": {
        "KSJ2:LIN": "高森線",
        "KSJ2:STN": "見晴台",
        "name": "見晴台",
        "name:en": "Miharashidai",
        "name:ja": "見晴台",
        "name:ko": "미하라시다이",
        "network": "南阿蘇鉄道高森線",
        "note": "National-Land Numerical Information (Railway) 2007, MLIT Japan",
        "note:ja": "国土数値情報（鉄道データ）平成19年　国土交通省",
        "operator": "南阿蘇鉄道",
        "public_transport": "station",
        "railway": "station",
        "source": "KSJ2",
        "source_ref": "http://nlftp.mlit.go.jp/ksj/jpgis/datalist/KsjTmplt-N02-v1_1.html",
        "wikidata": "Q11630198",
        "wikipedia": "ja:見晴台駅"
      }
    },
    {
      "id": "kumamoto_station_835388256",
      "osmId": 835388256,
      "osmType": "node",
      "prefectureId": "kumamoto",
      "type": "station",
      "subtype": "jr",
      "name": "新八代",
      "nameKana": null,
      "nameEn": "Shin-Yatsushiro",
      "operator": "九州旅客鉄道",
      "network": null,
      "ref": null,
      "latitude": 32.5180397,
      "longitude": 130.6348392,
      "countryCode": "jp",
      "rawTags": {
        "name": "新八代",
        "name:de": "Shin-Yatsushiro",
        "name:en": "Shin-Yatsushiro",
        "operator": "九州旅客鉄道",
        "operator:en": "Kyushu Railway Company",
        "operator:ja": "九州旅客鉄道",
        "public_transport": "station",
        "railway": "station",
        "source": "Bing",
        "wikidata": "Q1187743",
        "wikipedia": "ja:新八代駅",
        "wikipedia:en": "Shin-Yatsushiro Station"
      }
    },
    {
      "id": "kumamoto_ferry_terminal_1121649857",
      "osmId": 1121649857,
      "osmType": "node",
      "prefectureId": "kumamoto",
      "type": "ferry_terminal",
      "subtype": null,
      "name": "Kumamoto Ferry Terminal",
      "nameKana": null,
      "nameEn": null,
      "operator": null,
      "network": null,
      "ref": null,
      "latitude": 32.7636661,
      "longitude": 130.5895594,
      "countryCode": "jp",
      "rawTags": {
        "amenity": "ferry_terminal",
        "cargo": "passengers;vehicle",
        "ferry": "yes",
        "name": "Kumamoto Ferry Terminal",
        "name:ja": "熊本港フェリーターミナル",
        "public_transport": "station"
      }
    },
    {
      "id": "kumamoto_ferry_terminal_1802695648",
      "osmId": 1802695648,
      "osmType": "node",
      "prefectureId": "kumamoto",
      "type": "ferry_terminal",
      "subtype": null,
      "name": "有明フェリー長洲営業所",
      "nameKana": null,
      "nameEn": null,
      "operator": null,
      "network": null,
      "ref": null,
      "latitude": 32.9268833,
      "longitude": 130.442879,
      "countryCode": "jp",
      "rawTags": {
        "amenity": "ferry_terminal",
        "ferry": "yes",
        "name": "有明フェリー長洲営業所",
        "phone": "0968-78-0131",
        "public_transport": "station"
      }
    },
    {
      "id": "kumamoto_station_2011577947",
      "osmId": 2011577947,
      "osmType": "node",
      "prefectureId": "kumamoto",
      "type": "station",
      "subtype": "jr",
      "name": "新水俣",
      "nameKana": null,
      "nameEn": "Shin-Minamata",
      "operator": "九州旅客鉄道",
      "network": null,
      "ref": null,
      "latitude": 32.2105785,
      "longitude": 130.4286671,
      "countryCode": "jp",
      "rawTags": {
        "name": "新水俣",
        "name:de": "Shin-Minamata",
        "name:en": "Shin-Minamata",
        "name:ja": "新水俣",
        "name:ja_rm": "Shin-Minamata-eki",
        "name:ko": "신미나마타",
        "operator": "九州旅客鉄道",
        "operator:en": "Kyushu Railway Company",
        "operator:ja": "九州旅客鉄道",
        "railway": "station",
        "source": "Bing",
        "wikidata": "Q1136460",
        "wikipedia": "ja:新水俣駅",
        "wikipedia:en": "Shin-Minamata Station"
      }
    },
    {
      "id": "kumamoto_station_2012814989",
      "osmId": 2012814989,
      "osmType": "node",
      "prefectureId": "kumamoto",
      "type": "station",
      "subtype": "private",
      "name": "日奈久温泉",
      "nameKana": "ひなぐおんせん",
      "nameEn": "Hingau Onsen",
      "operator": "肥薩おれんじ鉄道",
      "network": "肥薩おれんじ鉄道線",
      "ref": null,
      "latitude": 32.4361683,
      "longitude": 130.5816491,
      "countryCode": "jp",
      "rawTags": {
        "alt_name:ko": "히나구온센",
        "name": "日奈久温泉",
        "name:en": "Hingau Onsen",
        "name:ja": "日奈久温泉駅",
        "name:ja-Hira": "ひなぐおんせん",
        "name:ko": "히나구온천",
        "network": "肥薩おれんじ鉄道線",
        "operator": "肥薩おれんじ鉄道",
        "operator:en": "Hisatsu Orange Railway",
        "operator:ja": "肥薩おれんじ鉄道",
        "public_transport": "station",
        "railway": "station",
        "source": "Bing",
        "wikidata": "Q11505237",
        "wikipedia": "ja:日奈久温泉駅"
      }
    },
    {
      "id": "kumamoto_station_2012956900",
      "osmId": 2012956900,
      "osmType": "node",
      "prefectureId": "kumamoto",
      "type": "station",
      "subtype": "private",
      "name": "海浦",
      "nameKana": null,
      "nameEn": "Uminoura",
      "operator": "肥薩おれんじ鉄道",
      "network": null,
      "ref": null,
      "latitude": 32.327975,
      "longitude": 130.488626,
      "countryCode": "jp",
      "rawTags": {
        "name": "海浦",
        "name:en": "Uminoura",
        "operator": "肥薩おれんじ鉄道",
        "operator:en": "Hisatsu orange railway",
        "railway": "station",
        "train": "yes",
        "wikidata": "Q11559047"
      }
    },
    {
      "id": "kumamoto_station_2012956942",
      "osmId": 2012956942,
      "osmType": "node",
      "prefectureId": "kumamoto",
      "type": "station",
      "subtype": "private",
      "name": "肥後田浦",
      "nameKana": null,
      "nameEn": "Higo Tanoura",
      "operator": "肥薩おれんじ鉄道線",
      "network": null,
      "ref": null,
      "latitude": 32.3505892,
      "longitude": 130.5047265,
      "countryCode": "jp",
      "rawTags": {
        "name": "肥後田浦",
        "name:en": "Higo Tanoura",
        "operator": "肥薩おれんじ鉄道線",
        "railway": "station",
        "source": "Bing",
        "wikidata": "Q11611582",
        "wikipedia": "ja:肥後田浦駅"
      }
    },
    {
      "id": "kumamoto_bus_terminal_2405685099",
      "osmId": 2405685099,
      "osmType": "node",
      "prefectureId": "kumamoto",
      "type": "bus_terminal",
      "subtype": null,
      "name": "熊本桜町バスターミナル",
      "nameKana": null,
      "nameEn": "Sakura Machi Bus Station",
      "operator": null,
      "network": null,
      "ref": null,
      "latitude": 32.800295,
      "longitude": 130.7032868,
      "countryCode": "jp",
      "rawTags": {
        "addr:block_number": "3",
        "addr:city": "熊本市",
        "addr:housenumber": "10",
        "addr:neighbourhood": "桜町",
        "addr:postcode": "860-0805",
        "addr:province": "熊本県",
        "addr:suburb": "中央区",
        "amenity": "bus_station",
        "bus": "yes",
        "level": "0",
        "name": "熊本桜町バスターミナル",
        "name:en": "Sakura Machi Bus Station",
        "name:ko": "교통센터",
        "phone": "+81-96-354-1111",
        "public_transport": "station",
        "website": "https://sakuramachi-kumamoto.jp/bus",
        "wikidata": "Q6443418",
        "wikipedia": "ja:熊本桜町バスターミナル"
      }
    },
    {
      "id": "kumamoto_station_2754945429",
      "osmId": 2754945429,
      "osmType": "node",
      "prefectureId": "kumamoto",
      "type": "station",
      "subtype": "jr",
      "name": "川尻",
      "nameKana": "かわしり",
      "nameEn": "Kawashiri",
      "operator": "九州旅客鉄道",
      "network": "JR鹿児島本線",
      "ref": null,
      "latitude": 32.7437652,
      "longitude": 130.6799144,
      "countryCode": "jp",
      "rawTags": {
        "name": "川尻",
        "name:en": "Kawashiri",
        "name:ja": "川尻",
        "name:ja-Hira": "かわしり",
        "network": "JR鹿児島本線",
        "operator": "九州旅客鉄道",
        "public_transport": "station",
        "railway": "station",
        "source": "image,2014-03;Bing,2013-02-22;GSI/KIBAN",
        "wikidata": "Q875954",
        "wikipedia": "ja:川尻駅"
      }
    },
    {
      "id": "kumamoto_station_2760698272",
      "osmId": 2760698272,
      "osmType": "node",
      "prefectureId": "kumamoto",
      "type": "station",
      "subtype": "private",
      "name": "新須屋",
      "nameKana": null,
      "nameEn": "Shinsuya",
      "operator": "熊本電気鉄道",
      "network": "熊本電気鉄道菊池線",
      "ref": null,
      "latitude": 32.8538993,
      "longitude": 130.7325073,
      "countryCode": "jp",
      "rawTags": {
        "KSJ2:LIN": "菊池線",
        "KSJ2:STN": "新須屋",
        "name": "新須屋",
        "name:en": "Shinsuya",
        "name:ja": "新須屋",
        "name:ko": "신스야",
        "network": "熊本電気鉄道菊池線",
        "note": "National-Land Numerical Information (Railway) 2007, MLIT Japan",
        "note:ja": "国土数値情報（鉄道データ）平成19年　国土交通省",
        "operator": "熊本電気鉄道",
        "public_transport": "station",
        "railway": "station",
        "source": "KSJ2",
        "source_ref": "http://nlftp.mlit.go.jp/ksj/jpgis/datalist/KsjTmplt-N02-v1_1.html",
        "wikidata": "Q11504303",
        "wikipedia": "ja:新須屋駅"
      }
    },
    {
      "id": "kumamoto_station_2766718275",
      "osmId": 2766718275,
      "osmType": "node",
      "prefectureId": "kumamoto",
      "type": "station",
      "subtype": "private",
      "name": "崇城大学前",
      "nameKana": "そうじょうだいがくまえ",
      "nameEn": "Sōjōdaigakumae",
      "operator": null,
      "network": null,
      "ref": null,
      "latitude": 32.8311203,
      "longitude": 130.6948183,
      "countryCode": "jp",
      "rawTags": {
        "name": "崇城大学前",
        "name:en": "Sōjōdaigakumae",
        "name:ja": "崇城大学前",
        "name:ja-Hira": "そうじょうだいがくまえ",
        "public_transport": "station",
        "railway": "station",
        "source": "image,2014-03,Bing,2013-02-22;GSI/KIBAN",
        "wikidata": "Q5358620",
        "wikipedia": "ja:崇城大学前駅"
      }
    },
    {
      "id": "kumamoto_station_2766770115",
      "osmId": 2766770115,
      "osmType": "node",
      "prefectureId": "kumamoto",
      "type": "station",
      "subtype": "jr",
      "name": "西里",
      "nameKana": "にしさと",
      "nameEn": "Nishisato",
      "operator": "九州旅客鉄道",
      "network": "JR鹿児島本線",
      "ref": null,
      "latitude": 32.8545648,
      "longitude": 130.700083,
      "countryCode": "jp",
      "rawTags": {
        "name": "西里",
        "name:en": "Nishisato",
        "name:ja": "西里",
        "name:ja-Hira": "にしさと",
        "network": "JR鹿児島本線",
        "operator": "九州旅客鉄道",
        "public_transport": "station",
        "railway": "station",
        "source": "image,2014-03,Bing,2013-02-22;GSI/KIBAN",
        "wikidata": "Q5358723",
        "wikipedia": "ja:西里駅"
      }
    },
    {
      "id": "kumamoto_station_2766817142",
      "osmId": 2766817142,
      "osmType": "node",
      "prefectureId": "kumamoto",
      "type": "station",
      "subtype": "jr",
      "name": "植木",
      "nameKana": "うえき",
      "nameEn": "Ueki",
      "operator": "九州旅客鉄道",
      "network": "JR鹿児島本線",
      "ref": null,
      "latitude": 32.8801279,
      "longitude": 130.6813653,
      "countryCode": "jp",
      "rawTags": {
        "name": "植木",
        "name:en": "Ueki",
        "name:ja-Hira": "うえき",
        "network": "JR鹿児島本線",
        "operator": "九州旅客鉄道",
        "public_transport": "station",
        "railway": "station",
        "source": "image,2014-03,Bing,2013-02-22;GSI/KIBAN",
        "wikidata": "Q5358543",
        "wikipedia": "ja:植木駅"
      }
    },
    {
      "id": "kumamoto_station_2767089439",
      "osmId": 2767089439,
      "osmType": "node",
      "prefectureId": "kumamoto",
      "type": "station",
      "subtype": "jr",
      "name": "田原坂",
      "nameKana": "たばるざか",
      "nameEn": "Tabarazaka",
      "operator": "九州旅客鉄道",
      "network": "JR鹿児島本線",
      "ref": null,
      "latitude": 32.8993475,
      "longitude": 130.6532427,
      "countryCode": "jp",
      "rawTags": {
        "name": "田原坂",
        "name:en": "Tabarazaka",
        "name:ja": "田原坂",
        "name:ja-Hira": "たばるざか",
        "network": "JR鹿児島本線",
        "operator": "九州旅客鉄道",
        "public_transport": "station",
        "railway": "station",
        "source": "image,2014-03,Bing,2013-02-22;GSI/KIBAN",
        "wikidata": "Q5358638",
        "wikipedia": "ja:田原坂駅"
      }
    },
    {
      "id": "kumamoto_station_2767162836",
      "osmId": 2767162836,
      "osmType": "node",
      "prefectureId": "kumamoto",
      "type": "station",
      "subtype": "jr",
      "name": "木葉",
      "nameKana": "このは",
      "nameEn": "Konoha",
      "operator": "九州旅客鉄道",
      "network": "JR鹿児島本線",
      "ref": null,
      "latitude": 32.9162863,
      "longitude": 130.6264811,
      "countryCode": "jp",
      "rawTags": {
        "name": "木葉",
        "name:en": "Konoha",
        "name:ja": "木葉",
        "name:ja-Hira": "このは",
        "network": "JR鹿児島本線",
        "operator": "九州旅客鉄道",
        "public_transport": "station",
        "railway": "station",
        "source": "image,2014-03,Bing,2013-02-22;GSI/KIBAN",
        "wikidata": "Q872663",
        "wikipedia": "ja:木葉駅"
      }
    },
    {
      "id": "kumamoto_station_2768444740",
      "osmId": 2768444740,
      "osmType": "node",
      "prefectureId": "kumamoto",
      "type": "station",
      "subtype": "jr",
      "name": "肥後伊倉",
      "nameKana": "ひごいくら",
      "nameEn": "Higo-Ikura",
      "operator": "九州旅客鉄道",
      "network": "JR鹿児島本線",
      "ref": null,
      "latitude": 32.9133764,
      "longitude": 130.5865616,
      "countryCode": "jp",
      "rawTags": {
        "name": "肥後伊倉",
        "name:en": "Higo-Ikura",
        "name:ja": "肥後伊倉",
        "name:ja-Hira": "ひごいくら",
        "network": "JR鹿児島本線",
        "operator": "九州旅客鉄道",
        "operator:ja": "九州旅客鉄道",
        "public_transport": "station",
        "railway": "station",
        "source": "image,2014-03,Bing,2013-02-22;GSI/KIBAN",
        "wikidata": "Q872831",
        "wikipedia": "ja:肥後伊倉駅"
      }
    },
    {
      "id": "kumamoto_station_2892653295",
      "osmId": 2892653295,
      "osmType": "node",
      "prefectureId": "kumamoto",
      "type": "station",
      "subtype": "private",
      "name": "水俣",
      "nameKana": null,
      "nameEn": "Minamata",
      "operator": null,
      "network": null,
      "ref": null,
      "latitude": 32.2048194,
      "longitude": 130.3956011,
      "countryCode": "jp",
      "rawTags": {
        "name": "水俣",
        "name:en": "Minamata",
        "name:ja": "水俣",
        "name:ja_rm": "Minamata",
        "name:ko": "미나마타",
        "railway": "station",
        "wikidata": "Q11129528",
        "wikipedia": "ja:水俣駅"
      }
    },
    {
      "id": "kumamoto_station_2932373435",
      "osmId": 2932373435,
      "osmType": "node",
      "prefectureId": "kumamoto",
      "type": "station",
      "subtype": "private",
      "name": "南阿蘇白川水源",
      "nameKana": null,
      "nameEn": "Minamiaso-Shirakawasuigen",
      "operator": "南阿蘇鉄道",
      "network": "南阿蘇鉄道高森線",
      "ref": null,
      "latitude": 32.8222018,
      "longitude": 131.0916152,
      "countryCode": "jp",
      "rawTags": {
        "name": "南阿蘇白川水源",
        "name:en": "Minamiaso-Shirakawasuigen",
        "network": "南阿蘇鉄道高森線",
        "operator": "南阿蘇鉄道",
        "public_transport": "station",
        "railway": "station",
        "source": "Bing, 3/26/2010;survey",
        "wikidata": "Q11408720",
        "wikipedia": "ja:南阿蘇白川水源駅"
      }
    },
    {
      "id": "kumamoto_station_3437583836",
      "osmId": 3437583836,
      "osmType": "node",
      "prefectureId": "kumamoto",
      "type": "station",
      "subtype": "private",
      "name": "佐敷",
      "nameKana": null,
      "nameEn": "Sashiki",
      "operator": null,
      "network": null,
      "ref": null,
      "latitude": 32.3024975,
      "longitude": 130.4972264,
      "countryCode": "jp",
      "rawTags": {
        "name": "佐敷",
        "name:en": "Sashiki",
        "public_transport": "station",
        "railway": "station",
        "wikidata": "Q10885935",
        "wikipedia": "ja:佐敷駅"
      }
    },
    {
      "id": "kumamoto_station_3667500999",
      "osmId": 3667500999,
      "osmType": "node",
      "prefectureId": "kumamoto",
      "type": "station",
      "subtype": "jr",
      "name": "熊本",
      "nameKana": null,
      "nameEn": "Kumamoto",
      "operator": "九州旅客鉄道",
      "network": null,
      "ref": null,
      "latitude": 32.7903174,
      "longitude": 130.6889738,
      "countryCode": "jp",
      "rawTags": {
        "KSJ2:LIN": "豊肥線",
        "KSJ2:STN": "熊本",
        "name": "熊本",
        "name:de": "Kumamoto",
        "name:en": "Kumamoto",
        "name:ja": "熊本",
        "name:ko": "구마모토",
        "note": "National-Land Numerical Information (Railway) 2007, MLIT Japan",
        "note:ja": "国土数値情報（鉄道データ）平成19年　国土交通省",
        "operator": "九州旅客鉄道",
        "operator:en": "Kyushu Railway Company",
        "operator:ja": "九州旅客鉄道",
        "public_transport": "station",
        "railway": "station",
        "source": "KSJ2",
        "source_ref": "http://nlftp.mlit.go.jp/ksj/jpgis/datalist/KsjTmplt-N02-v1_1.html",
        "wikidata": "Q969324",
        "wikipedia": "ja:熊本駅"
      }
    },
    {
      "id": "kumamoto_ferry_terminal_4355034165",
      "osmId": 4355034165,
      "osmType": "node",
      "prefectureId": "kumamoto",
      "type": "ferry_terminal",
      "subtype": null,
      "name": "三角港フェリーターミナル",
      "nameKana": null,
      "nameEn": null,
      "operator": null,
      "network": null,
      "ref": null,
      "latitude": 32.6069562,
      "longitude": 130.4715686,
      "countryCode": "jp",
      "rawTags": {
        "amenity": "ferry_terminal",
        "name": "三角港フェリーターミナル"
      }
    },
    {
      "id": "kumamoto_station_4838027623",
      "osmId": 4838027623,
      "osmType": "node",
      "prefectureId": "kumamoto",
      "type": "station",
      "subtype": "jr",
      "name": "長洲",
      "nameKana": "ながす",
      "nameEn": "Nagasu",
      "operator": "九州旅客鉄道",
      "network": "JR鹿児島本線",
      "ref": null,
      "latitude": 32.9355038,
      "longitude": 130.4545132,
      "countryCode": "jp",
      "rawTags": {
        "name": "長洲",
        "name:en": "Nagasu",
        "name:ja": "長洲",
        "name:ja_kana": "ながす",
        "network": "JR鹿児島本線",
        "operator": "九州旅客鉄道",
        "public_transport": "station",
        "railway": "station",
        "wikidata": "Q6958659",
        "wikipedia": "ja:長洲駅"
      }
    },
    {
      "id": "kumamoto_station_5302773490",
      "osmId": 5302773490,
      "osmType": "node",
      "prefectureId": "kumamoto",
      "type": "station",
      "subtype": "jr",
      "name": "西熊本",
      "nameKana": null,
      "nameEn": "Nishi-Kumamoto",
      "operator": "九州旅客鉄道",
      "network": "JR鹿児島本線",
      "ref": null,
      "latitude": 32.7624025,
      "longitude": 130.6830522,
      "countryCode": "jp",
      "rawTags": {
        "name": "西熊本",
        "name:en": "Nishi-Kumamoto",
        "name:ja": "西熊本",
        "network": "JR鹿児島本線",
        "operator": "九州旅客鉄道",
        "public_transport": "station",
        "railway": "station",
        "wikidata": "Q20762689",
        "wikipedia": "ja:西熊本駅"
      }
    },
    {
      "id": "kumamoto_station_5746757921",
      "osmId": 5746757921,
      "osmType": "node",
      "prefectureId": "kumamoto",
      "type": "station",
      "subtype": "private",
      "name": "袋",
      "nameKana": null,
      "nameEn": "Fukuro",
      "operator": "肥薩おれんじ鉄道",
      "network": null,
      "ref": null,
      "latitude": 32.1652899,
      "longitude": 130.3741886,
      "countryCode": "jp",
      "rawTags": {
        "name": "袋",
        "name:en": "Fukuro",
        "operator": "肥薩おれんじ鉄道",
        "railway": "station",
        "train": "yes",
        "wikidata": "Q11626555"
      }
    },
    {
      "id": "kumamoto_station_5746757923",
      "osmId": 5746757923,
      "osmType": "node",
      "prefectureId": "kumamoto",
      "type": "station",
      "subtype": "private",
      "name": "津奈木",
      "nameKana": null,
      "nameEn": "Tsunagi",
      "operator": "肥薩おれんじ鉄道",
      "network": null,
      "ref": null,
      "latitude": 32.2325038,
      "longitude": 130.4500646,
      "countryCode": "jp",
      "rawTags": {
        "name": "津奈木",
        "name:en": "Tsunagi",
        "operator": "肥薩おれんじ鉄道",
        "operator:en": "Hisatsu orange railway",
        "railway": "station",
        "train": "yes",
        "wikidata": "Q11555987"
      }
    },
    {
      "id": "kumamoto_station_5746757924",
      "osmId": 5746757924,
      "osmType": "node",
      "prefectureId": "kumamoto",
      "type": "station",
      "subtype": "private",
      "name": "湯浦",
      "nameKana": null,
      "nameEn": "Yunoura",
      "operator": "肥薩おれんじ鉄道",
      "network": null,
      "ref": null,
      "latitude": 32.2712942,
      "longitude": 130.5046796,
      "countryCode": "jp",
      "rawTags": {
        "name": "湯浦",
        "name:en": "Yunoura",
        "operator": "肥薩おれんじ鉄道",
        "operator:en": "Hisatsu orange railway",
        "railway": "station",
        "train": "yes",
        "wikidata": "Q11563730"
      }
    },
    {
      "id": "kumamoto_station_5875755790",
      "osmId": 5875755790,
      "osmType": "node",
      "prefectureId": "kumamoto",
      "type": "station",
      "subtype": "jr",
      "name": "荒尾",
      "nameKana": null,
      "nameEn": "Arao",
      "operator": "九州旅客鉄道",
      "network": null,
      "ref": "JB28",
      "latitude": 32.9947486,
      "longitude": 130.4347314,
      "countryCode": "jp",
      "rawTags": {
        "name": "荒尾",
        "name:de": "Arao",
        "name:en": "Arao",
        "name:ja": "荒尾",
        "operator": "九州旅客鉄道",
        "public_transport": "station",
        "railway": "station",
        "ref": "JB28",
        "wikidata": "Q4784179",
        "wikipedia": "ja:荒尾駅 (熊本県)"
      }
    },
    {
      "id": "kumamoto_station_6491281100",
      "osmId": 6491281100,
      "osmType": "node",
      "prefectureId": "kumamoto",
      "type": "station",
      "subtype": "jr",
      "name": "松橋",
      "nameKana": "まつばせ",
      "nameEn": "Matsubase",
      "operator": "九州旅客鉄道",
      "network": "JR鹿児島本線",
      "ref": null,
      "latitude": 32.6523019,
      "longitude": 130.6705417,
      "countryCode": "jp",
      "rawTags": {
        "name": "松橋",
        "name:en": "Matsubase",
        "name:ja": "松橋",
        "name:ja_kana": "まつばせ",
        "network": "JR鹿児島本線",
        "operator": "九州旅客鉄道",
        "public_transport": "station",
        "railway": "station",
        "wikidata": "Q5358556",
        "wikipedia": "ja:松橋駅"
      }
    },
    {
      "id": "kumamoto_station_6491281101",
      "osmId": 6491281101,
      "osmType": "node",
      "prefectureId": "kumamoto",
      "type": "station",
      "subtype": "jr",
      "name": "富合",
      "nameKana": "とみあい",
      "nameEn": "Tomiai",
      "operator": "九州旅客鉄道",
      "network": null,
      "ref": null,
      "latitude": 32.7135111,
      "longitude": 130.6727497,
      "countryCode": "jp",
      "rawTags": {
        "name": "富合",
        "name:en": "Tomiai",
        "name:ja": "富合",
        "name:ja_kana": "とみあい",
        "operator": "九州旅客鉄道",
        "public_transport": "station",
        "railway": "station",
        "wikidata": "Q5358342",
        "wikipedia": "ja:富合駅"
      }
    },
    {
      "id": "kumamoto_station_6491281102",
      "osmId": 6491281102,
      "osmType": "node",
      "prefectureId": "kumamoto",
      "type": "station",
      "subtype": "jr",
      "name": "南荒尾",
      "nameKana": "みなみあらお",
      "nameEn": "Minami-Arao",
      "operator": "九州旅客鉄道",
      "network": "JR鹿児島本線",
      "ref": null,
      "latitude": 32.9658842,
      "longitude": 130.4331038,
      "countryCode": "jp",
      "rawTags": {
        "name": "南荒尾",
        "name:en": "Minami-Arao",
        "name:ja": "南荒尾",
        "name:ja_kana": "みなみあらお",
        "network": "JR鹿児島本線",
        "operator": "九州旅客鉄道",
        "public_transport": "station",
        "railway": "station",
        "wheelchair": "no",
        "wikidata": "Q5359202",
        "wikipedia": "ja:南荒尾駅"
      }
    },
    {
      "id": "kumamoto_station_6491281103",
      "osmId": 6491281103,
      "osmType": "node",
      "prefectureId": "kumamoto",
      "type": "station",
      "subtype": "jr",
      "name": "大野下",
      "nameKana": "おおのしも",
      "nameEn": "Ono-shimo",
      "operator": "九州旅客鉄道",
      "network": "JR鹿児島本線",
      "ref": null,
      "latitude": 32.9216237,
      "longitude": 130.5026164,
      "countryCode": "jp",
      "rawTags": {
        "name": "大野下",
        "name:en": "Ono-shimo",
        "name:ja": "大野下",
        "name:ja_kana": "おおのしも",
        "network": "JR鹿児島本線",
        "operator": "九州旅客鉄道",
        "public_transport": "station",
        "railway": "station",
        "wikidata": "Q873306",
        "wikipedia": "ja:大野下駅"
      }
    },
    {
      "id": "kumamoto_station_7104122321",
      "osmId": 7104122321,
      "osmType": "node",
      "prefectureId": "kumamoto",
      "type": "station",
      "subtype": "jr",
      "name": "有佐",
      "nameKana": "ありさ",
      "nameEn": "Arisa",
      "operator": "九州旅客鉄道",
      "network": null,
      "ref": null,
      "latitude": 32.5627813,
      "longitude": 130.670281,
      "countryCode": "jp",
      "rawTags": {
        "name": "有佐",
        "name:en": "Arisa",
        "name:ja-Hira": "ありさ",
        "operator": "九州旅客鉄道",
        "railway": "station",
        "wikidata": "Q4790865",
        "wikipedia": "ja:有佐駅"
      }
    },
    {
      "id": "kumamoto_station_7157635897",
      "osmId": 7157635897,
      "osmType": "node",
      "prefectureId": "kumamoto",
      "type": "station",
      "subtype": "jr",
      "name": "千丁",
      "nameKana": "せんちょう",
      "nameEn": "Sencho",
      "operator": "九州旅客鉄道",
      "network": null,
      "ref": null,
      "latitude": 32.5327457,
      "longitude": 130.6457971,
      "countryCode": "jp",
      "rawTags": {
        "name": "千丁",
        "name:en": "Sencho",
        "name:ja-Hira": "せんちょう",
        "operator": "九州旅客鉄道",
        "public_transport": "station",
        "railway": "station",
        "train": "yes",
        "wikidata": "Q5358139",
        "wikipedia": "ja:千丁駅"
      }
    },
    {
      "id": "kumamoto_station_7811215242",
      "osmId": 7811215242,
      "osmType": "node",
      "prefectureId": "kumamoto",
      "type": "station",
      "subtype": "private",
      "name": "人吉温泉",
      "nameKana": "ひとよしおんせん",
      "nameEn": "Hitoyoshionsen",
      "operator": "くま川鉄道",
      "network": null,
      "ref": null,
      "latitude": 32.216332,
      "longitude": 130.7538443,
      "countryCode": "jp",
      "rawTags": {
        "KSJ2:LIN": "肥薩線;湯前線",
        "KSJ2:STN": "人吉",
        "name": "人吉温泉",
        "name:en": "Hitoyoshionsen",
        "name:ja": "人吉温泉",
        "name:ja_kana": "ひとよしおんせん",
        "name:ko": "히토요시",
        "operator": "くま川鉄道",
        "railway": "station",
        "wikidata": "Q8190132",
        "wikipedia": "ja:人吉駅"
      }
    },
    {
      "id": "kumamoto_station_7811215243",
      "osmId": 7811215243,
      "osmType": "node",
      "prefectureId": "kumamoto",
      "type": "station",
      "subtype": "jr",
      "name": "人吉",
      "nameKana": null,
      "nameEn": "Hitoyoshi",
      "operator": "九州旅客鉄道",
      "network": null,
      "ref": null,
      "latitude": 32.2159006,
      "longitude": 130.7532196,
      "countryCode": "jp",
      "rawTags": {
        "KSJ2:LIN": "肥薩線;湯前線",
        "KSJ2:STN": "人吉",
        "name": "人吉",
        "name:en": "Hitoyoshi",
        "name:ja": "人吉",
        "name:ko": "히토요시",
        "note": "National-Land Numerical Information (Railway) 2007, MLIT Japan",
        "note:ja": "国土数値情報（鉄道データ）平成19年　国土交通省",
        "operator": "九州旅客鉄道",
        "public_transport": "station",
        "railway": "station",
        "source": "KSJ2",
        "source_ref": "http://nlftp.mlit.go.jp/ksj/jpgis/datalist/KsjTmplt-N02-v1_1.html",
        "wikidata": "Q8190132",
        "wikipedia": "ja:人吉駅"
      }
    },
    {
      "id": "kumamoto_station_7839902388",
      "osmId": 7839902388,
      "osmType": "node",
      "prefectureId": "kumamoto",
      "type": "station",
      "subtype": "private",
      "name": "北熊本",
      "nameKana": null,
      "nameEn": "Kitakumamoto",
      "operator": "熊本電気鉄道",
      "network": null,
      "ref": null,
      "latitude": 32.8275289,
      "longitude": 130.721892,
      "countryCode": "jp",
      "rawTags": {
        "KSJ2:LIN": "藤崎線",
        "KSJ2:STN": "北熊本",
        "name": "北熊本",
        "name:en": "Kitakumamoto",
        "name:ja": "北熊本",
        "name:ko": "기타쿠마모토",
        "note": "National-Land Numerical Information (Railway) 2007, MLIT Japan",
        "note:ja": "国土数値情報（鉄道データ）平成19年　国土交通省",
        "operator": "熊本電気鉄道",
        "public_transport": "station",
        "railway": "station",
        "source": "KSJ2",
        "source_ref": "http://nlftp.mlit.go.jp/ksj/jpgis/datalist/KsjTmplt-N02-v1_1.html",
        "wikidata": "Q10855762",
        "wikipedia": "ja:北熊本駅"
      }
    },
    {
      "id": "kumamoto_airport_7875571909",
      "osmId": 7875571909,
      "osmType": "node",
      "prefectureId": "kumamoto",
      "type": "airport",
      "subtype": "domestic",
      "name": "阿蘇場外離着陸場",
      "nameKana": null,
      "nameEn": null,
      "operator": null,
      "network": null,
      "ref": null,
      "latitude": 33.0082755,
      "longitude": 131.0973196,
      "countryCode": "jp",
      "rawTags": {
        "aeroway": "aerodrome",
        "name": "阿蘇場外離着陸場"
      }
    },
    {
      "id": "kumamoto_station_8150221863",
      "osmId": 8150221863,
      "osmType": "node",
      "prefectureId": "kumamoto",
      "type": "station",
      "subtype": "private",
      "name": "八代",
      "nameKana": null,
      "nameEn": "Yatsushiro",
      "operator": null,
      "network": null,
      "ref": null,
      "latitude": 32.504005,
      "longitude": 130.6217417,
      "countryCode": "jp",
      "rawTags": {
        "KSJ2:LIN": "肥薩線",
        "KSJ2:STN": "八代",
        "name": "八代",
        "name:en": "Yatsushiro",
        "name:ja": "八代",
        "name:ko": "야쓰시로",
        "note": "National-Land Numerical Information (Railway) 2007, MLIT Japan",
        "note:ja": "国土数値情報（鉄道データ）平成19年　国土交通省",
        "public_transport": "station",
        "railway": "station",
        "source": "KSJ2",
        "source_ref": "http://nlftp.mlit.go.jp/ksj/jpgis/datalist/KsjTmplt-N02-v1_1.html",
        "wikidata": "Q846609",
        "wikipedia": "ja:八代駅"
      }
    },
    {
      "id": "kumamoto_station_8221561452",
      "osmId": 8221561452,
      "osmType": "node",
      "prefectureId": "kumamoto",
      "type": "station",
      "subtype": "jr",
      "name": "玉名",
      "nameKana": "たまな",
      "nameEn": "Tamana",
      "operator": "九州旅客鉄道",
      "network": "JR鹿児島本線",
      "ref": null,
      "latitude": 32.9260351,
      "longitude": 130.5493301,
      "countryCode": "jp",
      "rawTags": {
        "name": "玉名",
        "name:en": "Tamana",
        "name:ja": "玉名",
        "name:ja-Hira": "たまな",
        "network": "JR鹿児島本線",
        "operator": "九州旅客鉄道",
        "public_transport": "station",
        "railway": "station",
        "wikidata": "Q872970",
        "wikipedia": "ja:玉名駅"
      }
    },
    {
      "id": "kumamoto_station_8223345778",
      "osmId": 8223345778,
      "osmType": "node",
      "prefectureId": "kumamoto",
      "type": "station",
      "subtype": "jr",
      "name": "小川",
      "nameKana": "おがわ",
      "nameEn": "Ogawa",
      "operator": "九州旅客鉄道",
      "network": null,
      "ref": null,
      "latitude": 32.6009798,
      "longitude": 130.6942101,
      "countryCode": "jp",
      "rawTags": {
        "name": "小川",
        "name:en": "Ogawa",
        "name:ja": "小川",
        "name:ja-Hira": "おがわ",
        "operator": "九州旅客鉄道",
        "operator:ja": "九州旅客鉄道",
        "public_transport": "station",
        "railway": "station",
        "source": "image,2014-03;Bing,2013-02-22;GSO/KIBAN",
        "wikidata": "Q5358104",
        "wikipedia": "ja:小川駅 (熊本県)"
      }
    },
    {
      "id": "kumamoto_station_8223485260",
      "osmId": 8223485260,
      "osmType": "node",
      "prefectureId": "kumamoto",
      "type": "station",
      "subtype": "jr",
      "name": "宇土",
      "nameKana": null,
      "nameEn": "Uto",
      "operator": "九州旅客鉄道",
      "network": null,
      "ref": null,
      "latitude": 32.6941301,
      "longitude": 130.6690344,
      "countryCode": "jp",
      "rawTags": {
        "name": "宇土",
        "name:en": "Uto",
        "name:ja": "宇土",
        "name:ko": "우토",
        "note": "National-Land Numerical Information (Railway) 2007, MLIT Japan",
        "note:ja": "国土数値情報（鉄道データ）平成19年　国土交通省",
        "operator": "九州旅客鉄道",
        "public_transport": "station",
        "railway": "station",
        "source": "KSJ2",
        "source_ref": "http://nlftp.mlit.go.jp/ksj/jpgis/datalist/KsjTmplt-N02-v1_1.html",
        "wikidata": "Q874134",
        "wikipedia": "ja:宇土駅"
      }
    },
    {
      "id": "kumamoto_station_8253797034",
      "osmId": 8253797034,
      "osmType": "node",
      "prefectureId": "kumamoto",
      "type": "station",
      "subtype": "private",
      "name": "肥後高田",
      "nameKana": null,
      "nameEn": "Higokoda",
      "operator": null,
      "network": null,
      "ref": null,
      "latitude": 32.475489,
      "longitude": 130.6126812,
      "countryCode": "jp",
      "rawTags": {
        "name": "肥後高田",
        "name:en": "Higokoda",
        "name:ja": "肥後高田",
        "name:ko": "히고코다",
        "public_transport": "station",
        "railway": "station",
        "source": "Bing",
        "wikidata": "Q11611587",
        "wikipedia": "ja:肥後高田駅"
      }
    },
    {
      "id": "kumamoto_station_8254355263",
      "osmId": 8254355263,
      "osmType": "node",
      "prefectureId": "kumamoto",
      "type": "station",
      "subtype": "private",
      "name": "肥後二見",
      "nameKana": null,
      "nameEn": "Higo-Futami",
      "operator": null,
      "network": null,
      "ref": null,
      "latitude": 32.4199939,
      "longitude": 130.549719,
      "countryCode": "jp",
      "rawTags": {
        "name": "肥後二見",
        "name:en": "Higo-Futami",
        "name:ja": "肥後二見",
        "name:ko": "히고후타미",
        "name:zh": "肥後二見",
        "public_transport": "station",
        "railway": "station",
        "source": "Bing",
        "wikidata": "Q11611562",
        "wikipedia": "ja:肥後二見駅"
      }
    },
    {
      "id": "kumamoto_station_8258828971",
      "osmId": 8258828971,
      "osmType": "node",
      "prefectureId": "kumamoto",
      "type": "station",
      "subtype": "private",
      "name": "上田浦",
      "nameKana": null,
      "nameEn": "Kami-Tanoura",
      "operator": null,
      "network": null,
      "ref": null,
      "latitude": 32.3929139,
      "longitude": 130.5184914,
      "countryCode": "jp",
      "rawTags": {
        "name": "上田浦",
        "name:en": "Kami-Tanoura",
        "name:ja": "上田浦",
        "public_transport": "station",
        "railway": "station",
        "wikidata": "Q11359856",
        "wikipedia": "ja:上田浦駅"
      }
    },
    {
      "id": "kumamoto_station_8259015642",
      "osmId": 8259015642,
      "osmType": "node",
      "prefectureId": "kumamoto",
      "type": "station",
      "subtype": "private",
      "name": "たのうら御立岬公園",
      "nameKana": null,
      "nameEn": "Tanoura-otachimisakikoen",
      "operator": "肥薩おれんじ鉄道",
      "network": null,
      "ref": null,
      "latitude": 32.363325,
      "longitude": 130.5067086,
      "countryCode": "jp",
      "rawTags": {
        "name": "たのうら御立岬公園",
        "name:en": "Tanoura-otachimisakikoen",
        "name:ja": "たのうら御立岬公園",
        "operator": "肥薩おれんじ鉄道",
        "operator:en": "Hisatsu orange railway",
        "public_transport": "station",
        "railway": "station",
        "train": "yes",
        "wikidata": "Q11271214",
        "wikipedia": "ja:たのうら御立岬公園駅"
      }
    },
    {
      "id": "kumamoto_station_8423867176",
      "osmId": 8423867176,
      "osmType": "node",
      "prefectureId": "kumamoto",
      "type": "station",
      "subtype": "private",
      "name": "園内モノレールのりば",
      "nameKana": null,
      "nameEn": null,
      "operator": null,
      "network": null,
      "ref": null,
      "latitude": 32.7735647,
      "longitude": 130.749594,
      "countryCode": "jp",
      "rawTags": {
        "name": "園内モノレールのりば",
        "public_transport": "station",
        "railway": "station",
        "train": "yes"
      }
    },
    {
      "id": "kumamoto_station_8423867177",
      "osmId": 8423867177,
      "osmType": "node",
      "prefectureId": "kumamoto",
      "type": "station",
      "subtype": "private",
      "name": "子ども列車のりば",
      "nameKana": null,
      "nameEn": null,
      "operator": null,
      "network": null,
      "ref": null,
      "latitude": 32.7741072,
      "longitude": 130.7489933,
      "countryCode": "jp",
      "rawTags": {
        "name": "子ども列車のりば",
        "public_transport": "station",
        "railway": "station",
        "train": "yes"
      }
    },
    {
      "id": "kumamoto_station_8447296025",
      "osmId": 8447296025,
      "osmType": "node",
      "prefectureId": "kumamoto",
      "type": "station",
      "subtype": "private",
      "name": "新玉名",
      "nameKana": "しんたまな",
      "nameEn": "New Tamana",
      "operator": null,
      "network": null,
      "ref": null,
      "latitude": 32.9423867,
      "longitude": 130.5737758,
      "countryCode": "jp",
      "rawTags": {
        "name": "新玉名",
        "name:de": "Shin-Tamana",
        "name:en": "New Tamana",
        "name:ja": "新玉名",
        "name:ja-Hira": "しんたまな",
        "railway": "station",
        "wikidata": "Q1136695",
        "wikipedia": "ja:新玉名駅"
      }
    },
    {
      "id": "kumamoto_ferry_terminal_8785686371",
      "osmId": 8785686371,
      "osmType": "node",
      "prefectureId": "kumamoto",
      "type": "ferry_terminal",
      "subtype": null,
      "name": "前島（松島）港乗り場",
      "nameKana": null,
      "nameEn": null,
      "operator": null,
      "network": null,
      "ref": null,
      "latitude": 32.52719,
      "longitude": 130.4260331,
      "countryCode": "jp",
      "rawTags": {
        "amenity": "ferry_terminal",
        "ferry": "yes",
        "name": "前島（松島）港乗り場",
        "public_transport": "station"
      }
    },
    {
      "id": "kumamoto_ferry_terminal_8814203859",
      "osmId": 8814203859,
      "osmType": "node",
      "prefectureId": "kumamoto",
      "type": "ferry_terminal",
      "subtype": null,
      "name": "湯島連絡船待合所",
      "nameKana": null,
      "nameEn": null,
      "operator": null,
      "network": null,
      "ref": null,
      "latitude": 32.6000985,
      "longitude": 130.3366343,
      "countryCode": "jp",
      "rawTags": {
        "amenity": "ferry_terminal",
        "ferry": "yes",
        "name": "湯島連絡船待合所",
        "public_transport": "station"
      }
    },
    {
      "id": "kumamoto_station_10090917077",
      "osmId": 10090917077,
      "osmType": "node",
      "prefectureId": "kumamoto",
      "type": "station",
      "subtype": "private",
      "name": "再春医療センター前",
      "nameKana": null,
      "nameEn": "SaishunIryoCenter-mae",
      "operator": "熊本電気鉄道",
      "network": "熊本電気鉄道菊池線",
      "ref": null,
      "latitude": 32.8802858,
      "longitude": 130.7479436,
      "countryCode": "jp",
      "rawTags": {
        "KSJ2:LIN": "菊池線",
        "name": "再春医療センター前",
        "name:en": "SaishunIryoCenter-mae",
        "name:ja": "再春医療センター前",
        "name:ko": "사이슌소마에",
        "network": "熊本電気鉄道菊池線",
        "operator": "熊本電気鉄道",
        "public_transport": "station",
        "railway": "station",
        "source": "GSImaps/std",
        "wikidata": "Q11394934",
        "wikipedia": "ja:再春医療センター前駅"
      }
    },
    {
      "id": "kumamoto_station_10090917104",
      "osmId": 10090917104,
      "osmType": "node",
      "prefectureId": "kumamoto",
      "type": "station",
      "subtype": "private",
      "name": "御代志",
      "nameKana": null,
      "nameEn": "Miyoshi",
      "operator": "熊本電気鉄道",
      "network": "熊本電気鉄道菊池線",
      "ref": null,
      "latitude": 32.8831578,
      "longitude": 130.7498792,
      "countryCode": "jp",
      "rawTags": {
        "KSJ2:LIN": "菊池線",
        "KSJ2:STN": "御代志",
        "name": "御代志",
        "name:en": "Miyoshi",
        "name:ja": "御代志",
        "name:ko": "미요시",
        "network": "熊本電気鉄道菊池線",
        "note": "National-Land Numerical Information (Railway) 2007, MLIT Japan",
        "note:ja": "国土数値情報（鉄道データ）平成19年　国土交通省",
        "operator": "熊本電気鉄道",
        "public_transport": "station",
        "railway": "station",
        "source": "KSJ2",
        "source_ref": "http://nlftp.mlit.go.jp/ksj/jpgis/datalist/KsjTmplt-N02-v1_1.html",
        "train": "yes",
        "wikidata": "Q11488780",
        "wikipedia": "ja:御代志駅"
      }
    },
    {
      "id": "kumamoto_station_11758716722",
      "osmId": 11758716722,
      "osmType": "node",
      "prefectureId": "kumamoto",
      "type": "station",
      "subtype": "jr",
      "name": "水前寺",
      "nameKana": null,
      "nameEn": "Suizenji",
      "operator": "九州旅客鉄道",
      "network": "JR豊肥本線",
      "ref": null,
      "latitude": 32.7970358,
      "longitude": 130.72991,
      "countryCode": "jp",
      "rawTags": {
        "KSJ2:LIN": "豊肥線",
        "KSJ2:STN": "水前寺",
        "name": "水前寺",
        "name:en": "Suizenji",
        "name:ja": "水前寺",
        "network": "JR豊肥本線",
        "note": "National-Land Numerical Information (Railway) 2007, MLIT Japan",
        "note:ja": "国土数値情報（鉄道データ）平成19年　国土交通省",
        "operator": "九州旅客鉄道",
        "public_transport": "station",
        "railway": "station",
        "source": "KSJ2",
        "source_ref": "http://nlftp.mlit.go.jp/ksj/jpgis/datalist/KsjTmplt-N02-v1_1.html",
        "wikidata": "Q7635605",
        "wikipedia": "ja:水前寺駅"
      }
    },
    {
      "id": "kumamoto_station_12504059294",
      "osmId": 12504059294,
      "osmType": "node",
      "prefectureId": "kumamoto",
      "type": "station",
      "subtype": "jr",
      "name": "肥後大津",
      "nameKana": null,
      "nameEn": "Higo-Ozu",
      "operator": "九州旅客鉄道",
      "network": "JR豊肥本線",
      "ref": null,
      "latitude": 32.8774776,
      "longitude": 130.866219,
      "countryCode": "jp",
      "rawTags": {
        "KSJ2:LIN": "豊肥線",
        "KSJ2:STN": "肥後大津",
        "name": "肥後大津",
        "name:en": "Higo-Ozu",
        "name:ja": "肥後大津",
        "name:ja-Latn": "Higo-Ōzu",
        "name:ko": "히고오즈",
        "network": "JR豊肥本線",
        "note": "National-Land Numerical Information (Railway) 2007, MLIT Japan",
        "note:ja": "国土数値情報（鉄道データ）平成19年　国土交通省",
        "operator": "九州旅客鉄道",
        "public_transport": "station",
        "railway": "station",
        "source": "KSJ2",
        "source_ref": "http://nlftp.mlit.go.jp/ksj/jpgis/datalist/KsjTmplt-N02-v1_1.html",
        "wikidata": "Q5760148",
        "wikipedia": "ja:肥後大津駅"
      }
    },
    {
      "id": "kumamoto_station_12504078501",
      "osmId": 12504078501,
      "osmType": "node",
      "prefectureId": "kumamoto",
      "type": "station",
      "subtype": "jr",
      "name": "原水",
      "nameKana": null,
      "nameEn": "Haramizu",
      "operator": "九州旅客鉄道",
      "network": "JR豊肥本線",
      "ref": null,
      "latitude": 32.8706193,
      "longitude": 130.8290416,
      "countryCode": "jp",
      "rawTags": {
        "KSJ2:LIN": "豊肥線",
        "KSJ2:STN": "原水",
        "name": "原水",
        "name:en": "Haramizu",
        "name:ja": "原水",
        "name:ko": "하라미즈",
        "network": "JR豊肥本線",
        "note": "National-Land Numerical Information (Railway) 2007, MLIT Japan",
        "note:ja": "国土数値情報（鉄道データ）平成19年　国土交通省",
        "operator": "九州旅客鉄道",
        "public_transport": "station",
        "railway": "station",
        "source": "KSJ2",
        "source_ref": "http://nlftp.mlit.go.jp/ksj/jpgis/datalist/KsjTmplt-N02-v1_1.html",
        "wikidata": "Q5654093",
        "wikipedia": "ja:原水駅"
      }
    },
    {
      "id": "kumamoto_station_12504078502",
      "osmId": 12504078502,
      "osmType": "node",
      "prefectureId": "kumamoto",
      "type": "station",
      "subtype": "jr",
      "name": "三里木",
      "nameKana": null,
      "nameEn": "Sanrigi",
      "operator": "九州旅客鉄道",
      "network": "JR豊肥本線",
      "ref": null,
      "latitude": 32.8618003,
      "longitude": 130.7966003,
      "countryCode": "jp",
      "rawTags": {
        "KSJ2:LIN": "豊肥線",
        "KSJ2:STN": "三里木",
        "name": "三里木",
        "name:en": "Sanrigi",
        "name:ja": "三里木",
        "name:ko": "산리기",
        "network": "JR豊肥本線",
        "note": "National-Land Numerical Information (Railway) 2007, MLIT Japan",
        "note:ja": "国土数値情報（鉄道データ）平成19年　国土交通省",
        "operator": "九州旅客鉄道",
        "public_transport": "station",
        "railway": "station",
        "source": "KSJ2",
        "source_ref": "http://nlftp.mlit.go.jp/ksj/jpgis/datalist/KsjTmplt-N02-v1_1.html",
        "wikidata": "Q7418923",
        "wikipedia": "ja:三里木駅"
      }
    },
    {
      "id": "kumamoto_station_12504078504",
      "osmId": 12504078504,
      "osmType": "node",
      "prefectureId": "kumamoto",
      "type": "station",
      "subtype": "jr",
      "name": "光の森",
      "nameKana": null,
      "nameEn": "Hikarinomori",
      "operator": "九州旅客鉄道",
      "network": "JR豊肥本線",
      "ref": null,
      "latitude": 32.8578789,
      "longitude": 130.7869028,
      "countryCode": "jp",
      "rawTags": {
        "KSJ2:LIN": "豊肥線",
        "KSJ2:STN": "光の森",
        "name": "光の森",
        "name:en": "Hikarinomori",
        "name:ja": "光の森",
        "name:ko": "히카리노모리",
        "network": "JR豊肥本線",
        "note": "National-Land Numerical Information (Railway) 2007, MLIT Japan",
        "note:ja": "国土数値情報（鉄道データ）平成19年　国土交通省",
        "operator": "九州旅客鉄道",
        "public_transport": "station",
        "railway": "station",
        "source": "KSJ2",
        "source_ref": "http://nlftp.mlit.go.jp/ksj/jpgis/datalist/KsjTmplt-N02-v1_1.html",
        "wikidata": "Q11388245",
        "wikipedia": "ja:光の森駅"
      }
    },
    {
      "id": "kumamoto_station_12504078505",
      "osmId": 12504078505,
      "osmType": "node",
      "prefectureId": "kumamoto",
      "type": "station",
      "subtype": "jr",
      "name": "武蔵塚",
      "nameKana": null,
      "nameEn": "Musashizuka",
      "operator": "九州旅客鉄道",
      "network": "JR豊肥本線",
      "ref": null,
      "latitude": 32.8497989,
      "longitude": 130.7699767,
      "countryCode": "jp",
      "rawTags": {
        "KSJ2:LIN": "豊肥線",
        "KSJ2:STN": "武蔵塚",
        "name": "武蔵塚",
        "name:en": "Musashizuka",
        "name:ja": "武蔵塚",
        "name:ko": "무사시즈카",
        "network": "JR豊肥本線",
        "note": "National-Land Numerical Information (Railway) 2007, MLIT Japan",
        "note:ja": "国土数値情報（鉄道データ）平成19年　国土交通省",
        "operator": "九州旅客鉄道",
        "public_transport": "station",
        "railway": "station",
        "source": "KSJ2",
        "source_ref": "http://nlftp.mlit.go.jp/ksj/jpgis/datalist/KsjTmplt-N02-v1_1.html",
        "wikidata": "Q6940187",
        "wikipedia": "ja:武蔵塚駅"
      }
    },
    {
      "id": "kumamoto_station_12504078506",
      "osmId": 12504078506,
      "osmType": "node",
      "prefectureId": "kumamoto",
      "type": "station",
      "subtype": "jr",
      "name": "竜田口",
      "nameKana": null,
      "nameEn": "Tatsutaguchi",
      "operator": "九州旅客鉄道",
      "network": "JR豊肥本線",
      "ref": null,
      "latitude": 32.8205371,
      "longitude": 130.7469486,
      "countryCode": "jp",
      "rawTags": {
        "KSJ2:LIN": "豊肥線",
        "KSJ2:STN": "竜田口",
        "name": "竜田口",
        "name:en": "Tatsutaguchi",
        "name:ja": "竜田口",
        "name:ko": "다쓰타구치",
        "network": "JR豊肥本線",
        "note": "National-Land Numerical Information (Railway) 2007, MLIT Japan",
        "note:ja": "国土数値情報（鉄道データ）平成19年　国土交通省",
        "operator": "九州旅客鉄道",
        "public_transport": "station",
        "railway": "station",
        "source": "KSJ2",
        "source_ref": "http://nlftp.mlit.go.jp/ksj/jpgis/datalist/KsjTmplt-N02-v1_1.html",
        "wikidata": "Q7688344",
        "wikipedia": "ja:竜田口駅"
      }
    },
    {
      "id": "kumamoto_station_12504078507",
      "osmId": 12504078507,
      "osmType": "node",
      "prefectureId": "kumamoto",
      "type": "station",
      "subtype": "jr",
      "name": "東海学園前",
      "nameKana": null,
      "nameEn": "Tōkai-Gakuen-mae",
      "operator": "九州旅客鉄道",
      "network": "JR豊肥本線",
      "ref": null,
      "latitude": 32.8114571,
      "longitude": 130.7427813,
      "countryCode": "jp",
      "rawTags": {
        "KSJ2:LIN": "豊肥線",
        "KSJ2:STN": "東海学園前",
        "alt_name:ko": "도카이가쿠엔마에",
        "name": "東海学園前",
        "name:en": "Tōkai-Gakuen-mae",
        "name:ja": "東海学園前",
        "name:ko": "도카이학원앞",
        "network": "JR豊肥本線",
        "note": "National-Land Numerical Information (Railway) 2007, MLIT Japan",
        "note:ja": "国土数値情報（鉄道データ）平成19年　国土交通省",
        "operator": "九州旅客鉄道",
        "public_transport": "station",
        "railway": "station",
        "source": "KSJ2",
        "source_ref": "http://nlftp.mlit.go.jp/ksj/jpgis/datalist/KsjTmplt-N02-v1_1.html",
        "wikidata": "Q7862672",
        "wikipedia": "ja:東海学園前駅"
      }
    },
    {
      "id": "kumamoto_station_12504078508",
      "osmId": 12504078508,
      "osmType": "node",
      "prefectureId": "kumamoto",
      "type": "station",
      "subtype": "jr",
      "name": "新水前寺",
      "nameKana": null,
      "nameEn": "Shin-Suizenji",
      "operator": "九州旅客鉄道",
      "network": "JR豊肥本線",
      "ref": null,
      "latitude": 32.793643,
      "longitude": 130.7260874,
      "countryCode": "jp",
      "rawTags": {
        "KSJ2:LIN": "豊肥線",
        "KSJ2:STN": "新水前寺",
        "name": "新水前寺",
        "name:en": "Shin-Suizenji",
        "name:ja": "新水前寺",
        "name:ko": "신스이젠지",
        "network": "JR豊肥本線",
        "note": "National-Land Numerical Information (Railway) 2007, MLIT Japan",
        "note:ja": "国土数値情報（鉄道データ）平成19年　国土交通省",
        "operator": "九州旅客鉄道",
        "public_transport": "station",
        "railway": "station",
        "source": "KSJ2",
        "source_ref": "http://nlftp.mlit.go.jp/ksj/jpgis/datalist/KsjTmplt-N02-v1_1.html",
        "wikidata": "Q7497128",
        "wikipedia": "ja:新水前寺駅"
      }
    },
    {
      "id": "kumamoto_station_12504078509",
      "osmId": 12504078509,
      "osmType": "node",
      "prefectureId": "kumamoto",
      "type": "station",
      "subtype": "jr",
      "name": "南熊本",
      "nameKana": null,
      "nameEn": "Minami-Kumamoto",
      "operator": "九州旅客鉄道",
      "network": "JR豊肥本線",
      "ref": null,
      "latitude": 32.7850279,
      "longitude": 130.7116307,
      "countryCode": "jp",
      "rawTags": {
        "KSJ2:LIN": "豊肥線",
        "KSJ2:STN": "南熊本",
        "name": "南熊本",
        "name:en": "Minami-Kumamoto",
        "name:ja": "南熊本",
        "name:ko": "미나미쿠마모토",
        "network": "JR豊肥本線",
        "note": "National-Land Numerical Information (Railway) 2007, MLIT Japan",
        "note:ja": "国土数値情報（鉄道データ）平成19年　国土交通省",
        "operator": "九州旅客鉄道",
        "public_transport": "station",
        "railway": "station",
        "source": "KSJ2",
        "source_ref": "http://nlftp.mlit.go.jp/ksj/jpgis/datalist/KsjTmplt-N02-v1_1.html",
        "wikidata": "Q6862932",
        "wikipedia": "ja:南熊本駅"
      }
    },
    {
      "id": "kumamoto_station_12504078510",
      "osmId": 12504078510,
      "osmType": "node",
      "prefectureId": "kumamoto",
      "type": "station",
      "subtype": "jr",
      "name": "平成",
      "nameKana": null,
      "nameEn": "Heisei",
      "operator": "九州旅客鉄道",
      "network": "JR豊肥本線",
      "ref": null,
      "latitude": 32.7814411,
      "longitude": 130.7031506,
      "countryCode": "jp",
      "rawTags": {
        "KSJ2:LIN": "豊肥線",
        "KSJ2:STN": "平成",
        "name": "平成",
        "name:en": "Heisei",
        "name:ja": "平成",
        "name:ko": "헤이세이",
        "network": "JR豊肥本線",
        "note": "National-Land Numerical Information (Railway) 2007, MLIT Japan",
        "note:ja": "国土数値情報（鉄道データ）平成19年　国土交通省",
        "operator": "九州旅客鉄道",
        "public_transport": "station",
        "railway": "station",
        "source": "KSJ2",
        "source_ref": "http://nlftp.mlit.go.jp/ksj/jpgis/datalist/KsjTmplt-N02-v1_1.html",
        "wikidata": "Q11482959",
        "wikipedia": "ja:平成駅"
      }
    },
    {
      "id": "kumamoto_station_12507150362",
      "osmId": 12507150362,
      "osmType": "node",
      "prefectureId": "kumamoto",
      "type": "station",
      "subtype": "private",
      "name": "上熊本",
      "nameKana": null,
      "nameEn": "Kami-Kumamoto",
      "operator": "熊本電気鉄道",
      "network": "熊本電気鉄道菊池線",
      "ref": null,
      "latitude": 32.8184081,
      "longitude": 130.6998872,
      "countryCode": "jp",
      "rawTags": {
        "KSJ2:LIN": "菊池線",
        "KSJ2:STN": "上熊本",
        "name": "上熊本",
        "name:en": "Kami-Kumamoto",
        "name:ja": "上熊本",
        "name:ko": "가미쿠마모토",
        "network": "熊本電気鉄道菊池線",
        "note": "National-Land Numerical Information (Railway) 2007, MLIT Japan",
        "note:ja": "国土数値情報（鉄道データ）平成19年　国土交通省",
        "operator": "熊本電気鉄道",
        "public_transport": "station",
        "railway": "station",
        "source": "KSJ2",
        "source_ref": "http://nlftp.mlit.go.jp/ksj/jpgis/datalist/KsjTmplt-N02-v1_1.html",
        "wikidata": "Q872987",
        "wikipedia": "ja:上熊本駅"
      }
    },
    {
      "id": "kumamoto_station_12513003036",
      "osmId": 12513003036,
      "osmType": "node",
      "prefectureId": "kumamoto",
      "type": "station",
      "subtype": "jr",
      "name": "石打ダム",
      "nameKana": null,
      "nameEn": "Ishiuchi Dam",
      "operator": "九州旅客鉄道",
      "network": "JR三角線",
      "ref": null,
      "latitude": 32.6422993,
      "longitude": 130.5065921,
      "countryCode": "jp",
      "rawTags": {
        "name": "石打ダム",
        "name:en": "Ishiuchi Dam",
        "name:ja": "石打ダム",
        "name:ko": "이시우치다무",
        "network": "JR三角線",
        "operator": "九州旅客鉄道",
        "public_transport": "station",
        "railway": "station",
        "wikidata": "Q6080416",
        "wikipedia": "ja:石打ダム駅"
      }
    },
    {
      "id": "kumamoto_station_12513003037",
      "osmId": 12513003037,
      "osmType": "node",
      "prefectureId": "kumamoto",
      "type": "station",
      "subtype": "jr",
      "name": "網田",
      "nameKana": null,
      "nameEn": "Ōda",
      "operator": "九州旅客鉄道",
      "network": "JR三角線",
      "ref": null,
      "latitude": 32.6676004,
      "longitude": 130.5468031,
      "countryCode": "jp",
      "rawTags": {
        "name": "網田",
        "name:en": "Ōda",
        "name:ja": "網田",
        "name:ko": "오다",
        "network": "JR三角線",
        "operator": "九州旅客鉄道",
        "public_transport": "station",
        "railway": "station",
        "wikidata": "Q8081436",
        "wikipedia": "ja:網田駅"
      }
    },
    {
      "id": "kumamoto_station_12513003039",
      "osmId": 12513003039,
      "osmType": "node",
      "prefectureId": "kumamoto",
      "type": "station",
      "subtype": "jr",
      "name": "住吉",
      "nameKana": null,
      "nameEn": "Sumiyoshi",
      "operator": "九州旅客鉄道",
      "network": "JR三角線",
      "ref": null,
      "latitude": 32.7019953,
      "longitude": 130.5985267,
      "countryCode": "jp",
      "rawTags": {
        "name": "住吉",
        "name:en": "Sumiyoshi",
        "name:ja": "住吉",
        "name:ko": "스미요시",
        "network": "JR三角線",
        "operator": "九州旅客鉄道",
        "public_transport": "station",
        "railway": "station",
        "wikidata": "Q7637171",
        "wikipedia": "ja:住吉駅 (熊本県)"
      }
    },
    {
      "id": "kumamoto_station_12513003041",
      "osmId": 12513003041,
      "osmType": "node",
      "prefectureId": "kumamoto",
      "type": "station",
      "subtype": "jr",
      "name": "緑川",
      "nameKana": null,
      "nameEn": "Midorikawa",
      "operator": "九州旅客鉄道",
      "network": "JR三角線",
      "ref": null,
      "latitude": 32.6940826,
      "longitude": 130.6312154,
      "countryCode": "jp",
      "rawTags": {
        "name": "緑川",
        "name:en": "Midorikawa",
        "name:ja": "緑川",
        "name:ko": "미도리카와",
        "network": "JR三角線",
        "operator": "九州旅客鉄道",
        "public_transport": "station",
        "railway": "station",
        "source": "KSJ2",
        "source_ref": "http://nlftp.mlit.go.jp/ksj/jpgis/datalist/KsjTmplt-N02-v1_1.html",
        "wikidata": "Q6842946",
        "wikipedia": "ja:緑川駅"
      }
    },
    {
      "id": "kumamoto_airport_57014851",
      "osmId": 57014851,
      "osmType": "way",
      "prefectureId": "kumamoto",
      "type": "airport",
      "subtype": "domestic",
      "name": "熊本空港",
      "nameKana": null,
      "nameEn": "Kumamoto Airport",
      "operator": null,
      "network": null,
      "ref": "KMJ",
      "latitude": 32.8362524,
      "longitude": 130.8523864,
      "countryCode": "jp",
      "rawTags": {
        "KSJ2:AAC": "43443",
        "KSJ2:AAC_label": "熊本県上益城郡益城町",
        "KSJ2:AD2": "1",
        "KSJ2:AD2_label": "国土交通大臣",
        "KSJ2:ARP": "32.8372222222 130.8552777778",
        "KSJ2:ATB": "32.8345555600 130.8582222000",
        "KSJ2:CLT": "21 30",
        "KSJ2:COA": "空港整備法に基づく国管理空港",
        "KSJ2:CompositeCurve": "cv75Airport",
        "KSJ2:DSA": "周辺整備空港に指定されていない特定飛行場",
        "KSJ2:INP": "1",
        "KSJ2:INP_label": "国土交通大臣",
        "KSJ2:IUC": "供用中",
        "KSJ2:NA3": "熊本空港",
        "KSJ2:OPT": "07 30",
        "KSJ2:REF": "1",
        "KSJ2:REF_label": "ジェット定期便が就航している場合",
        "KSJ2:airport_id": "cf02_48",
        "KSJ2:runways": "3000 45",
        "addr:city": "益城町",
        "addr:county": "上益城郡",
        "addr:housenumber": "1802-2",
        "addr:province": "熊本県",
        "addr:quarter": "大字小谷",
        "aeroway": "aerodrome",
        "barrier": "fence",
        "iata": "KMJ",
        "icao": "RJFT",
        "layer": "-3",
        "name": "熊本空港",
        "name:en": "Kumamoto Airport",
        "name:ja": "熊本空港",
        "name:ko": "구마모토공항",
        "note": "National-Land Numerical Information (Airport) 2007, MLIT Japan",
        "note:ja": "国土数値情報（空港データ）平成19年　国土交通省",
        "phone": "+81 96-232-2311",
        "reg_name": "阿蘇くまもと空港",
        "source": "KSJ2",
        "source_ref": "http://nlftp.mlit.go.jp/ksj/jpgis/datalist/KsjTmplt-C28-v1_1.html",
        "website": "https://www.kmj-ab.co.jp/",
        "wikidata": "Q1199773",
        "wikipedia": "ja:熊本空港"
      }
    },
    {
      "id": "kumamoto_airport_57014870",
      "osmId": 57014870,
      "osmType": "way",
      "prefectureId": "kumamoto",
      "type": "airport",
      "subtype": "domestic",
      "name": "天草空港",
      "nameKana": null,
      "nameEn": "Amakusa Airport",
      "operator": null,
      "network": null,
      "ref": "AXJ",
      "latitude": 32.482191,
      "longitude": 130.1586552,
      "countryCode": "jp",
      "rawTags": {
        "KSJ2:AAC": "43215",
        "KSJ2:AAC_label": "熊本県, *",
        "KSJ2:AD2": "5",
        "KSJ2:AD2_label": "都道府県",
        "KSJ2:ARP": "32.4822222222 130.1588888889",
        "KSJ2:ATB": "32.4826944400 130.1554167000",
        "KSJ2:CLT": "19 00",
        "KSJ2:COA": "その他の公共飛行場",
        "KSJ2:CompositeCurve": "cv77Airport",
        "KSJ2:DSA": "特定飛行場以外",
        "KSJ2:INP": "5",
        "KSJ2:INP_label": "都道府県",
        "KSJ2:IUC": "供用中",
        "KSJ2:NA3": "天草飛行場",
        "KSJ2:OPT": "08 00",
        "KSJ2:REF": "2",
        "KSJ2:REF_label": "プロペラ定期便が就航している場合",
        "KSJ2:airport_id": "cf02_43",
        "KSJ2:runways": "1000 30",
        "KSJ2:survey_year_LFD_NPD": "1981 0 5,1982 0 4,1983 0 0,1984 0 0,1985 0 0,1986 0 0,1987 0 0,1988 0 0,1989 0 0,1990 0 0,1991 0 0,1992 0 0,1993 0 0,1994 0 0,1995 0 0,1996 0 0,1997 0 0,1998 0 0,1999 0 0,2000 4 0,2001 5 0,2002 5 176,2003 5 225,2004 5 229,2005 4 215",
        "aeroway": "aerodrome",
        "barrier": "fence",
        "iata": "AXJ",
        "icao": "RJDA",
        "layer": "1",
        "name": "天草空港",
        "name:en": "Amakusa Airport",
        "name:ja": "天草空港",
        "name:ja_rm": "Amakusa Hikojo",
        "note": "National-Land Numerical Information (Airport) 2007, MLIT Japan",
        "note:ja": "国土数値情報（空港データ）平成19年　国土交通省",
        "source": "KSJ2",
        "source_ref": "http://nlftp.mlit.go.jp/ksj/jpgis/datalist/KsjTmplt-C28-v1_1.html",
        "wikidata": "Q1073798"
      }
    },
    {
      "id": "kumamoto_ferry_terminal_411009794",
      "osmId": 411009794,
      "osmType": "way",
      "prefectureId": "kumamoto",
      "type": "ferry_terminal",
      "subtype": null,
      "name": "島鉄フェリー鬼池港のりば",
      "nameKana": null,
      "nameEn": null,
      "operator": null,
      "network": null,
      "ref": null,
      "latitude": 32.5468694,
      "longitude": 130.1869842,
      "countryCode": "jp",
      "rawTags": {
        "amenity": "ferry_terminal",
        "ferry": "yes",
        "name": "島鉄フェリー鬼池港のりば",
        "public_transport": "station"
      }
    },
    {
      "id": "kumamoto_bus_terminal_464822126",
      "osmId": 464822126,
      "osmType": "way",
      "prefectureId": "kumamoto",
      "type": "bus_terminal",
      "subtype": null,
      "name": "産交バス（株） 人吉営業所",
      "nameKana": null,
      "nameEn": null,
      "operator": "産交バス株式会社",
      "network": null,
      "ref": null,
      "latitude": 32.2123765,
      "longitude": 130.7494017,
      "countryCode": "jp",
      "rawTags": {
        "amenity": "bus_station",
        "building": "yes",
        "bus": "yes",
        "name": "産交バス（株） 人吉営業所",
        "operator": "産交バス株式会社",
        "public_transport": "station"
      }
    },
    {
      "id": "kumamoto_bus_terminal_543208536",
      "osmId": 543208536,
      "osmType": "way",
      "prefectureId": "kumamoto",
      "type": "bus_terminal",
      "subtype": null,
      "name": "熊本電鉄菊池プラザ",
      "nameKana": null,
      "nameEn": null,
      "operator": null,
      "network": null,
      "ref": null,
      "latitude": 32.9805958,
      "longitude": 130.8049617,
      "countryCode": "jp",
      "rawTags": {
        "amenity": "bus_station",
        "building": "yes",
        "bus": "yes",
        "name": "熊本電鉄菊池プラザ",
        "public_transport": "station"
      }
    },
    {
      "id": "kumamoto_bus_terminal_792754005",
      "osmId": 792754005,
      "osmType": "way",
      "prefectureId": "kumamoto",
      "type": "bus_terminal",
      "subtype": null,
      "name": "九州産交バス(株)松橋営業所",
      "nameKana": null,
      "nameEn": null,
      "operator": null,
      "network": null,
      "ref": null,
      "latitude": 32.651972,
      "longitude": 130.6773104,
      "countryCode": "jp",
      "rawTags": {
        "amenity": "bus_station",
        "building": "yes",
        "bus": "yes",
        "name": "九州産交バス(株)松橋営業所",
        "public_transport": "station"
      }
    },
    {
      "id": "kumamoto_bus_terminal_899316050",
      "osmId": 899316050,
      "osmType": "way",
      "prefectureId": "kumamoto",
      "type": "bus_terminal",
      "subtype": null,
      "name": "杖立",
      "nameKana": null,
      "nameEn": null,
      "operator": null,
      "network": null,
      "ref": null,
      "latitude": 33.1835749,
      "longitude": 131.0341062,
      "countryCode": "jp",
      "rawTags": {
        "amenity": "bus_station",
        "building": "transportation",
        "building:levels": "2",
        "name": "杖立"
      }
    },
    {
      "id": "kumamoto_ferry_terminal_919609429",
      "osmId": 919609429,
      "osmType": "way",
      "prefectureId": "kumamoto",
      "type": "ferry_terminal",
      "subtype": null,
      "name": "天長フェリー 中田港乗船券売場",
      "nameKana": null,
      "nameEn": null,
      "operator": null,
      "network": null,
      "ref": null,
      "latitude": 32.3303404,
      "longitude": 130.1642615,
      "countryCode": "jp",
      "rawTags": {
        "amenity": "ferry_terminal",
        "ferry": "yes",
        "name": "天長フェリー 中田港乗船券売場",
        "public_transport": "station"
      }
    },
    {
      "id": "kumamoto_ferry_terminal_919610628",
      "osmId": 919610628,
      "osmType": "way",
      "prefectureId": "kumamoto",
      "type": "ferry_terminal",
      "subtype": null,
      "name": "水俣港船客待合所",
      "nameKana": null,
      "nameEn": null,
      "operator": null,
      "network": null,
      "ref": null,
      "latitude": 32.1950453,
      "longitude": 130.3789542,
      "countryCode": "jp",
      "rawTags": {
        "amenity": "ferry_terminal",
        "ferry": "yes",
        "name": "水俣港船客待合所",
        "public_transport": "station"
      }
    },
    {
      "id": "kumamoto_ferry_terminal_919616157",
      "osmId": 919616157,
      "osmType": "way",
      "prefectureId": "kumamoto",
      "type": "ferry_terminal",
      "subtype": null,
      "name": "倉岳棚底港旅客待合所",
      "nameKana": null,
      "nameEn": null,
      "operator": null,
      "network": null,
      "ref": null,
      "latitude": 32.4065577,
      "longitude": 130.3416863,
      "countryCode": "jp",
      "rawTags": {
        "amenity": "ferry_terminal",
        "building": "yes",
        "ferry": "yes",
        "name": "倉岳棚底港旅客待合所",
        "public_transport": "station"
      }
    },
    {
      "id": "kumamoto_ferry_terminal_919622829",
      "osmId": 919622829,
      "osmType": "way",
      "prefectureId": "kumamoto",
      "type": "ferry_terminal",
      "subtype": null,
      "name": "しおさい館（御所浦港船客待合所）",
      "nameKana": null,
      "nameEn": null,
      "operator": null,
      "network": null,
      "ref": null,
      "latitude": 32.3379033,
      "longitude": 130.3377749,
      "countryCode": "jp",
      "rawTags": {
        "amenity": "ferry_terminal",
        "ferry": "yes",
        "name": "しおさい館（御所浦港船客待合所）",
        "public_transport": "station"
      }
    },
    {
      "id": "kumamoto_ferry_terminal_931695576",
      "osmId": 931695576,
      "osmType": "way",
      "prefectureId": "kumamoto",
      "type": "ferry_terminal",
      "subtype": null,
      "name": "富岡港船客待合所",
      "nameKana": null,
      "nameEn": null,
      "operator": null,
      "network": null,
      "ref": null,
      "latitude": 32.5229372,
      "longitude": 130.0349319,
      "countryCode": "jp",
      "rawTags": {
        "amenity": "ferry_terminal",
        "ferry": "yes",
        "name": "富岡港船客待合所",
        "public_transport": "station"
      }
    },
    {
      "id": "kumamoto_ferry_terminal_933388571",
      "osmId": 933388571,
      "osmType": "way",
      "prefectureId": "kumamoto",
      "type": "ferry_terminal",
      "subtype": null,
      "name": "本渡港ターミナル",
      "nameKana": null,
      "nameEn": null,
      "operator": null,
      "network": null,
      "ref": null,
      "latitude": 32.4559288,
      "longitude": 130.200079,
      "countryCode": "jp",
      "rawTags": {
        "amenity": "ferry_terminal",
        "ferry": "yes",
        "name": "本渡港ターミナル",
        "public_transport": "station"
      }
    },
    {
      "id": "kumamoto_bus_terminal_934117801",
      "osmId": 934117801,
      "osmType": "way",
      "prefectureId": "kumamoto",
      "type": "bus_terminal",
      "subtype": null,
      "name": "九州産交 本渡バスセンター",
      "nameKana": null,
      "nameEn": null,
      "operator": null,
      "network": null,
      "ref": null,
      "latitude": 32.4539659,
      "longitude": 130.1941597,
      "countryCode": "jp",
      "rawTags": {
        "amenity": "bus_station",
        "building": "commercial",
        "bus": "yes",
        "name": "九州産交 本渡バスセンター",
        "public_transport": "station"
      }
    },
    {
      "id": "kumamoto_ferry_terminal_949646852",
      "osmId": 949646852,
      "osmType": "way",
      "prefectureId": "kumamoto",
      "type": "ferry_terminal",
      "subtype": null,
      "name": "江樋戸港待合室",
      "nameKana": null,
      "nameEn": null,
      "operator": null,
      "network": null,
      "ref": null,
      "latitude": 32.5819859,
      "longitude": 130.4157271,
      "countryCode": "jp",
      "rawTags": {
        "amenity": "ferry_terminal",
        "ferry": "yes",
        "name": "江樋戸港待合室",
        "public_transport": "station"
      }
    },
    {
      "id": "kumamoto_airport_1107909784",
      "osmId": 1107909784,
      "osmType": "way",
      "prefectureId": "kumamoto",
      "type": "airport",
      "subtype": "domestic",
      "name": "白川滑空場",
      "nameKana": null,
      "nameEn": "Shirakawa Gliderport",
      "operator": null,
      "network": null,
      "ref": null,
      "latitude": 32.7761144,
      "longitude": 130.6283653,
      "countryCode": "jp",
      "rawTags": {
        "aeroway": "aerodrome",
        "name": "白川滑空場",
        "name:en": "Shirakawa Gliderport",
        "surface": "grass"
      }
    },
    {
      "id": "kumamoto_bus_terminal_1123310143",
      "osmId": 1123310143,
      "osmType": "way",
      "prefectureId": "kumamoto",
      "type": "bus_terminal",
      "subtype": null,
      "name": "産交バス（株） 天草営業所",
      "nameKana": null,
      "nameEn": null,
      "operator": null,
      "network": null,
      "ref": null,
      "latitude": 32.4679097,
      "longitude": 130.2030801,
      "countryCode": "jp",
      "rawTags": {
        "addr:block_number": "2600-1",
        "addr:city": "天草市",
        "addr:postcode": "863-0011",
        "addr:province": "熊本県",
        "addr:quarter": "北浜町",
        "amenity": "bus_station",
        "bus": "yes",
        "name": "産交バス（株） 天草営業所",
        "public_transport": "station",
        "website": "https://www.sankobus.jp/"
      }
    },
    {
      "id": "kumamoto_bus_terminal_1426203560",
      "osmId": 1426203560,
      "osmType": "way",
      "prefectureId": "kumamoto",
      "type": "bus_terminal",
      "subtype": null,
      "name": "阿蘇山上ターミナル",
      "nameKana": null,
      "nameEn": null,
      "operator": null,
      "network": null,
      "ref": null,
      "latitude": 32.8799876,
      "longitude": 131.0744909,
      "countryCode": "jp",
      "rawTags": {
        "amenity": "bus_station",
        "building": "yes",
        "bus": "yes",
        "name": "阿蘇山上ターミナル",
        "public_transport": "station"
      }
    }
  ]
}