{
  "fetchedAt": "2025-12-12T05:20:08.702Z",
  "prefectureId": "miyagi",
  "prefectureName": "宮城県",
  "stats": {
    "station": 181,
    "airport": 4,
    "ferry_terminal": 8,
    "bus_terminal": 14,
    "total": 207
  },
  "data": [
    {
      "id": "miyagi_station_244879012",
      "osmId": 244879012,
      "osmType": "node",
      "prefectureId": "miyagi",
      "type": "station",
      "subtype": "private",
      "name": "新利府",
      "nameKana": "しんりふ",
      "nameEn": "Shin-Rifu",
      "operator": null,
      "network": null,
      "ref": null,
      "latitude": 38.3169889,
      "longitude": 140.9728144,
      "countryCode": "jp",
      "rawTags": {
        "name": "新利府",
        "name:en": "Shin-Rifu",
        "name:ja-Hira": "しんりふ",
        "name:ja-Latn": "Shin-Rifu",
        "public_transport": "station",
        "railway": "station",
        "source": "KSJ2",
        "train": "yes",
        "wikidata": "Q899730",
        "wikipedia": "ja:新利府駅"
      }
    },
    {
      "id": "miyagi_station_263242985",
      "osmId": 263242985,
      "osmType": "node",
      "prefectureId": "miyagi",
      "type": "station",
      "subtype": "private",
      "name": "あぶくま",
      "nameKana": "あぶくま",
      "nameEn": "Abukuma",
      "operator": "阿武隈急行線",
      "network": "阿武隈急行",
      "ref": null,
      "latitude": 37.913718,
      "longitude": 140.686133,
      "countryCode": "jp",
      "rawTags": {
        "name": "あぶくま",
        "name:en": "Abukuma",
        "name:ja-Hira": "あぶくま",
        "name:ja-Latn": "Abukuma",
        "network": "阿武隈急行",
        "operator": "阿武隈急行線",
        "public_transport": "station",
        "railway": "station",
        "start_date": "1988-07-01",
        "train": "yes",
        "wikidata": "Q4670568",
        "wikipedia": "ja:あぶくま駅"
      }
    },
    {
      "id": "miyagi_station_263245073",
      "osmId": 263245073,
      "osmType": "node",
      "prefectureId": "miyagi",
      "type": "station",
      "subtype": "private",
      "name": "丸森",
      "nameKana": "まるもり",
      "nameEn": "Marumori",
      "operator": null,
      "network": null,
      "ref": null,
      "latitude": 37.9305042,
      "longitude": 140.7615591,
      "countryCode": "jp",
      "rawTags": {
        "internet_access": "wlan",
        "internet_access:fee": "no",
        "internet_access:ssid": "Marumori Free Wi-Fi",
        "name": "丸森",
        "name:en": "Marumori",
        "name:ja-Hira": "まるもり",
        "name:ja-Latn": "Marumori",
        "public_transport": "station",
        "railway": "station",
        "source": "KSJ2",
        "train": "yes",
        "wikidata": "Q11368365",
        "wikipedia": "ja:丸森駅"
      }
    },
    {
      "id": "miyagi_station_263246566",
      "osmId": 263246566,
      "osmType": "node",
      "prefectureId": "miyagi",
      "type": "station",
      "subtype": "private",
      "name": "岡",
      "nameKana": "おか",
      "nameEn": "Oka",
      "operator": null,
      "network": null,
      "ref": null,
      "latitude": 38.0191386,
      "longitude": 140.7805741,
      "countryCode": "jp",
      "rawTags": {
        "name": "岡",
        "name:en": "Oka",
        "name:ja": "岡",
        "name:ja-Hira": "おか",
        "name:ja-Latn": "Oka",
        "public_transport": "station",
        "railway": "station",
        "source": "KSJ2",
        "wikidata": "Q7081704",
        "wikipedia": "ja:岡駅"
      }
    },
    {
      "id": "miyagi_station_264170299",
      "osmId": 264170299,
      "osmType": "node",
      "prefectureId": "miyagi",
      "type": "station",
      "subtype": "private",
      "name": "田尻",
      "nameKana": "たじり",
      "nameEn": "Tajiri",
      "operator": null,
      "network": null,
      "ref": null,
      "latitude": 38.5961483,
      "longitude": 141.0588401,
      "countryCode": "jp",
      "rawTags": {
        "addr:block_number": "66",
        "addr:city": "大崎市",
        "addr:housenumber": "3",
        "addr:neighbourhood": "塩加良",
        "addr:postcode": "989-4308",
        "addr:province": "宮城県",
        "addr:quarter": "田尻沼部",
        "name": "田尻",
        "name:en": "Tajiri",
        "name:ja-Hira": "たじり",
        "name:ja-Latn": "Tajiri",
        "name:ru": "Тадзири",
        "public_transport": "station",
        "railway": "station",
        "source": "KSJ2",
        "train": "yes",
        "wikidata": "Q899148",
        "wikipedia": "ja:田尻駅"
      }
    },
    {
      "id": "miyagi_station_264170585",
      "osmId": 264170585,
      "osmType": "node",
      "prefectureId": "miyagi",
      "type": "station",
      "subtype": "private",
      "name": "新田",
      "nameKana": "にった",
      "nameEn": "Nitta",
      "operator": null,
      "network": null,
      "ref": null,
      "latitude": 38.7118149,
      "longitude": 141.1199073,
      "countryCode": "jp",
      "rawTags": {
        "name": "新田",
        "name:en": "Nitta",
        "name:ja-Hira": "にった",
        "name:ja-Latn": "Nitta",
        "name:ru": "Нитта",
        "public_transport": "station",
        "railway": "station",
        "source": "KSJ2",
        "train": "yes",
        "wikidata": "Q899325",
        "wikipedia": "ja:新田駅 (宮城県)"
      }
    },
    {
      "id": "miyagi_station_264172881",
      "osmId": 264172881,
      "osmType": "node",
      "prefectureId": "miyagi",
      "type": "station",
      "subtype": "private",
      "name": "品井沼",
      "nameKana": "しないぬま",
      "nameEn": "Shinainuma",
      "operator": null,
      "network": null,
      "ref": null,
      "latitude": 38.4315961,
      "longitude": 141.0822902,
      "countryCode": "jp",
      "rawTags": {
        "name": "品井沼",
        "name:en": "Shinainuma",
        "name:ja-Hira": "しないぬま",
        "name:ja-Latn": "Shinainuma",
        "name:ru": "Синаинума",
        "public_transport": "station",
        "railway": "station",
        "source": "KSJ2",
        "train": "yes",
        "wikidata": "Q899069",
        "wikipedia": "ja:品井沼駅"
      }
    },
    {
      "id": "miyagi_station_264173718",
      "osmId": 264173718,
      "osmType": "node",
      "prefectureId": "miyagi",
      "type": "station",
      "subtype": "private",
      "name": "梅ヶ沢",
      "nameKana": "うめがさわ",
      "nameEn": "Umegasawa",
      "operator": null,
      "network": null,
      "ref": null,
      "latitude": 38.6816912,
      "longitude": 141.0855599,
      "countryCode": "jp",
      "rawTags": {
        "name": "梅ヶ沢",
        "name:en": "Umegasawa",
        "name:ja-Hira": "うめがさわ",
        "name:ja-Latn": "Umegasawa",
        "name:ru": "Умегасава",
        "public_transport": "station",
        "railway": "station",
        "source": "KSJ2",
        "train": "yes",
        "wikidata": "Q899259",
        "wikipedia": "ja:梅ヶ沢駅"
      }
    },
    {
      "id": "miyagi_station_264173827",
      "osmId": 264173827,
      "osmType": "node",
      "prefectureId": "miyagi",
      "type": "station",
      "subtype": "private",
      "name": "松山町",
      "nameKana": "まつやままち",
      "nameEn": "Matsuyamamachi",
      "operator": null,
      "network": null,
      "ref": null,
      "latitude": 38.512263,
      "longitude": 141.0751387,
      "countryCode": "jp",
      "rawTags": {
        "name": "松山町",
        "name:en": "Matsuyamamachi",
        "name:ja-Hira": "まつやままち",
        "name:ja-Latn": "Matsuyamamachi",
        "name:ru": "Мацуяма-Мати",
        "public_transport": "station",
        "railway": "station",
        "source": "KSJ2",
        "train": "yes",
        "wikidata": "Q899156",
        "wikipedia": "ja:松山町駅 (宮城県)"
      }
    },
    {
      "id": "miyagi_station_264174370",
      "osmId": 264174370,
      "osmType": "node",
      "prefectureId": "miyagi",
      "type": "station",
      "subtype": "private",
      "name": "有壁",
      "nameKana": "ありかべ",
      "nameEn": "Arikabe",
      "operator": null,
      "network": null,
      "ref": null,
      "latitude": 38.8673725,
      "longitude": 141.1211596,
      "countryCode": "jp",
      "rawTags": {
        "name": "有壁",
        "name:en": "Arikabe",
        "name:ja-Hira": "ありかべ",
        "name:ja-Latn": "Arikabe",
        "name:ru": "Арикабе",
        "public_transport": "station",
        "railway": "station",
        "source": "KSJ2",
        "train": "yes",
        "wikidata": "Q899365",
        "wikipedia": "ja:有壁駅"
      }
    },
    {
      "id": "miyagi_station_264175299",
      "osmId": 264175299,
      "osmType": "node",
      "prefectureId": "miyagi",
      "type": "station",
      "subtype": "jr",
      "name": "船岡",
      "nameKana": "ふなおか",
      "nameEn": "Funaoka",
      "operator": "東日本旅客鉄道",
      "network": null,
      "ref": null,
      "latitude": 38.0594138,
      "longitude": 140.7680113,
      "countryCode": "jp",
      "rawTags": {
        "name": "船岡",
        "name:de": "Funaoka",
        "name:en": "Funaoka",
        "name:ja-Hira": "ふなおか",
        "name:ja-Latn": "Funaoka",
        "name:ru": "Фунаока",
        "operator": "東日本旅客鉄道",
        "public_transport": "station",
        "railway": "station",
        "source": "KSJ2",
        "train": "yes",
        "wikidata": "Q1014134",
        "wikipedia": "ja:船岡駅 (宮城県)"
      }
    },
    {
      "id": "miyagi_station_264176370",
      "osmId": 264176370,
      "osmType": "node",
      "prefectureId": "miyagi",
      "type": "station",
      "subtype": "private",
      "name": "大河原",
      "nameKana": "おおがわら",
      "nameEn": "Ogawara",
      "operator": null,
      "network": null,
      "ref": null,
      "latitude": 38.0474645,
      "longitude": 140.740428,
      "countryCode": "jp",
      "rawTags": {
        "name": "大河原",
        "name:de": "Ōgawara",
        "name:en": "Ogawara",
        "name:ja-Hira": "おおがわら",
        "name:ja-Latn": "Ōgawara",
        "name:ru": "Огавара",
        "public_transport": "station",
        "railway": "station",
        "source": "KSJ2",
        "train": "yes",
        "wikidata": "Q898831",
        "wikipedia": "ja:大河原駅 (宮城県)"
      }
    },
    {
      "id": "miyagi_station_264270539",
      "osmId": 264270539,
      "osmType": "node",
      "prefectureId": "miyagi",
      "type": "station",
      "subtype": "jr",
      "name": "陸前戸倉",
      "nameKana": "りくぜんとぐら",
      "nameEn": "Rikuzen-Togura",
      "operator": "東日本旅客鉄道",
      "network": null,
      "ref": null,
      "latitude": 38.647832,
      "longitude": 141.4333712,
      "countryCode": "jp",
      "rawTags": {
        "bench": "yes",
        "name": "陸前戸倉",
        "name:en": "Rikuzen-Togura",
        "name:ja": "陸前戸倉",
        "name:ja-Hira": "りくぜんとぐら",
        "name:ja-Latn": "Rikuzen-Togura",
        "name:ko": "리쿠젠토구라",
        "name:zh": "陆前户仓",
        "note": "JR東日本大船渡線のBRT区間に設置されている「駅」であり、鉄道事業法上の駅とは異なる",
        "operator": "東日本旅客鉄道",
        "operator:ja": "東日本旅客鉄道",
        "public_transport": "station",
        "railway": "station",
        "shelter": "yes",
        "start_date": "1977-12-11",
        "train": "no",
        "wikidata": "Q7334141",
        "wikipedia": "ja:陸前戸倉駅"
      }
    },
    {
      "id": "miyagi_station_264270557",
      "osmId": 264270557,
      "osmType": "node",
      "prefectureId": "miyagi",
      "type": "station",
      "subtype": "jr",
      "name": "陸前階上",
      "nameKana": "りくぜんはしかみ",
      "nameEn": "Rikuzen-Hashikami",
      "operator": "東日本旅客鉄道",
      "network": null,
      "ref": null,
      "latitude": 38.8375413,
      "longitude": 141.580537,
      "countryCode": "jp",
      "rawTags": {
        "name": "陸前階上",
        "name:en": "Rikuzen-Hashikami",
        "name:ja": "陸前階上",
        "name:ja-Hira": "りくぜんはしかみ",
        "name:ja-Latn": "Rikuzen-Hashikami",
        "name:ko": "리쿠젠하시카미",
        "name:zh": "陆前阶上",
        "note": "JR東日本大船渡線のBRT区間に設置されている「駅」であり、鉄道事業法上の駅とは異なる",
        "operator": "東日本旅客鉄道",
        "operator:ja": "東日本旅客鉄道",
        "public_transport": "station",
        "railway": "station",
        "shelter": "yes",
        "source": "KSJ2",
        "start_date": "1957-02-11",
        "train": "no",
        "wikidata": "Q7334130",
        "wikipedia": "ja:陸前階上駅"
      }
    },
    {
      "id": "miyagi_station_264270721",
      "osmId": 264270721,
      "osmType": "node",
      "prefectureId": "miyagi",
      "type": "station",
      "subtype": "jr",
      "name": "陸前横山",
      "nameKana": "りくぜんよこやま",
      "nameEn": "Rikuzen-Yokoyama",
      "operator": "東日本旅客鉄道",
      "network": null,
      "ref": null,
      "latitude": 38.6308879,
      "longitude": 141.3537995,
      "countryCode": "jp",
      "rawTags": {
        "bench": "yes",
        "name": "陸前横山",
        "name:en": "Rikuzen-Yokoyama",
        "name:ja": "陸前横山",
        "name:ja-Hira": "りくぜんよこやま",
        "name:ja-Latn": "Rikuzen-Yokoyama",
        "name:ko": "리쿠젠요코야마",
        "name:zh": "陆前横山",
        "note": "JR東日本大船渡線のBRT区間に設置されている「駅」であり、鉄道事業法上の駅とは異なる",
        "operator": "東日本旅客鉄道",
        "operator:ja": "東日本旅客鉄道",
        "public_transport": "station",
        "railway": "station",
        "shelter": "yes",
        "source": "KSJ2",
        "source_ref": "http://nlftp.mlit.go.jp/ksj/jpgis/datalist/KsjTmplt-N02-v1_1.html",
        "start_date": "1977-12-11",
        "train": "no",
        "wikidata": "Q7334148",
        "wikipedia": "ja:陸前横山駅"
      }
    },
    {
      "id": "miyagi_station_264270743",
      "osmId": 264270743,
      "osmType": "node",
      "prefectureId": "miyagi",
      "type": "station",
      "subtype": "jr",
      "name": "最知",
      "nameKana": "さいち",
      "nameEn": "Saichi",
      "operator": "東日本旅客鉄道",
      "network": null,
      "ref": null,
      "latitude": 38.8534361,
      "longitude": 141.5813908,
      "countryCode": "jp",
      "rawTags": {
        "bench": "yes",
        "name": "最知",
        "name:en": "Saichi",
        "name:ja": "最知",
        "name:ja-Hira": "さいち",
        "name:ja-Latn": "Saichi",
        "name:ko": "사이치",
        "name:zh": "最知",
        "note": "JR東日本大船渡線のBRT区間に設置されている「駅」であり、鉄道事業法上の駅とは異なる",
        "operator": "東日本旅客鉄道",
        "operator:ja": "東日本旅客鉄道",
        "public_transport": "station",
        "railway": "station",
        "shelter": "yes",
        "start_date": "1967-07-20",
        "train": "no",
        "wikidata": "Q7399863",
        "wikipedia": "ja:最知駅"
      }
    },
    {
      "id": "miyagi_station_264270822",
      "osmId": 264270822,
      "osmType": "node",
      "prefectureId": "miyagi",
      "type": "station",
      "subtype": "jr",
      "name": "本吉",
      "nameKana": "もとよし",
      "nameEn": "Motoyoshi",
      "operator": "東日本旅客鉄道",
      "network": null,
      "ref": null,
      "latitude": 38.786442,
      "longitude": 141.5026524,
      "countryCode": "jp",
      "rawTags": {
        "name": "本吉",
        "name:en": "Motoyoshi",
        "name:ja": "本吉",
        "name:ja-Hira": "もとよし",
        "name:ja-Latn": "Motoyoshi",
        "name:ko": "모토요시",
        "name:zh": "本吉",
        "note": "JR東日本大船渡線のBRT区間に設置されている「駅」であり、鉄道事業法上の駅とは異なる",
        "operator": "東日本旅客鉄道",
        "operator:ja": "東日本旅客鉄道",
        "public_transport": "station",
        "railway": "station",
        "shelter": "yes",
        "start_date": "1957-02-11",
        "train": "no",
        "wikidata": "Q6918577",
        "wikipedia": "ja:本吉駅"
      }
    },
    {
      "id": "miyagi_station_264270829",
      "osmId": 264270829,
      "osmType": "node",
      "prefectureId": "miyagi",
      "type": "station",
      "subtype": "jr",
      "name": "陸前小泉",
      "nameKana": "りくぜんこいずみ",
      "nameEn": "Rikuzen-Koizumi",
      "operator": "東日本旅客鉄道",
      "network": null,
      "ref": null,
      "latitude": 38.7666937,
      "longitude": 141.5093315,
      "countryCode": "jp",
      "rawTags": {
        "KSJ2:LIN": "気仙沼線",
        "KSJ2:STN": "陸前小泉",
        "bench": "yes",
        "name": "陸前小泉",
        "name:en": "Rikuzen-Koizumi",
        "name:ja": "陸前小泉",
        "name:ja-Hira": "りくぜんこいずみ",
        "name:ja-Latn": "Rikuzen-Koizumi",
        "name:ko": "리쿠젠코이즈미",
        "name:zh": "陆前小泉",
        "note": "JR東日本大船渡線のBRT区間に設置されている「駅」であり、鉄道事業法上の駅とは異なる",
        "note:ja": "国土数値情報（鉄道データ）平成19年　国土交通省",
        "operator": "東日本旅客鉄道",
        "operator:ja": "東日本旅客鉄道",
        "public_transport": "station",
        "railway": "station",
        "shelter": "yes",
        "source": "KSJ2",
        "source_ref": "http://nlftp.mlit.go.jp/ksj/jpgis/datalist/KsjTmplt-N02-v1_1.html",
        "start_date": "1977-12-11",
        "train": "no",
        "wikidata": "Q7334132",
        "wikipedia": "ja:陸前小泉駅"
      }
    },
    {
      "id": "miyagi_station_264271162",
      "osmId": 264271162,
      "osmType": "node",
      "prefectureId": "miyagi",
      "type": "station",
      "subtype": "jr",
      "name": "南気仙沼",
      "nameKana": "みなみけせんぬま",
      "nameEn": "Minami-Kesennuma",
      "operator": "東日本旅客鉄道",
      "network": null,
      "ref": null,
      "latitude": 38.8952748,
      "longitude": 141.5760589,
      "countryCode": "jp",
      "rawTags": {
        "bench": "yes",
        "name": "南気仙沼",
        "name:en": "Minami-Kesennuma",
        "name:ja": "南気仙沼",
        "name:ja-Hira": "みなみけせんぬま",
        "name:ja-Latn": "Minami-Kesennuma",
        "note": "JR東日本大船渡線のBRT区間に設置されている「駅」であり、鉄道事業法上の駅とは異なる",
        "note:ja": "国土数値情報（鉄道データ）平成19年　国土交通省",
        "operator": "東日本旅客鉄道",
        "operator:ja": "東日本旅客鉄道",
        "public_transport": "station",
        "railway": "station",
        "shelter": "yes",
        "source": "KSJ2",
        "source_ref": "http://nlftp.mlit.go.jp/ksj/jpgis/datalist/KsjTmplt-N02-v1_1.html",
        "start_date": "1957-02-11",
        "train": "no",
        "wikidata": "Q6862934",
        "wikipedia": "ja:南気仙沼駅"
      }
    },
    {
      "id": "miyagi_station_264271436",
      "osmId": 264271436,
      "osmType": "node",
      "prefectureId": "miyagi",
      "type": "station",
      "subtype": "jr",
      "name": "清水浜",
      "nameKana": "しずはま",
      "nameEn": "Shizuhama",
      "operator": "東日本旅客鉄道",
      "network": null,
      "ref": null,
      "latitude": 38.6918748,
      "longitude": 141.4896089,
      "countryCode": "jp",
      "rawTags": {
        "KSJ2:LIN": "気仙沼線",
        "KSJ2:STN": "清水浜",
        "name": "清水浜",
        "name:en": "Shizuhama",
        "name:ja": "清水浜",
        "name:ja-Hira": "しずはま",
        "name:ko": "시즈하마",
        "name:zh": "清水滨",
        "note": "JR東日本大船渡線のBRT区間に設置されている「駅」であり、鉄道事業法上の駅とは異なる",
        "operator": "東日本旅客鉄道",
        "operator:ja": "東日本旅客鉄道",
        "public_transport": "station",
        "railway": "station",
        "shelter": "yes",
        "source": "KSJ2",
        "start_date": "1977-12-11",
        "train": "no",
        "wikidata": "Q7499478",
        "wikipedia": "ja:清水浜駅"
      }
    },
    {
      "id": "miyagi_station_264271438",
      "osmId": 264271438,
      "osmType": "node",
      "prefectureId": "miyagi",
      "type": "station",
      "subtype": "private",
      "name": "のの岳",
      "nameKana": null,
      "nameEn": "Nonodake",
      "operator": null,
      "network": null,
      "ref": null,
      "latitude": 38.5531667,
      "longitude": 141.2257896,
      "countryCode": "jp",
      "rawTags": {
        "name": "のの岳",
        "name:en": "Nonodake",
        "name:ja": "のの岳",
        "name:ja_rm": "Nonodake",
        "name:ko": "노노다케",
        "note": "National-Land Numerical Information (Railway) 2007, MLIT Japan",
        "note:ja": "国土数値情報（鉄道データ）平成19年　国土交通省",
        "public_transport": "station",
        "railway": "station",
        "source": "KSJ2",
        "source_ref": "http://nlftp.mlit.go.jp/ksj/jpgis/datalist/KsjTmplt-N02-v1_1.html",
        "wikidata": "Q7049528",
        "wikipedia": "ja:のの岳駅"
      }
    },
    {
      "id": "miyagi_station_264271485",
      "osmId": 264271485,
      "osmType": "node",
      "prefectureId": "miyagi",
      "type": "station",
      "subtype": "private",
      "name": "柳津",
      "nameKana": null,
      "nameEn": "Yanaizu",
      "operator": null,
      "network": null,
      "ref": null,
      "latitude": 38.6116887,
      "longitude": 141.3059037,
      "countryCode": "jp",
      "rawTags": {
        "name": "柳津",
        "name:en": "Yanaizu",
        "name:ja": "柳津",
        "name:ja_rm": "Yanaizu",
        "name:ko": "야나이즈",
        "note": "National-Land Numerical Information (Railway) 2007, MLIT Japan",
        "public_transport": "station",
        "railway": "station",
        "source": "KSJ2",
        "source_ref": "http://nlftp.mlit.go.jp/ksj/jpgis/datalist/KsjTmplt-N02-v1_1.html",
        "wikidata": "Q8048252",
        "wikipedia": "ja:柳津駅 (宮城県)"
      }
    },
    {
      "id": "miyagi_station_264271486",
      "osmId": 264271486,
      "osmType": "node",
      "prefectureId": "miyagi",
      "type": "station",
      "subtype": "jr",
      "name": "陸前港",
      "nameKana": "りくぜんみなと",
      "nameEn": "Rikuzen-Minato",
      "operator": "東日本旅客鉄道",
      "network": null,
      "ref": null,
      "latitude": 38.7391817,
      "longitude": 141.5310138,
      "countryCode": "jp",
      "rawTags": {
        "name": "陸前港",
        "name:en": "Rikuzen-Minato",
        "name:ja": "陸前港",
        "name:ja-Hira": "りくぜんみなと",
        "name:ja-Latn": "Rikuzen-Minato",
        "note": "JR東日本大船渡線のBRT区間に設置されている「駅」であり、鉄道事業法上の駅とは異なる",
        "operator": "東日本旅客鉄道",
        "operator:ja": "東日本旅客鉄道",
        "public_transport": "station",
        "railway": "station",
        "shelter": "yes",
        "source": "KSJ2",
        "start_date": "1977-12-11",
        "train": "no",
        "wikidata": "Q7334134",
        "wikipedia": "ja:陸前港駅"
      }
    },
    {
      "id": "miyagi_station_264271501",
      "osmId": 264271501,
      "osmType": "node",
      "prefectureId": "miyagi",
      "type": "station",
      "subtype": "jr",
      "name": "蔵内",
      "nameKana": "くらうち",
      "nameEn": "Kurauchi",
      "operator": "東日本旅客鉄道",
      "network": null,
      "ref": null,
      "latitude": 38.7536612,
      "longitude": 141.5246606,
      "countryCode": "jp",
      "rawTags": {
        "bench": "yes",
        "name": "蔵内",
        "name:en": "Kurauchi",
        "name:ja": "蔵内",
        "name:ja-Hira": "くらうち",
        "name:ko": "구라우치",
        "name:zh": "藏内",
        "note": "JR東日本大船渡線のBRT区間に設置されている「駅」であり、鉄道事業法上の駅とは異なる",
        "operator": "東日本旅客鉄道",
        "operator:ja": "東日本旅客鉄道",
        "public_transport": "station",
        "railway": "station",
        "shelter": "yes",
        "source": "KSJ2",
        "start_date": "1977-12-11",
        "train": "no",
        "wikidata": "Q6445664",
        "wikipedia": "ja:蔵内駅"
      }
    },
    {
      "id": "miyagi_station_264271502",
      "osmId": 264271502,
      "osmType": "node",
      "prefectureId": "miyagi",
      "type": "station",
      "subtype": "private",
      "name": "御岳堂",
      "nameKana": null,
      "nameEn": "Mitakedo",
      "operator": null,
      "network": null,
      "ref": null,
      "latitude": 38.6056937,
      "longitude": 141.2648016,
      "countryCode": "jp",
      "rawTags": {
        "name": "御岳堂",
        "name:en": "Mitakedo",
        "name:ja": "御岳堂",
        "name:ja_rm": "Mitakedō",
        "name:ko": "미타케도",
        "note": "National-Land Numerical Information (Railway) 2007, MLIT Japan",
        "note:ja": "国土数値情報（鉄道データ）平成19年　国土交通省",
        "public_transport": "station",
        "railway": "station",
        "source": "KSJ2",
        "source_ref": "http://nlftp.mlit.go.jp/ksj/jpgis/datalist/KsjTmplt-N02-v1_1.html",
        "wikidata": "Q1305797",
        "wikipedia": "ja:御岳堂駅"
      }
    },
    {
      "id": "miyagi_station_264271522",
      "osmId": 264271522,
      "osmType": "node",
      "prefectureId": "miyagi",
      "type": "station",
      "subtype": "jr",
      "name": "不動の沢",
      "nameKana": "ふどうのさわ",
      "nameEn": "Fudōnosawa",
      "operator": "東日本旅客鉄道",
      "network": null,
      "ref": null,
      "latitude": 38.8984556,
      "longitude": 141.5626248,
      "countryCode": "jp",
      "rawTags": {
        "name": "不動の沢",
        "name:en": "Fudōnosawa",
        "name:ja": "不動の沢",
        "name:ja-Hira": "ふどうのさわ",
        "name:ja-Latn": "Fudōnosawa",
        "name:ko": "후도노사와",
        "name:zh": "不动之泽",
        "name:zh-Hans": "不动之泽",
        "name:zh-Hant": "不動之澤",
        "note": "JR東日本大船渡線のBRT区間に設置されている「駅」であり、鉄道事業法上の駅とは異なる",
        "operator": "東日本旅客鉄道",
        "operator:ja": "東日本旅客鉄道",
        "public_transport": "station",
        "railway": "station",
        "shelter": "yes",
        "start_date": "1960-11-10",
        "train": "no",
        "wikidata": "Q775042",
        "wikipedia": "ja:不動の沢駅"
      }
    },
    {
      "id": "miyagi_station_264271912",
      "osmId": 264271912,
      "osmType": "node",
      "prefectureId": "miyagi",
      "type": "station",
      "subtype": "private",
      "name": "陸前豊里",
      "nameKana": null,
      "nameEn": "Rikuzen-Toyosato",
      "operator": null,
      "network": null,
      "ref": null,
      "latitude": 38.5825764,
      "longitude": 141.2444137,
      "countryCode": "jp",
      "rawTags": {
        "name": "陸前豊里",
        "name:en": "Rikuzen-Toyosato",
        "name:ja": "陸前豊里",
        "name:ja_rm": "Rikuzen-Toyosato",
        "name:ko": "리쿠젠토요사토",
        "note": "National-Land Numerical Information (Railway) 2007, MLIT Japan",
        "note:ja": "国土数値情報（鉄道データ）平成19年　国土交通省",
        "public_transport": "station",
        "railway": "station",
        "source": "KSJ2",
        "source_ref": "http://nlftp.mlit.go.jp/ksj/jpgis/datalist/KsjTmplt-N02-v1_1.html",
        "wikidata": "Q8191256",
        "wikipedia": "ja:陸前豊里駅"
      }
    },
    {
      "id": "miyagi_station_264272322",
      "osmId": 264272322,
      "osmType": "node",
      "prefectureId": "miyagi",
      "type": "station",
      "subtype": "private",
      "name": "和渕",
      "nameKana": null,
      "nameEn": "Wabuchi",
      "operator": null,
      "network": null,
      "ref": null,
      "latitude": 38.5262126,
      "longitude": 141.2207116,
      "countryCode": "jp",
      "rawTags": {
        "name": "和渕",
        "name:en": "Wabuchi",
        "name:ja": "和渕",
        "name:ja_rm": "Wabuchi",
        "name:ko": "와부치",
        "note": "National-Land Numerical Information (Railway) 2007, MLIT Japan",
        "note:ja": "国土数値情報（鉄道データ）平成19年　国土交通省",
        "public_transport": "station",
        "railway": "station",
        "source": "KSJ2",
        "source_ref": "http://nlftp.mlit.go.jp/ksj/jpgis/datalist/KsjTmplt-N02-v1_1.html",
        "wikidata": "Q7958714",
        "wikipedia": "ja:和渕駅"
      }
    },
    {
      "id": "miyagi_station_264400447",
      "osmId": 264400447,
      "osmType": "node",
      "prefectureId": "miyagi",
      "type": "station",
      "subtype": "private",
      "name": "岩出山",
      "nameKana": null,
      "nameEn": "Iwadeyama",
      "operator": null,
      "network": null,
      "ref": null,
      "latitude": 38.6523452,
      "longitude": 140.8717017,
      "countryCode": "jp",
      "rawTags": {
        "name": "岩出山",
        "name:en": "Iwadeyama",
        "name:ja": "岩出山",
        "name:ja_rm": "Iwadeyama",
        "name:ko": "이와데야마",
        "note": "National-Land Numerical Information (Railway) 2007, MLIT Japan",
        "note:ja": "国土数値情報（鉄道データ）平成19年　国土交通省",
        "public_transport": "station",
        "railway": "station",
        "source": "KSJ2",
        "source_ref": "http://nlftp.mlit.go.jp/ksj/jpgis/datalist/KsjTmplt-N02-v1_1.html",
        "wikidata": "Q247559",
        "wikipedia": "ja:岩出山駅"
      }
    },
    {
      "id": "miyagi_station_264400488",
      "osmId": 264400488,
      "osmType": "node",
      "prefectureId": "miyagi",
      "type": "station",
      "subtype": "private",
      "name": "陸前谷地",
      "nameKana": null,
      "nameEn": "Rikuzen-Yachi",
      "operator": null,
      "network": null,
      "ref": null,
      "latitude": 38.5650268,
      "longitude": 141.0000733,
      "countryCode": "jp",
      "rawTags": {
        "name": "陸前谷地",
        "name:en": "Rikuzen-Yachi",
        "name:ja": "陸前谷地",
        "name:ja_rm": "Rikuzen-Yachi",
        "name:ko": "리쿠젠야치",
        "note": "National-Land Numerical Information (Railway) 2007, MLIT Japan",
        "note:ja": "国土数値情報（鉄道データ）平成19年　国土交通省",
        "public_transport": "station",
        "railway": "station",
        "source": "KSJ2",
        "source_ref": "http://nlftp.mlit.go.jp/ksj/jpgis/datalist/KsjTmplt-N02-v1_1.html",
        "wikidata": "Q7334144",
        "wikipedia": "ja:陸前谷地駅"
      }
    },
    {
      "id": "miyagi_station_264400676",
      "osmId": 264400676,
      "osmType": "node",
      "prefectureId": "miyagi",
      "type": "station",
      "subtype": "private",
      "name": "池月",
      "nameKana": null,
      "nameEn": "Ikezuki",
      "operator": null,
      "network": null,
      "ref": null,
      "latitude": 38.7091634,
      "longitude": 140.8355215,
      "countryCode": "jp",
      "rawTags": {
        "name": "池月",
        "name:en": "Ikezuki",
        "name:ja": "池月",
        "name:ja_rm": "Ikezuki",
        "name:ko": "이케즈키",
        "note": "National-Land Numerical Information (Railway) 2007, MLIT Japan",
        "note:ja": "国土数値情報（鉄道データ）平成19年　国土交通省",
        "public_transport": "station",
        "railway": "station",
        "source": "KSJ2",
        "source_ref": "http://nlftp.mlit.go.jp/ksj/jpgis/datalist/KsjTmplt-N02-v1_1.html",
        "wikidata": "Q642558",
        "wikipedia": "ja:池月駅"
      }
    },
    {
      "id": "miyagi_station_264400678",
      "osmId": 264400678,
      "osmType": "node",
      "prefectureId": "miyagi",
      "type": "station",
      "subtype": "private",
      "name": "塚目",
      "nameKana": null,
      "nameEn": "Tsukanome",
      "operator": null,
      "network": null,
      "ref": null,
      "latitude": 38.5725298,
      "longitude": 140.9369507,
      "countryCode": "jp",
      "rawTags": {
        "name": "塚目",
        "name:en": "Tsukanome",
        "name:ja": "塚目",
        "name:ja_rm": "Tsukanome",
        "name:ko": "쓰카노메",
        "note": "National-Land Numerical Information (Railway) 2007, MLIT Japan",
        "note:ja": "国土数値情報（鉄道データ）平成19年　国土交通省",
        "public_transport": "station",
        "railway": "station",
        "source": "KSJ2",
        "source_ref": "http://nlftp.mlit.go.jp/ksj/jpgis/datalist/KsjTmplt-N02-v1_1.html",
        "wikidata": "Q7850038",
        "wikipedia": "ja:塚目駅"
      }
    },
    {
      "id": "miyagi_station_264400764",
      "osmId": 264400764,
      "osmType": "node",
      "prefectureId": "miyagi",
      "type": "station",
      "subtype": "private",
      "name": "上野目",
      "nameKana": "かみのめ",
      "nameEn": "Kaminome",
      "operator": null,
      "network": null,
      "ref": null,
      "latitude": 38.6803172,
      "longitude": 140.8593878,
      "countryCode": "jp",
      "rawTags": {
        "name": "上野目",
        "name:en": "Kaminome",
        "name:ja": "上野目",
        "name:ja_kana": "かみのめ",
        "name:ja_rm": "Kaminome",
        "name:ko": "가미노메",
        "note": "National-Land Numerical Information (Railway) 2007, MLIT Japan",
        "note:ja": "国土数値情報（鉄道データ）平成19年　国土交通省",
        "public_transport": "station",
        "railway": "station",
        "source": "KSJ2",
        "source_ref": "http://nlftp.mlit.go.jp/ksj/jpgis/datalist/KsjTmplt-N02-v1_1.html",
        "wikidata": "Q642242",
        "wikipedia": "ja:上野目駅"
      }
    },
    {
      "id": "miyagi_station_264400765",
      "osmId": 264400765,
      "osmType": "node",
      "prefectureId": "miyagi",
      "type": "station",
      "subtype": "private",
      "name": "東大崎",
      "nameKana": null,
      "nameEn": "Higashi-Osaki",
      "operator": null,
      "network": null,
      "ref": null,
      "latitude": 38.6059529,
      "longitude": 140.897232,
      "countryCode": "jp",
      "rawTags": {
        "name": "東大崎",
        "name:en": "Higashi-Osaki",
        "name:ja": "東大崎",
        "name:ja_rm": "Higashi-Ōsaki",
        "name:ko": "히가시오사키",
        "note": "National-Land Numerical Information (Railway) 2007, MLIT Japan",
        "note:ja": "国土数値情報（鉄道データ）平成19年　国土交通省",
        "public_transport": "station",
        "railway": "station",
        "source": "KSJ2",
        "source_ref": "http://nlftp.mlit.go.jp/ksj/jpgis/datalist/KsjTmplt-N02-v1_1.html",
        "wikidata": "Q247576",
        "wikipedia": "ja:東大崎駅"
      }
    },
    {
      "id": "miyagi_station_264400820",
      "osmId": 264400820,
      "osmType": "node",
      "prefectureId": "miyagi",
      "type": "station",
      "subtype": "private",
      "name": "鳴子温泉",
      "nameKana": null,
      "nameEn": "Naruko-Onsen",
      "operator": null,
      "network": null,
      "ref": null,
      "latitude": 38.743466,
      "longitude": 140.716093,
      "countryCode": "jp",
      "rawTags": {
        "KSJ2:LIN": "陸羽東線",
        "KSJ2:STN": "鳴子温泉",
        "alt_name:ko": "나루코온센",
        "name": "鳴子温泉",
        "name:en": "Naruko-Onsen",
        "name:ja": "鳴子温泉",
        "name:ja_rm": "Naruko-Onsen",
        "name:ko": "나루코온천",
        "note": "National-Land Numerical Information (Railway) 2007, MLIT Japan",
        "note:ja": "国土数値情報（鉄道データ）平成19年　国土交通省",
        "public_transport": "station",
        "railway": "station",
        "source_ref": "http://nlftp.mlit.go.jp/ksj/jpgis/datalist/KsjTmplt-N02-v1_1.html",
        "train": "yes",
        "wikidata": "Q6966446",
        "wikipedia": "ja:鳴子温泉駅"
      }
    },
    {
      "id": "miyagi_station_264400823",
      "osmId": 264400823,
      "osmType": "node",
      "prefectureId": "miyagi",
      "type": "station",
      "subtype": "private",
      "name": "北浦",
      "nameKana": "きたうら",
      "nameEn": "Kitaura",
      "operator": null,
      "network": null,
      "ref": null,
      "latitude": 38.559972,
      "longitude": 141.0226175,
      "countryCode": "jp",
      "rawTags": {
        "name": "北浦",
        "name:en": "Kitaura",
        "name:ja": "北浦",
        "name:ja-Hira": "きたうら",
        "name:ja_rm": "Kitaura",
        "name:ko": "기타우라",
        "note": "National-Land Numerical Information (Railway) 2007, MLIT Japan",
        "note:ja": "国土数値情報（鉄道データ）平成19年　国土交通省",
        "public_transport": "station",
        "railway": "station",
        "source": "KSJ2",
        "source_ref": "http://nlftp.mlit.go.jp/ksj/jpgis/datalist/KsjTmplt-N02-v1_1.html",
        "wikidata": "Q8192774",
        "wikipedia": "ja:北浦駅 (宮城県)"
      }
    },
    {
      "id": "miyagi_station_264400864",
      "osmId": 264400864,
      "osmType": "node",
      "prefectureId": "miyagi",
      "type": "station",
      "subtype": "private",
      "name": "有備館",
      "nameKana": null,
      "nameEn": "Yubikan",
      "operator": null,
      "network": null,
      "ref": null,
      "latitude": 38.6582256,
      "longitude": 140.8638948,
      "countryCode": "jp",
      "rawTags": {
        "name": "有備館",
        "name:en": "Yubikan",
        "name:ja": "有備館",
        "name:ja_rm": "Yūbikan",
        "name:ko": "유비칸",
        "note": "National-Land Numerical Information (Railway) 2007, MLIT Japan",
        "note:ja": "国土数値情報（鉄道データ）平成19年　国土交通省",
        "public_transport": "station",
        "railway": "station",
        "source": "KSJ2",
        "source_ref": "http://nlftp.mlit.go.jp/ksj/jpgis/datalist/KsjTmplt-N02-v1_1.html",
        "wikidata": "Q247618",
        "wikipedia": "ja:有備館駅"
      }
    },
    {
      "id": "miyagi_station_264400919",
      "osmId": 264400919,
      "osmType": "node",
      "prefectureId": "miyagi",
      "type": "station",
      "subtype": "private",
      "name": "川渡温泉",
      "nameKana": null,
      "nameEn": "Kawatabi-Onsen",
      "operator": null,
      "network": null,
      "ref": null,
      "latitude": 38.7367402,
      "longitude": 140.7801528,
      "countryCode": "jp",
      "rawTags": {
        "alt_name:ko": "가와타비온센",
        "name": "川渡温泉",
        "name:en": "Kawatabi-Onsen",
        "name:ja": "川渡温泉",
        "name:ja_rm": "Kawatabi-Onsen",
        "name:ko": "가와타비온천",
        "note": "National-Land Numerical Information (Railway) 2007, MLIT Japan",
        "note:ja": "国土数値情報（鉄道データ）平成19年　国土交通省",
        "public_transport": "station",
        "railway": "station",
        "source": "KSJ2",
        "source_ref": "http://nlftp.mlit.go.jp/ksj/jpgis/datalist/KsjTmplt-N02-v1_1.html",
        "wikidata": "Q642583",
        "wikipedia": "ja:川渡温泉駅"
      }
    },
    {
      "id": "miyagi_station_264400962",
      "osmId": 264400962,
      "osmType": "node",
      "prefectureId": "miyagi",
      "type": "station",
      "subtype": "private",
      "name": "西大崎",
      "nameKana": null,
      "nameEn": "Nishi-Osaki",
      "operator": null,
      "network": null,
      "ref": null,
      "latitude": 38.6303048,
      "longitude": 140.8896365,
      "countryCode": "jp",
      "rawTags": {
        "name": "西大崎",
        "name:en": "Nishi-Osaki",
        "name:ja": "西大崎",
        "name:ja_rm": "Nishi-Ōsaki",
        "name:ko": "니시오사키",
        "note": "National-Land Numerical Information (Railway) 2007, MLIT Japan",
        "note:ja": "国土数値情報（鉄道データ）平成19年　国土交通省",
        "public_transport": "station",
        "railway": "station",
        "source": "KSJ2",
        "source_ref": "http://nlftp.mlit.go.jp/ksj/jpgis/datalist/KsjTmplt-N02-v1_1.html",
        "wikidata": "Q247570",
        "wikipedia": "ja:西大崎駅"
      }
    },
    {
      "id": "miyagi_station_264400966",
      "osmId": 264400966,
      "osmType": "node",
      "prefectureId": "miyagi",
      "type": "station",
      "subtype": "private",
      "name": "鳴子御殿湯",
      "nameKana": null,
      "nameEn": "Naruko-Gotenyu",
      "operator": null,
      "network": null,
      "ref": null,
      "latitude": 38.7445129,
      "longitude": 140.7373203,
      "countryCode": "jp",
      "rawTags": {
        "KSJ2:LIN": "陸羽東線",
        "KSJ2:STN": "鳴子御殿湯",
        "name": "鳴子御殿湯",
        "name:en": "Naruko-Gotenyu",
        "name:ja": "鳴子御殿湯",
        "name:ja_rm": "Naruko-Gotenyu",
        "name:ko": "나루코고텐유",
        "note": "National-Land Numerical Information (Railway) 2007, MLIT Japan",
        "note:ja": "国土数値情報（鉄道データ）平成19年　国土交通省",
        "public_transport": "station",
        "railway": "station",
        "source": "KSJ2",
        "source_ref": "http://nlftp.mlit.go.jp/ksj/jpgis/datalist/KsjTmplt-N02-v1_1.html",
        "wikidata": "Q1092587",
        "wikipedia": "ja:鳴子御殿湯駅"
      }
    },
    {
      "id": "miyagi_station_264400968",
      "osmId": 264400968,
      "osmType": "node",
      "prefectureId": "miyagi",
      "type": "station",
      "subtype": "private",
      "name": "西古川",
      "nameKana": null,
      "nameEn": "Nishi-Furukawa",
      "operator": null,
      "network": null,
      "ref": null,
      "latitude": 38.5783466,
      "longitude": 140.8952747,
      "countryCode": "jp",
      "rawTags": {
        "name": "西古川",
        "name:en": "Nishi-Furukawa",
        "name:ja": "西古川",
        "name:ja_rm": "Nishi-Furukawa",
        "name:ko": "니시후루카와",
        "note": "National-Land Numerical Information (Railway) 2007, MLIT Japan",
        "note:ja": "国土数値情報（鉄道データ）平成19年　国土交通省",
        "public_transport": "station",
        "railway": "station",
        "source": "KSJ2",
        "source_ref": "http://nlftp.mlit.go.jp/ksj/jpgis/datalist/KsjTmplt-N02-v1_1.html",
        "wikidata": "Q7040334",
        "wikipedia": "ja:西古川駅"
      }
    },
    {
      "id": "miyagi_station_264403020",
      "osmId": 264403020,
      "osmType": "node",
      "prefectureId": "miyagi",
      "type": "station",
      "subtype": "jr",
      "name": "浜吉田",
      "nameKana": "はまよしだ",
      "nameEn": "Hamayoshida",
      "operator": "東日本旅客鉄道",
      "network": null,
      "ref": null,
      "latitude": 38.0023133,
      "longitude": 140.8898789,
      "countryCode": "jp",
      "rawTags": {
        "name": "浜吉田",
        "name:en": "Hamayoshida",
        "name:ja": "浜吉田",
        "name:ja-Hira": "はまよしだ",
        "name:ja-Latn": "Hamayoshida",
        "operator": "東日本旅客鉄道",
        "operator:ja": "東日本旅客鉄道",
        "public_transport": "station",
        "railway": "station",
        "source": "KSJ2",
        "wikidata": "Q5644177",
        "wikipedia": "ja:浜吉田駅"
      }
    },
    {
      "id": "miyagi_station_264404856",
      "osmId": 264404856,
      "osmType": "node",
      "prefectureId": "miyagi",
      "type": "station",
      "subtype": "private",
      "name": "女川",
      "nameKana": "おながわ",
      "nameEn": "Onagawa",
      "operator": null,
      "network": null,
      "ref": null,
      "latitude": 38.4468109,
      "longitude": 141.4435933,
      "countryCode": "jp",
      "rawTags": {
        "name": "女川",
        "name:en": "Onagawa",
        "name:ja": "女川",
        "name:ja_kana": "おながわ",
        "name:ja_rm": "Onagawa",
        "name:ko": "오나가와",
        "public_transport": "station",
        "railway": "station",
        "source": "KSJ2",
        "wikidata": "Q7091663",
        "wikipedia": "ja:女川駅"
      }
    },
    {
      "id": "miyagi_station_264404860",
      "osmId": 264404860,
      "osmType": "node",
      "prefectureId": "miyagi",
      "type": "station",
      "subtype": "private",
      "name": "渡波",
      "nameKana": null,
      "nameEn": "Watanoha",
      "operator": null,
      "network": null,
      "ref": null,
      "latitude": 38.419843,
      "longitude": 141.3650127,
      "countryCode": "jp",
      "rawTags": {
        "name": "渡波",
        "name:en": "Watanoha",
        "name:ja": "渡波",
        "name:ja_rm": "Watanoha",
        "name:ko": "와타노하",
        "note": "National-Land Numerical Information (Railway) 2007, MLIT Japan",
        "note:ja": "国土数値情報（鉄道データ）平成19年　国土交通省",
        "public_transport": "station",
        "railway": "station",
        "source": "KSJ2",
        "source_ref": "http://nlftp.mlit.go.jp/ksj/jpgis/datalist/KsjTmplt-N02-v1_1.html",
        "wikidata": "Q7972997",
        "wikipedia": "ja:渡波駅"
      }
    },
    {
      "id": "miyagi_station_264404868",
      "osmId": 264404868,
      "osmType": "node",
      "prefectureId": "miyagi",
      "type": "station",
      "subtype": "private",
      "name": "万石浦",
      "nameKana": null,
      "nameEn": "Mangoku-Ura",
      "operator": null,
      "network": null,
      "ref": null,
      "latitude": 38.4290947,
      "longitude": 141.3690561,
      "countryCode": "jp",
      "rawTags": {
        "name": "万石浦",
        "name:en": "Mangoku-Ura",
        "name:ja": "万石浦",
        "name:ja_rm": "Mangoku-Ura",
        "name:ko": "만고쿠우라",
        "note": "National-Land Numerical Information (Railway) 2007, MLIT Japan",
        "note:ja": "国土数値情報（鉄道データ）平成19年　国土交通省",
        "public_transport": "station",
        "railway": "station",
        "source": "KSJ2",
        "source_ref": "http://nlftp.mlit.go.jp/ksj/jpgis/datalist/KsjTmplt-N02-v1_1.html",
        "wikidata": "Q6749091",
        "wikipedia": "ja:万石浦駅"
      }
    },
    {
      "id": "miyagi_station_264404870",
      "osmId": 264404870,
      "osmType": "node",
      "prefectureId": "miyagi",
      "type": "station",
      "subtype": "private",
      "name": "沢田",
      "nameKana": null,
      "nameEn": "Sawada",
      "operator": null,
      "network": null,
      "ref": null,
      "latitude": 38.4323145,
      "longitude": 141.382387,
      "countryCode": "jp",
      "rawTags": {
        "name": "沢田",
        "name:en": "Sawada",
        "name:ja": "沢田",
        "name:ja_rm": "Sawada",
        "name:ko": "사와다",
        "note": "National-Land Numerical Information (Railway) 2007, MLIT Japan",
        "note:ja": "国土数値情報（鉄道データ）平成19年　国土交通省",
        "public_transport": "station",
        "railway": "station",
        "source": "KSJ2",
        "source_ref": "http://nlftp.mlit.go.jp/ksj/jpgis/datalist/KsjTmplt-N02-v1_1.html",
        "wikidata": "Q7428529",
        "wikipedia": "ja:沢田駅"
      }
    },
    {
      "id": "miyagi_station_264404931",
      "osmId": 264404931,
      "osmType": "node",
      "prefectureId": "miyagi",
      "type": "station",
      "subtype": "private",
      "name": "陸前稲井",
      "nameKana": null,
      "nameEn": "Rikuzen-Inai",
      "operator": null,
      "network": null,
      "ref": null,
      "latitude": 38.4454259,
      "longitude": 141.3350339,
      "countryCode": "jp",
      "rawTags": {
        "name": "陸前稲井",
        "name:en": "Rikuzen-Inai",
        "name:ja": "陸前稲井",
        "name:ja_rm": "Rikuzen-Inai",
        "name:ko": "리쿠젠이나이",
        "note": "National-Land Numerical Information (Railway) 2007, MLIT Japan",
        "note:ja": "国土数値情報（鉄道データ）平成19年　国土交通省",
        "public_transport": "station",
        "railway": "station",
        "source": "KSJ2",
        "source_ref": "http://nlftp.mlit.go.jp/ksj/jpgis/datalist/KsjTmplt-N02-v1_1.html",
        "wikidata": "Q7334129",
        "wikipedia": "ja:陸前稲井駅"
      }
    },
    {
      "id": "miyagi_station_264404950",
      "osmId": 264404950,
      "osmType": "node",
      "prefectureId": "miyagi",
      "type": "station",
      "subtype": "private",
      "name": "浦宿",
      "nameKana": null,
      "nameEn": "Urashuku",
      "operator": null,
      "network": null,
      "ref": null,
      "latitude": 38.436569,
      "longitude": 141.4214896,
      "countryCode": "jp",
      "rawTags": {
        "name": "浦宿",
        "name:en": "Urashuku",
        "name:ja": "浦宿",
        "name:ja_rm": "Urashuku",
        "name:ko": "우라슈쿠",
        "note": "National-Land Numerical Information (Railway) 2007, MLIT Japan",
        "note:ja": "国土数値情報（鉄道データ）平成19年　国土交通省",
        "public_transport": "station",
        "railway": "station",
        "source": "KSJ2",
        "source_ref": "http://nlftp.mlit.go.jp/ksj/jpgis/datalist/KsjTmplt-N02-v1_1.html",
        "wikidata": "Q7899793",
        "wikipedia": "ja:浦宿駅"
      }
    },
    {
      "id": "miyagi_station_264405147",
      "osmId": 264405147,
      "osmType": "node",
      "prefectureId": "miyagi",
      "type": "station",
      "subtype": "private",
      "name": "曽波神",
      "nameKana": null,
      "nameEn": "Sobanokami",
      "operator": null,
      "network": null,
      "ref": null,
      "latitude": 38.4657712,
      "longitude": 141.287946,
      "countryCode": "jp",
      "rawTags": {
        "name": "曽波神",
        "name:en": "Sobanokami",
        "name:ja": "曽波神",
        "name:ja_rm": "Sobanokami",
        "name:ko": "소바노카미",
        "note": "National-Land Numerical Information (Railway) 2007, MLIT Japan",
        "note:ja": "国土数値情報（鉄道データ）平成19年　国土交通省",
        "public_transport": "station",
        "railway": "station",
        "source": "KSJ2",
        "source_ref": "http://nlftp.mlit.go.jp/ksj/jpgis/datalist/KsjTmplt-N02-v1_1.html",
        "train": "yes",
        "wikidata": "Q7549897",
        "wikipedia": "ja:曽波神駅"
      }
    },
    {
      "id": "miyagi_station_264405596",
      "osmId": 264405596,
      "osmType": "node",
      "prefectureId": "miyagi",
      "type": "station",
      "subtype": "private",
      "name": "鹿又",
      "nameKana": null,
      "nameEn": "Kanomata",
      "operator": null,
      "network": null,
      "ref": null,
      "latitude": 38.4858262,
      "longitude": 141.2828856,
      "countryCode": "jp",
      "rawTags": {
        "bus": "yes",
        "name": "鹿又",
        "name:en": "Kanomata",
        "name:ja": "鹿又",
        "name:ja_rm": "Kanomata",
        "name:ko": "가노마타",
        "note": "National-Land Numerical Information (Railway) 2007, MLIT Japan",
        "note:ja": "国土数値情報（鉄道データ）平成19年　国土交通省",
        "public_transport": "station",
        "railway": "station",
        "source": "KSJ2",
        "source_ref": "http://nlftp.mlit.go.jp/ksj/jpgis/datalist/KsjTmplt-N02-v1_1.html",
        "train": "yes",
        "wikidata": "Q7936805",
        "wikipedia": "ja:鹿又駅"
      }
    },
    {
      "id": "miyagi_station_264405714",
      "osmId": 264405714,
      "osmType": "node",
      "prefectureId": "miyagi",
      "type": "station",
      "subtype": "private",
      "name": "涌谷",
      "nameKana": "わくや",
      "nameEn": "Wakuya",
      "operator": null,
      "network": null,
      "ref": null,
      "latitude": 38.5377483,
      "longitude": 141.1278028,
      "countryCode": "jp",
      "rawTags": {
        "name": "涌谷",
        "name:en": "Wakuya",
        "name:ja": "涌谷",
        "name:ja_kana": "わくや",
        "name:ja_rm": "Wakuya",
        "name:ko": "와쿠야",
        "note": "National-Land Numerical Information (Railway) 2007, MLIT Japan",
        "note:ja": "国土数値情報（鉄道データ）平成19年　国土交通省",
        "public_transport": "station",
        "railway": "station",
        "source": "KSJ2",
        "source_ref": "http://nlftp.mlit.go.jp/ksj/jpgis/datalist/KsjTmplt-N02-v1_1.html",
        "wikidata": "Q7961231",
        "wikipedia": "ja:涌谷駅"
      }
    },
    {
      "id": "miyagi_station_264405758",
      "osmId": 264405758,
      "osmType": "node",
      "prefectureId": "miyagi",
      "type": "station",
      "subtype": "private",
      "name": "前谷地",
      "nameKana": null,
      "nameEn": "Maeyachi",
      "operator": null,
      "network": null,
      "ref": null,
      "latitude": 38.5123152,
      "longitude": 141.1938703,
      "countryCode": "jp",
      "rawTags": {
        "name": "前谷地",
        "name:en": "Maeyachi",
        "name:ja": "前谷地",
        "name:ja_rm": "Maeyachi",
        "name:ko": "마에야치",
        "note": "National-Land Numerical Information (Railway) 2007, MLIT Japan",
        "note:ja": "国土数値情報（鉄道データ）平成19年　国土交通省",
        "public_transport": "station",
        "railway": "station",
        "source": "KSJ2",
        "source_ref": "http://nlftp.mlit.go.jp/ksj/jpgis/datalist/KsjTmplt-N02-v1_1.html",
        "wikidata": "Q6729414",
        "wikipedia": "ja:前谷地駅"
      }
    },
    {
      "id": "miyagi_station_264405825",
      "osmId": 264405825,
      "osmType": "node",
      "prefectureId": "miyagi",
      "type": "station",
      "subtype": "private",
      "name": "上涌谷",
      "nameKana": null,
      "nameEn": "Kami-Wakuya",
      "operator": null,
      "network": null,
      "ref": null,
      "latitude": 38.5492627,
      "longitude": 141.0993993,
      "countryCode": "jp",
      "rawTags": {
        "name": "上涌谷",
        "name:en": "Kami-Wakuya",
        "name:ja": "上涌谷",
        "name:ja_rm": "Kami-Wakuya",
        "name:ko": "가미와쿠야",
        "note": "National-Land Numerical Information (Railway) 2007, MLIT Japan",
        "note:ja": "国土数値情報（鉄道データ）平成19年　国土交通省",
        "public_transport": "station",
        "railway": "station",
        "source": "KSJ2",
        "source_ref": "http://nlftp.mlit.go.jp/ksj/jpgis/datalist/KsjTmplt-N02-v1_1.html",
        "wikidata": "Q8192019",
        "wikipedia": "ja:上涌谷駅"
      }
    },
    {
      "id": "miyagi_station_264415884",
      "osmId": 264415884,
      "osmType": "node",
      "prefectureId": "miyagi",
      "type": "station",
      "subtype": "subway",
      "name": "仙台",
      "nameKana": "せんだい",
      "nameEn": "Sendai",
      "operator": null,
      "network": null,
      "ref": "N10;T07",
      "latitude": 38.2597526,
      "longitude": 140.8800249,
      "countryCode": "jp",
      "rawTags": {
        "name": "仙台",
        "name:en": "Sendai",
        "name:ja": "仙台",
        "name:ja-Hira": "せんだい",
        "name:ja_rm": "Sendai",
        "name:ko": "센다이",
        "note": "National-Land Numerical Information (Railway) 2007, MLIT Japan",
        "note:ja": "国土数値情報（鉄道データ）平成19年　国土交通省",
        "public_transport": "station",
        "railway": "station",
        "ref": "N10;T07",
        "source": "KSJ2",
        "source_ref": "http://nlftp.mlit.go.jp/ksj/jpgis/datalist/KsjTmplt-N02-v1_1.html",
        "station": "subway",
        "subway": "yes",
        "train": "yes",
        "wikidata": "Q124373541"
      }
    },
    {
      "id": "miyagi_station_265031015",
      "osmId": 265031015,
      "osmType": "node",
      "prefectureId": "miyagi",
      "type": "station",
      "subtype": "private",
      "name": "くりこま高原",
      "nameKana": null,
      "nameEn": "Kurikoma-Kogen",
      "operator": null,
      "network": null,
      "ref": null,
      "latitude": 38.7487399,
      "longitude": 141.0716092,
      "countryCode": "jp",
      "rawTags": {
        "addr:block_number": "284",
        "addr:city": "栗原市",
        "addr:postcode": "989-5612",
        "addr:province": "宮城県",
        "addr:quarter": "志波姫新熊谷",
        "highspeed": "yes",
        "name": "くりこま高原",
        "name:de": "Kurikoma-Kogen Gleis 1",
        "name:en": "Kurikoma-Kogen",
        "name:ja": "くりこま高原",
        "name:ja_rm": "Kurikoma-Kōgen",
        "name:ko": "구리코마코겐",
        "name:ru": "Курикома-Коген",
        "public_transport": "station",
        "railway": "station",
        "source": "KSJ2",
        "train": "yes",
        "wikidata": "Q1136550",
        "wikipedia": "ja:くりこま高原駅"
      }
    },
    {
      "id": "miyagi_station_265031031",
      "osmId": 265031031,
      "osmType": "node",
      "prefectureId": "miyagi",
      "type": "station",
      "subtype": "private",
      "name": "古川",
      "nameKana": null,
      "nameEn": "Furukawa",
      "operator": null,
      "network": null,
      "ref": null,
      "latitude": 38.5705529,
      "longitude": 140.9679338,
      "countryCode": "jp",
      "rawTags": {
        "highspeed": "yes",
        "name": "古川",
        "name:de": "Furukawa",
        "name:en": "Furukawa",
        "name:ja": "古川",
        "name:ja_rm": "Furukawa",
        "name:ko": "후루카와",
        "name:ru": "Фурукава",
        "public_transport": "station",
        "railway": "station",
        "source": "KSJ2",
        "train": "yes",
        "wikidata": "Q1136520",
        "wikipedia": "ja:古川駅"
      }
    },
    {
      "id": "miyagi_airport_1042056033",
      "osmId": 1042056033,
      "osmType": "node",
      "prefectureId": "miyagi",
      "type": "airport",
      "subtype": "military",
      "name": "航空自衛隊 松島基地",
      "nameKana": "こうくうじえいたい まつしまきち",
      "nameEn": "JASDF Matsushima Airbase",
      "operator": null,
      "network": null,
      "ref": "RJST",
      "latitude": 38.4048996,
      "longitude": 141.2200012,
      "countryCode": "jp",
      "rawTags": {
        "aeroway": "aerodrome",
        "icao": "RJST",
        "landuse": "military",
        "military": "airfield",
        "name": "航空自衛隊 松島基地",
        "name:en": "JASDF Matsushima Airbase",
        "name:ja": "航空自衛隊 松島基地",
        "name:ja-Hira": "こうくうじえいたい まつしまきち",
        "source": "ourairports.com",
        "website": "https://www.mod.go.jp/asdf/matsushima/"
      }
    },
    {
      "id": "miyagi_station_2194720290",
      "osmId": 2194720290,
      "osmType": "node",
      "prefectureId": "miyagi",
      "type": "station",
      "subtype": "private",
      "name": "佳景山",
      "nameKana": null,
      "nameEn": "Kakeyama",
      "operator": null,
      "network": null,
      "ref": null,
      "latitude": 38.4979581,
      "longitude": 141.2395823,
      "countryCode": "jp",
      "rawTags": {
        "name": "佳景山",
        "name:en": "Kakeyama",
        "name:ja": "佳景山",
        "name:ja_rm": "Kakeyama",
        "name:ko": "가케야마",
        "note": "National-Land Numerical Information (Railway) 2007, MLIT Japan",
        "note:ja": "国土数値情報（鉄道データ）平成19年　国土交通省",
        "public_transport": "station",
        "railway": "station",
        "source": "KSJ2",
        "source_ref": "http://nlftp.mlit.go.jp/ksj/jpgis/datalist/KsjTmplt-N02-v1_1.html",
        "wikidata": "Q6349376",
        "wikipedia": "ja:佳景山駅"
      }
    },
    {
      "id": "miyagi_station_2493411817",
      "osmId": 2493411817,
      "osmType": "node",
      "prefectureId": "miyagi",
      "type": "station",
      "subtype": "jr",
      "name": "志津川",
      "nameKana": "しづがわ",
      "nameEn": "Shizugawa",
      "operator": "東日本旅客鉄道",
      "network": null,
      "ref": null,
      "latitude": 38.6796396,
      "longitude": 141.4468945,
      "countryCode": "jp",
      "rawTags": {
        "name": "志津川",
        "name:en": "Shizugawa",
        "name:ja": "志津川",
        "name:ja-Hira": "しづがわ",
        "name:ja_rm": "Shizugawa",
        "name:ko": "시즈가와",
        "name:zh": "志津川",
        "note": "JR東日本大船渡線のBRT区間に設置されている「駅」であり、鉄道事業法上の駅とは異なる",
        "operator": "東日本旅客鉄道",
        "operator:ja": "東日本旅客鉄道",
        "public_transport": "station",
        "railway": "station",
        "shelter": "yes",
        "start_date": "1977-12-11",
        "train": "no",
        "wheelchair": "yes",
        "wikidata": "Q7499476",
        "wikipedia": "ja:志津川駅"
      }
    },
    {
      "id": "miyagi_station_2512630999",
      "osmId": 2512630999,
      "osmType": "node",
      "prefectureId": "miyagi",
      "type": "station",
      "subtype": "jr",
      "name": "南三陸町役場・病院前",
      "nameKana": "みなみさんりくちょうやくば・びょういんまえ",
      "nameEn": "Minami-Sanriku Town Office・Hospital",
      "operator": "東日本旅客鉄道",
      "network": null,
      "ref": null,
      "latitude": 38.6791846,
      "longitude": 141.4627181,
      "countryCode": "jp",
      "rawTags": {
        "bench": "yes",
        "name": "南三陸町役場・病院前",
        "name:en": "Minami-Sanriku Town Office・Hospital",
        "name:ja": "南三陸町役場・病院前",
        "name:ja-Hira": "みなみさんりくちょうやくば・びょういんまえ",
        "name:zh": "南三陆町役场・医院前",
        "note": "JR東日本大船渡線のBRT区間に設置されている「駅」であり、鉄道事業法上の駅とは異なる",
        "old_name": "ベイサイドアリーナ",
        "operator": "東日本旅客鉄道",
        "operator:ja": "東日本旅客鉄道",
        "public_transport": "station",
        "railway": "station",
        "shelter": "yes",
        "start_date": "2012-12-22",
        "train": "no",
        "wikidata": "Q11336772",
        "wikipedia": "ja:南三陸町役場・病院前駅"
      }
    },
    {
      "id": "miyagi_station_2552963359",
      "osmId": 2552963359,
      "osmType": "node",
      "prefectureId": "miyagi",
      "type": "station",
      "subtype": "private",
      "name": "陸前高砂",
      "nameKana": null,
      "nameEn": "Rikuzen-Takasago",
      "operator": null,
      "network": null,
      "ref": null,
      "latitude": 38.2735609,
      "longitude": 140.9680029,
      "countryCode": "jp",
      "rawTags": {
        "name": "陸前高砂",
        "name:en": "Rikuzen-Takasago",
        "name:ja": "陸前高砂",
        "name:ja_rm": "Rikuzen-Takasago",
        "name:ko": "리쿠젠타카사고",
        "note": "National-Land Numerical Information (Railway) 2007, MLIT Japan",
        "note:ja": "国土数値情報（鉄道データ）平成19年　国土交通省",
        "public_transport": "station",
        "railway": "station",
        "source": "KSJ2",
        "source_ref": "http://nlftp.mlit.go.jp/ksj/jpgis/datalist/KsjTmplt-N02-v1_1.html",
        "wikidata": "Q7334137",
        "wikipedia": "ja:陸前高砂駅"
      }
    },
    {
      "id": "miyagi_station_2729956033",
      "osmId": 2729956033,
      "osmType": "node",
      "prefectureId": "miyagi",
      "type": "station",
      "subtype": "private",
      "name": "気仙沼",
      "nameKana": "けせんぬま",
      "nameEn": "Kesennuma",
      "operator": null,
      "network": null,
      "ref": null,
      "latitude": 38.909879,
      "longitude": 141.5592196,
      "countryCode": "jp",
      "rawTags": {
        "name": "気仙沼",
        "name:en": "Kesennuma",
        "name:ja": "気仙沼",
        "name:ja-Hira": "けせんぬま",
        "name:ja-Latn": "Kesennuma",
        "name:ko": "게센누마",
        "name:zh": "气仙沼",
        "name:zh-Hans": "气仙沼",
        "name:zh-Hant": "氣仙沼",
        "public_transport": "station",
        "railway": "station",
        "source": "KSJ2",
        "wikidata": "Q6394927",
        "wikipedia": "ja:気仙沼駅"
      }
    },
    {
      "id": "miyagi_station_2748877938",
      "osmId": 2748877938,
      "osmType": "node",
      "prefectureId": "miyagi",
      "type": "station",
      "subtype": "subway",
      "name": "八木山動物公園",
      "nameKana": null,
      "nameEn": "Yagiyama Zoological Park",
      "operator": "仙台市交通局",
      "network": null,
      "ref": "T01",
      "latitude": 38.2433949,
      "longitude": 140.8440117,
      "countryCode": "jp",
      "rawTags": {
        "alt_name:ko": "야기야마도부쓰코엔",
        "ele:local": "136.4",
        "name": "八木山動物公園",
        "name:en": "Yagiyama Zoological Park",
        "name:ja": "八木山動物公園",
        "name:ja_rm": "Yagiyama-Dobutsu-koen",
        "name:ko": "야기야마동물공원",
        "operator": "仙台市交通局",
        "public_transport": "station",
        "railway": "station",
        "ref": "T01",
        "source:ele": "commons.wikimedia.org/wiki/File:Sign_of_the_highest_underground_station(Yagiyamadoubutsukouen_station).JPG",
        "station": "subway",
        "subway": "yes",
        "train": "yes",
        "wikidata": "Q11400042",
        "wikipedia": "ja:八木山動物公園駅"
      }
    },
    {
      "id": "miyagi_station_2748877942",
      "osmId": 2748877942,
      "osmType": "node",
      "prefectureId": "miyagi",
      "type": "station",
      "subtype": "subway",
      "name": "青葉山",
      "nameKana": null,
      "nameEn": "Aobayama",
      "operator": "仙台市交通局",
      "network": null,
      "ref": "T02",
      "latitude": 38.2552501,
      "longitude": 140.8353433,
      "countryCode": "jp",
      "rawTags": {
        "name": "青葉山",
        "name:en": "Aobayama",
        "name:ja": "青葉山",
        "name:ja_rm": "Aobayama",
        "name:ko": "아오바야마",
        "operator": "仙台市交通局",
        "public_transport": "station",
        "railway": "station",
        "ref": "T02",
        "station": "subway",
        "subway": "yes",
        "train": "yes",
        "wikidata": "Q11662741",
        "wikipedia": "ja:青葉山駅"
      }
    },
    {
      "id": "miyagi_station_2982468643",
      "osmId": 2982468643,
      "osmType": "node",
      "prefectureId": "miyagi",
      "type": "station",
      "subtype": "jr",
      "name": "松岩",
      "nameKana": "まついわ",
      "nameEn": "Matsuiwa",
      "operator": "東日本旅客鉄道",
      "network": null,
      "ref": null,
      "latitude": 38.8738703,
      "longitude": 141.5836271,
      "countryCode": "jp",
      "rawTags": {
        "bench": "yes",
        "name": "松岩",
        "name:en": "Matsuiwa",
        "name:ja": "松岩",
        "name:ja-Hira": "まついわ",
        "name:ja-Latn": "Matsuiwa",
        "name:ko": "마쓰이와",
        "name:zh": "松岩",
        "note": "JR東日本大船渡線のBRT区間に設置されている「駅」であり、鉄道事業法上の駅とは異なる",
        "operator": "東日本旅客鉄道",
        "operator:ja": "東日本旅客鉄道",
        "public_transport": "station",
        "railway": "station",
        "shelter": "yes",
        "start_date": "1957-02-11",
        "train": "no",
        "wikidata": "Q10994194",
        "wikipedia": "ja:松岩駅"
      }
    },
    {
      "id": "miyagi_station_3160545768",
      "osmId": 3160545768,
      "osmType": "node",
      "prefectureId": "miyagi",
      "type": "station",
      "subtype": "jr",
      "name": "大谷海岸",
      "nameKana": "おおやかいがん",
      "nameEn": "Ōyakaigan",
      "operator": "東日本旅客鉄道",
      "network": null,
      "ref": null,
      "latitude": 38.8147111,
      "longitude": 141.562549,
      "countryCode": "jp",
      "rawTags": {
        "name": "大谷海岸",
        "name:en": "Ōyakaigan",
        "name:ja": "大谷海岸",
        "name:ja-Hira": "おおやかいがん",
        "name:ja_rm": "Ōyakaigan",
        "name:ko": "오야카이간",
        "name:zh": "大谷海岸",
        "note": "JR東日本大船渡線のBRT区間に設置されている「駅」であり、鉄道事業法上の駅とは異なる",
        "operator": "東日本旅客鉄道",
        "operator:ja": "東日本旅客鉄道",
        "public_transport": "station",
        "railway": "station",
        "shelter": "yes",
        "start_date": "1957-02-11",
        "train": "no",
        "wikidata": "Q8081804",
        "wikipedia": "ja:大谷海岸駅"
      }
    },
    {
      "id": "miyagi_station_3570916493",
      "osmId": 3570916493,
      "osmType": "node",
      "prefectureId": "miyagi",
      "type": "station",
      "subtype": "private",
      "name": "石巻",
      "nameKana": null,
      "nameEn": "Ishinomaki",
      "operator": null,
      "network": null,
      "ref": null,
      "latitude": 38.4352418,
      "longitude": 141.3038047,
      "countryCode": "jp",
      "rawTags": {
        "name": "石巻",
        "name:en": "Ishinomaki",
        "name:ja": "石巻",
        "name:ja_rm": "Ishinomaki",
        "name:ko": "이시노마키",
        "note": "National-Land Numerical Information (Railway) 2007, MLIT Japan",
        "note:ja": "国土数値情報（鉄道データ）平成19年　国土交通省",
        "public_transport": "station",
        "railway": "station",
        "source": "KSJ2",
        "source_ref": "http://nlftp.mlit.go.jp/ksj/jpgis/datalist/KsjTmplt-N02-v1_1.html",
        "wikidata": "Q11586500",
        "wikipedia": "ja:石巻駅"
      }
    },
    {
      "id": "miyagi_station_3570916494",
      "osmId": 3570916494,
      "osmType": "node",
      "prefectureId": "miyagi",
      "type": "station",
      "subtype": "private",
      "name": "松島",
      "nameKana": "まつしま",
      "nameEn": "Matsushima",
      "operator": null,
      "network": null,
      "ref": null,
      "latitude": 38.3799813,
      "longitude": 141.0659166,
      "countryCode": "jp",
      "rawTags": {
        "name": "松島",
        "name:en": "Matsushima",
        "name:ja-Hira": "まつしま",
        "name:ja-Latn": "Matsushima",
        "name:ru": "Мацусима",
        "public_transport": "station",
        "railway": "station",
        "source": "KSJ2",
        "train": "yes",
        "wikidata": "Q898773",
        "wikipedia": "ja:松島駅"
      }
    },
    {
      "id": "miyagi_station_3570916495",
      "osmId": 3570916495,
      "osmType": "node",
      "prefectureId": "miyagi",
      "type": "station",
      "subtype": "jr",
      "name": "松島海岸",
      "nameKana": null,
      "nameEn": "Matsushima-Kaigan",
      "operator": "JR East",
      "network": null,
      "ref": null,
      "latitude": 38.3678491,
      "longitude": 141.0589956,
      "countryCode": "jp",
      "rawTags": {
        "int_name": "Matsushima-Kaigan",
        "name": "松島海岸",
        "name:en": "Matsushima-Kaigan",
        "name:ja": "松島海岸",
        "name:ja_rm": "Matsushima-Kaigan",
        "name:ko": "마쓰시마카이간",
        "note": "National-Land Numerical Information (Railway) 2007, MLIT Japan",
        "note:ja": "国土数値情報（鉄道データ）平成19年　国土交通省",
        "operator": "JR East",
        "public_transport": "station",
        "railway": "station",
        "source": "KSJ2",
        "source_ref": "http://nlftp.mlit.go.jp/ksj/jpgis/datalist/KsjTmplt-N02-v1_1.html",
        "train": "yes",
        "wikidata": "Q6788203",
        "wikipedia": "ja:松島海岸駅"
      }
    },
    {
      "id": "miyagi_station_3570916497",
      "osmId": 3570916497,
      "osmType": "node",
      "prefectureId": "miyagi",
      "type": "station",
      "subtype": "private",
      "name": "陸前山下",
      "nameKana": null,
      "nameEn": "Rikuzen-Yamashita",
      "operator": null,
      "network": null,
      "ref": null,
      "latitude": 38.4374889,
      "longitude": 141.2879979,
      "countryCode": "jp",
      "rawTags": {
        "name": "陸前山下",
        "name:en": "Rikuzen-Yamashita",
        "name:ja": "陸前山下",
        "name:ja_rm": "Rikuzen-Yamashita",
        "name:ko": "리쿠젠야마시타",
        "note": "National-Land Numerical Information (Railway) 2007, MLIT Japan",
        "note:ja": "国土数値情報（鉄道データ）平成19年　国土交通省",
        "public_transport": "station",
        "railway": "station",
        "source": "KSJ2",
        "source_ref": "http://nlftp.mlit.go.jp/ksj/jpgis/datalist/KsjTmplt-N02-v1_1.html",
        "wikidata": "Q7334146",
        "wikipedia": "ja:陸前山下駅"
      }
    },
    {
      "id": "miyagi_station_3585108727",
      "osmId": 3585108727,
      "osmType": "node",
      "prefectureId": "miyagi",
      "type": "station",
      "subtype": "private",
      "name": "陸前白沢",
      "nameKana": "りくぜんしらさわ",
      "nameEn": "Rikuzen-Shirasawa",
      "operator": null,
      "network": null,
      "ref": null,
      "latitude": 38.2781762,
      "longitude": 140.7022141,
      "countryCode": "jp",
      "rawTags": {
        "KSJ2:LIN": "仙山線",
        "KSJ2:STN": "陸前白沢",
        "name": "陸前白沢",
        "name:en": "Rikuzen-Shirasawa",
        "name:ja": "陸前白沢",
        "name:ja_kana": "りくぜんしらさわ",
        "name:ja_rm": "Rikuzen-Shirasawa",
        "name:ko": "리쿠젠시라사와",
        "note": "National-Land Numerical Information (Railway) 2007, MLIT Japan",
        "note:ja": "国土数値情報（鉄道データ）平成19年　国土交通省",
        "public_transport": "station",
        "railway": "station",
        "source": "KSJ2",
        "source_ref": "http://nlftp.mlit.go.jp/ksj/jpgis/datalist/KsjTmplt-N02-v1_1.html",
        "train": "yes",
        "wikidata": "Q7334136",
        "wikipedia": "ja:陸前白沢駅"
      }
    },
    {
      "id": "miyagi_station_3585108730",
      "osmId": 3585108730,
      "osmType": "node",
      "prefectureId": "miyagi",
      "type": "station",
      "subtype": "private",
      "name": "作並",
      "nameKana": null,
      "nameEn": "Sakunami",
      "operator": null,
      "network": null,
      "ref": null,
      "latitude": 38.3178791,
      "longitude": 140.6324489,
      "countryCode": "jp",
      "rawTags": {
        "KSJ2:LIN": "仙山線",
        "KSJ2:STN": "作並",
        "name": "作並",
        "name:de": "Sakunami",
        "name:en": "Sakunami",
        "name:ja": "作並",
        "name:ja_rm": "Sakunami",
        "name:ko": "사쿠나미",
        "note": "National-Land Numerical Information (Railway) 2007, MLIT Japan",
        "note:ja": "国土数値情報（鉄道データ）平成19年　国土交通省",
        "public_transport": "station",
        "railway": "station",
        "source": "KSJ2",
        "source_ref": "http://nlftp.mlit.go.jp/ksj/jpgis/datalist/KsjTmplt-N02-v1_1.html",
        "wheelchair": "yes",
        "wikidata": "Q7403152",
        "wikipedia": "ja:作並駅"
      }
    },
    {
      "id": "miyagi_station_3585108736",
      "osmId": 3585108736,
      "osmType": "node",
      "prefectureId": "miyagi",
      "type": "station",
      "subtype": "private",
      "name": "東北福祉大前",
      "nameKana": null,
      "nameEn": "Tohoku Fukushi University",
      "operator": null,
      "network": null,
      "ref": null,
      "latitude": 38.2803707,
      "longitude": 140.842515,
      "countryCode": "jp",
      "rawTags": {
        "alt_name:ko": "도호쿠후쿠시다이마에",
        "name": "東北福祉大前",
        "name:en": "Tohoku Fukushi University",
        "name:ja": "東北福祉大前",
        "name:ja_rm": "Tōhoku Fukushi-dai-mae",
        "name:ko": "도호쿠복지대앞",
        "note": "National-Land Numerical Information (Railway) 2007, MLIT Japan",
        "note:ja": "国土数値情報（鉄道データ）平成19年　国土交通省",
        "public_transport": "station",
        "railway": "station",
        "source": "KSJ2",
        "source_ref": "http://nlftp.mlit.go.jp/ksj/jpgis/datalist/KsjTmplt-N02-v1_1.html",
        "wikidata": "Q7862658",
        "wikimedia_commons": "File:Tohoku_Fukushi_University_Station_exterior_2018.jpg",
        "wikipedia": "ja:東北福祉大前駅"
      }
    },
    {
      "id": "miyagi_station_3585108737",
      "osmId": 3585108737,
      "osmType": "node",
      "prefectureId": "miyagi",
      "type": "station",
      "subtype": "private",
      "name": "東照宮",
      "nameKana": null,
      "nameEn": "Toshogu",
      "operator": null,
      "network": null,
      "ref": null,
      "latitude": 38.2773598,
      "longitude": 140.8863968,
      "countryCode": "jp",
      "rawTags": {
        "name": "東照宮",
        "name:en": "Toshogu",
        "name:ja": "東照宮",
        "name:ja_rm": "Tōshōgū",
        "name:ko": "도쇼구",
        "note": "National-Land Numerical Information (Railway) 2007, MLIT Japan",
        "note:ja": "国土数値情報（鉄道データ）平成19年　国土交通省",
        "public_transport": "station",
        "railway": "station",
        "source": "KSJ2",
        "source_ref": "http://nlftp.mlit.go.jp/ksj/jpgis/datalist/KsjTmplt-N02-v1_1.html",
        "wheelchair": "yes",
        "wikidata": "Q5359740",
        "wikipedia": "ja:東照宮駅"
      }
    },
    {
      "id": "miyagi_station_3585108873",
      "osmId": 3585108873,
      "osmType": "node",
      "prefectureId": "miyagi",
      "type": "station",
      "subtype": "private",
      "name": "愛子",
      "nameKana": null,
      "nameEn": "Ayashi",
      "operator": null,
      "network": null,
      "ref": null,
      "latitude": 38.2727717,
      "longitude": 140.761571,
      "countryCode": "jp",
      "rawTags": {
        "name": "愛子",
        "name:de": "Ayashi",
        "name:en": "Ayashi",
        "name:ja": "愛子",
        "name:ja_rm": "Ayashi",
        "name:ko": "아야시",
        "note": "National-Land Numerical Information (Railway) 2007, MLIT Japan",
        "note:ja": "国土数値情報（鉄道データ）平成19年　国土交通省",
        "public_transport": "station",
        "railway": "station",
        "source": "KSJ2",
        "source_ref": "http://nlftp.mlit.go.jp/ksj/jpgis/datalist/KsjTmplt-N02-v1_1.html",
        "wikidata": "Q4830973",
        "wikipedia": "ja:愛子駅"
      }
    },
    {
      "id": "miyagi_station_3585108884",
      "osmId": 3585108884,
      "osmType": "node",
      "prefectureId": "miyagi",
      "type": "station",
      "subtype": "private",
      "name": "北山",
      "nameKana": "きたやま",
      "nameEn": "Kitayama",
      "operator": null,
      "network": null,
      "ref": null,
      "latitude": 38.2850866,
      "longitude": 140.8513927,
      "countryCode": "jp",
      "rawTags": {
        "name": "北山",
        "name:en": "Kitayama",
        "name:ja": "北山",
        "name:ja_kana": "きたやま",
        "name:ja_rm": "Kitayama",
        "name:ko": "기타야마",
        "note": "National-Land Numerical Information (Railway) 2007, MLIT Japan",
        "note:ja": "国土数値情報（鉄道データ）平成19年　国土交通省",
        "public_transport": "station",
        "railway": "station",
        "source": "KSJ2",
        "source_ref": "http://nlftp.mlit.go.jp/ksj/jpgis/datalist/KsjTmplt-N02-v1_1.html",
        "wikidata": "Q6417935",
        "wikipedia": "ja:北山駅 (宮城県)"
      }
    },
    {
      "id": "miyagi_station_3585108886",
      "osmId": 3585108886,
      "osmType": "node",
      "prefectureId": "miyagi",
      "type": "station",
      "subtype": "private",
      "name": "熊ヶ根",
      "nameKana": null,
      "nameEn": "Kumagane",
      "operator": null,
      "network": null,
      "ref": null,
      "latitude": 38.2980518,
      "longitude": 140.6806585,
      "countryCode": "jp",
      "rawTags": {
        "KSJ2:LIN": "仙山線",
        "KSJ2:STN": "熊ヶ根",
        "name": "熊ヶ根",
        "name:en": "Kumagane",
        "name:ja": "熊ヶ根",
        "name:ja_rm": "Kumagane",
        "name:ko": "구마가네",
        "note": "National-Land Numerical Information (Railway) 2007, MLIT Japan",
        "note:ja": "国土数値情報（鉄道データ）平成19年　国土交通省",
        "public_transport": "station",
        "railway": "station",
        "source": "KSJ2",
        "source_ref": "http://nlftp.mlit.go.jp/ksj/jpgis/datalist/KsjTmplt-N02-v1_1.html",
        "wikidata": "Q6443373",
        "wikimedia_commons": "File:Kumagane_Station_2022.jpg",
        "wikipedia": "ja:熊ヶ根駅"
      }
    },
    {
      "id": "miyagi_station_3585108888",
      "osmId": 3585108888,
      "osmType": "node",
      "prefectureId": "miyagi",
      "type": "station",
      "subtype": "private",
      "name": "国見",
      "nameKana": null,
      "nameEn": "Kunimi",
      "operator": null,
      "network": null,
      "ref": null,
      "latitude": 38.2748298,
      "longitude": 140.8339779,
      "countryCode": "jp",
      "rawTags": {
        "name": "国見",
        "name:de": "Kunimi",
        "name:en": "Kunimi",
        "name:ja": "国見",
        "name:ja_rm": "Kunimi",
        "name:ko": "구니미",
        "note": "National-Land Numerical Information (Railway) 2007, MLIT Japan",
        "note:ja": "国土数値情報（鉄道データ）平成19年　国土交通省",
        "public_transport": "station",
        "railway": "station",
        "source": "KSJ2",
        "source_ref": "http://nlftp.mlit.go.jp/ksj/jpgis/datalist/KsjTmplt-N02-v1_1.html",
        "wikidata": "Q6444706",
        "wikipedia": "ja:国見駅 (宮城県)"
      }
    },
    {
      "id": "miyagi_station_3585108890",
      "osmId": 3585108890,
      "osmType": "node",
      "prefectureId": "miyagi",
      "type": "station",
      "subtype": "private",
      "name": "葛岡",
      "nameKana": "くずおか",
      "nameEn": "Kuzuoka",
      "operator": null,
      "network": null,
      "ref": null,
      "latitude": 38.2689104,
      "longitude": 140.8186299,
      "countryCode": "jp",
      "rawTags": {
        "name": "葛岡",
        "name:en": "Kuzuoka",
        "name:ja": "葛岡",
        "name:ja_kana": "くずおか",
        "name:ja_rm": "Kuzuoka",
        "name:ko": "구즈오카",
        "note": "National-Land Numerical Information (Railway) 2007, MLIT Japan",
        "note:ja": "国土数値情報（鉄道データ）平成19年　国土交通省",
        "public_transport": "station",
        "railway": "station",
        "source": "KSJ2",
        "source_ref": "http://nlftp.mlit.go.jp/ksj/jpgis/datalist/KsjTmplt-N02-v1_1.html",
        "wikidata": "Q6449313",
        "wikipedia": "ja:葛岡駅"
      }
    },
    {
      "id": "miyagi_station_3585108892",
      "osmId": 3585108892,
      "osmType": "node",
      "prefectureId": "miyagi",
      "type": "station",
      "subtype": "private",
      "name": "奥新川",
      "nameKana": null,
      "nameEn": "Okunikkawa",
      "operator": null,
      "network": null,
      "ref": null,
      "latitude": 38.3260087,
      "longitude": 140.594073,
      "countryCode": "jp",
      "rawTags": {
        "KSJ2:LIN": "仙山線",
        "KSJ2:STN": "奥新川",
        "name": "奥新川",
        "name:en": "Okunikkawa",
        "name:ja": "奥新川",
        "name:ja_rm": "Okunikkawa",
        "name:ko": "오쿠닛카와",
        "note": "National-Land Numerical Information (Railway) 2007, MLIT Japan",
        "note:ja": "国土数値情報（鉄道データ）平成19年　国土交通省",
        "public_transport": "station",
        "railway": "station",
        "source": "KSJ2",
        "source_ref": "http://nlftp.mlit.go.jp/ksj/jpgis/datalist/KsjTmplt-N02-v1_1.html",
        "wikidata": "Q7082754",
        "wikipedia": "ja:奥新川駅"
      }
    },
    {
      "id": "miyagi_station_3585109695",
      "osmId": 3585109695,
      "osmType": "node",
      "prefectureId": "miyagi",
      "type": "station",
      "subtype": "private",
      "name": "陸前落合",
      "nameKana": null,
      "nameEn": "Rikuzen-Ochiai",
      "operator": null,
      "network": null,
      "ref": null,
      "latitude": 38.2733989,
      "longitude": 140.7903422,
      "countryCode": "jp",
      "rawTags": {
        "name": "陸前落合",
        "name:de": "Rikuzen-Ochiai",
        "name:en": "Rikuzen-Ochiai",
        "name:ja": "陸前落合",
        "name:ja_rm": "Rikuzen-Ochiai",
        "name:ko": "리쿠젠오치아이",
        "note": "National-Land Numerical Information (Railway) 2007, MLIT Japan",
        "note:ja": "国土数値情報（鉄道データ）平成19年　国土交通省",
        "public_transport": "station",
        "railway": "station",
        "source": "KSJ2",
        "source_ref": "http://nlftp.mlit.go.jp/ksj/jpgis/datalist/KsjTmplt-N02-v1_1.html",
        "wikidata": "Q7334133",
        "wikipedia": "ja:陸前落合駅"
      }
    },
    {
      "id": "miyagi_station_3594254135",
      "osmId": 3594254135,
      "osmType": "node",
      "prefectureId": "miyagi",
      "type": "station",
      "subtype": "subway",
      "name": "国際センター",
      "nameKana": null,
      "nameEn": "International Center",
      "operator": "仙台市交通局",
      "network": null,
      "ref": "T04",
      "latitude": 38.2602515,
      "longitude": 140.8567785,
      "countryCode": "jp",
      "rawTags": {
        "name": "国際センター",
        "name:en": "International Center",
        "name:ja": "国際センター",
        "name:ja_rm": "Kokusai-Center",
        "name:ko": "국제센터",
        "operator": "仙台市交通局",
        "public_transport": "station",
        "railway": "station",
        "ref": "T04",
        "station": "subway",
        "subway": "yes",
        "train": "yes",
        "wheelchair": "yes",
        "wikidata": "Q11422320",
        "wikipedia": "ja:国際センター駅 (宮城県)"
      }
    },
    {
      "id": "miyagi_station_3651059967",
      "osmId": 3651059967,
      "osmType": "node",
      "prefectureId": "miyagi",
      "type": "station",
      "subtype": "subway",
      "name": "大町西公園",
      "nameKana": "おおまちにしこうえん",
      "nameEn": "Omachi Nishi-koen",
      "operator": "仙台市交通局",
      "network": null,
      "ref": "T05",
      "latitude": 38.2589973,
      "longitude": 140.8644629,
      "countryCode": "jp",
      "rawTags": {
        "name": "大町西公園",
        "name:en": "Omachi Nishi-koen",
        "name:ja": "大町西公園",
        "name:ja-Hira": "おおまちにしこうえん",
        "name:ja-Latn": "Omachi Nishi-koen",
        "name:ko": "오마치니시코엔",
        "operator": "仙台市交通局",
        "public_transport": "station",
        "railway": "station",
        "ref": "T05",
        "station": "subway",
        "subway": "yes",
        "train": "yes",
        "wikidata": "Q11627264",
        "wikipedia": "ja:大町西公園駅"
      }
    },
    {
      "id": "miyagi_bus_terminal_3671174616",
      "osmId": 3671174616,
      "osmType": "node",
      "prefectureId": "miyagi",
      "type": "bus_terminal",
      "subtype": null,
      "name": "柳津",
      "nameKana": null,
      "nameEn": "Yanaizu",
      "operator": "JR東日本",
      "network": null,
      "ref": null,
      "latitude": 38.6116624,
      "longitude": 141.3056339,
      "countryCode": "jp",
      "rawTags": {
        "amenity": "bus_station",
        "bus": "yes",
        "highway": "bus_stop",
        "name": "柳津",
        "name:en": "Yanaizu",
        "name:ja": "柳津",
        "name:ja_rm": "Yanaizu",
        "operator": "JR東日本",
        "public_transport": "station"
      }
    },
    {
      "id": "miyagi_station_3791321430",
      "osmId": 3791321430,
      "osmType": "node",
      "prefectureId": "miyagi",
      "type": "station",
      "subtype": "private",
      "name": "あおば通",
      "nameKana": null,
      "nameEn": "Aoba-dōri",
      "operator": null,
      "network": null,
      "ref": null,
      "latitude": 38.2606881,
      "longitude": 140.8786913,
      "countryCode": "jp",
      "rawTags": {
        "alt_name:en": "Aobadori Avenue",
        "name": "あおば通",
        "name:en": "Aoba-dōri",
        "name:ja": "あおば通",
        "name:ja_rm": "Aoba-dōri",
        "name:ko": "아오바도리",
        "note": "National-Land Numerical Information (Railway) 2007, MLIT Japan",
        "note:ja": "国土数値情報（鉄道データ）平成19年　国土交通省",
        "public_transport": "station",
        "railway": "station",
        "source": "KSJ2",
        "source_ref": "http://nlftp.mlit.go.jp/ksj/jpgis/datalist/KsjTmplt-N02-v1_1.html",
        "train": "yes",
        "wikidata": "Q4778563",
        "wikipedia": "ja:あおば通駅"
      }
    },
    {
      "id": "miyagi_station_3791321432",
      "osmId": 3791321432,
      "osmType": "node",
      "prefectureId": "miyagi",
      "type": "station",
      "subtype": "private",
      "name": "下馬",
      "nameKana": null,
      "nameEn": "Geba",
      "operator": null,
      "network": null,
      "ref": null,
      "latitude": 38.3056276,
      "longitude": 141.0151519,
      "countryCode": "jp",
      "rawTags": {
        "name": "下馬",
        "name:en": "Geba",
        "name:ja": "下馬",
        "name:ja_rm": "Geba",
        "name:ko": "게바",
        "note": "National-Land Numerical Information (Railway) 2007, MLIT Japan",
        "note:ja": "国土数値情報（鉄道データ）平成19年　国土交通省",
        "public_transport": "station",
        "railway": "station",
        "source": "KSJ2",
        "source_ref": "http://nlftp.mlit.go.jp/ksj/jpgis/datalist/KsjTmplt-N02-v1_1.html",
        "train": "yes",
        "wikidata": "Q5529542",
        "wikipedia": "ja:下馬駅"
      }
    },
    {
      "id": "miyagi_station_3791321433",
      "osmId": 3791321433,
      "osmType": "node",
      "prefectureId": "miyagi",
      "type": "station",
      "subtype": "private",
      "name": "蛇田",
      "nameKana": "へびた",
      "nameEn": "Hebita",
      "operator": null,
      "network": null,
      "ref": null,
      "latitude": 38.4384215,
      "longitude": 141.2774621,
      "countryCode": "jp",
      "rawTags": {
        "name": "蛇田",
        "name:en": "Hebita",
        "name:ja": "蛇田",
        "name:ja_kana": "へびた",
        "name:ja_rm": "Hebita",
        "name:ko": "헤비타",
        "note": "National-Land Numerical Information (Railway) 2007, MLIT Japan",
        "note:ja": "国土数値情報（鉄道データ）平成19年　国土交通省",
        "public_transport": "station",
        "railway": "station",
        "source": "KSJ2",
        "source_ref": "http://nlftp.mlit.go.jp/ksj/jpgis/datalist/KsjTmplt-N02-v1_1.html",
        "wikidata": "Q5695790",
        "wikipedia": "ja:蛇田駅"
      }
    },
    {
      "id": "miyagi_station_3791321435",
      "osmId": 3791321435,
      "osmType": "node",
      "prefectureId": "miyagi",
      "type": "station",
      "subtype": "private",
      "name": "東仙台",
      "nameKana": "ひがしせんだい",
      "nameEn": "Higashi-Sendai",
      "operator": null,
      "network": null,
      "ref": null,
      "latitude": 38.2764881,
      "longitude": 140.9201836,
      "countryCode": "jp",
      "rawTags": {
        "name": "東仙台",
        "name:en": "Higashi-Sendai",
        "name:ja": "東仙台",
        "name:ja-Hira": "ひがしせんだい",
        "name:ja-Latn": "Higashisendai",
        "name:ru": "Хигаси-Сендай",
        "public_transport": "station",
        "railway": "station",
        "source": "KSJ2",
        "wikidata": "Q899052",
        "wikipedia": "ja:東仙台駅"
      }
    },
    {
      "id": "miyagi_station_3791321436",
      "osmId": 3791321436,
      "osmType": "node",
      "prefectureId": "miyagi",
      "type": "station",
      "subtype": "private",
      "name": "東塩釜",
      "nameKana": null,
      "nameEn": "Higashi-Shiogama",
      "operator": null,
      "network": null,
      "ref": null,
      "latitude": 38.325502,
      "longitude": 141.0317915,
      "countryCode": "jp",
      "rawTags": {
        "addr:block_number": "4",
        "addr:city": "塩釜市",
        "addr:neighbourhood": "3丁目",
        "addr:postcode": "985-0004",
        "addr:province": "宮城県",
        "addr:quarter": "藤倉",
        "name": "東塩釜",
        "name:en": "Higashi-Shiogama",
        "name:es": "Estación de Jigashi-Shiogama",
        "name:ja": "東塩釜",
        "name:ja_rm": "Higashi-Shiogama",
        "name:ko": "히가시시오가마",
        "note": "National-Land Numerical Information (Railway) 2007, MLIT Japan",
        "note:ja": "国土数値情報（鉄道データ）平成19年　国土交通省",
        "public_transport": "station",
        "railway": "station",
        "source": "KSJ2",
        "source_ref": "http://nlftp.mlit.go.jp/ksj/jpgis/datalist/KsjTmplt-N02-v1_1.html",
        "wheelchair": "yes",
        "wikidata": "Q11526434",
        "wikipedia": "ja:東塩釜駅"
      }
    },
    {
      "id": "miyagi_station_3791321437",
      "osmId": 3791321437,
      "osmType": "node",
      "prefectureId": "miyagi",
      "type": "station",
      "subtype": "private",
      "name": "東矢本",
      "nameKana": null,
      "nameEn": "Higashi-Yamoto",
      "operator": null,
      "network": null,
      "ref": null,
      "latitude": 38.42814,
      "longitude": 141.2228836,
      "countryCode": "jp",
      "rawTags": {
        "name": "東矢本",
        "name:en": "Higashi-Yamoto",
        "name:ja": "東矢本",
        "name:ja_rm": "Higashi-Yamoto",
        "name:ko": "히가시야모토",
        "note": "National-Land Numerical Information (Railway) 2007, MLIT Japan",
        "note:ja": "国土数値情報（鉄道データ）平成19年　国土交通省",
        "public_transport": "station",
        "railway": "station",
        "source": "KSJ2",
        "source_ref": "http://nlftp.mlit.go.jp/ksj/jpgis/datalist/KsjTmplt-N02-v1_1.html",
        "wikidata": "Q5753902",
        "wikipedia": "ja:東矢本駅"
      }
    },
    {
      "id": "miyagi_station_3791321438",
      "osmId": 3791321438,
      "osmType": "node",
      "prefectureId": "miyagi",
      "type": "station",
      "subtype": "private",
      "name": "本塩釜",
      "nameKana": "ほんしおがま",
      "nameEn": "Hon-Shiogama",
      "operator": null,
      "network": null,
      "ref": null,
      "latitude": 38.3178146,
      "longitude": 141.0228114,
      "countryCode": "jp",
      "rawTags": {
        "name": "本塩釜",
        "name:en": "Hon-Shiogama",
        "name:ja": "本塩釜",
        "name:ja_kana": "ほんしおがま",
        "name:ja_rm": "Hon-Shiogama",
        "name:ko": "혼시오가마",
        "note": "National-Land Numerical Information (Railway) 2007, MLIT Japan",
        "note:ja": "国土数値情報（鉄道データ）平成19年　国土交通省",
        "public_transport": "station",
        "railway": "station",
        "source": "KSJ2",
        "source_ref": "http://nlftp.mlit.go.jp/ksj/jpgis/datalist/KsjTmplt-N02-v1_1.html",
        "wikidata": "Q5891927",
        "wikipedia": "ja:本塩釜駅"
      }
    },
    {
      "id": "miyagi_station_3791321444",
      "osmId": 3791321444,
      "osmType": "node",
      "prefectureId": "miyagi",
      "type": "station",
      "subtype": "private",
      "name": "岩切",
      "nameKana": null,
      "nameEn": "Iwakiri",
      "operator": null,
      "network": null,
      "ref": null,
      "latitude": 38.3008721,
      "longitude": 140.9552302,
      "countryCode": "jp",
      "rawTags": {
        "name": "岩切",
        "name:en": "Iwakiri",
        "name:ja": "岩切",
        "name:ja_rm": "Iwakiri",
        "name:ko": "이와키리",
        "name:ru": "Ивакири",
        "public_transport": "station",
        "railway": "station",
        "source": "KSJ2",
        "wikidata": "Q898930",
        "wikipedia": "ja:岩切駅"
      }
    },
    {
      "id": "miyagi_station_3791321447",
      "osmId": 3791321447,
      "osmType": "node",
      "prefectureId": "miyagi",
      "type": "station",
      "subtype": "private",
      "name": "鹿妻",
      "nameKana": null,
      "nameEn": "Kazuma",
      "operator": null,
      "network": null,
      "ref": null,
      "latitude": 38.4032417,
      "longitude": 141.19014,
      "countryCode": "jp",
      "rawTags": {
        "name": "鹿妻",
        "name:en": "Kazuma",
        "name:ja": "鹿妻",
        "name:ja_rm": "Kazuma",
        "name:ko": "가즈마",
        "note": "National-Land Numerical Information (Railway) 2007, MLIT Japan",
        "note:ja": "国土数値情報（鉄道データ）平成19年　国土交通省",
        "public_transport": "station",
        "railway": "station",
        "source": "KSJ2",
        "source_ref": "http://nlftp.mlit.go.jp/ksj/jpgis/datalist/KsjTmplt-N02-v1_1.html",
        "wikidata": "Q6381548",
        "wikipedia": "ja:鹿妻駅"
      }
    },
    {
      "id": "miyagi_station_3791321448",
      "osmId": 3791321448,
      "osmType": "node",
      "prefectureId": "miyagi",
      "type": "station",
      "subtype": "private",
      "name": "国府多賀城",
      "nameKana": null,
      "nameEn": "Kokufu-Tagajo",
      "operator": null,
      "network": null,
      "ref": null,
      "latitude": 38.3009098,
      "longitude": 140.9941986,
      "countryCode": "jp",
      "rawTags": {
        "name": "国府多賀城",
        "name:en": "Kokufu-Tagajo",
        "name:ja": "国府多賀城",
        "name:ru": "Кокуфу-Тагадзё",
        "public_transport": "station",
        "railway": "station",
        "source": "KSJ2",
        "wikidata": "Q898924",
        "wikipedia": "ja:国府多賀城駅"
      }
    },
    {
      "id": "miyagi_station_3791321449",
      "osmId": 3791321449,
      "osmType": "node",
      "prefectureId": "miyagi",
      "type": "station",
      "subtype": "private",
      "name": "小鶴新田",
      "nameKana": "こづるしんでん",
      "nameEn": "Kozurushinden",
      "operator": null,
      "network": null,
      "ref": null,
      "latitude": 38.2734014,
      "longitude": 140.935357,
      "countryCode": "jp",
      "rawTags": {
        "name": "小鶴新田",
        "name:en": "Kozurushinden",
        "name:ja": "小鶴新田",
        "name:ja_kana": "こづるしんでん",
        "name:ja_rm": "Kozurushinden",
        "name:ko": "고즈루신덴",
        "note": "National-Land Numerical Information (Railway) 2007, MLIT Japan",
        "note:ja": "国土数値情報（鉄道データ）平成19年　国土交通省",
        "public_transport": "station",
        "railway": "station",
        "source": "KSJ2",
        "source_ref": "http://nlftp.mlit.go.jp/ksj/jpgis/datalist/KsjTmplt-N02-v1_1.html",
        "wikidata": "Q6435392",
        "wikipedia": "ja:小鶴新田駅"
      }
    },
    {
      "id": "miyagi_station_3791321510",
      "osmId": 3791321510,
      "osmType": "node",
      "prefectureId": "miyagi",
      "type": "station",
      "subtype": "private",
      "name": "宮城野原",
      "nameKana": null,
      "nameEn": "Miyaginohara",
      "operator": null,
      "network": null,
      "ref": null,
      "latitude": 38.2608253,
      "longitude": 140.9048201,
      "countryCode": "jp",
      "rawTags": {
        "name": "宮城野原",
        "name:en": "Miyaginohara",
        "name:ja": "宮城野原",
        "name:ja_rm": "Miyaginohara",
        "name:ko": "미야기노하라",
        "note": "National-Land Numerical Information (Railway) 2007, MLIT Japan",
        "note:ja": "国土数値情報（鉄道データ）平成19年　国土交通省",
        "public_transport": "station",
        "railway": "station",
        "source": "KSJ2",
        "source_ref": "http://nlftp.mlit.go.jp/ksj/jpgis/datalist/KsjTmplt-N02-v1_1.html",
        "wikidata": "Q11454015",
        "wikipedia": "ja:宮城野原駅"
      }
    },
    {
      "id": "miyagi_station_3791321511",
      "osmId": 3791321511,
      "osmType": "node",
      "prefectureId": "miyagi",
      "type": "station",
      "subtype": "private",
      "name": "中野栄",
      "nameKana": null,
      "nameEn": "Nakanosakae",
      "operator": null,
      "network": null,
      "ref": null,
      "latitude": 38.2804972,
      "longitude": 140.9848017,
      "countryCode": "jp",
      "rawTags": {
        "name": "中野栄",
        "name:en": "Nakanosakae",
        "name:ja": "中野栄",
        "name:ja_rm": "Nakanosakae",
        "name:ko": "나카노사카에",
        "note": "National-Land Numerical Information (Railway) 2007, MLIT Japan",
        "note:ja": "国土数値情報（鉄道データ）平成19年　国土交通省",
        "public_transport": "station",
        "railway": "station",
        "source": "KSJ2",
        "source_ref": "http://nlftp.mlit.go.jp/ksj/jpgis/datalist/KsjTmplt-N02-v1_1.html",
        "wikidata": "Q6960283",
        "wikipedia": "ja:中野栄駅"
      }
    },
    {
      "id": "miyagi_station_3791321512",
      "osmId": 3791321512,
      "osmType": "node",
      "prefectureId": "miyagi",
      "type": "station",
      "subtype": "jr",
      "name": "苦竹",
      "nameKana": null,
      "nameEn": "Nigatake",
      "operator": "JR東日本",
      "network": null,
      "ref": null,
      "latitude": 38.2686318,
      "longitude": 140.9189804,
      "countryCode": "jp",
      "rawTags": {
        "name": "苦竹",
        "name:en": "Nigatake",
        "name:ja": "苦竹",
        "name:ja_rm": "Nigatake",
        "name:ko": "니가타케",
        "note": "National-Land Numerical Information (Railway) 2007, MLIT Japan",
        "note:ja": "国土数値情報（鉄道データ）平成19年　国土交通省",
        "operator": "JR東日本",
        "public_transport": "station",
        "railway": "station",
        "source": "KSJ2",
        "source_ref": "http://nlftp.mlit.go.jp/ksj/jpgis/datalist/KsjTmplt-N02-v1_1.html",
        "wikidata": "Q7032190",
        "wikipedia": "ja:苦竹駅"
      }
    },
    {
      "id": "miyagi_station_3791321514",
      "osmId": 3791321514,
      "osmType": "node",
      "prefectureId": "miyagi",
      "type": "station",
      "subtype": "private",
      "name": "野蒜",
      "nameKana": null,
      "nameEn": "Nobiru",
      "operator": null,
      "network": null,
      "ref": null,
      "latitude": 38.3791351,
      "longitude": 141.1570646,
      "countryCode": "jp",
      "rawTags": {
        "name": "野蒜",
        "name:en": "Nobiru",
        "name:ja": "野蒜",
        "name:ja_rm": "Nobiru",
        "name:ko": "노비루",
        "note": "National-Land Numerical Information (Railway) 2007, MLIT Japan",
        "note:ja": "国土数値情報（鉄道データ）平成19年　国土交通省",
        "public_transport": "station",
        "railway": "station",
        "source": "KSJ2",
        "source_ref": "http://nlftp.mlit.go.jp/ksj/jpgis/datalist/KsjTmplt-N02-v1_1.html",
        "wikidata": "Q7045673",
        "wikipedia": "ja:野蒜駅"
      }
    },
    {
      "id": "miyagi_station_3791321515",
      "osmId": 3791321515,
      "osmType": "node",
      "prefectureId": "miyagi",
      "type": "station",
      "subtype": "private",
      "name": "利府",
      "nameKana": "りふ",
      "nameEn": "Rifu",
      "operator": null,
      "network": null,
      "ref": null,
      "latitude": 38.3292781,
      "longitude": 140.9847624,
      "countryCode": "jp",
      "rawTags": {
        "addr:city": "利府町",
        "addr:county": "宮城郡",
        "addr:neighbourhood": "柱田",
        "addr:postcode": "981-0103",
        "addr:province": "宮城県",
        "addr:quarter": "森郷",
        "name": "利府",
        "name:en": "Rifu",
        "name:ja-Hira": "りふ",
        "name:ja-Latn": "Rifu",
        "public_transport": "station",
        "railway": "station",
        "source": "KSJ2",
        "train": "yes",
        "wikidata": "Q899744",
        "wikipedia": "ja:利府駅"
      }
    },
    {
      "id": "miyagi_station_3791321516",
      "osmId": 3791321516,
      "osmType": "node",
      "prefectureId": "miyagi",
      "type": "station",
      "subtype": "private",
      "name": "陸前赤井",
      "nameKana": null,
      "nameEn": "Rikuzen-Akai",
      "operator": null,
      "network": null,
      "ref": null,
      "latitude": 38.4324287,
      "longitude": 141.2387668,
      "countryCode": "jp",
      "rawTags": {
        "name": "陸前赤井",
        "name:en": "Rikuzen-Akai",
        "name:ja": "陸前赤井",
        "name:ja_rm": "Rikuzen-Akai",
        "name:ko": "리쿠젠아카이",
        "note": "National-Land Numerical Information (Railway) 2007, MLIT Japan",
        "note:ja": "国土数値情報（鉄道データ）平成19年　国土交通省",
        "public_transport": "station",
        "railway": "station",
        "source": "KSJ2",
        "source_ref": "http://nlftp.mlit.go.jp/ksj/jpgis/datalist/KsjTmplt-N02-v1_1.html",
        "wikidata": "Q7334125",
        "wikipedia": "ja:陸前赤井駅"
      }
    },
    {
      "id": "miyagi_station_3791321517",
      "osmId": 3791321517,
      "osmType": "node",
      "prefectureId": "miyagi",
      "type": "station",
      "subtype": "private",
      "name": "陸前浜田",
      "nameKana": "りくぜんはまだ",
      "nameEn": "Rikuzen-Hamada",
      "operator": null,
      "network": null,
      "ref": null,
      "latitude": 38.3507746,
      "longitude": 141.0419928,
      "countryCode": "jp",
      "rawTags": {
        "int_name": "Rikuzen-Hamada",
        "name": "陸前浜田",
        "name:en": "Rikuzen-Hamada",
        "name:ja": "陸前浜田",
        "name:ja_kana": "りくぜんはまだ",
        "name:ja_rm": "Rikuzen-Hamada",
        "name:ko": "리쿠젠하마다",
        "note": "National-Land Numerical Information (Railway) 2007, MLIT Japan",
        "note:ja": "国土数値情報（鉄道データ）平成19年　国土交通省",
        "public_transport": "station",
        "railway": "station",
        "source": "KSJ2",
        "source_ref": "http://nlftp.mlit.go.jp/ksj/jpgis/datalist/KsjTmplt-N02-v1_1.html",
        "wikidata": "Q7334126",
        "wikipedia": "ja:陸前浜田駅"
      }
    },
    {
      "id": "miyagi_station_3791321518",
      "osmId": 3791321518,
      "osmType": "node",
      "prefectureId": "miyagi",
      "type": "station",
      "subtype": "private",
      "name": "陸前原ノ町",
      "nameKana": null,
      "nameEn": "Rikuzen-Haranomachi",
      "operator": null,
      "network": null,
      "ref": null,
      "latitude": 38.2662062,
      "longitude": 140.9110021,
      "countryCode": "jp",
      "rawTags": {
        "name": "陸前原ノ町",
        "name:en": "Rikuzen-Haranomachi",
        "name:ja": "陸前原ノ町",
        "name:ja_rm": "Rikuzen-Haranomachi",
        "name:ko": "리쿠젠하라노마치",
        "note": "National-Land Numerical Information (Railway) 2007, MLIT Japan",
        "note:ja": "国土数値情報（鉄道データ）平成19年　国土交通省",
        "public_transport": "station",
        "railway": "station",
        "source": "KSJ2",
        "source_ref": "http://nlftp.mlit.go.jp/ksj/jpgis/datalist/KsjTmplt-N02-v1_1.html",
        "wikidata": "Q7334128",
        "wikipedia": "ja:陸前原ノ町駅"
      }
    },
    {
      "id": "miyagi_station_3791321519",
      "osmId": 3791321519,
      "osmType": "node",
      "prefectureId": "miyagi",
      "type": "station",
      "subtype": "private",
      "name": "陸前小野",
      "nameKana": null,
      "nameEn": "Rikuzen-Ono",
      "operator": null,
      "network": null,
      "ref": null,
      "latitude": 38.3959842,
      "longitude": 141.1743801,
      "countryCode": "jp",
      "rawTags": {
        "name": "陸前小野",
        "name:en": "Rikuzen-Ono",
        "name:ja": "陸前小野",
        "name:ja_rm": "Rikuzen-Ono",
        "name:ko": "리쿠젠오노",
        "note": "National-Land Numerical Information (Railway) 2007, MLIT Japan",
        "note:ja": "国土数値情報（鉄道データ）平成19年　国土交通省",
        "public_transport": "station",
        "railway": "station",
        "source": "KSJ2",
        "source_ref": "http://nlftp.mlit.go.jp/ksj/jpgis/datalist/KsjTmplt-N02-v1_1.html",
        "train": "yes",
        "wikidata": "Q7334135",
        "wikipedia": "ja:陸前小野駅"
      }
    },
    {
      "id": "miyagi_station_3791321521",
      "osmId": 3791321521,
      "osmType": "node",
      "prefectureId": "miyagi",
      "type": "station",
      "subtype": "private",
      "name": "陸前山王",
      "nameKana": "りくぜんさんのう",
      "nameEn": "Rikuzen-Sannō",
      "operator": null,
      "network": null,
      "ref": null,
      "latitude": 38.2995007,
      "longitude": 140.9792044,
      "countryCode": "jp",
      "rawTags": {
        "name": "陸前山王",
        "name:en": "Rikuzen-Sannō",
        "name:ja": "陸前山王",
        "name:ja-Hira": "りくぜんさんのう",
        "name:ja-Latn": "Rikuzen-Sannō",
        "name:ru": "Рикудзен-Санно",
        "public_transport": "station",
        "railway": "station",
        "source": "KSJ2",
        "wikidata": "Q899178",
        "wikipedia": "ja:陸前山王駅"
      }
    },
    {
      "id": "miyagi_station_3791321523",
      "osmId": 3791321523,
      "osmType": "node",
      "prefectureId": "miyagi",
      "type": "station",
      "subtype": "private",
      "name": "陸前富山",
      "nameKana": null,
      "nameEn": "Rikuzen-Tomiyama",
      "operator": null,
      "network": null,
      "ref": null,
      "latitude": 38.3862845,
      "longitude": 141.1073267,
      "countryCode": "jp",
      "rawTags": {
        "name": "陸前富山",
        "name:en": "Rikuzen-Tomiyama",
        "name:ja": "陸前富山",
        "name:ja_rm": "Rikuzen-Tomiyama",
        "name:ko": "리쿠젠토미야마",
        "note": "National-Land Numerical Information (Railway) 2007, MLIT Japan",
        "note:ja": "国土数値情報（鉄道データ）平成19年　国土交通省",
        "public_transport": "station",
        "railway": "station",
        "source": "KSJ2",
        "source_ref": "http://nlftp.mlit.go.jp/ksj/jpgis/datalist/KsjTmplt-N02-v1_1.html",
        "wikidata": "Q7334140",
        "wikipedia": "ja:陸前富山駅"
      }
    },
    {
      "id": "miyagi_station_3791321524",
      "osmId": 3791321524,
      "osmType": "node",
      "prefectureId": "miyagi",
      "type": "station",
      "subtype": "private",
      "name": "陸前大塚",
      "nameKana": null,
      "nameEn": "Rikuzen-Ōtsuka",
      "operator": null,
      "network": null,
      "ref": null,
      "latitude": 38.3791229,
      "longitude": 141.1290892,
      "countryCode": "jp",
      "rawTags": {
        "name": "陸前大塚",
        "name:en": "Rikuzen-Ōtsuka",
        "name:ja": "陸前大塚",
        "name:ja_rm": "Rikuzen-Ōtsuka",
        "name:ko": "리쿠젠오쓰카",
        "note": "National-Land Numerical Information (Railway) 2007, MLIT Japan",
        "note:ja": "国土数値情報（鉄道データ）平成19年　国土交通省",
        "public_transport": "station",
        "railway": "station",
        "source": "KSJ2",
        "source_ref": "http://nlftp.mlit.go.jp/ksj/jpgis/datalist/KsjTmplt-N02-v1_1.html",
        "wikidata": "Q7334147",
        "wikipedia": "ja:陸前大塚駅"
      }
    },
    {
      "id": "miyagi_station_3791321533",
      "osmId": 3791321533,
      "osmType": "node",
      "prefectureId": "miyagi",
      "type": "station",
      "subtype": "private",
      "name": "塩釜",
      "nameKana": "しおがま",
      "nameEn": "Shiogama",
      "operator": null,
      "network": null,
      "ref": null,
      "latitude": 38.309546,
      "longitude": 141.0095991,
      "countryCode": "jp",
      "rawTags": {
        "name": "塩釜",
        "name:en": "Shiogama",
        "name:ja": "塩釜",
        "name:ja-Hira": "しおがま",
        "name:ja-Latn": "Shiogama",
        "name:ru": "Сиогама",
        "public_transport": "station",
        "railway": "station",
        "source": "KSJ2",
        "wikidata": "Q899153",
        "wikipedia": "ja:塩釜駅"
      }
    },
    {
      "id": "miyagi_station_3791321534",
      "osmId": 3791321534,
      "osmType": "node",
      "prefectureId": "miyagi",
      "type": "station",
      "subtype": "private",
      "name": "多賀城",
      "nameKana": "たがじょう",
      "nameEn": "Tagajo",
      "operator": null,
      "network": null,
      "ref": null,
      "latitude": 38.291696,
      "longitude": 141.0060171,
      "countryCode": "jp",
      "rawTags": {
        "name": "多賀城",
        "name:en": "Tagajo",
        "name:ja": "多賀城",
        "name:ja_kana": "たがじょう",
        "name:ja_rm": "Tagajō",
        "name:ko": "다가조",
        "note": "National-Land Numerical Information (Railway) 2007, MLIT Japan",
        "note:ja": "国土数値情報（鉄道データ）平成19年　国土交通省",
        "public_transport": "station",
        "railway": "station",
        "source": "KSJ2",
        "source_ref": "http://nlftp.mlit.go.jp/ksj/jpgis/datalist/KsjTmplt-N02-v1_1.html",
        "wikidata": "Q7675127",
        "wikipedia": "ja:多賀城駅"
      }
    },
    {
      "id": "miyagi_station_3791321535",
      "osmId": 3791321535,
      "osmType": "node",
      "prefectureId": "miyagi",
      "type": "station",
      "subtype": "private",
      "name": "高城町",
      "nameKana": null,
      "nameEn": "Takagimachi",
      "operator": null,
      "network": null,
      "ref": null,
      "latitude": 38.3826611,
      "longitude": 141.0732011,
      "countryCode": "jp",
      "rawTags": {
        "name": "高城町",
        "name:en": "Takagimachi",
        "name:ja": "高城町",
        "name:ja-Latn": "Takagimachi",
        "name:ko": "다카기마치",
        "public_transport": "station",
        "railway": "station",
        "source": "KSJ2",
        "wikidata": "Q7677017",
        "wikipedia": "ja:高城町駅"
      }
    },
    {
      "id": "miyagi_station_3791321536",
      "osmId": 3791321536,
      "osmType": "node",
      "prefectureId": "miyagi",
      "type": "station",
      "subtype": "private",
      "name": "手樽",
      "nameKana": "てたる",
      "nameEn": "Tetaru",
      "operator": null,
      "network": null,
      "ref": null,
      "latitude": 38.3870035,
      "longitude": 141.0927405,
      "countryCode": "jp",
      "rawTags": {
        "name": "手樽",
        "name:en": "Tetaru",
        "name:ja": "手樽",
        "name:ja-Hira": "てたる",
        "name:ja-Latn": "Tetaru",
        "name:ko": "데타루",
        "public_transport": "station",
        "railway": "station",
        "source": "KSJ2",
        "train": "yes",
        "wikidata": "Q7706029",
        "wikipedia": "ja:手樽駅"
      }
    },
    {
      "id": "miyagi_station_3791321537",
      "osmId": 3791321537,
      "osmType": "node",
      "prefectureId": "miyagi",
      "type": "station",
      "subtype": "private",
      "name": "榴ヶ岡",
      "nameKana": null,
      "nameEn": "Tsutsujigaoka",
      "operator": null,
      "network": null,
      "ref": null,
      "latitude": 38.2587711,
      "longitude": 140.8942638,
      "countryCode": "jp",
      "rawTags": {
        "name": "榴ヶ岡",
        "name:en": "Tsutsujigaoka",
        "name:ja": "榴ヶ岡",
        "name:ja_rm": "Tsutsujigaoka",
        "name:ko": "쓰쓰지가오카",
        "note": "National-Land Numerical Information (Railway) 2007, MLIT Japan",
        "note:ja": "国土数値情報（鉄道データ）平成19年　国土交通省",
        "public_transport": "station",
        "railway": "station",
        "source": "KSJ2",
        "source_ref": "http://nlftp.mlit.go.jp/ksj/jpgis/datalist/KsjTmplt-N02-v1_1.html",
        "wikidata": "Q7850350",
        "wikipedia": "ja:榴ヶ岡駅"
      }
    },
    {
      "id": "miyagi_station_3791321538",
      "osmId": 3791321538,
      "osmType": "node",
      "prefectureId": "miyagi",
      "type": "station",
      "subtype": "private",
      "name": "東名",
      "nameKana": null,
      "nameEn": "Tōna",
      "operator": null,
      "network": null,
      "ref": null,
      "latitude": 38.3753285,
      "longitude": 141.1440162,
      "countryCode": "jp",
      "rawTags": {
        "name": "東名",
        "name:en": "Tōna",
        "name:ja": "東名",
        "name:ja_rm": "Tōna",
        "name:ko": "도나",
        "note": "National-Land Numerical Information (Railway) 2007, MLIT Japan",
        "note:ja": "国土数値情報（鉄道データ）平成19年　国土交通省",
        "public_transport": "station",
        "railway": "station",
        "source": "KSJ2",
        "source_ref": "http://nlftp.mlit.go.jp/ksj/jpgis/datalist/KsjTmplt-N02-v1_1.html",
        "wikidata": "Q7862703",
        "wikipedia": "ja:東名駅"
      }
    },
    {
      "id": "miyagi_station_3791321539",
      "osmId": 3791321539,
      "osmType": "node",
      "prefectureId": "miyagi",
      "type": "station",
      "subtype": "private",
      "name": "矢本",
      "nameKana": null,
      "nameEn": "Yamoto",
      "operator": null,
      "network": null,
      "ref": null,
      "latitude": 38.4205282,
      "longitude": 141.2096652,
      "countryCode": "jp",
      "rawTags": {
        "name": "矢本",
        "name:en": "Yamoto",
        "name:ja": "矢本",
        "name:ja_rm": "Yamoto",
        "name:ko": "야모토",
        "note": "National-Land Numerical Information (Railway) 2007, MLIT Japan",
        "note:ja": "国土数値情報（鉄道データ）平成19年　国土交通省",
        "public_transport": "station",
        "railway": "station",
        "source": "KSJ2",
        "source_ref": "http://nlftp.mlit.go.jp/ksj/jpgis/datalist/KsjTmplt-N02-v1_1.html",
        "wikidata": "Q8048091",
        "wikipedia": "ja:矢本駅"
      }
    },
    {
      "id": "miyagi_station_3792749081",
      "osmId": 3792749081,
      "osmType": "node",
      "prefectureId": "miyagi",
      "type": "station",
      "subtype": "jr",
      "name": "岩沼",
      "nameKana": "いわぬま",
      "nameEn": "Iwanuma",
      "operator": "東日本旅客鉄道",
      "network": null,
      "ref": null,
      "latitude": 38.1121315,
      "longitude": 140.8639243,
      "countryCode": "jp",
      "rawTags": {
        "addr:city": "岩沼市",
        "addr:housenumber": "4-1",
        "addr:neighbourhood": "一丁目",
        "addr:province": "宮城県",
        "addr:quarter": "館下",
        "name": "岩沼",
        "name:de": "Iwanuma",
        "name:en": "Iwanuma",
        "name:ja": "岩沼",
        "name:ja-Hira": "いわぬま",
        "name:ja-Latn": "Iwanuma",
        "name:ru": "Иванума",
        "operator": "東日本旅客鉄道",
        "operator:ja": "東日本旅客鉄道",
        "public_transport": "station",
        "railway": "station",
        "source": "KSJ2",
        "wikidata": "Q899186",
        "wikipedia": "ja:岩沼駅"
      }
    },
    {
      "id": "miyagi_station_3792749084",
      "osmId": 3792749084,
      "osmType": "node",
      "prefectureId": "miyagi",
      "type": "station",
      "subtype": "private",
      "name": "南仙台",
      "nameKana": "みなみせんだい",
      "nameEn": "Minami-Sendai",
      "operator": null,
      "network": null,
      "ref": null,
      "latitude": 38.197257,
      "longitude": 140.8833873,
      "countryCode": "jp",
      "rawTags": {
        "name": "南仙台",
        "name:de": "Sendai Süd",
        "name:en": "Minami-Sendai",
        "name:ja-Hira": "みなみせんだい",
        "name:ja-Latn": "Minamisendai",
        "name:ru": "Минами-Сендай",
        "operator:ja": "東日本旅客鉃道",
        "public_transport": "station",
        "railway": "station",
        "source": "KSJ2",
        "wikidata": "Q899045",
        "wikipedia": "ja:南仙台駅"
      }
    },
    {
      "id": "miyagi_station_3792749088",
      "osmId": 3792749088,
      "osmType": "node",
      "prefectureId": "miyagi",
      "type": "station",
      "subtype": "private",
      "name": "美田園",
      "nameKana": null,
      "nameEn": "Mitazono",
      "operator": null,
      "network": null,
      "ref": null,
      "latitude": 38.1596683,
      "longitude": 140.9174637,
      "countryCode": "jp",
      "rawTags": {
        "name": "美田園",
        "name:de": "Mitazono",
        "name:en": "Mitazono",
        "name:ja": "美田園",
        "name:ja_rm": "Mitazono",
        "name:ko": "미타조노",
        "note": "National-Land Numerical Information (Railway) 2007, MLIT Japan",
        "note:ja": "国土数値情報（鉄道データ）平成19年　国土交通省",
        "railway": "station",
        "source": "KSJ2",
        "source_ref": "http://nlftp.mlit.go.jp/ksj/jpgis/datalist/KsjTmplt-N02-v1_1.html",
        "wikidata": "Q6880783",
        "wikipedia": "ja:美田園駅"
      }
    },
    {
      "id": "miyagi_station_3792749091",
      "osmId": 3792749091,
      "osmType": "node",
      "prefectureId": "miyagi",
      "type": "station",
      "subtype": "private",
      "name": "杜せきのした",
      "nameKana": null,
      "nameEn": "Morisekinoshita",
      "operator": null,
      "network": null,
      "ref": null,
      "latitude": 38.1653873,
      "longitude": 140.8960128,
      "countryCode": "jp",
      "rawTags": {
        "name": "杜せきのした",
        "name:de": "Morisekinoshita",
        "name:en": "Morisekinoshita",
        "name:ja": "杜せきのした",
        "name:ja_rm": "Morisekinoshita",
        "name:ko": "모리세키노시타",
        "note": "National-Land Numerical Information (Railway) 2007, MLIT Japan",
        "note:ja": "国土数値情報（鉄道データ）平成19年　国土交通省",
        "railway": "station",
        "source": "KSJ2",
        "source_ref": "http://nlftp.mlit.go.jp/ksj/jpgis/datalist/KsjTmplt-N02-v1_1.html",
        "wikidata": "Q11098774",
        "wikipedia": "ja:杜せきのした駅"
      }
    },
    {
      "id": "miyagi_station_3792749097",
      "osmId": 3792749097,
      "osmType": "node",
      "prefectureId": "miyagi",
      "type": "station",
      "subtype": "private",
      "name": "名取",
      "nameKana": "なとり",
      "nameEn": "Natori",
      "operator": "東日本旅客鉃道",
      "network": null,
      "ref": null,
      "latitude": 38.1733422,
      "longitude": 140.8827769,
      "countryCode": "jp",
      "rawTags": {
        "name": "名取",
        "name:de": "Natori",
        "name:en": "Natori",
        "name:ja": "名取",
        "name:ja-Hira": "なとり",
        "name:ja-Latn": "Natori",
        "name:ru": "Натори",
        "operator": "東日本旅客鉃道",
        "operator:ja": "東日本旅客鉃道",
        "public_transport": "station",
        "railway": "station",
        "source": "KSJ2",
        "wikidata": "Q841593",
        "wikipedia": "ja:名取駅"
      }
    },
    {
      "id": "miyagi_station_3792749099",
      "osmId": 3792749099,
      "osmType": "node",
      "prefectureId": "miyagi",
      "type": "station",
      "subtype": "private",
      "name": "仙台空港",
      "nameKana": null,
      "nameEn": "Sendai Airport",
      "operator": null,
      "network": null,
      "ref": null,
      "latitude": 38.1371602,
      "longitude": 140.9290141,
      "countryCode": "jp",
      "rawTags": {
        "KSJ2:LIN": "仙台空港線",
        "KSJ2:STN": "仙台空港",
        "name": "仙台空港",
        "name:de": "Flughafen Sendai",
        "name:en": "Sendai Airport",
        "name:ja": "仙台空港",
        "name:ja_rm": "Sendai Airport",
        "name:ko": "센다이공항",
        "note": "National-Land Numerical Information (Railway) 2007, MLIT Japan",
        "note:ja": "国土数値情報（鉄道データ）平成19年　国土交通省",
        "public_transport": "station",
        "railway": "station",
        "source": "KSJ2",
        "source_ref": "http://nlftp.mlit.go.jp/ksj/jpgis/datalist/KsjTmplt-N02-v1_1.html",
        "toilets:wheelchair": "yes",
        "wheelchair": "yes",
        "wikidata": "Q841596",
        "wikipedia": "ja:仙台空港駅"
      }
    },
    {
      "id": "miyagi_station_3792749100",
      "osmId": 3792749100,
      "osmType": "node",
      "prefectureId": "miyagi",
      "type": "station",
      "subtype": "jr",
      "name": "太子堂",
      "nameKana": "たいしどう",
      "nameEn": "Taishido",
      "operator": "東日本旅客鉄道",
      "network": null,
      "ref": null,
      "latitude": 38.2178195,
      "longitude": 140.8834227,
      "countryCode": "jp",
      "rawTags": {
        "addr:city": "仙台市",
        "addr:housenumber": "1",
        "addr:neighbourhood": "1",
        "addr:postcode": "982013",
        "addr:province": "宮城県",
        "addr:quarter": "太子堂",
        "addr:suburb": "太白区",
        "name": "太子堂",
        "name:de": "Taishidō",
        "name:en": "Taishido",
        "name:ja": "太子堂",
        "name:ja-Hira": "たいしどう",
        "name:ja-Latn": "Taishidō",
        "name:ru": "Тайсидо",
        "operator": "東日本旅客鉄道",
        "operator:ja": "東日本旅客鉃道",
        "public_transport": "station",
        "railway": "station",
        "source": "KSJ2",
        "wikidata": "Q898884",
        "wikipedia": "ja:太子堂駅"
      }
    },
    {
      "id": "miyagi_station_3792749102",
      "osmId": 3792749102,
      "osmType": "node",
      "prefectureId": "miyagi",
      "type": "station",
      "subtype": "private",
      "name": "館腰",
      "nameKana": null,
      "nameEn": "Tatekoshi",
      "operator": "東日本旅客鉃道",
      "network": null,
      "ref": null,
      "latitude": 38.1431219,
      "longitude": 140.8803223,
      "countryCode": "jp",
      "rawTags": {
        "name": "館腰",
        "name:de": "Tatekoshi",
        "name:en": "Tatekoshi",
        "name:ja": "館腰",
        "name:ja-Latn": "Tatekoshi",
        "name:ru": "Такекоси",
        "operator": "東日本旅客鉃道",
        "operator:ja": "東日本旅客鉃道",
        "public_transport": "station",
        "railway": "station",
        "source": "KSJ2",
        "wikidata": "Q899090",
        "wikipedia": "ja:館腰駅"
      }
    },
    {
      "id": "miyagi_station_3880060317",
      "osmId": 3880060317,
      "osmType": "node",
      "prefectureId": "miyagi",
      "type": "station",
      "subtype": "subway",
      "name": "青葉通一番町",
      "nameKana": null,
      "nameEn": "Aoba-dori Ichibancho",
      "operator": "仙台市交通局",
      "network": null,
      "ref": "T06",
      "latitude": 38.2596981,
      "longitude": 140.8719207,
      "countryCode": "jp",
      "rawTags": {
        "name": "青葉通一番町",
        "name:en": "Aoba-dori Ichibancho",
        "name:ja": "青葉通一番町",
        "name:ja_rm": "Aoba-dori Ichibancho",
        "name:ko": "아오바도리이치반초",
        "operator": "仙台市交通局",
        "public_transport": "station",
        "railway": "station",
        "ref": "T06",
        "station": "subway",
        "subway": "yes",
        "train": "yes",
        "wikidata": "Q11352995",
        "wikipedia": "ja:青葉通一番町駅"
      }
    },
    {
      "id": "miyagi_station_3880060318",
      "osmId": 3880060318,
      "osmType": "node",
      "prefectureId": "miyagi",
      "type": "station",
      "subtype": "subway",
      "name": "荒井",
      "nameKana": null,
      "nameEn": "Arai",
      "operator": "仙台市交通局",
      "network": null,
      "ref": "T13",
      "latitude": 38.2448857,
      "longitude": 140.9484215,
      "countryCode": "jp",
      "rawTags": {
        "name": "荒井",
        "name:en": "Arai",
        "name:ja": "荒井",
        "name:ja_rm": "Arai",
        "name:ko": "아라이",
        "operator": "仙台市交通局",
        "public_transport": "station",
        "railway": "station",
        "ref": "T13",
        "station": "subway",
        "subway": "yes",
        "toilets:wheelchair": "yes",
        "train": "yes",
        "wheelchair": "yes",
        "wikidata": "Q11618409",
        "wikipedia": "ja:荒井駅 (宮城県)"
      }
    },
    {
      "id": "miyagi_station_3880061718",
      "osmId": 3880061718,
      "osmType": "node",
      "prefectureId": "miyagi",
      "type": "station",
      "subtype": "subway",
      "name": "連坊",
      "nameKana": null,
      "nameEn": "Rembo",
      "operator": "仙台市交通局",
      "network": null,
      "ref": "T09",
      "latitude": 38.2511739,
      "longitude": 140.8932704,
      "countryCode": "jp",
      "rawTags": {
        "name": "連坊",
        "name:en": "Rembo",
        "name:ja": "連坊",
        "name:ja_rm": "Rembo",
        "name:ko": "렌보",
        "operator": "仙台市交通局",
        "public_transport": "station",
        "railway": "station",
        "ref": "T09",
        "station": "subway",
        "subway": "yes",
        "train": "yes",
        "wikidata": "Q11639873",
        "wikipedia": "ja:連坊駅"
      }
    },
    {
      "id": "miyagi_station_3880061721",
      "osmId": 3880061721,
      "osmType": "node",
      "prefectureId": "miyagi",
      "type": "station",
      "subtype": "subway",
      "name": "卸町",
      "nameKana": null,
      "nameEn": "Oroshimachi",
      "operator": "仙台市交通局",
      "network": null,
      "ref": "T11",
      "latitude": 38.2515983,
      "longitude": 140.9208595,
      "countryCode": "jp",
      "rawTags": {
        "name": "卸町",
        "name:en": "Oroshimachi",
        "name:ja": "卸町",
        "name:ja_rm": "Oroshimachi",
        "name:ko": "오로시마치",
        "operator": "仙台市交通局",
        "public_transport": "station",
        "railway": "station",
        "ref": "T11",
        "station": "subway",
        "subway": "yes",
        "train": "yes",
        "wikidata": "Q11409196",
        "wikipedia": "ja:卸町駅 (宮城県)"
      }
    },
    {
      "id": "miyagi_station_3880061722",
      "osmId": 3880061722,
      "osmType": "node",
      "prefectureId": "miyagi",
      "type": "station",
      "subtype": "subway",
      "name": "六丁の目",
      "nameKana": null,
      "nameEn": "Rokuchonome",
      "operator": "仙台市交通局",
      "network": null,
      "ref": "T12",
      "latitude": 38.2509885,
      "longitude": 140.9356293,
      "countryCode": "jp",
      "rawTags": {
        "name": "六丁の目",
        "name:en": "Rokuchonome",
        "name:ja": "六丁の目",
        "name:ja_rm": "Rokuchonome",
        "name:ko": "로쿠초노메",
        "operator": "仙台市交通局",
        "public_transport": "station",
        "railway": "station",
        "ref": "T12",
        "station": "subway",
        "subway": "yes",
        "train": "yes",
        "wikidata": "Q11392266",
        "wikipedia": "ja:六丁の目駅"
      }
    },
    {
      "id": "miyagi_station_3880061736",
      "osmId": 3880061736,
      "osmType": "node",
      "prefectureId": "miyagi",
      "type": "station",
      "subtype": "subway",
      "name": "宮城野通",
      "nameKana": null,
      "nameEn": "Miyagino-dori",
      "operator": "仙台市交通局",
      "network": null,
      "ref": "T08",
      "latitude": 38.2579376,
      "longitude": 140.8858661,
      "countryCode": "jp",
      "rawTags": {
        "name": "宮城野通",
        "name:en": "Miyagino-dori",
        "name:ja": "宮城野通",
        "name:ja_rm": "Miyagino-dori",
        "name:ko": "미야기노도리",
        "operator": "仙台市交通局",
        "public_transport": "station",
        "railway": "station",
        "ref": "T08",
        "station": "subway",
        "subway": "yes",
        "train": "yes",
        "wikidata": "Q11501901",
        "wikipedia": "ja:宮城野通駅"
      }
    },
    {
      "id": "miyagi_station_3880061738",
      "osmId": 3880061738,
      "osmType": "node",
      "prefectureId": "miyagi",
      "type": "station",
      "subtype": "subway",
      "name": "川内",
      "nameKana": null,
      "nameEn": "Kawauchi",
      "operator": "仙台市交通局",
      "network": null,
      "ref": "T03",
      "latitude": 38.2608821,
      "longitude": 140.8503638,
      "countryCode": "jp",
      "rawTags": {
        "name": "川内",
        "name:en": "Kawauchi",
        "name:ja": "川内",
        "name:ja_rm": "Kawauchi",
        "name:ko": "가와우치",
        "operator": "仙台市交通局",
        "public_transport": "station",
        "railway": "station",
        "ref": "T03",
        "station": "subway",
        "subway": "yes",
        "train": "yes",
        "wikidata": "Q11477760",
        "wikipedia": "ja:川内駅 (宮城県)"
      }
    },
    {
      "id": "miyagi_station_3906691755",
      "osmId": 3906691755,
      "osmType": "node",
      "prefectureId": "miyagi",
      "type": "station",
      "subtype": "private",
      "name": "小牛田",
      "nameKana": "こごた",
      "nameEn": "Kogota",
      "operator": null,
      "network": null,
      "ref": null,
      "latitude": 38.5414704,
      "longitude": 141.0642558,
      "countryCode": "jp",
      "rawTags": {
        "name": "小牛田",
        "name:en": "Kogota",
        "name:ja-Hira": "こごた",
        "name:ja-Latn": "Kogota",
        "name:ru": "Когота",
        "public_transport": "station",
        "railway": "station",
        "source": "KSJ2",
        "train": "yes",
        "wikidata": "Q899134",
        "wikipedia": "ja:小牛田駅"
      }
    },
    {
      "id": "miyagi_station_3908803392",
      "osmId": 3908803392,
      "osmType": "node",
      "prefectureId": "miyagi",
      "type": "station",
      "subtype": "private",
      "name": "白石蔵王",
      "nameKana": "しろいしざおう",
      "nameEn": "Shiroishi-Zao",
      "operator": null,
      "network": null,
      "ref": null,
      "latitude": 37.9954269,
      "longitude": 140.6331751,
      "countryCode": "jp",
      "rawTags": {
        "highspeed": "yes",
        "name": "白石蔵王",
        "name:en": "Shiroishi-Zao",
        "name:ja": "白石蔵王",
        "name:ja-Hira": "しろいしざおう",
        "name:ja-Latn": "Shiroishi-Zaō",
        "name:ko": "시로이시자오",
        "name:ru": "Сироиси-Дзао",
        "public_transport": "station",
        "railway": "station",
        "source": "KSJ2",
        "train": "yes",
        "wikidata": "Q1136524",
        "wikipedia": "ja:白石蔵王駅"
      }
    },
    {
      "id": "miyagi_station_4057942478",
      "osmId": 4057942478,
      "osmType": "node",
      "prefectureId": "miyagi",
      "type": "station",
      "subtype": "jr",
      "name": "坂元",
      "nameKana": "さかもと",
      "nameEn": "Sakamoto",
      "operator": "東日本旅客鉄道",
      "network": null,
      "ref": null,
      "latitude": 37.9242343,
      "longitude": 140.901033,
      "countryCode": "jp",
      "rawTags": {
        "name": "坂元",
        "name:en": "Sakamoto",
        "name:ja": "坂元",
        "name:ja-Hira": "さかもと",
        "name:ja-Latn": "Sakamoto",
        "operator": "東日本旅客鉄道",
        "operator:ja": "東日本旅客鉄道",
        "public_transport": "station",
        "railway": "station",
        "source": "KSJ2",
        "wikidata": "Q7402807",
        "wikipedia": "ja:坂元駅"
      }
    },
    {
      "id": "miyagi_station_4057942479",
      "osmId": 4057942479,
      "osmType": "node",
      "prefectureId": "miyagi",
      "type": "station",
      "subtype": "private",
      "name": "山下",
      "nameKana": "やました",
      "nameEn": "Yamashita",
      "operator": null,
      "network": null,
      "ref": null,
      "latitude": 37.9662549,
      "longitude": 140.8890163,
      "countryCode": "jp",
      "rawTags": {
        "name": "山下",
        "name:en": "Yamashita",
        "name:ja": "山下",
        "name:ja-Hira": "やました",
        "name:ja-Latn": "Yamashita",
        "public_transport": "station",
        "railway": "station",
        "source": "GSImaps/ort",
        "wikidata": "Q8047946",
        "wikipedia": "ja:山下駅 (宮城県)"
      }
    },
    {
      "id": "miyagi_ferry_terminal_4240945489",
      "osmId": 4240945489,
      "osmType": "node",
      "prefectureId": "miyagi",
      "type": "ferry_terminal",
      "subtype": null,
      "name": "仙台港",
      "nameKana": null,
      "nameEn": null,
      "operator": null,
      "network": null,
      "ref": null,
      "latitude": 38.2735698,
      "longitude": 141.0055201,
      "countryCode": "jp",
      "rawTags": {
        "amenity": "ferry_terminal",
        "name": "仙台港",
        "wheelchair": "yes"
      }
    },
    {
      "id": "miyagi_bus_terminal_4593922689",
      "osmId": 4593922689,
      "osmType": "node",
      "prefectureId": "miyagi",
      "type": "bus_terminal",
      "subtype": null,
      "name": "仙台市営バス霞目車庫",
      "nameKana": null,
      "nameEn": null,
      "operator": null,
      "network": null,
      "ref": null,
      "latitude": 38.2407451,
      "longitude": 140.9216029,
      "countryCode": "jp",
      "rawTags": {
        "amenity": "bus_station",
        "bus": "yes",
        "name": "仙台市営バス霞目車庫",
        "name:ja": "仙台市営バス霞目車庫",
        "public_transport": "station"
      }
    },
    {
      "id": "miyagi_bus_terminal_4759336257",
      "osmId": 4759336257,
      "osmType": "node",
      "prefectureId": "miyagi",
      "type": "bus_terminal",
      "subtype": null,
      "name": "仙台市交通局長町営業所",
      "nameKana": null,
      "nameEn": null,
      "operator": null,
      "network": null,
      "ref": null,
      "latitude": 38.2287617,
      "longitude": 140.8824077,
      "countryCode": "jp",
      "rawTags": {
        "amenity": "bus_station",
        "bus": "yes",
        "name": "仙台市交通局長町営業所",
        "name:ja": "仙台市交通局長町営業所",
        "public_transport": "station"
      }
    },
    {
      "id": "miyagi_bus_terminal_5114987235",
      "osmId": 5114987235,
      "osmType": "node",
      "prefectureId": "miyagi",
      "type": "bus_terminal",
      "subtype": null,
      "name": "ミヤコーバス 白石営業所",
      "nameKana": null,
      "nameEn": null,
      "operator": null,
      "network": null,
      "ref": null,
      "latitude": 38.0020406,
      "longitude": 140.6051471,
      "countryCode": "jp",
      "rawTags": {
        "amenity": "bus_station",
        "name": "ミヤコーバス 白石営業所"
      }
    },
    {
      "id": "miyagi_station_5214080988",
      "osmId": 5214080988,
      "osmType": "node",
      "prefectureId": "miyagi",
      "type": "station",
      "subtype": "subway",
      "name": "泉中央",
      "nameKana": null,
      "nameEn": "Izumi-Chuo",
      "operator": "仙台市交通局",
      "network": null,
      "ref": "N01",
      "latitude": 38.3232105,
      "longitude": 140.8806932,
      "countryCode": "jp",
      "rawTags": {
        "alt_name:ko": "이즈미추오",
        "layer": "-1",
        "name": "泉中央",
        "name:en": "Izumi-Chuo",
        "name:ja": "泉中央",
        "name:ja_rm": "Izumi-Chūō",
        "name:ko": "이즈미중앙",
        "note": "National-Land Numerical Information (Railway) 2007, MLIT Japan",
        "note:ja": "国土数値情報（鉄道データ）平成19年　国土交通省",
        "operator": "仙台市交通局",
        "public_transport": "station",
        "railway": "station",
        "ref": "N01",
        "source": "KSJ2",
        "source_ref": "http://nlftp.mlit.go.jp/ksj/jpgis/datalist/KsjTmplt-N02-v1_1.html",
        "station": "subway",
        "subway": "yes",
        "wheelchair": "yes",
        "wikidata": "Q6102259",
        "wikipedia": "ja:泉中央駅"
      }
    },
    {
      "id": "miyagi_bus_terminal_5221012367",
      "osmId": 5221012367,
      "osmType": "node",
      "prefectureId": "miyagi",
      "type": "bus_terminal",
      "subtype": null,
      "name": "宮城交通 泉営業所",
      "nameKana": null,
      "nameEn": null,
      "operator": null,
      "network": null,
      "ref": null,
      "latitude": 38.3493334,
      "longitude": 140.8626463,
      "countryCode": "jp",
      "rawTags": {
        "amenity": "bus_station",
        "name": "宮城交通 泉営業所"
      }
    },
    {
      "id": "miyagi_station_5784163244",
      "osmId": 5784163244,
      "osmType": "node",
      "prefectureId": "miyagi",
      "type": "station",
      "subtype": "private",
      "name": "石越",
      "nameKana": "いしこし",
      "nameEn": "Ishikoshi",
      "operator": null,
      "network": null,
      "ref": null,
      "latitude": 38.7686881,
      "longitude": 141.1591458,
      "countryCode": "jp",
      "rawTags": {
        "name": "石越",
        "name:en": "Ishikoshi",
        "name:ja-Hira": "いしこし",
        "name:ja-Latn": "Ishikoshi",
        "name:ru": "Исикоси",
        "public_transport": "station",
        "railway": "station",
        "source": "KSJ2",
        "train": "yes",
        "wikidata": "Q1058083",
        "wikipedia": "ja:石越駅"
      }
    },
    {
      "id": "miyagi_station_5784245062",
      "osmId": 5784245062,
      "osmType": "node",
      "prefectureId": "miyagi",
      "type": "station",
      "subtype": "private",
      "name": "瀬峰",
      "nameKana": "せみね",
      "nameEn": "Semine",
      "operator": null,
      "network": null,
      "ref": null,
      "latitude": 38.6551991,
      "longitude": 141.0737336,
      "countryCode": "jp",
      "rawTags": {
        "name": "瀬峰",
        "name:en": "Semine",
        "name:ja-Hira": "せみね",
        "name:ja-Latn": "Semine",
        "name:ru": "Семине",
        "public_transport": "station",
        "railway": "station",
        "source": "KSJ2",
        "train": "yes",
        "wikidata": "Q899164",
        "wikipedia": "ja:瀬峰駅"
      }
    },
    {
      "id": "miyagi_station_5784392840",
      "osmId": 5784392840,
      "osmType": "node",
      "prefectureId": "miyagi",
      "type": "station",
      "subtype": "private",
      "name": "愛宕",
      "nameKana": "あたご",
      "nameEn": "Atago",
      "operator": null,
      "network": null,
      "ref": null,
      "latitude": 38.3973372,
      "longitude": 141.0651465,
      "countryCode": "jp",
      "rawTags": {
        "name": "愛宕",
        "name:en": "Atago",
        "name:ja-Hira": "あたご",
        "name:ja-Latn": "Atago",
        "name:ru": "Атаго",
        "public_transport": "station",
        "railway": "station",
        "source": "KSJ2",
        "train": "yes",
        "wikidata": "Q899118",
        "wikipedia": "ja:愛宕駅 (宮城県)"
      }
    },
    {
      "id": "miyagi_station_5784714881",
      "osmId": 5784714881,
      "osmType": "node",
      "prefectureId": "miyagi",
      "type": "station",
      "subtype": "private",
      "name": "槻木",
      "nameKana": "つきのき",
      "nameEn": "Tsukinoki",
      "operator": null,
      "network": null,
      "ref": null,
      "latitude": 38.0786802,
      "longitude": 140.8100456,
      "countryCode": "jp",
      "rawTags": {
        "name": "槻木",
        "name:de": "Tsukinoki",
        "name:en": "Tsukinoki",
        "name:ja": "槻木",
        "name:ja-Hira": "つきのき",
        "name:ja-Latn": "Tsukinoki",
        "name:ru": "Цукиноки",
        "public_transport": "station",
        "railway": "station",
        "source": "KSJ2",
        "train": "yes",
        "wikidata": "Q899014",
        "wikipedia": "ja:槻木駅"
      }
    },
    {
      "id": "miyagi_station_5808212465",
      "osmId": 5808212465,
      "osmType": "node",
      "prefectureId": "miyagi",
      "type": "station",
      "subtype": "jr",
      "name": "鹿折唐桑",
      "nameKana": "ししおりからくわ",
      "nameEn": "Shishiorikarakuwa",
      "operator": "東日本旅客鉄道",
      "network": null,
      "ref": null,
      "latitude": 38.9159426,
      "longitude": 141.5796721,
      "countryCode": "jp",
      "rawTags": {
        "bench": "yes",
        "name": "鹿折唐桑",
        "name:en": "Shishiorikarakuwa",
        "name:ja": "鹿折唐桑",
        "name:ja-Hira": "ししおりからくわ",
        "name:ja-Latn": "Shishiorikarakuwa",
        "name:ko": "시시오리카라쿠와",
        "name:zh": "鹿折唐桑",
        "note": "JR東日本大船渡線のBRT区間に設置されている「駅」であり、鉄道事業法上の駅とは異なる",
        "operator": "東日本旅客鉄道",
        "operator:ja": "東日本旅客鉄道",
        "public_transport": "station",
        "railway": "station",
        "shelter": "yes",
        "start_date": "1932-03-19",
        "train": "no",
        "wikidata": "Q7499086",
        "wikipedia": "ja:鹿折唐桑駅"
      }
    },
    {
      "id": "miyagi_station_5817830567",
      "osmId": 5817830567,
      "osmType": "node",
      "prefectureId": "miyagi",
      "type": "station",
      "subtype": "private",
      "name": "鹿島台",
      "nameKana": "かしまだい",
      "nameEn": "Kashimadai",
      "operator": null,
      "network": null,
      "ref": null,
      "latitude": 38.4746891,
      "longitude": 141.0979244,
      "countryCode": "jp",
      "rawTags": {
        "name": "鹿島台",
        "name:en": "Kashimadai",
        "name:ja-Hira": "かしまだい",
        "name:ja-Latn": "Kashimadai",
        "name:ru": "Касимадай",
        "public_transport": "station",
        "railway": "station",
        "source": "KSJ2",
        "train": "yes",
        "wikidata": "Q899018",
        "wikipedia": "ja:鹿島台駅"
      }
    },
    {
      "id": "miyagi_station_5821062476",
      "osmId": 5821062476,
      "osmType": "node",
      "prefectureId": "miyagi",
      "type": "station",
      "subtype": "private",
      "name": "北白川",
      "nameKana": "北白川",
      "nameEn": "Kita-Shirakawa",
      "operator": null,
      "network": null,
      "ref": null,
      "latitude": 38.0324231,
      "longitude": 140.6925192,
      "countryCode": "jp",
      "rawTags": {
        "name": "北白川",
        "name:de": "Kitashirakawa",
        "name:en": "Kita-Shirakawa",
        "name:ja-Hira": "北白川",
        "name:ja-Latn": "Kitashirakawa",
        "name:ru": "Кита-Сиракава",
        "public_transport": "station",
        "railway": "station",
        "source": "KSJ2",
        "train": "yes",
        "wikidata": "Q898890",
        "wikipedia": "ja:北白川駅"
      }
    },
    {
      "id": "miyagi_station_5822682261",
      "osmId": 5822682261,
      "osmType": "node",
      "prefectureId": "miyagi",
      "type": "station",
      "subtype": "private",
      "name": "白石",
      "nameKana": "しろいし",
      "nameEn": "Shiroishi",
      "operator": null,
      "network": null,
      "ref": null,
      "latitude": 38.0030467,
      "longitude": 140.6263277,
      "countryCode": "jp",
      "rawTags": {
        "name": "白石",
        "name:de": "Shiroishi",
        "name:en": "Shiroishi",
        "name:ja-Hira": "しろいし",
        "name:ja-Latn": "Shiroishi",
        "name:ru": "Сироиси",
        "public_transport": "station",
        "railway": "station",
        "source": "KSJ2",
        "train": "yes",
        "wikidata": "Q899108",
        "wikipedia": "ja:白石駅 (宮城県)"
      }
    },
    {
      "id": "miyagi_station_5822785227",
      "osmId": 5822785227,
      "osmType": "node",
      "prefectureId": "miyagi",
      "type": "station",
      "subtype": "private",
      "name": "越河",
      "nameKana": "こすごう",
      "nameEn": "Kosugo",
      "operator": null,
      "network": null,
      "ref": null,
      "latitude": 37.9341752,
      "longitude": 140.6044232,
      "countryCode": "jp",
      "rawTags": {
        "name": "越河",
        "name:en": "Kosugo",
        "name:ja-Hira": "こすごう",
        "name:ja-Latn": "Kosugō",
        "name:ru": "Косуго",
        "public_transport": "station",
        "railway": "station",
        "source": "KSJ2",
        "train": "yes",
        "wikidata": "Q898860",
        "wikipedia": "ja:越河駅"
      }
    },
    {
      "id": "miyagi_ferry_terminal_5969480592",
      "osmId": 5969480592,
      "osmType": "node",
      "prefectureId": "miyagi",
      "type": "ferry_terminal",
      "subtype": null,
      "name": "マリンゲート塩釜",
      "nameKana": null,
      "nameEn": "Marine Gate Shiogama",
      "operator": null,
      "network": null,
      "ref": null,
      "latitude": 38.319642,
      "longitude": 141.0296218,
      "countryCode": "jp",
      "rawTags": {
        "amenity": "ferry_terminal",
        "ferry": "yes",
        "name": "マリンゲート塩釜",
        "name:en": "Marine Gate Shiogama",
        "name:ja": "マリンゲート塩釜",
        "public_transport": "station"
      }
    },
    {
      "id": "miyagi_ferry_terminal_5969491231",
      "osmId": 5969491231,
      "osmType": "node",
      "prefectureId": "miyagi",
      "type": "ferry_terminal",
      "subtype": null,
      "name": "Matsushima Ferry",
      "nameKana": null,
      "nameEn": null,
      "operator": null,
      "network": null,
      "ref": null,
      "latitude": 38.3688177,
      "longitude": 141.063224,
      "countryCode": "jp",
      "rawTags": {
        "amenity": "ferry_terminal",
        "ferry": "yes",
        "name": "Matsushima Ferry",
        "public_transport": "station"
      }
    },
    {
      "id": "miyagi_station_6069828085",
      "osmId": 6069828085,
      "osmType": "node",
      "prefectureId": "miyagi",
      "type": "station",
      "subtype": "jr",
      "name": "逢隈",
      "nameKana": "おおくま",
      "nameEn": "Okuma",
      "operator": "東日本旅客鉄道",
      "network": null,
      "ref": null,
      "latitude": 38.0672169,
      "longitude": 140.8548076,
      "countryCode": "jp",
      "rawTags": {
        "addr:city": "亘理町",
        "addr:county": "亘理郡",
        "addr:neighbourhood": "下郡",
        "addr:postcode": "989-2382",
        "addr:province": "宮城県",
        "addr:quarter": "逢隈",
        "name": "逢隈",
        "name:en": "Okuma",
        "name:ja": "逢隈",
        "name:ja-Hira": "おおくま",
        "name:ja-Latn": "Ōkuma",
        "operator": "東日本旅客鉄道",
        "operator:ja": "東日本旅客鉄道",
        "public_transport": "station",
        "railway": "station",
        "source": "KSJ2",
        "wikidata": "Q11639834",
        "wikipedia": "ja:逢隈駅"
      }
    },
    {
      "id": "miyagi_station_6069856846",
      "osmId": 6069856846,
      "osmType": "node",
      "prefectureId": "miyagi",
      "type": "station",
      "subtype": "jr",
      "name": "亘理",
      "nameKana": "わたり",
      "nameEn": "Watari",
      "operator": "東日本旅客鉄道",
      "network": null,
      "ref": null,
      "latitude": 38.0396312,
      "longitude": 140.8613,
      "countryCode": "jp",
      "rawTags": {
        "name": "亘理",
        "name:en": "Watari",
        "name:ja": "亘理",
        "name:ja-Hira": "わたり",
        "name:ja-Latn": "Watari",
        "operator": "東日本旅客鉄道",
        "operator:ja": "東日本旅客鉄道",
        "public_transport": "station",
        "railway": "station",
        "source": "KSJ2",
        "wikidata": "Q7973005",
        "wikipedia": "ja:亘理駅"
      }
    },
    {
      "id": "miyagi_station_6089873698",
      "osmId": 6089873698,
      "osmType": "node",
      "prefectureId": "miyagi",
      "type": "station",
      "subtype": "private",
      "name": "東白石",
      "nameKana": "ひがししろいし",
      "nameEn": "Higashi-Shiroishi",
      "operator": null,
      "network": null,
      "ref": null,
      "latitude": 38.0351052,
      "longitude": 140.6511486,
      "countryCode": "jp",
      "rawTags": {
        "name": "東白石",
        "name:de": "Shiroishi Ost",
        "name:en": "Higashi-Shiroishi",
        "name:ja-Hira": "ひがししろいし",
        "name:ja-Latn": "Higashishiroishi",
        "public_transport": "station",
        "railway": "station",
        "source": "KSJ2",
        "train": "yes",
        "wikidata": "Q898818",
        "wikipedia": "ja:東白石駅"
      }
    },
    {
      "id": "miyagi_station_6150086709",
      "osmId": 6150086709,
      "osmType": "node",
      "prefectureId": "miyagi",
      "type": "station",
      "subtype": "private",
      "name": "東船岡",
      "nameKana": "ひがしふなおか",
      "nameEn": "Higashi-Funaoka",
      "operator": null,
      "network": null,
      "ref": null,
      "latitude": 38.0502645,
      "longitude": 140.7898633,
      "countryCode": "jp",
      "rawTags": {
        "name": "東船岡",
        "name:en": "Higashi-Funaoka",
        "name:ja": "東船岡",
        "name:ja-Hira": "ひがしふなおか",
        "name:ja-Latn": "Higashifunaoka",
        "public_transport": "station",
        "railway": "station",
        "source": "KSJ2",
        "train": "yes",
        "wikidata": "Q5753506",
        "wikipedia": "ja:東船岡駅"
      }
    },
    {
      "id": "miyagi_station_6151870802",
      "osmId": 6151870802,
      "osmType": "node",
      "prefectureId": "miyagi",
      "type": "station",
      "subtype": "private",
      "name": "北丸森",
      "nameKana": "きたまるもり",
      "nameEn": "Kita-Marumori",
      "operator": null,
      "network": null,
      "ref": null,
      "latitude": 37.9429017,
      "longitude": 140.7719315,
      "countryCode": "jp",
      "rawTags": {
        "internet_access": "wlan",
        "internet_access:fee": "no",
        "internet_access:ssid": "Marumori Free Wi-Fi",
        "name": "北丸森",
        "name:en": "Kita-Marumori",
        "name:ja": "北丸森",
        "name:ja-Hira": "きたまるもり",
        "name:ja-Latn": "Kitamarumori",
        "public_transport": "station",
        "railway": "station",
        "source": "KSJ2",
        "train": "yes",
        "wikidata": "Q6417565",
        "wikipedia": "ja:北丸森駅"
      }
    },
    {
      "id": "miyagi_station_6151870833",
      "osmId": 6151870833,
      "osmType": "node",
      "prefectureId": "miyagi",
      "type": "station",
      "subtype": "private",
      "name": "南角田",
      "nameKana": "みなみかくだ",
      "nameEn": "Minami-Kakuda",
      "operator": null,
      "network": null,
      "ref": null,
      "latitude": 37.9649195,
      "longitude": 140.7697213,
      "countryCode": "jp",
      "rawTags": {
        "name": "南角田",
        "name:en": "Minami-Kakuda",
        "name:ja": "南角田",
        "name:ja-Hira": "みなみかくだ",
        "name:ja-Latn": "Minamikakuda",
        "public_transport": "station",
        "railway": "station",
        "source": "KSJ2",
        "train": "yes",
        "wikidata": "Q6862925",
        "wikipedia": "ja:南角田駅"
      }
    },
    {
      "id": "miyagi_station_6151870849",
      "osmId": 6151870849,
      "osmType": "node",
      "prefectureId": "miyagi",
      "type": "station",
      "subtype": "private",
      "name": "角田",
      "nameKana": "かくだ",
      "nameEn": "Kakuda",
      "operator": null,
      "network": null,
      "ref": null,
      "latitude": 37.9791833,
      "longitude": 140.7727039,
      "countryCode": "jp",
      "rawTags": {
        "name": "角田",
        "name:en": "Kakuda",
        "name:ja": "角田",
        "name:ja-Hira": "かくだ",
        "name:ja-Latn": "Kakuda",
        "public_transport": "station",
        "railway": "station",
        "source": "KSJ2",
        "train": "yes",
        "wikidata": "Q6349678",
        "wikipedia": "ja:角田駅"
      }
    },
    {
      "id": "miyagi_station_6151870856",
      "osmId": 6151870856,
      "osmType": "node",
      "prefectureId": "miyagi",
      "type": "station",
      "subtype": "private",
      "name": "横倉",
      "nameKana": "よこくら",
      "nameEn": "Yokokura",
      "operator": null,
      "network": null,
      "ref": null,
      "latitude": 37.9967165,
      "longitude": 140.7759319,
      "countryCode": "jp",
      "rawTags": {
        "name": "横倉",
        "name:en": "Yokokura",
        "name:ja": "横倉",
        "name:ja-Hira": "よこくら",
        "name:ja-Latn": "Yokokura",
        "public_transport": "station",
        "railway": "station",
        "source": "KSJ2",
        "train": "yes",
        "wikidata": "Q8054658",
        "wikipedia": "ja:横倉駅 (宮城県)"
      }
    },
    {
      "id": "miyagi_bus_terminal_6818636690",
      "osmId": 6818636690,
      "osmType": "node",
      "prefectureId": "miyagi",
      "type": "bus_terminal",
      "subtype": null,
      "name": "仙台営業所 山田自由ヶ丘車庫",
      "nameKana": null,
      "nameEn": "Miyagi Kōtsū",
      "operator": null,
      "network": null,
      "ref": null,
      "latitude": 38.2300422,
      "longitude": 140.8076447,
      "countryCode": "jp",
      "rawTags": {
        "amenity": "bus_station",
        "bus": "yes",
        "name": "仙台営業所 山田自由ヶ丘車庫",
        "name:en": "Miyagi Kōtsū",
        "phone": "+81 22 243 2131",
        "public_transport": "station",
        "website": "https://www.miyakou.co.jp/"
      }
    },
    {
      "id": "miyagi_bus_terminal_6842625016",
      "osmId": 6842625016,
      "osmType": "node",
      "prefectureId": "miyagi",
      "type": "bus_terminal",
      "subtype": null,
      "name": "旭ヶ丘バスターミナル",
      "nameKana": null,
      "nameEn": "Asahigaoka Bus Terminal",
      "operator": null,
      "network": null,
      "ref": null,
      "latitude": 38.2956122,
      "longitude": 140.8840694,
      "countryCode": "jp",
      "rawTags": {
        "amenity": "bus_station",
        "name": "旭ヶ丘バスターミナル",
        "name:en": "Asahigaoka Bus Terminal"
      }
    },
    {
      "id": "miyagi_station_7117374801",
      "osmId": 7117374801,
      "osmType": "node",
      "prefectureId": "miyagi",
      "type": "station",
      "subtype": "jr",
      "name": "気仙沼市立病院",
      "nameKana": "けせんぬましりつびょういん",
      "nameEn": "Kesennuma City Hospital",
      "operator": "東日本旅客鉄道",
      "network": null,
      "ref": null,
      "latitude": 38.8874972,
      "longitude": 141.5654245,
      "countryCode": "jp",
      "rawTags": {
        "bench": "yes",
        "name": "気仙沼市立病院",
        "name:en": "Kesennuma City Hospital",
        "name:ja": "気仙沼市立病院",
        "name:ja-Hira": "けせんぬましりつびょういん",
        "note": "JR東日本大船渡線のBRT区間に設置されている「駅」であり、鉄道事業法上の駅とは異なる",
        "operator": "東日本旅客鉄道",
        "operator:ja": "東日本旅客鉄道",
        "public_transport": "station",
        "railway": "station",
        "shelter": "yes",
        "start_date": "2017-11-02",
        "train": "no",
        "wikidata": "Q48751224",
        "wikipedia": "ja:気仙沼市立病院駅"
      }
    },
    {
      "id": "miyagi_station_7235298223",
      "osmId": 7235298223,
      "osmType": "node",
      "prefectureId": "miyagi",
      "type": "station",
      "subtype": "private",
      "name": "福田町",
      "nameKana": "ふくだまち",
      "nameEn": "Fukudamachi",
      "operator": null,
      "network": null,
      "ref": null,
      "latitude": 38.2749367,
      "longitude": 140.9587542,
      "countryCode": "jp",
      "rawTags": {
        "name": "福田町",
        "name:en": "Fukudamachi",
        "name:ja": "福田町",
        "name:ja-Hira": "ふくだまち",
        "public_transport": "station",
        "railway": "station",
        "train": "yes"
      }
    },
    {
      "id": "miyagi_station_7294102409",
      "osmId": 7294102409,
      "osmType": "node",
      "prefectureId": "miyagi",
      "type": "station",
      "subtype": "jr",
      "name": "赤岩港",
      "nameKana": "あかいわみなと",
      "nameEn": "Akaiwaminato",
      "operator": "東日本旅客鉄道",
      "network": null,
      "ref": null,
      "latitude": 38.8849441,
      "longitude": 141.5824988,
      "countryCode": "jp",
      "rawTags": {
        "name": "赤岩港",
        "name:en": "Akaiwaminato",
        "name:ja": "赤岩港",
        "name:ja-Hira": "あかいわみなと",
        "name:zh": "赤岩港",
        "note": "JR東日本大船渡線のBRT区間に設置されている「駅」であり、鉄道事業法上の駅とは異なる",
        "operator": "東日本旅客鉄道",
        "operator:ja": "東日本旅客鉄道",
        "public_transport": "station",
        "railway": "station",
        "shelter": "yes",
        "start_date": "2020-03-14",
        "train": "no",
        "wikidata": "Q85883872",
        "wikipedia": "ja:赤岩港駅"
      }
    },
    {
      "id": "miyagi_station_7296320570",
      "osmId": 7296320570,
      "osmType": "node",
      "prefectureId": "miyagi",
      "type": "station",
      "subtype": "jr",
      "name": "歌津",
      "nameKana": "うたつ",
      "nameEn": "Utatsu",
      "operator": "東日本旅客鉄道",
      "network": null,
      "ref": null,
      "latitude": 38.7181991,
      "longitude": 141.5196807,
      "countryCode": "jp",
      "rawTags": {
        "KSJ2:STN": "歌津",
        "name": "歌津",
        "name:en": "Utatsu",
        "name:ja": "歌津",
        "name:ja-Hira": "うたつ",
        "name:ko": "우타쓰",
        "name:zh": "歌津",
        "note": "JR東日本大船渡線のBRT区間に設置されている「駅」であり、鉄道事業法上の駅とは異なる",
        "operator": "東日本旅客鉄道",
        "operator:ja": "東日本旅客鉄道",
        "public_transport": "station",
        "railway": "station",
        "shelter": "yes",
        "source": "KSJ2",
        "start_date": "1977-12-11",
        "train": "no",
        "wikidata": "Q7902584",
        "wikipedia": "ja:歌津駅"
      }
    },
    {
      "id": "miyagi_ferry_terminal_7590709270",
      "osmId": 7590709270,
      "osmType": "node",
      "prefectureId": "miyagi",
      "type": "ferry_terminal",
      "subtype": null,
      "name": "網地島ライン中央発着所",
      "nameKana": null,
      "nameEn": "Ajishima Line Chuo",
      "operator": null,
      "network": "網地島ライン",
      "ref": null,
      "latitude": 38.4289715,
      "longitude": 141.308712,
      "countryCode": "jp",
      "rawTags": {
        "addr:block_number": "14",
        "addr:city": "石巻市",
        "addr:housenumber": "5",
        "addr:neighbourhood": "中央一丁目",
        "addr:postcode": "986-0822",
        "addr:province": "宮城県",
        "amenity": "ferry_terminal",
        "fax": "0225-93-6057",
        "ferry": "yes",
        "internet_access": "wlan",
        "level": "1",
        "name": "網地島ライン中央発着所",
        "name:en": "Ajishima Line Chuo",
        "network": "網地島ライン",
        "opening_hours": "Mo-Su 08:00-17:00",
        "phone": "0225-93-6125",
        "public_transport": "station",
        "website": "http://ajishimaline.com/",
        "wikidata": "Q11607174",
        "wikipedia": "ja:網地島ライン"
      }
    },
    {
      "id": "miyagi_bus_terminal_7746162599",
      "osmId": 7746162599,
      "osmType": "node",
      "prefectureId": "miyagi",
      "type": "bus_terminal",
      "subtype": null,
      "name": "ミヤコーバス 築館営業所",
      "nameKana": null,
      "nameEn": "MiyakoBus Tsukidate",
      "operator": null,
      "network": null,
      "ref": null,
      "latitude": 38.7314895,
      "longitude": 141.0259226,
      "countryCode": "jp",
      "rawTags": {
        "amenity": "bus_station",
        "name": "ミヤコーバス 築館営業所",
        "name:en": "MiyakoBus Tsukidate",
        "phone": "+81 228 22 2250"
      }
    },
    {
      "id": "miyagi_station_7770490131",
      "osmId": 7770490131,
      "osmType": "node",
      "prefectureId": "miyagi",
      "type": "station",
      "subtype": "private",
      "name": "西塩釜",
      "nameKana": "にししおがま",
      "nameEn": "Nishi-Shiogama",
      "operator": null,
      "network": null,
      "ref": null,
      "latitude": 38.311995,
      "longitude": 141.0185015,
      "countryCode": "jp",
      "rawTags": {
        "name": "西塩釜",
        "name:en": "Nishi-Shiogama",
        "name:ja": "西塩釜",
        "name:ja_kana": "にししおがま",
        "name:ja_rm": "Nishishiogama",
        "name:ko": "니시시오가마",
        "note": "National-Land Numerical Information (Railway) 2007, MLIT Japan",
        "note:ja": "国土数値情報（鉄道データ）平成19年　国土交通省",
        "public_transport": "station",
        "railway": "station",
        "source": "KSJ2",
        "source_ref": "http://nlftp.mlit.go.jp/ksj/jpgis/datalist/KsjTmplt-N02-v1_1.html",
        "wikidata": "Q11627532",
        "wikipedia": "ja:西塩釜駅"
      }
    },
    {
      "id": "miyagi_station_7794874665",
      "osmId": 7794874665,
      "osmType": "node",
      "prefectureId": "miyagi",
      "type": "station",
      "subtype": "subway",
      "name": "薬師堂",
      "nameKana": null,
      "nameEn": "Yakushido",
      "operator": null,
      "network": null,
      "ref": "T10",
      "latitude": 38.2497493,
      "longitude": 140.9057414,
      "countryCode": "jp",
      "rawTags": {
        "name": "薬師堂",
        "name:en": "Yakushido",
        "name:ja": "薬師堂",
        "name:ja_rm": "Yakushido",
        "name:ko": "야쿠시도",
        "public_transport": "station",
        "railway": "station",
        "ref": "T10",
        "station": "subway",
        "subway": "yes",
        "wikidata": "Q11622441",
        "wikipedia": "ja:薬師堂駅 (宮城県)"
      }
    },
    {
      "id": "miyagi_station_8035287736",
      "osmId": 8035287736,
      "osmType": "node",
      "prefectureId": "miyagi",
      "type": "station",
      "subtype": "subway",
      "name": "長町南",
      "nameKana": null,
      "nameEn": "Nagamachi-Minami",
      "operator": "仙台市交通局",
      "network": null,
      "ref": "N16",
      "latitude": 38.2246978,
      "longitude": 140.87708,
      "countryCode": "jp",
      "rawTags": {
        "name": "長町南",
        "name:en": "Nagamachi-Minami",
        "name:ja": "長町南",
        "name:ja_rm": "Nagamachi-Minami",
        "name:ko": "나가마치미나미",
        "note": "National-Land Numerical Information (Railway) 2007, MLIT Japan",
        "note:ja": "国土数値情報（鉄道データ）平成19年　国土交通省",
        "operator": "仙台市交通局",
        "public_transport": "station",
        "railway": "station",
        "ref": "N16",
        "source": "KSJ2",
        "source_ref": "http://nlftp.mlit.go.jp/ksj/jpgis/datalist/KsjTmplt-N02-v1_1.html",
        "station": "subway",
        "wikidata": "Q11653512",
        "wikipedia": "ja:長町南駅"
      }
    },
    {
      "id": "miyagi_station_8035287737",
      "osmId": 8035287737,
      "osmType": "node",
      "prefectureId": "miyagi",
      "type": "station",
      "subtype": "subway",
      "name": "長町",
      "nameKana": null,
      "nameEn": "Nagamachi",
      "operator": "仙台市交通局",
      "network": null,
      "ref": "N15",
      "latitude": 38.2285294,
      "longitude": 140.8848863,
      "countryCode": "jp",
      "rawTags": {
        "name": "長町",
        "name:en": "Nagamachi",
        "name:ja": "長町",
        "name:ja_rm": "Nagamachi",
        "name:ko": "나가마치",
        "note": "National-Land Numerical Information (Railway) 2007, MLIT Japan",
        "note:ja": "国土数値情報（鉄道データ）平成19年　国土交通省",
        "operator": "仙台市交通局",
        "public_transport": "station",
        "railway": "station",
        "ref": "N15",
        "source": "KSJ2",
        "source_ref": "http://nlftp.mlit.go.jp/ksj/jpgis/datalist/KsjTmplt-N02-v1_1.html",
        "station": "subway",
        "wikidata": "Q843033",
        "wikipedia": "ja:長町駅"
      }
    },
    {
      "id": "miyagi_station_8035287738",
      "osmId": 8035287738,
      "osmType": "node",
      "prefectureId": "miyagi",
      "type": "station",
      "subtype": "subway",
      "name": "長町一丁目",
      "nameKana": null,
      "nameEn": "Nagamachi-Itchome",
      "operator": "仙台市交通局",
      "network": null,
      "ref": "N14",
      "latitude": 38.2343373,
      "longitude": 140.8875708,
      "countryCode": "jp",
      "rawTags": {
        "name": "長町一丁目",
        "name:en": "Nagamachi-Itchome",
        "name:ja": "長町一丁目",
        "name:ja_rm": "Nagamachi-Itchōme",
        "name:ko": "나가마치1초메",
        "note": "National-Land Numerical Information (Railway) 2007, MLIT Japan",
        "note:ja": "国土数値情報（鉄道データ）平成19年　国土交通省",
        "operator": "仙台市交通局",
        "public_transport": "station",
        "railway": "station",
        "ref": "N14",
        "source": "KSJ2",
        "source_ref": "http://nlftp.mlit.go.jp/ksj/jpgis/datalist/KsjTmplt-N02-v1_1.html",
        "station": "subway",
        "wikidata": "Q6958400",
        "wikipedia": "ja:長町一丁目駅"
      }
    },
    {
      "id": "miyagi_station_8035287739",
      "osmId": 8035287739,
      "osmType": "node",
      "prefectureId": "miyagi",
      "type": "station",
      "subtype": "subway",
      "name": "河原町",
      "nameKana": null,
      "nameEn": "Kawaramachi",
      "operator": "仙台市交通局",
      "network": null,
      "ref": "N13",
      "latitude": 38.2407203,
      "longitude": 140.8878578,
      "countryCode": "jp",
      "rawTags": {
        "name": "河原町",
        "name:en": "Kawaramachi",
        "name:ja": "河原町",
        "name:ja_rm": "Kawaramachi",
        "name:ko": "가와라마치",
        "note": "National-Land Numerical Information (Railway) 2007, MLIT Japan",
        "note:ja": "国土数値情報（鉄道データ）平成19年　国土交通省",
        "operator": "仙台市交通局",
        "public_transport": "station",
        "railway": "station",
        "ref": "N13",
        "source": "KSJ2",
        "source_ref": "http://nlftp.mlit.go.jp/ksj/jpgis/datalist/KsjTmplt-N02-v1_1.html",
        "station": "subway",
        "wikidata": "Q6379687",
        "wikipedia": "ja:河原町駅 (宮城県)"
      }
    },
    {
      "id": "miyagi_station_8035287740",
      "osmId": 8035287740,
      "osmType": "node",
      "prefectureId": "miyagi",
      "type": "station",
      "subtype": "subway",
      "name": "愛宕橋",
      "nameKana": null,
      "nameEn": "Atagobashi",
      "operator": "仙台市交通局",
      "network": null,
      "ref": "N12",
      "latitude": 38.2474191,
      "longitude": 140.8816855,
      "countryCode": "jp",
      "rawTags": {
        "name": "愛宕橋",
        "name:en": "Atagobashi",
        "name:ja": "愛宕橋",
        "name:ja_rm": "Atagobashi",
        "name:ko": "아타고바시",
        "note": "National-Land Numerical Information (Railway) 2007, MLIT Japan",
        "note:ja": "国土数値情報（鉄道データ）平成19年　国土交通省",
        "operator": "仙台市交通局",
        "public_transport": "station",
        "railway": "station",
        "ref": "N12",
        "source": "KSJ2",
        "source_ref": "http://nlftp.mlit.go.jp/ksj/jpgis/datalist/KsjTmplt-N02-v1_1.html",
        "station": "subway",
        "wikidata": "Q4812647",
        "wikipedia": "ja:愛宕橋駅"
      }
    },
    {
      "id": "miyagi_station_8035287741",
      "osmId": 8035287741,
      "osmType": "node",
      "prefectureId": "miyagi",
      "type": "station",
      "subtype": "subway",
      "name": "五橋",
      "nameKana": "いつつばし",
      "nameEn": "Itsutsubashi",
      "operator": "仙台市交通局",
      "network": null,
      "ref": "N11",
      "latitude": 38.2518641,
      "longitude": 140.8810785,
      "countryCode": "jp",
      "rawTags": {
        "name": "五橋",
        "name:en": "Itsutsubashi",
        "name:ja": "五橋",
        "name:ja-Hira": "いつつばし",
        "name:ja-Latn": "Itsutsubashi",
        "name:ko": "이쓰쓰바시",
        "note": "National-Land Numerical Information (Railway) 2007, MLIT Japan",
        "note:ja": "国土数値情報（鉄道データ）平成19年　国土交通省",
        "operator": "仙台市交通局",
        "public_transport": "station",
        "railway": "station",
        "ref": "N11",
        "source": "KSJ2",
        "source_ref": "http://nlftp.mlit.go.jp/ksj/jpgis/datalist/KsjTmplt-N02-v1_1.html",
        "station": "subway",
        "subway": "yes",
        "wikidata": "Q11372525",
        "wikipedia": "ja:五橋駅"
      }
    },
    {
      "id": "miyagi_station_8035287742",
      "osmId": 8035287742,
      "osmType": "node",
      "prefectureId": "miyagi",
      "type": "station",
      "subtype": "subway",
      "name": "広瀬通",
      "nameKana": "ひろせどおり",
      "nameEn": "Hirose-dori",
      "operator": "仙台市交通局",
      "network": null,
      "ref": "N09",
      "latitude": 38.2628605,
      "longitude": 140.8754851,
      "countryCode": "jp",
      "rawTags": {
        "name": "広瀬通",
        "name:en": "Hirose-dori",
        "name:ja": "広瀬通",
        "name:ja-Hira": "ひろせどおり",
        "name:ja-Latn": "Hirose-dōri",
        "name:ko": "히로세도리",
        "note": "National-Land Numerical Information (Railway) 2007, MLIT Japan",
        "note:ja": "国土数値情報（鉄道データ）平成19年　国土交通省",
        "operator": "仙台市交通局",
        "public_transport": "station",
        "railway": "station",
        "ref": "N09",
        "source": "KSJ2",
        "source_ref": "http://nlftp.mlit.go.jp/ksj/jpgis/datalist/KsjTmplt-N02-v1_1.html",
        "station": "subway",
        "subway": "yes",
        "wikidata": "Q5770742",
        "wikipedia": "ja:広瀬通駅"
      }
    },
    {
      "id": "miyagi_station_8035287743",
      "osmId": 8035287743,
      "osmType": "node",
      "prefectureId": "miyagi",
      "type": "station",
      "subtype": "subway",
      "name": "勾当台公園",
      "nameKana": null,
      "nameEn": "Kotodai-Koen",
      "operator": "仙台市交通局",
      "network": null,
      "ref": "N08",
      "latitude": 38.2667929,
      "longitude": 140.8711687,
      "countryCode": "jp",
      "rawTags": {
        "name": "勾当台公園",
        "name:en": "Kotodai-Koen",
        "name:ja": "勾当台公園",
        "name:ja_rm": "Kōtōdai-Kōen",
        "name:ko": "고토다이코엔",
        "note": "National-Land Numerical Information (Railway) 2007, MLIT Japan",
        "note:ja": "国土数値情報（鉄道データ）平成19年　国土交通省",
        "operator": "仙台市交通局",
        "public_transport": "station",
        "railway": "station",
        "ref": "N08",
        "source": "KSJ2",
        "source_ref": "http://nlftp.mlit.go.jp/ksj/jpgis/datalist/KsjTmplt-N02-v1_1.html",
        "station": "subway",
        "subway": "yes",
        "wikidata": "Q11400640",
        "wikipedia": "ja:勾当台公園駅"
      }
    },
    {
      "id": "miyagi_station_8035287744",
      "osmId": 8035287744,
      "osmType": "node",
      "prefectureId": "miyagi",
      "type": "station",
      "subtype": "subway",
      "name": "北四番丁",
      "nameKana": "きたよばんちょう",
      "nameEn": "Kita-Yobancho",
      "operator": "仙台市交通局",
      "network": null,
      "ref": "N07",
      "latitude": 38.272036,
      "longitude": 140.8691304,
      "countryCode": "jp",
      "rawTags": {
        "name": "北四番丁",
        "name:en": "Kita-Yobancho",
        "name:ja": "北四番丁",
        "name:ja-Hira": "きたよばんちょう",
        "name:ja_rm": "Kita-Yobanchō",
        "name:ko": "기타요반초",
        "note": "National-Land Numerical Information (Railway) 2007, MLIT Japan",
        "note:ja": "国土数値情報（鉄道データ）平成19年　国土交通省",
        "operator": "仙台市交通局",
        "public_transport": "station",
        "railway": "station",
        "ref": "N07",
        "source": "KSJ2",
        "source_ref": "http://nlftp.mlit.go.jp/ksj/jpgis/datalist/KsjTmplt-N02-v1_1.html",
        "station": "subway",
        "subway": "yes",
        "website": "https://www.kotsu.city.sendai.jp/subway/station/kita-yobancho.html",
        "wikidata": "Q6417621",
        "wikipedia": "ja:北四番丁駅"
      }
    },
    {
      "id": "miyagi_station_8035287745",
      "osmId": 8035287745,
      "osmType": "node",
      "prefectureId": "miyagi",
      "type": "station",
      "subtype": "subway",
      "name": "北仙台",
      "nameKana": "きたせんだい",
      "nameEn": "Kita-Sendai",
      "operator": "仙台市交通局",
      "network": null,
      "ref": "N06",
      "latitude": 38.2825301,
      "longitude": 140.8688517,
      "countryCode": "jp",
      "rawTags": {
        "name": "北仙台",
        "name:en": "Kita-Sendai",
        "name:ja": "北仙台",
        "name:ja-Hira": "きたせんだい",
        "name:ja_rm": "Kita-Sendai",
        "name:ko": "기타센다이",
        "note": "National-Land Numerical Information (Railway) 2007, MLIT Japan",
        "note:ja": "国土数値情報（鉄道データ）平成19年　国土交通省",
        "operator": "仙台市交通局",
        "public_transport": "station",
        "railway": "station",
        "ref": "N06",
        "source": "KSJ2",
        "source_ref": "http://nlftp.mlit.go.jp/ksj/jpgis/datalist/KsjTmplt-N02-v1_1.html",
        "station": "subway",
        "subway": "yes",
        "wikidata": "Q6417601",
        "wikipedia": "ja:北仙台駅"
      }
    },
    {
      "id": "miyagi_station_8035287746",
      "osmId": 8035287746,
      "osmType": "node",
      "prefectureId": "miyagi",
      "type": "station",
      "subtype": "subway",
      "name": "旭ヶ丘",
      "nameKana": null,
      "nameEn": "Asahigaoka",
      "operator": "仙台市交通局",
      "network": null,
      "ref": "N04",
      "latitude": 38.2958475,
      "longitude": 140.8837038,
      "countryCode": "jp",
      "rawTags": {
        "name": "旭ヶ丘",
        "name:en": "Asahigaoka",
        "name:ja": "旭ヶ丘",
        "name:ja_rm": "Asahigaoka",
        "name:ko": "아사히가오카",
        "note": "National-Land Numerical Information (Railway) 2007, MLIT Japan",
        "note:ja": "国土数値情報（鉄道データ）平成19年　国土交通省",
        "operator": "仙台市交通局",
        "public_transport": "station",
        "railway": "station",
        "ref": "N04",
        "source": "KSJ2",
        "source_ref": "http://nlftp.mlit.go.jp/ksj/jpgis/datalist/KsjTmplt-N02-v1_1.html",
        "station": "subway",
        "wikidata": "Q4803383",
        "wikipedia": "ja:旭ヶ丘駅 (宮城県)"
      }
    },
    {
      "id": "miyagi_station_8035287748",
      "osmId": 8035287748,
      "osmType": "node",
      "prefectureId": "miyagi",
      "type": "station",
      "subtype": "subway",
      "name": "台原",
      "nameKana": null,
      "nameEn": "Dainohara",
      "operator": "仙台市交通局",
      "network": null,
      "ref": "N05",
      "latitude": 38.2883182,
      "longitude": 140.8783518,
      "countryCode": "jp",
      "rawTags": {
        "location": "underground",
        "name": "台原",
        "name:en": "Dainohara",
        "name:ja": "台原",
        "name:ja_rm": "Dainohara",
        "name:ko": "다이노하라",
        "note": "National-Land Numerical Information (Railway) 2007, MLIT Japan",
        "note:ja": "国土数値情報（鉄道データ）平成19年　国土交通省",
        "operator": "仙台市交通局",
        "public_transport": "station",
        "railway": "station",
        "ref": "N05",
        "source": "KSJ2",
        "source_ref": "http://nlftp.mlit.go.jp/ksj/jpgis/datalist/KsjTmplt-N02-v1_1.html",
        "station": "subway",
        "website": "https://www.kotsu.city.sendai.jp/subway/station/dainohara.html",
        "wikidata": "Q5209510",
        "wikipedia": "ja:台原駅"
      }
    },
    {
      "id": "miyagi_station_8035287749",
      "osmId": 8035287749,
      "osmType": "node",
      "prefectureId": "miyagi",
      "type": "station",
      "subtype": "subway",
      "name": "黒松",
      "nameKana": null,
      "nameEn": "Kuromatsu",
      "operator": "仙台市交通局",
      "network": null,
      "ref": "N03",
      "latitude": 38.3031116,
      "longitude": 140.8864206,
      "countryCode": "jp",
      "rawTags": {
        "level": "-1",
        "name": "黒松",
        "name:en": "Kuromatsu",
        "name:ja": "黒松",
        "name:ja_rm": "Kuromatsu",
        "name:ko": "구로마쓰",
        "note": "National-Land Numerical Information (Railway) 2007, MLIT Japan",
        "note:ja": "国土数値情報（鉄道データ）平成19年　国土交通省",
        "operator": "仙台市交通局",
        "public_transport": "station",
        "railway": "station",
        "ref": "N03",
        "source": "KSJ2",
        "source_ref": "http://nlftp.mlit.go.jp/ksj/jpgis/datalist/KsjTmplt-N02-v1_1.html",
        "station": "subway",
        "wheelchair": "yes",
        "wikidata": "Q6446346",
        "wikipedia": "ja:黒松駅 (宮城県)"
      }
    },
    {
      "id": "miyagi_station_8035287750",
      "osmId": 8035287750,
      "osmType": "node",
      "prefectureId": "miyagi",
      "type": "station",
      "subtype": "subway",
      "name": "八乙女",
      "nameKana": null,
      "nameEn": "Yaotome",
      "operator": "仙台市交通局",
      "network": null,
      "ref": "N02",
      "latitude": 38.3132059,
      "longitude": 140.8837798,
      "countryCode": "jp",
      "rawTags": {
        "level": "2",
        "name": "八乙女",
        "name:en": "Yaotome",
        "name:ja": "八乙女",
        "name:ja_rm": "Yaotome",
        "name:ko": "야오토메",
        "note": "National-Land Numerical Information (Railway) 2007, MLIT Japan",
        "note:ja": "国土数値情報（鉄道データ）平成19年　国土交通省",
        "operator": "仙台市交通局",
        "public_transport": "station",
        "railway": "station",
        "ref": "N02",
        "source": "KSJ2",
        "source_ref": "http://nlftp.mlit.go.jp/ksj/jpgis/datalist/KsjTmplt-N02-v1_1.html",
        "station": "subway",
        "wikidata": "Q8049075",
        "wikipedia": "ja:八乙女駅"
      }
    },
    {
      "id": "miyagi_station_8035287752",
      "osmId": 8035287752,
      "osmType": "node",
      "prefectureId": "miyagi",
      "type": "station",
      "subtype": "subway",
      "name": "富沢",
      "nameKana": null,
      "nameEn": "Tomizawa",
      "operator": "仙台市交通局",
      "network": null,
      "ref": "N17",
      "latitude": 38.2144503,
      "longitude": 140.870681,
      "countryCode": "jp",
      "rawTags": {
        "name": "富沢",
        "name:en": "Tomizawa",
        "name:ja": "富沢",
        "name:ja_rm": "Tomizawa",
        "name:ko": "도미자와",
        "note": "National-Land Numerical Information (Railway) 2007, MLIT Japan",
        "note:ja": "国土数値情報（鉄道データ）平成19年　国土交通省",
        "operator": "仙台市交通局",
        "public_transport": "station",
        "railway": "station",
        "ref": "N17",
        "source": "KSJ2",
        "source_ref": "http://nlftp.mlit.go.jp/ksj/jpgis/datalist/KsjTmplt-N02-v1_1.html",
        "station": "subway",
        "wikidata": "Q7818991",
        "wikipedia": "ja:富沢駅"
      }
    },
    {
      "id": "miyagi_bus_terminal_8163812218",
      "osmId": 8163812218,
      "osmType": "node",
      "prefectureId": "miyagi",
      "type": "bus_terminal",
      "subtype": null,
      "name": "仙台市交通局 実沢営業所",
      "nameKana": null,
      "nameEn": null,
      "operator": null,
      "network": null,
      "ref": null,
      "latitude": 38.3234451,
      "longitude": 140.8184126,
      "countryCode": "jp",
      "rawTags": {
        "amenity": "bus_station",
        "name": "仙台市交通局 実沢営業所"
      }
    },
    {
      "id": "miyagi_bus_terminal_8186550896",
      "osmId": 8186550896,
      "osmType": "node",
      "prefectureId": "miyagi",
      "type": "bus_terminal",
      "subtype": null,
      "name": "三本木",
      "nameKana": null,
      "nameEn": "Sanbongi PA",
      "operator": null,
      "network": null,
      "ref": null,
      "latitude": 38.515206,
      "longitude": 140.930356,
      "countryCode": "jp",
      "rawTags": {
        "amenity": "bus_station",
        "bus": "yes",
        "name": "三本木",
        "name:en": "Sanbongi PA",
        "public_transport": "station"
      }
    },
    {
      "id": "miyagi_station_8200260418",
      "osmId": 8200260418,
      "osmType": "node",
      "prefectureId": "miyagi",
      "type": "station",
      "subtype": "jr",
      "name": "石巻あゆみ野",
      "nameKana": null,
      "nameEn": "Ishinomakiayumino",
      "operator": "東日本旅客鉄道",
      "network": null,
      "ref": null,
      "latitude": 38.4360541,
      "longitude": 141.259292,
      "countryCode": "jp",
      "rawTags": {
        "name": "石巻あゆみ野",
        "name:en": "Ishinomakiayumino",
        "name:ja": "石巻あゆみ野",
        "operator": "東日本旅客鉄道",
        "public_transport": "station",
        "railway": "station",
        "wikidata": "Q18990335",
        "wikipedia": "ja:石巻あゆみ野駅"
      }
    },
    {
      "id": "miyagi_bus_terminal_8226600217",
      "osmId": 8226600217,
      "osmType": "node",
      "prefectureId": "miyagi",
      "type": "bus_terminal",
      "subtype": null,
      "name": "大和町バスターミナル",
      "nameKana": null,
      "nameEn": "Taiwacho Bus Terminal",
      "operator": null,
      "network": null,
      "ref": null,
      "latitude": 38.4381457,
      "longitude": 140.8861948,
      "countryCode": "jp",
      "rawTags": {
        "amenity": "bus_station",
        "bus": "yes",
        "name": "大和町バスターミナル",
        "name:en": "Taiwacho Bus Terminal",
        "public_transport": "station",
        "wikidata": "Q22124625",
        "wikipedia": "ja:大和町バスターミナル"
      }
    },
    {
      "id": "miyagi_bus_terminal_8226600720",
      "osmId": 8226600720,
      "osmType": "node",
      "prefectureId": "miyagi",
      "type": "bus_terminal",
      "subtype": null,
      "name": "ミヤコーバス 吉岡営業所",
      "nameKana": null,
      "nameEn": null,
      "operator": null,
      "network": null,
      "ref": null,
      "latitude": 38.4425859,
      "longitude": 140.8841159,
      "countryCode": "jp",
      "rawTags": {
        "amenity": "bus_station",
        "name": "ミヤコーバス 吉岡営業所",
        "wikidata": "Q11342543",
        "wikipedia": "ja:ミヤコーバス吉岡営業所"
      }
    },
    {
      "id": "miyagi_station_8663670921",
      "osmId": 8663670921,
      "osmType": "node",
      "prefectureId": "miyagi",
      "type": "station",
      "subtype": "private",
      "name": "上鹿折",
      "nameKana": "かみししおり",
      "nameEn": "Kami-Shishiori",
      "operator": null,
      "network": null,
      "ref": null,
      "latitude": 38.9602586,
      "longitude": 141.5668496,
      "countryCode": "jp",
      "rawTags": {
        "name": "上鹿折",
        "name:en": "Kami-Shishiori",
        "name:ja": "上鹿折",
        "name:ja-Hira": "かみししおり",
        "name:ja-Latn": "Kami-Shishiori",
        "name:ko": "가미시시오리",
        "name:zh": "上鹿折",
        "note": "JR東日本大船渡線のBRT区間に設置されている「駅」であり、鉄道事業法上の駅とは異なり、かつBRT区間の駅では唯一、自社による車両運行ならびに乗降設備配備が行われていない",
        "public_transport": "station",
        "railway": "station",
        "start_date": "1932-03-19",
        "train": "no",
        "wikidata": "Q6357193",
        "wikipedia": "ja:上鹿折駅"
      }
    },
    {
      "id": "miyagi_bus_terminal_8756931218",
      "osmId": 8756931218,
      "osmType": "node",
      "prefectureId": "miyagi",
      "type": "bus_terminal",
      "subtype": null,
      "name": "仙台市営バス 白沢出張所",
      "nameKana": null,
      "nameEn": null,
      "operator": null,
      "network": null,
      "ref": null,
      "latitude": 38.275321,
      "longitude": 140.7141274,
      "countryCode": "jp",
      "rawTags": {
        "amenity": "bus_station",
        "bus": "yes",
        "name": "仙台市営バス 白沢出張所",
        "public_transport": "station"
      }
    },
    {
      "id": "miyagi_ferry_terminal_8895963086",
      "osmId": 8895963086,
      "osmType": "node",
      "prefectureId": "miyagi",
      "type": "ferry_terminal",
      "subtype": null,
      "name": "離島航路ターミナル",
      "nameKana": null,
      "nameEn": null,
      "operator": null,
      "network": null,
      "ref": null,
      "latitude": 38.4426529,
      "longitude": 141.447546,
      "countryCode": "jp",
      "rawTags": {
        "amenity": "ferry_terminal",
        "ferry": "yes",
        "name": "離島航路ターミナル",
        "public_transport": "station"
      }
    },
    {
      "id": "miyagi_station_9319673478",
      "osmId": 9319673478,
      "osmType": "node",
      "prefectureId": "miyagi",
      "type": "station",
      "subtype": "jr",
      "name": "東新城",
      "nameKana": "ひがししんじょう",
      "nameEn": "Higashishinjō",
      "operator": "東日本旅客鉄道",
      "network": null,
      "ref": null,
      "latitude": 38.9047799,
      "longitude": 141.5490551,
      "countryCode": "jp",
      "rawTags": {
        "name": "東新城",
        "name:en": "Higashishinjō",
        "name:ja": "東新城",
        "name:ja-Hira": "ひがししんじょう",
        "name:zh": "东新城",
        "note": "JR東日本大船渡線のBRT区間に設置されている「駅」であり、鉄道事業法上の駅とは異なる",
        "operator": "東日本旅客鉄道",
        "operator:ja": "東日本旅客鉄道",
        "public_transport": "station",
        "railway": "station",
        "start_date": "2022-03-12",
        "train": "no",
        "wikidata": "Q112119300",
        "wikipedia": "ja:東新城駅"
      }
    },
    {
      "id": "miyagi_station_9319675879",
      "osmId": 9319675879,
      "osmType": "node",
      "prefectureId": "miyagi",
      "type": "station",
      "subtype": "jr",
      "name": "大谷まち",
      "nameKana": "おおやまち",
      "nameEn": "Ōyamachi",
      "operator": "東日本旅客鉄道",
      "network": null,
      "ref": null,
      "latitude": 38.8191507,
      "longitude": 141.5737808,
      "countryCode": "jp",
      "rawTags": {
        "name": "大谷まち",
        "name:en": "Ōyamachi",
        "name:ja": "大谷まち",
        "name:ja-Hira": "おおやまち",
        "name:zh": "大谷町",
        "note": "JR東日本大船渡線のBRT区間に設置されている「駅」であり、鉄道事業法上の駅とは異なる",
        "operator": "東日本旅客鉄道",
        "operator:ja": "東日本旅客鉄道",
        "public_transport": "station",
        "railway": "station",
        "shelter": "yes",
        "start_date": "2022-03-12",
        "train": "no",
        "wikidata": "Q112119235",
        "wikipedia": "ja:大谷まち駅"
      }
    },
    {
      "id": "miyagi_station_9319685068",
      "osmId": 9319685068,
      "osmType": "node",
      "prefectureId": "miyagi",
      "type": "station",
      "subtype": "jr",
      "name": "内湾入口（八日町）",
      "nameKana": "ないわんいりぐち（ようかまち）",
      "nameEn": "Naiwan-Iriguchi (Yōkamachi)",
      "operator": "東日本旅客鉄道",
      "network": null,
      "ref": null,
      "latitude": 38.9087468,
      "longitude": 141.5701398,
      "countryCode": "jp",
      "rawTags": {
        "name": "内湾入口（八日町）",
        "name:en": "Naiwan-Iriguchi (Yōkamachi)",
        "name:ja": "内湾入口（八日町）",
        "name:ja-Hira": "ないわんいりぐち（ようかまち）",
        "name:zh": "内湾入口（八日町）",
        "note": "JR東日本大船渡線のBRT区間に設置されている「駅」であり、鉄道事業法上の駅とは異なる",
        "operator": "東日本旅客鉄道",
        "operator:ja": "東日本旅客鉄道",
        "public_transport": "station",
        "railway": "station",
        "start_date": "2022-03-12",
        "train": "no",
        "wikidata": "Q111317958",
        "wikipedia": "ja:内湾入口（八日町）駅"
      }
    },
    {
      "id": "miyagi_ferry_terminal_10731859284",
      "osmId": 10731859284,
      "osmType": "node",
      "prefectureId": "miyagi",
      "type": "ferry_terminal",
      "subtype": null,
      "name": "桂島",
      "nameKana": null,
      "nameEn": null,
      "operator": "塩竈市営汽船",
      "network": null,
      "ref": null,
      "latitude": 38.3367413,
      "longitude": 141.0910053,
      "countryCode": "jp",
      "rawTags": {
        "amenity": "ferry_terminal",
        "ferry": "yes",
        "name": "桂島",
        "operator": "塩竈市営汽船",
        "public_transport": "station"
      }
    },
    {
      "id": "miyagi_ferry_terminal_10731859285",
      "osmId": 10731859285,
      "osmType": "node",
      "prefectureId": "miyagi",
      "type": "ferry_terminal",
      "subtype": null,
      "name": "石浜",
      "nameKana": null,
      "nameEn": null,
      "operator": "塩竈市営汽船",
      "network": null,
      "ref": null,
      "latitude": 38.3331568,
      "longitude": 141.1027099,
      "countryCode": "jp",
      "rawTags": {
        "amenity": "ferry_terminal",
        "ferry": "yes",
        "name": "石浜",
        "operator": "塩竈市営汽船",
        "public_transport": "station"
      }
    },
    {
      "id": "miyagi_station_11282257041",
      "osmId": 11282257041,
      "osmType": "node",
      "prefectureId": "miyagi",
      "type": "station",
      "subtype": "private",
      "name": "中山平温泉",
      "nameKana": null,
      "nameEn": "Nakayamadaira-Onsen",
      "operator": null,
      "network": null,
      "ref": null,
      "latitude": 38.7265345,
      "longitude": 140.6678724,
      "countryCode": "jp",
      "rawTags": {
        "KSJ2:LIN": "陸羽東線",
        "KSJ2:STN": "中山平温泉",
        "alt_name:ko": "나카야마다이라온센",
        "name": "中山平温泉",
        "name:en": "Nakayamadaira-Onsen",
        "name:ja": "中山平温泉",
        "name:ja_rm": "Nakayamadaira-Onsen",
        "name:ko": "나카야마다이라온천",
        "note": "National-Land Numerical Information (Railway) 2007, MLIT Japan",
        "note:ja": "国土数値情報（鉄道データ）平成19年　国土交通省",
        "public_transport": "station",
        "railway": "station",
        "source": "KSJ2",
        "source_ref": "http://nlftp.mlit.go.jp/ksj/jpgis/datalist/KsjTmplt-N02-v1_1.html",
        "wikidata": "Q1092594",
        "wikipedia": "ja:中山平温泉駅"
      }
    },
    {
      "id": "miyagi_station_13308218177",
      "osmId": 13308218177,
      "osmType": "node",
      "prefectureId": "miyagi",
      "type": "station",
      "subtype": "jr",
      "name": "志津川中央団地",
      "nameKana": "しづがわちゅうおうだんち",
      "nameEn": "Shizugawa-Chūōdanchi",
      "operator": "東日本旅客鉄道",
      "network": null,
      "ref": null,
      "latitude": 38.6839012,
      "longitude": 141.4503313,
      "countryCode": "jp",
      "rawTags": {
        "name": "志津川中央団地",
        "name:en": "Shizugawa-Chūōdanchi",
        "name:ja": "志津川中央団地",
        "name:ja-Hira": "しづがわちゅうおうだんち",
        "name:zh": "志津川中央团地",
        "note": "JR東日本大船渡線のBRT区間に設置されている「駅」であり、鉄道事業法上の駅とは異なる",
        "operator": "東日本旅客鉄道",
        "operator:ja": "東日本旅客鉄道",
        "public_transport": "station",
        "railway": "station",
        "shelter": "yes",
        "start_date": "2018-07-01",
        "train": "no",
        "wikidata": "Q55522218",
        "wikipedia": "ja:志津川中央団地駅"
      }
    },
    {
      "id": "miyagi_station_13308681531",
      "osmId": 13308681531,
      "osmType": "node",
      "prefectureId": "miyagi",
      "type": "station",
      "subtype": "jr",
      "name": "小金沢",
      "nameKana": "こがねざわ",
      "nameEn": "Koganezawa",
      "operator": "東日本旅客鉄道",
      "network": null,
      "ref": null,
      "latitude": 38.7991063,
      "longitude": 141.5373551,
      "countryCode": "jp",
      "rawTags": {
        "name": "小金沢",
        "name:en": "Koganezawa",
        "name:ja": "小金沢",
        "name:ja-Hira": "こがねざわ",
        "name:ko": "고가네자와",
        "name:zh": "小金泽",
        "name:zh-Hans": "小金泽",
        "name:zh-Hant": "小金澤",
        "note": "JR東日本大船渡線のBRT区間に設置されている「駅」であり、鉄道事業法上の駅とは異なる",
        "operator": "東日本旅客鉄道",
        "operator:ja": "東日本旅客鉄道",
        "public_transport": "station",
        "railway": "station",
        "shelter": "yes",
        "start_date": "2012-08-20",
        "train": "no",
        "wikidata": "Q7936844",
        "wikipedia": "ja:小金沢駅"
      }
    },
    {
      "id": "miyagi_station_13308681540",
      "osmId": 13308681540,
      "osmType": "node",
      "prefectureId": "miyagi",
      "type": "station",
      "subtype": "jr",
      "name": "岩月",
      "nameKana": "いわつき",
      "nameEn": "Iwatsuki",
      "operator": "東日本旅客鉄道",
      "network": null,
      "ref": null,
      "latitude": 38.8620424,
      "longitude": 141.5840295,
      "countryCode": "jp",
      "rawTags": {
        "name": "岩月",
        "name:en": "Iwatsuki",
        "name:ja": "岩月",
        "name:ja-Hira": "いわつき",
        "name:zh": "岩月",
        "note": "JR東日本大船渡線のBRT区間に設置されている「駅」であり、鉄道事業法上の駅とは異なる",
        "operator": "東日本旅客鉄道",
        "operator:ja": "東日本旅客鉄道",
        "public_transport": "station",
        "railway": "station",
        "shelter": "yes",
        "start_date": "2019-03-16",
        "train": "no",
        "wikidata": "Q60988290",
        "wikipedia": "ja:岩月駅"
      }
    },
    {
      "id": "miyagi_station_13310175987",
      "osmId": 13310175987,
      "osmType": "node",
      "prefectureId": "miyagi",
      "type": "station",
      "subtype": "jr",
      "name": "唐桑大沢",
      "nameKana": "からくわおおさわ",
      "nameEn": "Karakuwaōsawa",
      "operator": "東日本旅客鉄道",
      "network": null,
      "ref": null,
      "latitude": 38.9601601,
      "longitude": 141.6315495,
      "countryCode": "jp",
      "rawTags": {
        "name": "唐桑大沢",
        "name:en": "Karakuwaōsawa",
        "name:ja": "唐桑大沢",
        "name:ja-Hira": "からくわおおさわ",
        "name:zh": "唐桑大泽",
        "note": "JR東日本大船渡線のBRT区間に設置されている「駅」であり、鉄道事業法上の駅とは異なる",
        "operator": "東日本旅客鉄道",
        "operator:ja": "東日本旅客鉄道",
        "public_transport": "station",
        "railway": "station",
        "start_date": "2019-03-16",
        "train": "no",
        "wikidata": "Q60988305",
        "wikipedia": "ja:唐桑大沢駅"
      }
    },
    {
      "id": "miyagi_station_13310205942",
      "osmId": 13310205942,
      "osmType": "node",
      "prefectureId": "miyagi",
      "type": "station",
      "subtype": "jr",
      "name": "八幡大橋（東陵高校）",
      "nameKana": "はちまんおおはし（とうりょうこうこう）",
      "nameEn": "Hachiman-Ōhashi（Tōryō High School)",
      "operator": "東日本旅客鉄道",
      "network": null,
      "ref": null,
      "latitude": 38.9209071,
      "longitude": 141.5852444,
      "countryCode": "jp",
      "rawTags": {
        "name": "八幡大橋（東陵高校）",
        "name:en": "Hachiman-Ōhashi（Tōryō High School)",
        "name:ja": "八幡大橋（東陵高校）",
        "name:ja-Hira": "はちまんおおはし（とうりょうこうこう）",
        "name:ko": "하치만오하시 (도료코코)",
        "note": "JR東日本大船渡線のBRT区間に設置されている「駅」であり、鉄道事業法上の駅とは異なる",
        "operator": "東日本旅客鉄道",
        "operator:ja": "東日本旅客鉄道",
        "public_transport": "station",
        "railway": "station",
        "start_date": "2017-04-01",
        "train": "no",
        "wikidata": "Q28688830",
        "wikipedia": "ja:八幡大橋（東陵高校）駅"
      }
    },
    {
      "id": "miyagi_airport_57008836",
      "osmId": 57008836,
      "osmType": "way",
      "prefectureId": "miyagi",
      "type": "airport",
      "subtype": "domestic",
      "name": "仙台空港",
      "nameKana": "せんだいくうこう",
      "nameEn": "Sendai Airport",
      "operator": null,
      "network": null,
      "ref": "SDJ",
      "latitude": 38.1377873,
      "longitude": 140.9144251,
      "countryCode": "jp",
      "rawTags": {
        "KSJ2:AAC": "04207",
        "KSJ2:AAC_label": "宮城県名取市",
        "KSJ2:AD2": "1",
        "KSJ2:AD2_label": "国土交通大臣",
        "KSJ2:ARP": "38.1397222222 140.9169444444",
        "KSJ2:ATB": "38.1381666700 140.9292500000",
        "KSJ2:CLT": "21 30",
        "KSJ2:COA": "空港整備法に基づく第二種空港",
        "KSJ2:CompositeCurve": "cv23Airport",
        "KSJ2:DSA": "周辺整備空港に指定されていない特定飛行場",
        "KSJ2:INP": "1",
        "KSJ2:INP_label": "国土交通大臣",
        "KSJ2:IUC": "供用中",
        "KSJ2:NA3": "仙台空港",
        "KSJ2:OPT": "07 30",
        "KSJ2:REF": "1",
        "KSJ2:REF_label": "ジェット定期便が就航している場合",
        "KSJ2:airport_id": "cf02_24",
        "KSJ2:runways": "1200 45,3000 45",
        "addr:block_number": "無番地",
        "addr:city": "名取市",
        "addr:neighbourhood": "字南原",
        "addr:postcode": "989-2401",
        "addr:province": "宮城県",
        "addr:quarter": "下増田",
        "aeroway": "aerodrome",
        "iata": "SDJ",
        "icao": "RJSS",
        "name": "仙台空港",
        "name:en": "Sendai Airport",
        "name:ja": "仙台空港",
        "name:ja-Hira": "せんだいくうこう",
        "name:ko": "센다이공항",
        "name:zh-Hant-TW": "仙台機場",
        "note": "National-Land Numerical Information (Airport) 2007, MLIT Japan",
        "note:ja": "国土数値情報（空港データ）平成19年　国土交通省",
        "phone": "+81 22 382 0080",
        "source": "KSJ2",
        "source_ref": "http://nlftp.mlit.go.jp/ksj/jpgis/datalist/KsjTmplt-C28-v1_1.html",
        "website": "https://www.sendai-airport.co.jp/",
        "wikidata": "Q1054857",
        "wikipedia": "ja:仙台空港"
      }
    },
    {
      "id": "miyagi_airport_79514556",
      "osmId": 79514556,
      "osmType": "way",
      "prefectureId": "miyagi",
      "type": "airport",
      "subtype": "military",
      "name": "霞目飛行場",
      "nameKana": null,
      "nameEn": "Kasuminome Airfield",
      "operator": null,
      "network": null,
      "ref": "RJSU",
      "latitude": 38.2346807,
      "longitude": 140.9205816,
      "countryCode": "jp",
      "rawTags": {
        "addr:block_number": "1",
        "addr:city": "仙台市",
        "addr:housenumber": "1",
        "addr:neighbourhood": "一丁目",
        "addr:postcode": "984-0035",
        "addr:province": "宮城県",
        "addr:quarter": "霞目",
        "addr:suburb": "若林区",
        "aeroway": "aerodrome",
        "icao": "RJSU",
        "landuse": "military",
        "military": "airfield",
        "name": "霞目飛行場",
        "name:en": "Kasuminome Airfield",
        "name:ja": "霞目飛行場",
        "wikidata": "Q6374904",
        "wikipedia": "en:Kasuminome Air Field"
      }
    },
    {
      "id": "miyagi_bus_terminal_421576774",
      "osmId": 421576774,
      "osmType": "way",
      "prefectureId": "miyagi",
      "type": "bus_terminal",
      "subtype": null,
      "name": "ミヤコーバス佐沼営業所",
      "nameKana": null,
      "nameEn": null,
      "operator": null,
      "network": null,
      "ref": null,
      "latitude": 38.6899842,
      "longitude": 141.1901737,
      "countryCode": "jp",
      "rawTags": {
        "amenity": "bus_station",
        "building": "yes",
        "bus": "yes",
        "name": "ミヤコーバス佐沼営業所",
        "public_transport": "station"
      }
    },
    {
      "id": "miyagi_ferry_terminal_424708960",
      "osmId": 424708960,
      "osmType": "way",
      "prefectureId": "miyagi",
      "type": "ferry_terminal",
      "subtype": null,
      "name": "仙台港フェリーターミナルビル",
      "nameKana": null,
      "nameEn": "Sendai Port Ferry Terminal Building",
      "operator": null,
      "network": null,
      "ref": null,
      "latitude": 38.2743596,
      "longitude": 141.0054313,
      "countryCode": "jp",
      "rawTags": {
        "addr:block_number": "7",
        "addr:city": "仙台市",
        "addr:district": "宮城野区",
        "addr:housenumber": "1",
        "addr:neighbourhood": "港三丁目",
        "addr:postcode": "983-0001",
        "addr:province": "宮城県",
        "addr:suburb": "宮城野区",
        "amenity": "ferry_terminal",
        "building": "yes",
        "ferry": "yes",
        "name": "仙台港フェリーターミナルビル",
        "name:en": "Sendai Port Ferry Terminal Building",
        "name:ja": "仙台港フェリーターミナルビル",
        "phone": "+81 22 259 0211",
        "public_transport": "station",
        "website": "https://www.miyagi-ferry.or.jp/"
      }
    },
    {
      "id": "miyagi_airport_1078163947",
      "osmId": 1078163947,
      "osmType": "way",
      "prefectureId": "miyagi",
      "type": "airport",
      "subtype": "domestic",
      "name": "瀬峰場外離着陸場",
      "nameKana": null,
      "nameEn": "Semine Airfield",
      "operator": "村上商会",
      "network": null,
      "ref": null,
      "latitude": 38.6800803,
      "longitude": 141.0217558,
      "countryCode": "jp",
      "rawTags": {
        "addr:block_number": "232",
        "addr:city": "栗原市",
        "addr:neighbourhood": "小深沢",
        "addr:postcode": "989-4504",
        "addr:province": "宮城県",
        "addr:quarter": "瀬峰",
        "aeroway": "aerodrome",
        "name": "瀬峰場外離着陸場",
        "name:en": "Semine Airfield",
        "name:es": "Aeródromo de Semine",
        "name:ja": "瀬峰飛行場",
        "operator": "村上商会",
        "operator:type": "private"
      }
    }
  ]
}