{
  "fetchedAt": "2025-12-12T05:39:02.250Z",
  "prefectureId": "miyazaki",
  "prefectureName": "宮崎県",
  "stats": {
    "station": 77,
    "airport": 2,
    "ferry_terminal": 1,
    "bus_terminal": 15,
    "total": 95
  },
  "data": [
    {
      "id": "miyazaki_station_265840163",
      "osmId": 265840163,
      "osmType": "node",
      "prefectureId": "miyazaki",
      "type": "station",
      "subtype": "jr",
      "name": "北郷",
      "nameKana": null,
      "nameEn": "Kitagō",
      "operator": "九州旅客鉄道",
      "network": "JR日南線",
      "ref": null,
      "latitude": 31.6781426,
      "longitude": 131.3736336,
      "countryCode": "jp",
      "rawTags": {
        "KSJ2:LIN": "日南線",
        "KSJ2:STN": "北郷",
        "name": "北郷",
        "name:en": "Kitagō",
        "name:ja": "北郷",
        "name:ko": "기타고",
        "network": "JR日南線",
        "note": "National-Land Numerical Information (Railway) 2007, MLIT Japan",
        "note:ja": "国土数値情報（鉄道データ）平成19年　国土交通省",
        "operator": "九州旅客鉄道",
        "public_transport": "station",
        "railway": "station",
        "source": "KSJ2",
        "source_ref": "http://nlftp.mlit.go.jp/ksj/jpgis/datalist/KsjTmplt-N02-v1_1.html",
        "wikidata": "Q6417713",
        "wikipedia": "ja:北郷駅"
      }
    },
    {
      "id": "miyazaki_station_265840173",
      "osmId": 265840173,
      "osmType": "node",
      "prefectureId": "miyazaki",
      "type": "station",
      "subtype": "jr",
      "name": "伊比井",
      "nameKana": null,
      "nameEn": "Ibii",
      "operator": "九州旅客鉄道",
      "network": "JR日南線",
      "ref": null,
      "latitude": 31.7110111,
      "longitude": 131.4561455,
      "countryCode": "jp",
      "rawTags": {
        "KSJ2:LIN": "日南線",
        "KSJ2:STN": "伊比井",
        "name": "伊比井",
        "name:en": "Ibii",
        "name:ja": "伊比井",
        "name:ko": "이비이",
        "network": "JR日南線",
        "note": "National-Land Numerical Information (Railway) 2007, MLIT Japan",
        "note:ja": "国土数値情報（鉄道データ）平成19年　国土交通省",
        "operator": "九州旅客鉄道",
        "public_transport": "station",
        "railway": "station",
        "source": "KSJ2",
        "source_ref": "http://nlftp.mlit.go.jp/ksj/jpgis/datalist/KsjTmplt-N02-v1_1.html",
        "wikidata": "Q5984052",
        "wikipedia": "ja:伊比井駅"
      }
    },
    {
      "id": "miyazaki_station_265840178",
      "osmId": 265840178,
      "osmType": "node",
      "prefectureId": "miyazaki",
      "type": "station",
      "subtype": "jr",
      "name": "福島今町",
      "nameKana": null,
      "nameEn": "Fukushima-Imamachi",
      "operator": "九州旅客鉄道",
      "network": "JR日南線",
      "ref": null,
      "latitude": 31.4569028,
      "longitude": 131.2033174,
      "countryCode": "jp",
      "rawTags": {
        "KSJ2:LIN": "日南線",
        "KSJ2:STN": "福島今町",
        "name": "福島今町",
        "name:en": "Fukushima-Imamachi",
        "name:ja": "福島今町",
        "name:ko": "후쿠시마이마마치",
        "network": "JR日南線",
        "note": "National-Land Numerical Information (Railway) 2007, MLIT Japan",
        "note:ja": "国土数値情報（鉄道データ）平成19年　国土交通省",
        "operator": "九州旅客鉄道",
        "public_transport": "station",
        "railway": "station",
        "source": "KSJ2",
        "source_ref": "http://nlftp.mlit.go.jp/ksj/jpgis/datalist/KsjTmplt-N02-v1_1.html",
        "wikidata": "Q5507717",
        "wikipedia": "ja:福島今町駅"
      }
    },
    {
      "id": "miyazaki_station_265840182",
      "osmId": 265840182,
      "osmType": "node",
      "prefectureId": "miyazaki",
      "type": "station",
      "subtype": "jr",
      "name": "大堂津",
      "nameKana": null,
      "nameEn": "Ōdōtsu",
      "operator": "九州旅客鉄道",
      "network": "JR日南線",
      "ref": null,
      "latitude": 31.5570545,
      "longitude": 131.3823226,
      "countryCode": "jp",
      "rawTags": {
        "KSJ2:LIN": "日南線",
        "KSJ2:STN": "大堂津",
        "name": "大堂津",
        "name:en": "Ōdōtsu",
        "name:ja": "大堂津",
        "name:ko": "오도쓰",
        "network": "JR日南線",
        "note": "National-Land Numerical Information (Railway) 2007, MLIT Japan",
        "note:ja": "国土数値情報（鉄道データ）平成19年　国土交通省",
        "operator": "九州旅客鉄道",
        "public_transport": "station",
        "railway": "station",
        "source": "KSJ2",
        "source_ref": "http://nlftp.mlit.go.jp/ksj/jpgis/datalist/KsjTmplt-N02-v1_1.html",
        "wikidata": "Q8081443",
        "wikipedia": "ja:大堂津駅"
      }
    },
    {
      "id": "miyazaki_station_265840237",
      "osmId": 265840237,
      "osmType": "node",
      "prefectureId": "miyazaki",
      "type": "station",
      "subtype": "private",
      "name": "木花",
      "nameKana": null,
      "nameEn": "Kibana",
      "operator": null,
      "network": null,
      "ref": null,
      "latitude": 31.8314754,
      "longitude": 131.4367719,
      "countryCode": "jp",
      "rawTags": {
        "KSJ2:LIN": "日南線",
        "KSJ2:STN": "木花",
        "name": "木花",
        "name:en": "Kibana",
        "name:ja": "木花",
        "name:ko": "기바나",
        "note": "National-Land Numerical Information (Railway) 2007, MLIT Japan",
        "note:ja": "国土数値情報（鉄道データ）平成19年　国土交通省",
        "railway": "station",
        "source": "KSJ2",
        "source_ref": "http://nlftp.mlit.go.jp/ksj/jpgis/datalist/KsjTmplt-N02-v1_1.html",
        "wikidata": "Q6403946",
        "wikipedia": "ja:木花駅"
      }
    },
    {
      "id": "miyazaki_station_265840399",
      "osmId": 265840399,
      "osmType": "node",
      "prefectureId": "miyazaki",
      "type": "station",
      "subtype": "jr",
      "name": "子供の国",
      "nameKana": null,
      "nameEn": "Kodomonokuni",
      "operator": "九州旅客鉄道",
      "network": "JR日南線",
      "ref": null,
      "latitude": 31.8072738,
      "longitude": 131.4570693,
      "countryCode": "jp",
      "rawTags": {
        "KSJ2:LIN": "日南線",
        "KSJ2:STN": "子供の国",
        "name": "子供の国",
        "name:en": "Kodomonokuni",
        "name:ja": "子供の国",
        "name:ko": "고도모노쿠니",
        "network": "JR日南線",
        "note": "National-Land Numerical Information (Railway) 2007, MLIT Japan",
        "note:ja": "国土数値情報（鉄道データ）平成19年　国土交通省",
        "operator": "九州旅客鉄道",
        "public_transport": "station",
        "railway": "station",
        "source": "KSJ2",
        "source_ref": "http://nlftp.mlit.go.jp/ksj/jpgis/datalist/KsjTmplt-N02-v1_1.html",
        "wikidata": "Q6425422",
        "wikipedia": "ja:子供の国駅"
      }
    },
    {
      "id": "miyazaki_station_265840403",
      "osmId": 265840403,
      "osmType": "node",
      "prefectureId": "miyazaki",
      "type": "station",
      "subtype": "jr",
      "name": "内之田",
      "nameKana": null,
      "nameEn": "Uchinoda",
      "operator": "九州旅客鉄道",
      "network": "JR日南線",
      "ref": null,
      "latitude": 31.64257,
      "longitude": 131.372654,
      "countryCode": "jp",
      "rawTags": {
        "KSJ2:LIN": "日南線",
        "KSJ2:STN": "内之田",
        "name": "内之田",
        "name:en": "Uchinoda",
        "name:ja": "内之田",
        "name:ko": "우치노다",
        "network": "JR日南線",
        "note": "National-Land Numerical Information (Railway) 2007, MLIT Japan",
        "note:ja": "国土数値情報（鉄道データ）平成19年　国土交通省",
        "operator": "九州旅客鉄道",
        "public_transport": "station",
        "railway": "station",
        "source": "KSJ2",
        "source_ref": "http://nlftp.mlit.go.jp/ksj/jpgis/datalist/KsjTmplt-N02-v1_1.html",
        "wikidata": "Q7876733",
        "wikipedia": "ja:内之田駅"
      }
    },
    {
      "id": "miyazaki_station_265840406",
      "osmId": 265840406,
      "osmType": "node",
      "prefectureId": "miyazaki",
      "type": "station",
      "subtype": "jr",
      "name": "谷之口",
      "nameKana": null,
      "nameEn": "Taninokuchi",
      "operator": "九州旅客鉄道",
      "network": "JR日南線",
      "ref": null,
      "latitude": 31.5337292,
      "longitude": 131.3446722,
      "countryCode": "jp",
      "rawTags": {
        "KSJ2:LIN": "日南線",
        "KSJ2:STN": "谷之口",
        "name": "谷之口",
        "name:en": "Taninokuchi",
        "name:ja": "谷之口",
        "name:ko": "다니노쿠치",
        "network": "JR日南線",
        "note": "National-Land Numerical Information (Railway) 2007, MLIT Japan",
        "note:ja": "国土数値情報（鉄道データ）平成19年　国土交通省",
        "operator": "九州旅客鉄道",
        "public_transport": "station",
        "railway": "station",
        "source": "KSJ2",
        "source_ref": "http://nlftp.mlit.go.jp/ksj/jpgis/datalist/KsjTmplt-N02-v1_1.html",
        "wikidata": "Q7683316",
        "wikipedia": "ja:谷之口駅"
      }
    },
    {
      "id": "miyazaki_station_265840453",
      "osmId": 265840453,
      "osmType": "node",
      "prefectureId": "miyazaki",
      "type": "station",
      "subtype": "jr",
      "name": "日向北方",
      "nameKana": null,
      "nameEn": "Hyūga-Kitakata",
      "operator": "九州旅客鉄道",
      "network": "JR日南線",
      "ref": null,
      "latitude": 31.4833201,
      "longitude": 131.2433335,
      "countryCode": "jp",
      "rawTags": {
        "KSJ2:LIN": "日南線",
        "KSJ2:STN": "日向北方",
        "name": "日向北方",
        "name:en": "Hyūga-Kitakata",
        "name:ja": "日向北方",
        "name:ko": "휴가키타카타",
        "network": "JR日南線",
        "note": "National-Land Numerical Information (Railway) 2007, MLIT Japan",
        "note:ja": "国土数値情報（鉄道データ）平成19年　国土交通省",
        "operator": "九州旅客鉄道",
        "public_transport": "station",
        "railway": "station",
        "source": "KSJ2",
        "source_ref": "http://nlftp.mlit.go.jp/ksj/jpgis/datalist/KsjTmplt-N02-v1_1.html",
        "wikidata": "Q5962820",
        "wikipedia": "ja:日向北方駅"
      }
    },
    {
      "id": "miyazaki_station_265840465",
      "osmId": 265840465,
      "osmType": "node",
      "prefectureId": "miyazaki",
      "type": "station",
      "subtype": "jr",
      "name": "飫肥",
      "nameKana": null,
      "nameEn": "Obi",
      "operator": "九州旅客鉄道",
      "network": "JR日南線",
      "ref": null,
      "latitude": 31.6273825,
      "longitude": 131.3619584,
      "countryCode": "jp",
      "rawTags": {
        "KSJ2:LIN": "日南線",
        "KSJ2:STN": "飫肥",
        "name": "飫肥",
        "name:en": "Obi",
        "name:ja": "飫肥",
        "name:ko": "오비",
        "network": "JR日南線",
        "note": "National-Land Numerical Information (Railway) 2007, MLIT Japan",
        "note:ja": "国土数値情報（鉄道データ）平成19年　国土交通省",
        "operator": "九州旅客鉄道",
        "public_transport": "station",
        "railway": "station",
        "source": "KSJ2",
        "source_ref": "http://nlftp.mlit.go.jp/ksj/jpgis/datalist/KsjTmplt-N02-v1_1.html",
        "wikidata": "Q7074922",
        "wikipedia": "ja:飫肥駅"
      }
    },
    {
      "id": "miyazaki_station_265840695",
      "osmId": 265840695,
      "osmType": "node",
      "prefectureId": "miyazaki",
      "type": "station",
      "subtype": "jr",
      "name": "日南",
      "nameKana": null,
      "nameEn": "Nichinan",
      "operator": "九州旅客鉄道",
      "network": "JR日南線",
      "ref": null,
      "latitude": 31.6031361,
      "longitude": 131.3812045,
      "countryCode": "jp",
      "rawTags": {
        "KSJ2:LIN": "日南線",
        "KSJ2:STN": "日南",
        "name": "日南",
        "name:en": "Nichinan",
        "name:ja": "日南",
        "name:ko": "니치난",
        "network": "JR日南線",
        "note": "National-Land Numerical Information (Railway) 2007, MLIT Japan",
        "note:ja": "国土数値情報（鉄道データ）平成19年　国土交通省",
        "operator": "九州旅客鉄道",
        "public_transport": "station",
        "railway": "station",
        "source": "KSJ2",
        "source_ref": "http://nlftp.mlit.go.jp/ksj/jpgis/datalist/KsjTmplt-N02-v1_1.html",
        "wikidata": "Q7024855",
        "wikipedia": "ja:日南駅"
      }
    },
    {
      "id": "miyazaki_station_265840829",
      "osmId": 265840829,
      "osmType": "node",
      "prefectureId": "miyazaki",
      "type": "station",
      "subtype": "jr",
      "name": "小内海",
      "nameKana": null,
      "nameEn": "Kouchiumi",
      "operator": "九州旅客鉄道",
      "network": "JR日南線",
      "ref": null,
      "latitude": 31.7377864,
      "longitude": 131.4658756,
      "countryCode": "jp",
      "rawTags": {
        "KSJ2:LIN": "日南線",
        "KSJ2:STN": "小内海",
        "name": "小内海",
        "name:en": "Kouchiumi",
        "name:ja": "小内海",
        "name:ko": "고치우미",
        "network": "JR日南線",
        "note": "National-Land Numerical Information (Railway) 2007, MLIT Japan",
        "note:ja": "国土数値情報（鉄道データ）平成19年　国土交通省",
        "operator": "九州旅客鉄道",
        "public_transport": "station",
        "railway": "station",
        "source": "KSJ2",
        "source_ref": "http://nlftp.mlit.go.jp/ksj/jpgis/datalist/KsjTmplt-N02-v1_1.html",
        "wikidata": "Q6434466",
        "wikipedia": "ja:小内海駅"
      }
    },
    {
      "id": "miyazaki_station_265841028",
      "osmId": 265841028,
      "osmType": "node",
      "prefectureId": "miyazaki",
      "type": "station",
      "subtype": "jr",
      "name": "南方",
      "nameKana": null,
      "nameEn": "Minamikata",
      "operator": "九州旅客鉄道",
      "network": "JR日南線",
      "ref": null,
      "latitude": 31.8592747,
      "longitude": 131.4345818,
      "countryCode": "jp",
      "rawTags": {
        "KSJ2:LIN": "日南線",
        "KSJ2:STN": "南方",
        "name": "南方",
        "name:en": "Minamikata",
        "name:ja": "南方",
        "name:ko": "미나미카타",
        "network": "JR日南線",
        "note": "National-Land Numerical Information (Railway) 2007, MLIT Japan",
        "note:ja": "国土数値情報（鉄道データ）平成19年　国土交通省",
        "operator": "九州旅客鉄道",
        "public_transport": "station",
        "railway": "station",
        "source": "KSJ2",
        "source_ref": "http://nlftp.mlit.go.jp/ksj/jpgis/datalist/KsjTmplt-N02-v1_1.html",
        "wikidata": "Q6863075",
        "wikipedia": "ja:南方駅 (宮崎県)"
      }
    },
    {
      "id": "miyazaki_station_265841035",
      "osmId": 265841035,
      "osmType": "node",
      "prefectureId": "miyazaki",
      "type": "station",
      "subtype": "jr",
      "name": "青島",
      "nameKana": null,
      "nameEn": "Aoshima",
      "operator": "九州旅客鉄道",
      "network": "JR日南線",
      "ref": null,
      "latitude": 31.7997348,
      "longitude": 131.4670192,
      "countryCode": "jp",
      "rawTags": {
        "KSJ2:LIN": "日南線",
        "KSJ2:STN": "青島",
        "name": "青島",
        "name:en": "Aoshima",
        "name:ja": "青島",
        "name:ko": "아오시마",
        "network": "JR日南線",
        "note": "National-Land Numerical Information (Railway) 2007, MLIT Japan",
        "note:ja": "国土数値情報（鉄道データ）平成19年　国土交通省",
        "operator": "九州旅客鉄道",
        "public_transport": "station",
        "railway": "station",
        "source": "KSJ2",
        "source_ref": "http://nlftp.mlit.go.jp/ksj/jpgis/datalist/KsjTmplt-N02-v1_1.html",
        "wikidata": "Q4778783",
        "wikipedia": "ja:青島駅"
      }
    },
    {
      "id": "miyazaki_station_265841049",
      "osmId": 265841049,
      "osmType": "node",
      "prefectureId": "miyazaki",
      "type": "station",
      "subtype": "jr",
      "name": "串間",
      "nameKana": null,
      "nameEn": "Kushima",
      "operator": "九州旅客鉄道",
      "network": "JR日南線",
      "ref": null,
      "latitude": 31.4628354,
      "longitude": 131.2305132,
      "countryCode": "jp",
      "rawTags": {
        "KSJ2:LIN": "日南線",
        "KSJ2:STN": "串間",
        "name": "串間",
        "name:en": "Kushima",
        "name:ja": "串間",
        "name:ko": "구시마",
        "network": "JR日南線",
        "note": "National-Land Numerical Information (Railway) 2007, MLIT Japan",
        "note:ja": "国土数値情報（鉄道データ）平成19年　国土交通省",
        "operator": "九州旅客鉄道",
        "public_transport": "station",
        "railway": "station",
        "source": "KSJ2",
        "source_ref": "http://nlftp.mlit.go.jp/ksj/jpgis/datalist/KsjTmplt-N02-v1_1.html",
        "wikidata": "Q6447950",
        "wikipedia": "ja:串間駅"
      }
    },
    {
      "id": "miyazaki_station_265841051",
      "osmId": 265841051,
      "osmType": "node",
      "prefectureId": "miyazaki",
      "type": "station",
      "subtype": "jr",
      "name": "油津",
      "nameKana": null,
      "nameEn": "Aburatsu",
      "operator": "九州旅客鉄道",
      "network": "JR日南線",
      "ref": null,
      "latitude": 31.5867567,
      "longitude": 131.3962637,
      "countryCode": "jp",
      "rawTags": {
        "KSJ2:LIN": "日南線",
        "KSJ2:STN": "油津",
        "addr:city": "日南市",
        "addr:province": "宮崎県",
        "name": "油津",
        "name:en": "Aburatsu",
        "name:ja": "油津",
        "name:ko": "아부라쓰",
        "network": "JR日南線",
        "note": "National-Land Numerical Information (Railway) 2007, MLIT Japan",
        "note:ja": "国土数値情報（鉄道データ）平成19年　国土交通省",
        "operator": "九州旅客鉄道",
        "public_transport": "station",
        "railway": "station",
        "source": "KSJ2",
        "source_ref": "http://nlftp.mlit.go.jp/ksj/jpgis/datalist/KsjTmplt-N02-v1_1.html",
        "start_date": "1937-04-19",
        "train": "yes",
        "wikidata": "Q4670658",
        "wikipedia": "ja:油津駅"
      }
    },
    {
      "id": "miyazaki_station_265841065",
      "osmId": 265841065,
      "osmType": "node",
      "prefectureId": "miyazaki",
      "type": "station",
      "subtype": "jr",
      "name": "南郷",
      "nameKana": null,
      "nameEn": "Nangō",
      "operator": "九州旅客鉄道",
      "network": "JR日南線",
      "ref": null,
      "latitude": 31.5360072,
      "longitude": 131.3726464,
      "countryCode": "jp",
      "rawTags": {
        "KSJ2:LIN": "日南線",
        "KSJ2:STN": "南郷",
        "name": "南郷",
        "name:en": "Nangō",
        "name:ja": "南郷",
        "name:ko": "난고",
        "network": "JR日南線",
        "note": "National-Land Numerical Information (Railway) 2007, MLIT Japan",
        "note:ja": "国土数値情報（鉄道データ）平成19年　国土交通省",
        "operator": "九州旅客鉄道",
        "public_transport": "station",
        "railway": "station",
        "source": "KSJ2",
        "source_ref": "http://nlftp.mlit.go.jp/ksj/jpgis/datalist/KsjTmplt-N02-v1_1.html",
        "wikidata": "Q6963566",
        "wikipedia": "ja:南郷駅"
      }
    },
    {
      "id": "miyazaki_station_265841069",
      "osmId": 265841069,
      "osmType": "node",
      "prefectureId": "miyazaki",
      "type": "station",
      "subtype": "jr",
      "name": "折生迫",
      "nameKana": null,
      "nameEn": "Oryūzako",
      "operator": "九州旅客鉄道",
      "network": "JR日南線",
      "ref": null,
      "latitude": 31.7895063,
      "longitude": 131.4675091,
      "countryCode": "jp",
      "rawTags": {
        "KSJ2:LIN": "日南線",
        "KSJ2:STN": "折生迫",
        "name": "折生迫",
        "name:en": "Oryūzako",
        "name:ja": "折生迫",
        "name:ko": "오류자코",
        "network": "JR日南線",
        "note": "National-Land Numerical Information (Railway) 2007, MLIT Japan",
        "note:ja": "国土数値情報（鉄道データ）平成19年　国土交通省",
        "operator": "九州旅客鉄道",
        "public_transport": "station",
        "railway": "station",
        "source": "KSJ2",
        "source_ref": "http://nlftp.mlit.go.jp/ksj/jpgis/datalist/KsjTmplt-N02-v1_1.html",
        "wikidata": "Q7105336",
        "wikipedia": "ja:折生迫駅"
      }
    },
    {
      "id": "miyazaki_station_265841081",
      "osmId": 265841081,
      "osmType": "node",
      "prefectureId": "miyazaki",
      "type": "station",
      "subtype": "jr",
      "name": "榎原",
      "nameKana": null,
      "nameEn": "Yowara",
      "operator": "九州旅客鉄道",
      "network": "JR日南線",
      "ref": null,
      "latitude": 31.5347974,
      "longitude": 131.3064175,
      "countryCode": "jp",
      "rawTags": {
        "KSJ2:LIN": "日南線",
        "KSJ2:STN": "榎原",
        "name": "榎原",
        "name:en": "Yowara",
        "name:ja": "榎原",
        "name:ko": "요와라",
        "network": "JR日南線",
        "note": "National-Land Numerical Information (Railway) 2007, MLIT Japan",
        "note:ja": "国土数値情報（鉄道データ）平成19年　国土交通省",
        "operator": "九州旅客鉄道",
        "public_transport": "station",
        "railway": "station",
        "source": "KSJ2",
        "source_ref": "http://nlftp.mlit.go.jp/ksj/jpgis/datalist/KsjTmplt-N02-v1_1.html",
        "wikidata": "Q8059410",
        "wikipedia": "ja:榎原駅"
      }
    },
    {
      "id": "miyazaki_station_265841135",
      "osmId": 265841135,
      "osmType": "node",
      "prefectureId": "miyazaki",
      "type": "station",
      "subtype": "jr",
      "name": "曽山寺",
      "nameKana": null,
      "nameEn": "Sosanji",
      "operator": "九州旅客鉄道",
      "network": "JR日南線",
      "ref": null,
      "latitude": 31.8133583,
      "longitude": 131.4483391,
      "countryCode": "jp",
      "rawTags": {
        "KSJ2:LIN": "日南線",
        "KSJ2:STN": "曽山寺",
        "name": "曽山寺",
        "name:en": "Sosanji",
        "name:ja": "曽山寺",
        "name:ko": "소산지",
        "network": "JR日南線",
        "note": "National-Land Numerical Information (Railway) 2007, MLIT Japan",
        "note:ja": "国土数値情報（鉄道データ）平成19年　国土交通省",
        "operator": "九州旅客鉄道",
        "public_transport": "station",
        "railway": "station",
        "source": "KSJ2",
        "source_ref": "http://nlftp.mlit.go.jp/ksj/jpgis/datalist/KsjTmplt-N02-v1_1.html",
        "wikidata": "Q7563827",
        "wikipedia": "ja:曽山寺駅"
      }
    },
    {
      "id": "miyazaki_station_265841271",
      "osmId": 265841271,
      "osmType": "node",
      "prefectureId": "miyazaki",
      "type": "station",
      "subtype": "jr",
      "name": "日向大束",
      "nameKana": null,
      "nameEn": "Hyūga-Ōtsuka",
      "operator": "九州旅客鉄道",
      "network": "JR日南線",
      "ref": null,
      "latitude": 31.5106775,
      "longitude": 131.248623,
      "countryCode": "jp",
      "rawTags": {
        "KSJ2:LIN": "日南線",
        "KSJ2:STN": "日向大束",
        "name": "日向大束",
        "name:en": "Hyūga-Ōtsuka",
        "name:ja": "日向大束",
        "name:ko": "휴가오쓰카",
        "network": "JR日南線",
        "note": "National-Land Numerical Information (Railway) 2007, MLIT Japan",
        "note:ja": "国土数値情報（鉄道データ）平成19年　国土交通省",
        "operator": "九州旅客鉄道",
        "public_transport": "station",
        "railway": "station",
        "source": "KSJ2",
        "source_ref": "http://nlftp.mlit.go.jp/ksj/jpgis/datalist/KsjTmplt-N02-v1_1.html",
        "wikidata": "Q11505111",
        "wikipedia": "ja:日向大束駅"
      }
    },
    {
      "id": "miyazaki_station_265842809",
      "osmId": 265842809,
      "osmType": "node",
      "prefectureId": "miyazaki",
      "type": "station",
      "subtype": "jr",
      "name": "内海",
      "nameKana": null,
      "nameEn": "Uchiumi",
      "operator": "九州旅客鉄道",
      "network": "JR日南線",
      "ref": null,
      "latitude": 31.7586564,
      "longitude": 131.4672973,
      "countryCode": "jp",
      "rawTags": {
        "KSJ2:LIN": "日南線",
        "KSJ2:STN": "内海",
        "name": "内海",
        "name:en": "Uchiumi",
        "name:ja": "内海",
        "name:ko": "우치우미",
        "network": "JR日南線",
        "note": "National-Land Numerical Information (Railway) 2007, MLIT Japan",
        "note:ja": "国土数値情報（鉄道データ）平成19年　国土交通省",
        "operator": "九州旅客鉄道",
        "public_transport": "station",
        "railway": "station",
        "source": "KSJ2",
        "source_ref": "http://nlftp.mlit.go.jp/ksj/jpgis/datalist/KsjTmplt-N02-v1_1.html",
        "wikidata": "Q7876744",
        "wikipedia": "ja:内海駅 (宮崎県)"
      }
    },
    {
      "id": "miyazaki_station_265842911",
      "osmId": 265842911,
      "osmType": "node",
      "prefectureId": "miyazaki",
      "type": "station",
      "subtype": "jr",
      "name": "運動公園",
      "nameKana": null,
      "nameEn": "Undōkōen",
      "operator": "九州旅客鉄道",
      "network": "JR日南線",
      "ref": null,
      "latitude": 31.8197182,
      "longitude": 131.4425394,
      "countryCode": "jp",
      "rawTags": {
        "KSJ2:LIN": "日南線",
        "KSJ2:STN": "運動公園",
        "alt_name:ko": "운도코엔",
        "name": "運動公園",
        "name:en": "Undōkōen",
        "name:ja": "運動公園",
        "name:ko": "운동공원",
        "network": "JR日南線",
        "note": "National-Land Numerical Information (Railway) 2007, MLIT Japan",
        "note:ja": "国土数値情報（鉄道データ）平成19年　国土交通省",
        "operator": "九州旅客鉄道",
        "public_transport": "station",
        "railway": "station",
        "source": "KSJ2",
        "source_ref": "http://nlftp.mlit.go.jp/ksj/jpgis/datalist/KsjTmplt-N02-v1_1.html",
        "wikidata": "Q7884089",
        "wikipedia": "ja:運動公園駅 (宮崎県)"
      }
    },
    {
      "id": "miyazaki_station_265843712",
      "osmId": 265843712,
      "osmType": "node",
      "prefectureId": "miyazaki",
      "type": "station",
      "subtype": "jr",
      "name": "福島高松",
      "nameKana": null,
      "nameEn": "Fukushima-Takamatsu",
      "operator": "九州旅客鉄道",
      "network": "JR日南線",
      "ref": null,
      "latitude": 31.4585974,
      "longitude": 131.1783161,
      "countryCode": "jp",
      "rawTags": {
        "KSJ2:LIN": "日南線",
        "KSJ2:STN": "福島高松",
        "name": "福島高松",
        "name:en": "Fukushima-Takamatsu",
        "name:ja": "福島高松",
        "name:ko": "후쿠시마타카마쓰",
        "network": "JR日南線",
        "note": "National-Land Numerical Information (Railway) 2007, MLIT Japan",
        "note:ja": "国土数値情報（鉄道データ）平成19年　国土交通省",
        "operator": "九州旅客鉄道",
        "public_transport": "station",
        "railway": "station",
        "source": "KSJ2",
        "source_ref": "http://nlftp.mlit.go.jp/ksj/jpgis/datalist/KsjTmplt-N02-v1_1.html",
        "wikidata": "Q5507719",
        "wikipedia": "ja:福島高松駅"
      }
    },
    {
      "id": "miyazaki_station_265844831",
      "osmId": 265844831,
      "osmType": "node",
      "prefectureId": "miyazaki",
      "type": "station",
      "subtype": "jr",
      "name": "日向長井",
      "nameKana": null,
      "nameEn": "Hyuga-Nagai",
      "operator": "九州旅客鉄道",
      "network": "JR日豊線",
      "ref": null,
      "latitude": 32.6640664,
      "longitude": 131.6998459,
      "countryCode": "jp",
      "rawTags": {
        "KSJ2:LIN": "日豊線",
        "KSJ2:STN": "日向長井",
        "name": "日向長井",
        "name:en": "Hyuga-Nagai",
        "name:ja": "日向長井",
        "name:ja_rm": "Hyūga-Nagai",
        "name:ko": "휴가나가이",
        "network": "JR日豊線",
        "note": "National-Land Numerical Information (Railway) 2007, MLIT Japan",
        "note:ja": "国土数値情報（鉄道データ）平成19年　国土交通省",
        "operator": "九州旅客鉄道",
        "operator:en": "Kyushu Railway Company",
        "public_transport": "station",
        "railway": "station",
        "source": "KSJ2",
        "source_ref": "http://nlftp.mlit.go.jp/ksj/jpgis/datalist/KsjTmplt-N02-v1_1.html",
        "wikidata": "Q899057",
        "wikipedia": "ja:日向長井駅"
      }
    },
    {
      "id": "miyazaki_station_265845102",
      "osmId": 265845102,
      "osmType": "node",
      "prefectureId": "miyazaki",
      "type": "station",
      "subtype": "jr",
      "name": "北川",
      "nameKana": null,
      "nameEn": "Kitagawa",
      "operator": "九州旅客鉄道",
      "network": "JR日豊線",
      "ref": null,
      "latitude": 32.6903504,
      "longitude": 131.6977206,
      "countryCode": "jp",
      "rawTags": {
        "KSJ2:LIN": "日豊線",
        "KSJ2:STN": "北川",
        "name": "北川",
        "name:en": "Kitagawa",
        "name:ja": "北川",
        "name:ko": "기타가와",
        "network": "JR日豊線",
        "note": "National-Land Numerical Information (Railway) 2007, MLIT Japan",
        "note:ja": "国土数値情報（鉄道データ）平成19年　国土交通省",
        "operator": "九州旅客鉄道",
        "operator:en": "Kyushu Railway Company",
        "public_transport": "station",
        "railway": "station",
        "source": "KSJ2",
        "source_ref": "http://nlftp.mlit.go.jp/ksj/jpgis/datalist/KsjTmplt-N02-v1_1.html",
        "wikidata": "Q5357640",
        "wikipedia": "ja:北川駅"
      }
    },
    {
      "id": "miyazaki_station_265845309",
      "osmId": 265845309,
      "osmType": "node",
      "prefectureId": "miyazaki",
      "type": "station",
      "subtype": "jr",
      "name": "市棚",
      "nameKana": null,
      "nameEn": "Ichitana",
      "operator": "九州旅客鉄道",
      "network": "JR日豊線",
      "ref": null,
      "latitude": 32.7280323,
      "longitude": 131.7101607,
      "countryCode": "jp",
      "rawTags": {
        "KSJ2:LIN": "日豊線",
        "KSJ2:STN": "市棚",
        "name": "市棚",
        "name:en": "Ichitana",
        "name:ja": "市棚",
        "name:ko": "이치타나",
        "network": "JR日豊線",
        "note": "National-Land Numerical Information (Railway) 2007, MLIT Japan",
        "note:ja": "国土数値情報（鉄道データ）平成19年　国土交通省",
        "operator": "九州旅客鉄道",
        "operator:en": "Kyushu Railway Company",
        "railway": "station",
        "source": "KSJ2",
        "source_ref": "http://nlftp.mlit.go.jp/ksj/jpgis/datalist/KsjTmplt-N02-v1_1.html",
        "wikidata": "Q5357923",
        "wikipedia": "ja:市棚駅"
      }
    },
    {
      "id": "miyazaki_station_265845469",
      "osmId": 265845469,
      "osmType": "node",
      "prefectureId": "miyazaki",
      "type": "station",
      "subtype": "jr",
      "name": "北延岡",
      "nameKana": null,
      "nameEn": "Kita-Nobeoka",
      "operator": "九州旅客鉄道",
      "network": "JR日豊線",
      "ref": null,
      "latitude": 32.6306797,
      "longitude": 131.6900421,
      "countryCode": "jp",
      "rawTags": {
        "KSJ2:LIN": "日豊線",
        "KSJ2:STN": "北延岡",
        "name": "北延岡",
        "name:en": "Kita-Nobeoka",
        "name:ja": "北延岡",
        "name:ko": "기타노베오카",
        "network": "JR日豊線",
        "note": "National-Land Numerical Information (Railway) 2007, MLIT Japan",
        "note:ja": "国土数値情報（鉄道データ）平成19年　国土交通省",
        "operator": "九州旅客鉄道",
        "operator:en": "Kyushu Railway Company",
        "railway": "station",
        "source": "KSJ2",
        "source_ref": "http://nlftp.mlit.go.jp/ksj/jpgis/datalist/KsjTmplt-N02-v1_1.html",
        "wikidata": "Q5358059",
        "wikipedia": "ja:北延岡駅"
      }
    },
    {
      "id": "miyazaki_station_265848022",
      "osmId": 265848022,
      "osmType": "node",
      "prefectureId": "miyazaki",
      "type": "station",
      "subtype": "jr",
      "name": "青井岳",
      "nameKana": null,
      "nameEn": "Aoidake",
      "operator": "九州旅客鉄道",
      "network": "JR日豊線",
      "ref": null,
      "latitude": 31.8276588,
      "longitude": 131.2184348,
      "countryCode": "jp",
      "rawTags": {
        "KSJ2:LIN": "日豊線",
        "KSJ2:STN": "青井岳",
        "name": "青井岳",
        "name:en": "Aoidake",
        "name:ja": "青井岳",
        "name:ko": "아오이다케",
        "network": "JR日豊線",
        "note": "National-Land Numerical Information (Railway) 2007, MLIT Japan",
        "note:ja": "国土数値情報（鉄道データ）平成19年　国土交通省",
        "operator": "九州旅客鉄道",
        "public_transport": "station",
        "railway": "station",
        "source": "KSJ2",
        "source_ref": "http://nlftp.mlit.go.jp/ksj/jpgis/datalist/KsjTmplt-N02-v1_1.html",
        "wikidata": "Q899300",
        "wikipedia": "ja:青井岳駅"
      }
    },
    {
      "id": "miyazaki_station_265848024",
      "osmId": 265848024,
      "osmType": "node",
      "prefectureId": "miyazaki",
      "type": "station",
      "subtype": "jr",
      "name": "加納",
      "nameKana": null,
      "nameEn": "Kano",
      "operator": "九州旅客鉄道",
      "network": "JR日豊線",
      "ref": null,
      "latitude": 31.8759623,
      "longitude": 131.4061056,
      "countryCode": "jp",
      "rawTags": {
        "KSJ2:LIN": "日豊線",
        "KSJ2:STN": "加納",
        "name": "加納",
        "name:en": "Kano",
        "name:ja": "加納",
        "name:ja_rm": "Kanō",
        "name:ko": "가노",
        "network": "JR日豊線",
        "note": "National-Land Numerical Information (Railway) 2007, MLIT Japan",
        "note:ja": "国土数値情報（鉄道データ）平成19年　国土交通省",
        "operator": "九州旅客鉄道",
        "railway": "station",
        "source": "KSJ2",
        "source_ref": "http://nlftp.mlit.go.jp/ksj/jpgis/datalist/KsjTmplt-N02-v1_1.html",
        "wheelchair": "no",
        "wikidata": "Q5357469",
        "wikipedia": "ja:加納駅 (宮崎県)"
      }
    },
    {
      "id": "miyazaki_station_265848070",
      "osmId": 265848070,
      "osmType": "node",
      "prefectureId": "miyazaki",
      "type": "station",
      "subtype": "jr",
      "name": "西都城",
      "nameKana": null,
      "nameEn": "Nishi-Miyakonojō",
      "operator": "九州旅客鉄道",
      "network": "JR日豊線",
      "ref": null,
      "latitude": 31.723521,
      "longitude": 131.0569811,
      "countryCode": "jp",
      "rawTags": {
        "KSJ2:LIN": "日豊線",
        "KSJ2:STN": "西都城",
        "name": "西都城",
        "name:en": "Nishi-Miyakonojō",
        "name:ja": "西都城",
        "name:ko": "니시미야코노조",
        "network": "JR日豊線",
        "note": "National-Land Numerical Information (Railway) 2007, MLIT Japan",
        "note:ja": "国土数値情報（鉄道データ）平成19年　国土交通省",
        "operator": "九州旅客鉄道",
        "public_transport": "station",
        "railway": "station",
        "source": "KSJ2",
        "source_ref": "http://nlftp.mlit.go.jp/ksj/jpgis/datalist/KsjTmplt-N02-v1_1.html",
        "train": "yes",
        "wikidata": "Q5357443",
        "wikipedia": "ja:西都城駅"
      }
    },
    {
      "id": "miyazaki_station_265848359",
      "osmId": 265848359,
      "osmType": "node",
      "prefectureId": "miyazaki",
      "type": "station",
      "subtype": "jr",
      "name": "五十市",
      "nameKana": null,
      "nameEn": "Isoichi",
      "operator": "九州旅客鉄道",
      "network": "JR日豊線",
      "ref": null,
      "latitude": 31.7185779,
      "longitude": 131.0335635,
      "countryCode": "jp",
      "rawTags": {
        "KSJ2:LIN": "日豊線",
        "KSJ2:STN": "五十市",
        "addr:street": "五十市停車場線",
        "name": "五十市",
        "name:en": "Isoichi",
        "name:ja": "五十市",
        "name:ko": "이소이치",
        "network": "JR日豊線",
        "note": "National-Land Numerical Information (Railway) 2007, MLIT Japan",
        "note:ja": "国土数値情報（鉄道データ）平成19年　国土交通省",
        "operator": "九州旅客鉄道",
        "public_transport": "station",
        "railway": "station",
        "source": "KSJ2",
        "source_ref": "http://nlftp.mlit.go.jp/ksj/jpgis/datalist/KsjTmplt-N02-v1_1.html",
        "wikidata": "Q5357584",
        "wikipedia": "ja:五十市駅"
      }
    },
    {
      "id": "miyazaki_station_265848402",
      "osmId": 265848402,
      "osmType": "node",
      "prefectureId": "miyazaki",
      "type": "station",
      "subtype": "jr",
      "name": "清武",
      "nameKana": null,
      "nameEn": "Kiyotake",
      "operator": "九州旅客鉄道",
      "network": "JR日豊線",
      "ref": null,
      "latitude": 31.8593828,
      "longitude": 131.3892315,
      "countryCode": "jp",
      "rawTags": {
        "KSJ2:LIN": "日豊線",
        "KSJ2:STN": "清武",
        "name": "清武",
        "name:en": "Kiyotake",
        "name:ja": "清武",
        "name:ko": "기요타케",
        "network": "JR日豊線",
        "note": "National-Land Numerical Information (Railway) 2007, MLIT Japan",
        "note:ja": "国土数値情報（鉄道データ）平成19年　国土交通省",
        "operator": "九州旅客鉄道",
        "railway": "station",
        "source": "KSJ2",
        "source_ref": "http://nlftp.mlit.go.jp/ksj/jpgis/datalist/KsjTmplt-N02-v1_1.html",
        "wikidata": "Q5357380",
        "wikipedia": "ja:清武駅"
      }
    },
    {
      "id": "miyazaki_station_265848751",
      "osmId": 265848751,
      "osmType": "node",
      "prefectureId": "miyazaki",
      "type": "station",
      "subtype": "jr",
      "name": "田野",
      "nameKana": null,
      "nameEn": "Tano",
      "operator": "九州旅客鉄道",
      "network": "JR日豊線",
      "ref": null,
      "latitude": 31.8378604,
      "longitude": 131.3049544,
      "countryCode": "jp",
      "rawTags": {
        "KSJ2:LIN": "日豊線",
        "KSJ2:STN": "田野",
        "name": "田野",
        "name:en": "Tano",
        "name:ja": "田野",
        "name:ko": "다노",
        "network": "JR日豊線",
        "note": "National-Land Numerical Information (Railway) 2007, MLIT Japan",
        "note:ja": "国土数値情報（鉄道データ）平成19年　国土交通省",
        "operator": "九州旅客鉄道",
        "railway": "station",
        "source": "KSJ2",
        "source_ref": "http://nlftp.mlit.go.jp/ksj/jpgis/datalist/KsjTmplt-N02-v1_1.html",
        "wikidata": "Q5357255",
        "wikipedia": "ja:田野駅 (宮崎県)"
      }
    },
    {
      "id": "miyazaki_station_265849089",
      "osmId": 265849089,
      "osmType": "node",
      "prefectureId": "miyazaki",
      "type": "station",
      "subtype": "jr",
      "name": "日向沓掛",
      "nameKana": null,
      "nameEn": "Hyūga-Kutsukake",
      "operator": "九州旅客鉄道",
      "network": "JR日豊線",
      "ref": null,
      "latitude": 31.8421733,
      "longitude": 131.3448481,
      "countryCode": "jp",
      "rawTags": {
        "KSJ2:LIN": "日豊線",
        "KSJ2:STN": "日向沓掛",
        "name": "日向沓掛",
        "name:en": "Hyūga-Kutsukake",
        "name:ja": "日向沓掛",
        "name:ko": "휴가쿠쓰카케",
        "network": "JR日豊線",
        "note": "National-Land Numerical Information (Railway) 2007, MLIT Japan",
        "note:ja": "国土数値情報（鉄道データ）平成19年　国土交通省",
        "operator": "九州旅客鉄道",
        "railway": "station",
        "source": "KSJ2",
        "source_ref": "http://nlftp.mlit.go.jp/ksj/jpgis/datalist/KsjTmplt-N02-v1_1.html",
        "wikidata": "Q5357514",
        "wikipedia": "ja:日向沓掛駅"
      }
    },
    {
      "id": "miyazaki_station_265849275",
      "osmId": 265849275,
      "osmType": "node",
      "prefectureId": "miyazaki",
      "type": "station",
      "subtype": "jr",
      "name": "三股",
      "nameKana": null,
      "nameEn": "Mimata",
      "operator": "九州旅客鉄道",
      "network": "JR日豊線",
      "ref": null,
      "latitude": 31.7338903,
      "longitude": 131.1199481,
      "countryCode": "jp",
      "rawTags": {
        "KSJ2:LIN": "日豊線",
        "KSJ2:STN": "三股",
        "name": "三股",
        "name:en": "Mimata",
        "name:ja": "三股",
        "name:ko": "미마타",
        "network": "JR日豊線",
        "note": "National-Land Numerical Information (Railway) 2007, MLIT Japan",
        "note:ja": "国土数値情報（鉄道データ）平成19年　国土交通省",
        "operator": "九州旅客鉄道",
        "public_transport": "station",
        "railway": "station",
        "source": "KSJ2",
        "source_ref": "http://nlftp.mlit.go.jp/ksj/jpgis/datalist/KsjTmplt-N02-v1_1.html",
        "train": "yes",
        "wikidata": "Q5357483",
        "wikipedia": "ja:三股駅"
      }
    },
    {
      "id": "miyazaki_station_265849385",
      "osmId": 265849385,
      "osmType": "node",
      "prefectureId": "miyazaki",
      "type": "station",
      "subtype": "jr",
      "name": "山之口",
      "nameKana": null,
      "nameEn": "Yamanokuchi",
      "operator": "九州旅客鉄道",
      "network": "JR日豊線",
      "ref": null,
      "latitude": 31.7831214,
      "longitude": 131.1529956,
      "countryCode": "jp",
      "rawTags": {
        "KSJ2:LIN": "日豊線",
        "KSJ2:STN": "山之口",
        "name": "山之口",
        "name:en": "Yamanokuchi",
        "name:ja": "山之口",
        "name:ko": "야마노쿠치",
        "network": "JR日豊線",
        "note": "National-Land Numerical Information (Railway) 2007, MLIT Japan",
        "note:ja": "国土数値情報（鉄道データ）平成19年　国土交通省",
        "operator": "九州旅客鉄道",
        "public_transport": "station",
        "railway": "station",
        "source": "KSJ2",
        "source_ref": "http://nlftp.mlit.go.jp/ksj/jpgis/datalist/KsjTmplt-N02-v1_1.html",
        "train": "yes",
        "wikidata": "Q5357273",
        "wikipedia": "ja:山之口駅"
      }
    },
    {
      "id": "miyazaki_station_265851170",
      "osmId": 265851170,
      "osmType": "node",
      "prefectureId": "miyazaki",
      "type": "station",
      "subtype": "jr",
      "name": "餅原",
      "nameKana": null,
      "nameEn": "Mochibaru",
      "operator": "九州旅客鉄道",
      "network": "JR日豊線",
      "ref": null,
      "latitude": 31.7570049,
      "longitude": 131.132678,
      "countryCode": "jp",
      "rawTags": {
        "KSJ2:LIN": "日豊線",
        "KSJ2:STN": "餅原",
        "name": "餅原",
        "name:en": "Mochibaru",
        "name:ja": "餅原",
        "name:ko": "모치바루",
        "network": "JR日豊線",
        "note": "National-Land Numerical Information (Railway) 2007, MLIT Japan",
        "note:ja": "国土数値情報（鉄道データ）平成19年　国土交通省",
        "operator": "九州旅客鉄道",
        "public_transport": "station",
        "railway": "station",
        "source": "KSJ2",
        "source_ref": "http://nlftp.mlit.go.jp/ksj/jpgis/datalist/KsjTmplt-N02-v1_1.html",
        "train": "yes",
        "wikidata": "Q5357616",
        "wikipedia": "ja:餅原駅"
      }
    },
    {
      "id": "miyazaki_station_265852656",
      "osmId": 265852656,
      "osmType": "node",
      "prefectureId": "miyazaki",
      "type": "station",
      "subtype": "jr",
      "name": "えびの",
      "nameKana": null,
      "nameEn": "Ebino",
      "operator": "九州旅客鉄道",
      "network": null,
      "ref": null,
      "latitude": 32.0422993,
      "longitude": 130.8159272,
      "countryCode": "jp",
      "rawTags": {
        "KSJ2:LIN": "吉都線",
        "KSJ2:STN": "えびの",
        "name": "えびの",
        "name:en": "Ebino",
        "name:ja": "えびの",
        "name:ko": "에비노",
        "note": "National-Land Numerical Information (Railway) 2007, MLIT Japan",
        "note:ja": "国土数値情報（鉄道データ）平成19年　国土交通省",
        "operator": "九州旅客鉄道",
        "public_transport": "station",
        "railway": "station",
        "source": "KSJ2",
        "source_ref": "http://nlftp.mlit.go.jp/ksj/jpgis/datalist/KsjTmplt-N02-v1_1.html",
        "wikidata": "Q5331860",
        "wikipedia": "ja:えびの駅"
      }
    },
    {
      "id": "miyazaki_station_265852665",
      "osmId": 265852665,
      "osmType": "node",
      "prefectureId": "miyazaki",
      "type": "station",
      "subtype": "jr",
      "name": "えびの飯野",
      "nameKana": null,
      "nameEn": "Ebino Iino",
      "operator": "九州旅客鉄道",
      "network": null,
      "ref": null,
      "latitude": 32.0304524,
      "longitude": 130.8706681,
      "countryCode": "jp",
      "rawTags": {
        "KSJ2:LIN": "吉都線",
        "KSJ2:STN": "えびの飯野",
        "name": "えびの飯野",
        "name:en": "Ebino Iino",
        "name:ja": "えびの飯野",
        "name:ko": "에비노이노",
        "note": "National-Land Numerical Information (Railway) 2007, MLIT Japan",
        "note:ja": "国土数値情報（鉄道データ）平成19年　国土交通省",
        "operator": "九州旅客鉄道",
        "public_transport": "station",
        "railway": "station",
        "source": "KSJ2",
        "source_ref": "http://nlftp.mlit.go.jp/ksj/jpgis/datalist/KsjTmplt-N02-v1_1.html",
        "wikidata": "Q5331859",
        "wikipedia": "ja:えびの飯野駅"
      }
    },
    {
      "id": "miyazaki_station_265852672",
      "osmId": 265852672,
      "osmType": "node",
      "prefectureId": "miyazaki",
      "type": "station",
      "subtype": "jr",
      "name": "えびの上江",
      "nameKana": null,
      "nameEn": "Ebino Uwae",
      "operator": "九州旅客鉄道",
      "network": null,
      "ref": null,
      "latitude": 32.0356098,
      "longitude": 130.8500084,
      "countryCode": "jp",
      "rawTags": {
        "KSJ2:LIN": "吉都線",
        "KSJ2:STN": "えびの上江",
        "name": "えびの上江",
        "name:en": "Ebino Uwae",
        "name:ja": "えびの上江",
        "name:ko": "에비노우와에",
        "note": "National-Land Numerical Information (Railway) 2007, MLIT Japan",
        "note:ja": "国土数値情報（鉄道データ）平成19年　国土交通省",
        "operator": "九州旅客鉄道",
        "public_transport": "station",
        "railway": "station",
        "source": "KSJ2",
        "source_ref": "http://nlftp.mlit.go.jp/ksj/jpgis/datalist/KsjTmplt-N02-v1_1.html",
        "wikidata": "Q5331862",
        "wikipedia": "ja:えびの上江駅"
      }
    },
    {
      "id": "miyazaki_station_265852821",
      "osmId": 265852821,
      "osmType": "node",
      "prefectureId": "miyazaki",
      "type": "station",
      "subtype": "jr",
      "name": "高原",
      "nameKana": null,
      "nameEn": "Takaharu",
      "operator": "九州旅客鉄道",
      "network": "JR吉都線",
      "ref": null,
      "latitude": 31.9268539,
      "longitude": 130.9988134,
      "countryCode": "jp",
      "rawTags": {
        "KSJ2:LIN": "吉都線",
        "KSJ2:STN": "高原",
        "name": "高原",
        "name:en": "Takaharu",
        "name:ja": "高原",
        "name:ko": "다카하루",
        "network": "JR吉都線",
        "note": "National-Land Numerical Information (Railway) 2007, MLIT Japan",
        "note:ja": "国土数値情報（鉄道データ）平成19年　国土交通省",
        "operator": "九州旅客鉄道",
        "public_transport": "station",
        "railway": "station",
        "source": "KSJ2",
        "source_ref": "http://nlftp.mlit.go.jp/ksj/jpgis/datalist/KsjTmplt-N02-v1_1.html",
        "wikidata": "Q7677030",
        "wikipedia": "ja:高原駅"
      }
    },
    {
      "id": "miyazaki_station_265852825",
      "osmId": 265852825,
      "osmType": "node",
      "prefectureId": "miyazaki",
      "type": "station",
      "subtype": "jr",
      "name": "西小林",
      "nameKana": null,
      "nameEn": "Nishi Kobayashi",
      "operator": "九州旅客鉄道",
      "network": "JR吉都線",
      "ref": null,
      "latitude": 32.0095409,
      "longitude": 130.9217282,
      "countryCode": "jp",
      "rawTags": {
        "KSJ2:LIN": "吉都線",
        "KSJ2:STN": "西小林",
        "name": "西小林",
        "name:en": "Nishi Kobayashi",
        "name:ja": "西小林",
        "name:ko": "니시코바야시",
        "network": "JR吉都線",
        "note": "National-Land Numerical Information (Railway) 2007, MLIT Japan",
        "note:ja": "国土数値情報（鉄道データ）平成19年　国土交通省",
        "operator": "九州旅客鉄道",
        "public_transport": "station",
        "railway": "station",
        "source": "KSJ2",
        "source_ref": "http://nlftp.mlit.go.jp/ksj/jpgis/datalist/KsjTmplt-N02-v1_1.html",
        "wikidata": "Q8189751",
        "wikipedia": "ja:西小林駅"
      }
    },
    {
      "id": "miyazaki_station_265852835",
      "osmId": 265852835,
      "osmType": "node",
      "prefectureId": "miyazaki",
      "type": "station",
      "subtype": "jr",
      "name": "京町温泉",
      "nameKana": null,
      "nameEn": "Kyomachi-Onsen",
      "operator": "九州旅客鉄道",
      "network": "JR吉都線",
      "ref": null,
      "latitude": 32.0453249,
      "longitude": 130.7676343,
      "countryCode": "jp",
      "rawTags": {
        "KSJ2:LIN": "吉都線",
        "KSJ2:STN": "京町温泉",
        "name": "京町温泉",
        "name:en": "Kyomachi-Onsen",
        "name:ja": "京町温泉",
        "name:ko": "교마치온천",
        "network": "JR吉都線",
        "note": "National-Land Numerical Information (Railway) 2007, MLIT Japan",
        "note:ja": "国土数値情報（鉄道データ）平成19年　国土交通省",
        "operator": "九州旅客鉄道",
        "public_transport": "station",
        "railway": "station",
        "source": "KSJ2",
        "source_ref": "http://nlftp.mlit.go.jp/ksj/jpgis/datalist/KsjTmplt-N02-v1_1.html",
        "wikidata": "Q6453068",
        "wikipedia": "ja:京町温泉駅"
      }
    },
    {
      "id": "miyazaki_station_265852840",
      "osmId": 265852840,
      "osmType": "node",
      "prefectureId": "miyazaki",
      "type": "station",
      "subtype": "jr",
      "name": "広原",
      "nameKana": null,
      "nameEn": "Hirowara",
      "operator": "九州旅客鉄道",
      "network": "JR吉都線",
      "ref": null,
      "latitude": 31.958065,
      "longitude": 130.984816,
      "countryCode": "jp",
      "rawTags": {
        "KSJ2:LIN": "吉都線",
        "KSJ2:STN": "広原",
        "name": "広原",
        "name:en": "Hirowara",
        "name:ja": "広原",
        "name:ko": "히로와라",
        "network": "JR吉都線",
        "note": "National-Land Numerical Information (Railway) 2007, MLIT Japan",
        "note:ja": "国土数値情報（鉄道データ）平成19年　国土交通省",
        "operator": "九州旅客鉄道",
        "public_transport": "station",
        "railway": "station",
        "source": "KSJ2",
        "source_ref": "http://nlftp.mlit.go.jp/ksj/jpgis/datalist/KsjTmplt-N02-v1_1.html",
        "wikidata": "Q5771421",
        "wikipedia": "ja:広原駅"
      }
    },
    {
      "id": "miyazaki_station_265853640",
      "osmId": 265853640,
      "osmType": "node",
      "prefectureId": "miyazaki",
      "type": "station",
      "subtype": "jr",
      "name": "東高崎",
      "nameKana": null,
      "nameEn": "Higashi Takasaki",
      "operator": "九州旅客鉄道",
      "network": "JR吉都線",
      "ref": null,
      "latitude": 31.8408469,
      "longitude": 131.0651592,
      "countryCode": "jp",
      "rawTags": {
        "KSJ2:LIN": "吉都線",
        "KSJ2:STN": "東高崎",
        "name": "東高崎",
        "name:en": "Higashi Takasaki",
        "name:ja": "東高崎",
        "name:ko": "히가시타카사키",
        "network": "JR吉都線",
        "note": "National-Land Numerical Information (Railway) 2007, MLIT Japan",
        "note:ja": "国土数値情報（鉄道データ）平成19年　国土交通省",
        "operator": "九州旅客鉄道",
        "public_transport": "station",
        "railway": "station",
        "source": "KSJ2",
        "source_ref": "http://nlftp.mlit.go.jp/ksj/jpgis/datalist/KsjTmplt-N02-v1_1.html",
        "wikidata": "Q8190158",
        "wikipedia": "ja:東高崎駅"
      }
    },
    {
      "id": "miyazaki_station_265853664",
      "osmId": 265853664,
      "osmType": "node",
      "prefectureId": "miyazaki",
      "type": "station",
      "subtype": "jr",
      "name": "高崎新田",
      "nameKana": null,
      "nameEn": "Takasaki Shinden",
      "operator": "九州旅客鉄道",
      "network": "JR吉都線",
      "ref": null,
      "latitude": 31.8762741,
      "longitude": 131.062472,
      "countryCode": "jp",
      "rawTags": {
        "KSJ2:LIN": "吉都線",
        "KSJ2:STN": "高崎新田",
        "name": "高崎新田",
        "name:en": "Takasaki Shinden",
        "name:ja": "高崎新田",
        "name:ko": "다카사키신덴",
        "network": "JR吉都線",
        "note": "National-Land Numerical Information (Railway) 2007, MLIT Japan",
        "note:ja": "国土数値情報（鉄道データ）平成19年 国土交通省",
        "operator": "九州旅客鉄道",
        "public_transport": "station",
        "railway": "station",
        "source": "KSJ2",
        "source_ref": "http://nlftp.mlit.go.jp/ksj/jpgis/datalist/KsjTmplt-N02-v1_1.html",
        "train": "yes",
        "wikidata": "Q7677294",
        "wikimedia_commons": "File:高崎新田駅.jpg",
        "wikipedia": "ja:高崎新田駅"
      }
    },
    {
      "id": "miyazaki_station_265853669",
      "osmId": 265853669,
      "osmType": "node",
      "prefectureId": "miyazaki",
      "type": "station",
      "subtype": "private",
      "name": "小林",
      "nameKana": null,
      "nameEn": "Kobayashi",
      "operator": null,
      "network": null,
      "ref": null,
      "latitude": 31.9909634,
      "longitude": 130.9756879,
      "countryCode": "jp",
      "rawTags": {
        "KSJ2:LIN": "吉都線",
        "KSJ2:STN": "小林",
        "name": "小林",
        "name:en": "Kobayashi",
        "name:ja": "小林",
        "name:ko": "고바야시",
        "note": "National-Land Numerical Information (Railway) 2007, MLIT Japan",
        "note:ja": "国土数値情報（鉄道データ）平成19年　国土交通省",
        "public_transport": "station",
        "railway": "station",
        "source": "KSJ2",
        "source_ref": "http://nlftp.mlit.go.jp/ksj/jpgis/datalist/KsjTmplt-N02-v1_1.html",
        "wikidata": "Q8190209",
        "wikipedia": "ja:小林駅 (宮崎県)"
      }
    },
    {
      "id": "miyazaki_station_265853919",
      "osmId": 265853919,
      "osmType": "node",
      "prefectureId": "miyazaki",
      "type": "station",
      "subtype": "jr",
      "name": "日向前田",
      "nameKana": null,
      "nameEn": "Hyuga-Maeda",
      "operator": "九州旅客鉄道",
      "network": "JR吉都線",
      "ref": null,
      "latitude": 31.908543,
      "longitude": 131.040666,
      "countryCode": "jp",
      "rawTags": {
        "KSJ2:LIN": "吉都線",
        "KSJ2:STN": "日向前田",
        "name": "日向前田",
        "name:en": "Hyuga-Maeda",
        "name:ja": "日向前田",
        "name:ko": "휴가마에다",
        "network": "JR吉都線",
        "note": "National-Land Numerical Information (Railway) 2007, MLIT Japan",
        "note:ja": "国土数値情報（鉄道データ）平成19年　国土交通省",
        "operator": "九州旅客鉄道",
        "public_transport": "station",
        "railway": "station",
        "source": "KSJ2",
        "source_ref": "http://nlftp.mlit.go.jp/ksj/jpgis/datalist/KsjTmplt-N02-v1_1.html",
        "wikidata": "Q5962834",
        "wikipedia": "ja:日向前田駅"
      }
    },
    {
      "id": "miyazaki_station_265854033",
      "osmId": 265854033,
      "osmType": "node",
      "prefectureId": "miyazaki",
      "type": "station",
      "subtype": "jr",
      "name": "万ヶ塚",
      "nameKana": null,
      "nameEn": "Mangatsuka",
      "operator": "九州旅客鉄道",
      "network": "JR吉都線",
      "ref": null,
      "latitude": 31.8173891,
      "longitude": 131.0640691,
      "countryCode": "jp",
      "rawTags": {
        "KSJ2:LIN": "吉都線",
        "KSJ2:STN": "万ヶ塚",
        "name": "万ヶ塚",
        "name:en": "Mangatsuka",
        "name:ja": "万ヶ塚",
        "name:ko": "만가쓰카",
        "network": "JR吉都線",
        "note": "National-Land Numerical Information (Railway) 2007, MLIT Japan",
        "note:ja": "国土数値情報（鉄道データ）平成19年　国土交通省",
        "operator": "九州旅客鉄道",
        "public_transport": "station",
        "railway": "station",
        "source": "KSJ2",
        "source_ref": "http://nlftp.mlit.go.jp/ksj/jpgis/datalist/KsjTmplt-N02-v1_1.html",
        "wikidata": "Q6748855",
        "wikipedia": "ja:万ケ塚駅"
      }
    },
    {
      "id": "miyazaki_station_265854049",
      "osmId": 265854049,
      "osmType": "node",
      "prefectureId": "miyazaki",
      "type": "station",
      "subtype": "jr",
      "name": "谷頭",
      "nameKana": null,
      "nameEn": "Tanigashira",
      "operator": "九州旅客鉄道",
      "network": "JR吉都線",
      "ref": null,
      "latitude": 31.7887804,
      "longitude": 131.0541646,
      "countryCode": "jp",
      "rawTags": {
        "KSJ2:LIN": "吉都線",
        "KSJ2:STN": "谷頭",
        "name": "谷頭",
        "name:en": "Tanigashira",
        "name:ja": "谷頭",
        "name:ko": "다니가시라",
        "network": "JR吉都線",
        "note": "National-Land Numerical Information (Railway) 2007, MLIT Japan",
        "note:ja": "国土数値情報（鉄道データ）平成19年　国土交通省",
        "operator": "九州旅客鉄道",
        "public_transport": "station",
        "railway": "station",
        "source": "KSJ2",
        "source_ref": "http://nlftp.mlit.go.jp/ksj/jpgis/datalist/KsjTmplt-N02-v1_1.html",
        "wikidata": "Q7683294",
        "wikipedia": "ja:谷頭駅"
      }
    },
    {
      "id": "miyazaki_station_265854233",
      "osmId": 265854233,
      "osmType": "node",
      "prefectureId": "miyazaki",
      "type": "station",
      "subtype": "jr",
      "name": "都城",
      "nameKana": null,
      "nameEn": "Miyakonojō",
      "operator": "九州旅客鉄道",
      "network": null,
      "ref": null,
      "latitude": 31.7365393,
      "longitude": 131.0744458,
      "countryCode": "jp",
      "rawTags": {
        "KSJ2:LIN": "吉都線;日豊線",
        "KSJ2:STN": "都城",
        "name": "都城",
        "name:en": "Miyakonojō",
        "name:ja": "都城",
        "name:ko": "미야코노조",
        "note": "National-Land Numerical Information (Railway) 2007, MLIT Japan",
        "note:ja": "国土数値情報（鉄道データ）平成19年　国土交通省",
        "operator": "九州旅客鉄道",
        "public_transport": "station",
        "railway": "station",
        "source": "KSJ2",
        "source_ref": "http://nlftp.mlit.go.jp/ksj/jpgis/datalist/KsjTmplt-N02-v1_1.html",
        "train": "yes",
        "wikidata": "Q899376",
        "wikipedia": "ja:都城駅"
      }
    },
    {
      "id": "miyazaki_station_265889650",
      "osmId": 265889650,
      "osmType": "node",
      "prefectureId": "miyazaki",
      "type": "station",
      "subtype": "private",
      "name": "宮崎空港",
      "nameKana": null,
      "nameEn": "Miyazaki Airport",
      "operator": null,
      "network": null,
      "ref": null,
      "latitude": 31.8724607,
      "longitude": 131.4401622,
      "countryCode": "jp",
      "rawTags": {
        "KSJ2:LIN": "宮崎空港線",
        "KSJ2:STN": "宮崎空港",
        "name": "宮崎空港",
        "name:en": "Miyazaki Airport",
        "name:ja": "宮崎空港",
        "name:ko": "미야자키공항",
        "note": "National-Land Numerical Information (Railway) 2007, MLIT Japan",
        "note:ja": "国土数値情報（鉄道データ）平成19年　国土交通省",
        "public_transport": "station",
        "railway": "station",
        "source": "KSJ2",
        "source_ref": "http://nlftp.mlit.go.jp/ksj/jpgis/datalist/KsjTmplt-N02-v1_1.html",
        "wikidata": "Q11454569",
        "wikipedia": "ja:宮崎空港駅"
      }
    },
    {
      "id": "miyazaki_station_265913448",
      "osmId": 265913448,
      "osmType": "node",
      "prefectureId": "miyazaki",
      "type": "station",
      "subtype": "jr",
      "name": "真幸",
      "nameKana": null,
      "nameEn": "Masaki",
      "operator": "九州旅客鉄道",
      "network": "JR肥薩線",
      "ref": null,
      "latitude": 32.0746702,
      "longitude": 130.7294089,
      "countryCode": "jp",
      "rawTags": {
        "KSJ2:LIN": "肥薩線",
        "KSJ2:STN": "真幸",
        "destroyed:railway": "station",
        "name": "真幸",
        "name:en": "Masaki",
        "name:ja": "真幸",
        "name:ko": "마사키",
        "network": "JR肥薩線",
        "note": "National-Land Numerical Information (Railway) 2007, MLIT Japan",
        "note:ja": "国土数値情報（鉄道データ）平成19年　国土交通省",
        "operator": "九州旅客鉄道",
        "operator:en": "Kyushu Railway Company",
        "operator:ja": "九州旅客鉄道",
        "public_transport": "station",
        "railway": "station",
        "source": "KSJ2",
        "source_ref": "http://nlftp.mlit.go.jp/ksj/jpgis/datalist/KsjTmplt-N02-v1_1.html",
        "train": "yes",
        "wikidata": "Q6782461",
        "wikipedia": "ja:真幸駅"
      }
    },
    {
      "id": "miyazaki_station_270048203",
      "osmId": 270048203,
      "osmType": "node",
      "prefectureId": "miyazaki",
      "type": "station",
      "subtype": "private",
      "name": "高千穂",
      "nameKana": null,
      "nameEn": "Takachiho",
      "operator": null,
      "network": null,
      "ref": null,
      "latitude": 32.714733,
      "longitude": 131.3066171,
      "countryCode": "jp",
      "rawTags": {
        "name": "高千穂",
        "name:en": "Takachiho",
        "name:ja": "高千穂",
        "name:ko": "다카치호",
        "public_transport": "station",
        "railway": "station",
        "source": "KSJ2",
        "wikidata": "Q11668896",
        "wikipedia": "ja:高千穂駅"
      }
    },
    {
      "id": "miyazaki_airport_2758280631",
      "osmId": 2758280631,
      "osmType": "node",
      "prefectureId": "miyazaki",
      "type": "airport",
      "subtype": "military",
      "name": "新田原基地",
      "nameKana": null,
      "nameEn": "Nyutabaru Airbase",
      "operator": "JASDF",
      "network": null,
      "ref": "RJFN",
      "latitude": 32.0841222,
      "longitude": 131.4543682,
      "countryCode": "jp",
      "rawTags": {
        "aeroway": "aerodrome",
        "icao": "RJFN",
        "landuse": "military",
        "military": "airfield",
        "name": "新田原基地",
        "name:en": "Nyutabaru Airbase",
        "name:ja": "新田原基地",
        "operator": "JASDF",
        "wikidata": "Q3015913"
      }
    },
    {
      "id": "miyazaki_station_3959369748",
      "osmId": 3959369748,
      "osmType": "node",
      "prefectureId": "miyazaki",
      "type": "station",
      "subtype": "jr",
      "name": "日向新富",
      "nameKana": null,
      "nameEn": "Hyūga-Shintomi",
      "operator": "九州旅客鉄道",
      "network": "JR日豊線",
      "ref": null,
      "latitude": 32.0722942,
      "longitude": 131.5015379,
      "countryCode": "jp",
      "rawTags": {
        "KSJ2:LIN": "日豊線",
        "KSJ2:STN": "日向新富",
        "name": "日向新富",
        "name:en": "Hyūga-Shintomi",
        "name:ja": "日向新富",
        "name:ko": "휴가신토미",
        "network": "JR日豊線",
        "note": "National-Land Numerical Information (Railway) 2007, MLIT Japan",
        "note:ja": "国土数値情報（鉄道データ）平成19年　国土交通省",
        "operator": "九州旅客鉄道",
        "operator:ja": "九州旅客鉄道",
        "public_transport": "station",
        "railway": "station",
        "source": "KSJ2",
        "source_ref": "http://nlftp.mlit.go.jp/ksj/jpgis/datalist/KsjTmplt-N02-v1_1.html",
        "wikidata": "Q5357437",
        "wikipedia": "ja:日向新富駅"
      }
    },
    {
      "id": "miyazaki_station_4008342859",
      "osmId": 4008342859,
      "osmType": "node",
      "prefectureId": "miyazaki",
      "type": "station",
      "subtype": "jr",
      "name": "南宮崎",
      "nameKana": null,
      "nameEn": "Minami-Miyazaki",
      "operator": "九州旅客鉄道",
      "network": null,
      "ref": null,
      "latitude": 31.8951321,
      "longitude": 131.4226735,
      "countryCode": "jp",
      "rawTags": {
        "KSJ2:LIN": "日豊線",
        "KSJ2:STN": "南宮崎",
        "mapillary": "216715000840710",
        "name": "南宮崎",
        "name:en": "Minami-Miyazaki",
        "name:ja": "南宮崎",
        "name:ko": "미나미미야자키",
        "note": "National-Land Numerical Information (Railway) 2007, MLIT Japan",
        "note:ja": "国土数値情報（鉄道データ）平成19年　国土交通省",
        "operator": "九州旅客鉄道",
        "operator:ja": "九州旅客鉄道",
        "public_transport": "station",
        "railway": "station",
        "source": "Bing",
        "wikidata": "Q899171",
        "wikipedia": "ja:南宮崎駅"
      }
    },
    {
      "id": "miyazaki_station_5694796635",
      "osmId": 5694796635,
      "osmType": "node",
      "prefectureId": "miyazaki",
      "type": "station",
      "subtype": "private",
      "name": "南延岡",
      "nameKana": null,
      "nameEn": "Minami-Nobeoka",
      "operator": null,
      "network": null,
      "ref": null,
      "latitude": 32.5595357,
      "longitude": 131.6768649,
      "countryCode": "jp",
      "rawTags": {
        "KSJ2:LIN": "日豊線",
        "KSJ2:STN": "南延岡",
        "name": "南延岡",
        "name:en": "Minami-Nobeoka",
        "name:ja": "南延岡",
        "name:ko": "미나미노베오카",
        "note": "National-Land Numerical Information (Railway) 2007, MLIT Japan",
        "note:ja": "国土数値情報（鉄道データ）平成19年　国土交通省",
        "public_transport": "station",
        "railway": "station",
        "wikidata": "Q5357950",
        "wikipedia": "ja:南延岡駅"
      }
    },
    {
      "id": "miyazaki_station_5726627473",
      "osmId": 5726627473,
      "osmType": "node",
      "prefectureId": "miyazaki",
      "type": "station",
      "subtype": "jr",
      "name": "宮崎",
      "nameKana": null,
      "nameEn": "Miyazaki",
      "operator": "九州旅客鉄道",
      "network": null,
      "ref": null,
      "latitude": 31.9157538,
      "longitude": 131.4319526,
      "countryCode": "jp",
      "rawTags": {
        "KSJ2:LIN": "日豊線",
        "KSJ2:STN": "宮崎",
        "name": "宮崎",
        "name:en": "Miyazaki",
        "name:ja": "宮崎",
        "name:ko": "미야자키",
        "note": "National-Land Numerical Information (Railway) 2007, MLIT Japan",
        "note:ja": "国土数値情報（鉄道データ）平成19年 国土交通省",
        "operator": "九州旅客鉄道",
        "operator:ja": "九州旅客鉄道",
        "public_transport": "station",
        "railway": "station",
        "source": "KSJ2",
        "source_ref": "http://nlftp.mlit.go.jp/ksj/jpgis/datalist/KsjTmplt-N02-v1_1.html",
        "wikidata": "Q899703",
        "wikipedia": "ja:宮崎駅"
      }
    },
    {
      "id": "miyazaki_bus_terminal_5812476308",
      "osmId": 5812476308,
      "osmType": "node",
      "prefectureId": "miyazaki",
      "type": "bus_terminal",
      "subtype": null,
      "name": "西都城駅前",
      "nameKana": null,
      "nameEn": "Nishimiyakonojo-eki mae",
      "operator": null,
      "network": null,
      "ref": null,
      "latitude": 31.7232662,
      "longitude": 131.0573665,
      "countryCode": "jp",
      "rawTags": {
        "amenity": "bus_station",
        "bus": "yes",
        "name": "西都城駅前",
        "name:en": "Nishimiyakonojo-eki mae",
        "name:ja": "西都城駅前",
        "public_transport": "station"
      }
    },
    {
      "id": "miyazaki_bus_terminal_5919599376",
      "osmId": 5919599376,
      "osmType": "node",
      "prefectureId": "miyazaki",
      "type": "bus_terminal",
      "subtype": null,
      "name": "油津バスセンター",
      "nameKana": null,
      "nameEn": null,
      "operator": null,
      "network": null,
      "ref": null,
      "latitude": 31.5873775,
      "longitude": 131.3964813,
      "countryCode": "jp",
      "rawTags": {
        "amenity": "bus_station",
        "bus": "yes",
        "name": "油津バスセンター",
        "public_transport": "station"
      }
    },
    {
      "id": "miyazaki_bus_terminal_5919682789",
      "osmId": 5919682789,
      "osmType": "node",
      "prefectureId": "miyazaki",
      "type": "bus_terminal",
      "subtype": null,
      "name": "飫肥待合所",
      "nameKana": null,
      "nameEn": null,
      "operator": null,
      "network": null,
      "ref": null,
      "latitude": 31.6244543,
      "longitude": 131.3509771,
      "countryCode": "jp",
      "rawTags": {
        "amenity": "bus_station",
        "bus": "yes",
        "name": "飫肥待合所",
        "public_transport": "station"
      }
    },
    {
      "id": "miyazaki_bus_terminal_5923238291",
      "osmId": 5923238291,
      "osmType": "node",
      "prefectureId": "miyazaki",
      "type": "bus_terminal",
      "subtype": null,
      "name": "宮崎駅バスセンター",
      "nameKana": null,
      "nameEn": null,
      "operator": null,
      "network": null,
      "ref": null,
      "latitude": 31.9162505,
      "longitude": 131.4316604,
      "countryCode": "jp",
      "rawTags": {
        "amenity": "bus_station",
        "bus": "yes",
        "level": "0",
        "name": "宮崎駅バスセンター",
        "public_transport": "station"
      }
    },
    {
      "id": "miyazaki_station_6022131030",
      "osmId": 6022131030,
      "osmType": "node",
      "prefectureId": "miyazaki",
      "type": "station",
      "subtype": "jr",
      "name": "日向庄内",
      "nameKana": null,
      "nameEn": "Hyuga-Shounai",
      "operator": "九州旅客鉄道",
      "network": "JR吉都線",
      "ref": null,
      "latitude": 31.7622233,
      "longitude": 131.0615539,
      "countryCode": "jp",
      "rawTags": {
        "KSJ2:LIN": "吉都線",
        "KSJ2:STN": "日向庄内",
        "name": "日向庄内",
        "name:en": "Hyuga-Shounai",
        "name:ja": "日向庄内",
        "name:ko": "휴가쇼나이",
        "network": "JR吉都線",
        "note": "National-Land Numerical Information (Railway) 2007, MLIT Japan",
        "note:ja": "国土数値情報（鉄道データ）平成19年　国土交通省",
        "operator": "九州旅客鉄道",
        "public_transport": "station",
        "railway": "station",
        "source": "KSJ2",
        "source_ref": "http://nlftp.mlit.go.jp/ksj/jpgis/datalist/KsjTmplt-N02-v1_1.html",
        "wikidata": "Q5962842",
        "wikipedia": "ja:日向庄内駅"
      }
    },
    {
      "id": "miyazaki_bus_terminal_6865443355",
      "osmId": 6865443355,
      "osmType": "node",
      "prefectureId": "miyazaki",
      "type": "bus_terminal",
      "subtype": null,
      "name": "国富BS",
      "nameKana": null,
      "nameEn": null,
      "operator": null,
      "network": null,
      "ref": null,
      "latitude": 31.9814508,
      "longitude": 131.3675389,
      "countryCode": "jp",
      "rawTags": {
        "amenity": "bus_station",
        "bus": "yes",
        "name": "国富BS",
        "public_transport": "station"
      }
    },
    {
      "id": "miyazaki_bus_terminal_7232235141",
      "osmId": 7232235141,
      "osmType": "node",
      "prefectureId": "miyazaki",
      "type": "bus_terminal",
      "subtype": null,
      "name": "Bus Station",
      "nameKana": null,
      "nameEn": null,
      "operator": null,
      "network": null,
      "ref": null,
      "latitude": 31.5873861,
      "longitude": 131.4014644,
      "countryCode": "jp",
      "rawTags": {
        "amenity": "bus_station",
        "name": "Bus Station"
      }
    },
    {
      "id": "miyazaki_bus_terminal_7232247850",
      "osmId": 7232247850,
      "osmType": "node",
      "prefectureId": "miyazaki",
      "type": "bus_terminal",
      "subtype": null,
      "name": "Bus Stop",
      "nameKana": null,
      "nameEn": null,
      "operator": null,
      "network": null,
      "ref": null,
      "latitude": 31.6129605,
      "longitude": 131.4216068,
      "countryCode": "jp",
      "rawTags": {
        "amenity": "bus_station",
        "name": "Bus Stop"
      }
    },
    {
      "id": "miyazaki_station_8149015847",
      "osmId": 8149015847,
      "osmType": "node",
      "prefectureId": "miyazaki",
      "type": "station",
      "subtype": "jr",
      "name": "延岡",
      "nameKana": null,
      "nameEn": "Nobeoka",
      "operator": "九州旅客鉄道",
      "network": "JR日豊線",
      "ref": null,
      "latitude": 32.5898056,
      "longitude": 131.6722583,
      "countryCode": "jp",
      "rawTags": {
        "name": "延岡",
        "name:en": "Nobeoka",
        "name:ja": "延岡",
        "name:ko": "노베오카",
        "network": "JR日豊線",
        "operator": "九州旅客鉄道",
        "operator:en": "Kyushu Railway Company",
        "public_transport": "station",
        "railway": "station",
        "source": "KSJ2",
        "wikidata": "Q5357994",
        "wikipedia": "ja:延岡駅"
      }
    },
    {
      "id": "miyazaki_station_8286305611",
      "osmId": 8286305611,
      "osmType": "node",
      "prefectureId": "miyazaki",
      "type": "station",
      "subtype": "jr",
      "name": "土々呂",
      "nameKana": null,
      "nameEn": "Totoro",
      "operator": "九州旅客鉄道",
      "network": "JR日豊線",
      "ref": null,
      "latitude": 32.5077977,
      "longitude": 131.6749657,
      "countryCode": "jp",
      "rawTags": {
        "name": "土々呂",
        "name:en": "Totoro",
        "name:ja": "土々呂",
        "name:ko": "도토로",
        "network": "JR日豊線",
        "note": "National-Land Numerical Information (Railway) 2007, MLIT Japan",
        "note:ja": "国土数値情報（鉄道データ）平成19年　国土交通省",
        "operator": "九州旅客鉄道",
        "operator:en": "Kyushu Railway Company",
        "operator:ja": "九州旅客鉄道",
        "public_transport": "station",
        "railway": "station",
        "source": "KSJ2",
        "source_ref": "http://nlftp.mlit.go.jp/ksj/jpgis/datalist/KsjTmplt-N02-v1_1.html",
        "train": "yes",
        "wikidata": "Q5358003",
        "wikipedia": "ja:土々呂駅"
      }
    },
    {
      "id": "miyazaki_station_8286371151",
      "osmId": 8286371151,
      "osmType": "node",
      "prefectureId": "miyazaki",
      "type": "station",
      "subtype": "jr",
      "name": "旭ヶ丘",
      "nameKana": null,
      "nameEn": "Asahigaoka",
      "operator": "九州旅客鉄道",
      "network": "JR日豊線",
      "ref": null,
      "latitude": 32.5281525,
      "longitude": 131.6813733,
      "countryCode": "jp",
      "rawTags": {
        "name": "旭ヶ丘",
        "name:en": "Asahigaoka",
        "name:ja": "旭ヶ丘",
        "name:ko": "아사히가오카",
        "network": "JR日豊線",
        "note": "National-Land Numerical Information (Railway) 2007, MLIT Japan",
        "note:ja": "国土数値情報（鉄道データ）平成19年　国土交通省",
        "operator": "九州旅客鉄道",
        "operator:en": "Kyushu Railway Company",
        "operator:ja": "九州旅客鉄道",
        "public_transport": "station",
        "railway": "station",
        "source": "KSJ2",
        "source_ref": "http://nlftp.mlit.go.jp/ksj/jpgis/datalist/KsjTmplt-N02-v1_1.html",
        "train": "yes",
        "wikidata": "Q5357637",
        "wikipedia": "ja:旭ケ丘駅 (宮崎県)"
      }
    },
    {
      "id": "miyazaki_station_8287672880",
      "osmId": 8287672880,
      "osmType": "node",
      "prefectureId": "miyazaki",
      "type": "station",
      "subtype": "jr",
      "name": "門川",
      "nameKana": null,
      "nameEn": "Kadogawa",
      "operator": "九州旅客鉄道",
      "network": "JR日豊線",
      "ref": null,
      "latitude": 32.4773491,
      "longitude": 131.6539272,
      "countryCode": "jp",
      "rawTags": {
        "name": "門川",
        "name:en": "Kadogawa",
        "name:ja": "門川",
        "name:ko": "가도가와",
        "network": "JR日豊線",
        "note": "National-Land Numerical Information (Railway) 2007, MLIT Japan",
        "note:ja": "国土数値情報（鉄道データ）平成19年　国土交通省",
        "operator": "九州旅客鉄道",
        "operator:en": "Kyushu Railway Company",
        "operator:ja": "九州旅客鉄道",
        "public_transport": "station",
        "railway": "station",
        "source": "KSJ2",
        "source_ref": "http://nlftp.mlit.go.jp/ksj/jpgis/datalist/KsjTmplt-N02-v1_1.html",
        "train": "yes",
        "wikidata": "Q5357777",
        "wikipedia": "ja:門川駅"
      }
    },
    {
      "id": "miyazaki_station_8288025724",
      "osmId": 8288025724,
      "osmType": "node",
      "prefectureId": "miyazaki",
      "type": "station",
      "subtype": "jr",
      "name": "財光寺",
      "nameKana": null,
      "nameEn": "Zaikoji",
      "operator": "九州旅客鉄道",
      "network": "JR日豊線",
      "ref": null,
      "latitude": 32.4055287,
      "longitude": 131.6276573,
      "countryCode": "jp",
      "rawTags": {
        "name": "財光寺",
        "name:en": "Zaikoji",
        "name:ja": "財光寺",
        "name:ja_rm": "Zaikōji",
        "name:ko": "자이코지",
        "network": "JR日豊線",
        "note": "National-Land Numerical Information (Railway) 2007, MLIT Japan",
        "note:ja": "国土数値情報（鉄道データ）平成19年　国土交通省",
        "operator": "九州旅客鉄道",
        "operator:ja": "九州旅客鉄道",
        "public_transport": "station",
        "railway": "station",
        "source": "KSJ2",
        "source_ref": "http://nlftp.mlit.go.jp/ksj/jpgis/datalist/KsjTmplt-N02-v1_1.html",
        "train": "yes",
        "wikidata": "Q898867",
        "wikipedia": "ja:財光寺駅"
      }
    },
    {
      "id": "miyazaki_station_8288025764",
      "osmId": 8288025764,
      "osmType": "node",
      "prefectureId": "miyazaki",
      "type": "station",
      "subtype": "jr",
      "name": "日向市",
      "nameKana": null,
      "nameEn": "Hyugashi",
      "operator": "九州旅客鉄道",
      "network": "JR日豊線",
      "ref": null,
      "latitude": 32.4257662,
      "longitude": 131.6279925,
      "countryCode": "jp",
      "rawTags": {
        "name": "日向市",
        "name:en": "Hyugashi",
        "name:ja": "日向市",
        "name:ja_rm": "Hyūgashi",
        "name:ko": "휴가시",
        "network": "JR日豊線",
        "note": "National-Land Numerical Information (Railway) 2007, MLIT Japan",
        "note:ja": "国土数値情報（鉄道データ）平成19年　国土交通省",
        "operator": "九州旅客鉄道",
        "operator:en": "Kyushu Railway Company",
        "operator:ja": "九州旅客鉄道",
        "public_transport": "station",
        "railway": "station",
        "source": "KSJ2",
        "source_ref": "http://nlftp.mlit.go.jp/ksj/jpgis/datalist/KsjTmplt-N02-v1_1.html",
        "train": "yes",
        "wikidata": "Q5357695",
        "wikipedia": "ja:日向市駅"
      }
    },
    {
      "id": "miyazaki_station_8289383195",
      "osmId": 8289383195,
      "osmType": "node",
      "prefectureId": "miyazaki",
      "type": "station",
      "subtype": "jr",
      "name": "南日向",
      "nameKana": null,
      "nameEn": "Minami-Hyuga",
      "operator": "九州旅客鉄道",
      "network": "JR日豊線",
      "ref": null,
      "latitude": 32.369681,
      "longitude": 131.6276854,
      "countryCode": "jp",
      "rawTags": {
        "name": "南日向",
        "name:en": "Minami-Hyuga",
        "name:ja": "南日向",
        "name:ko": "미나미휴가",
        "network": "JR日豊線",
        "note": "National-Land Numerical Information (Railway) 2007, MLIT Japan",
        "note:ja": "国土数値情報（鉄道データ）平成19年　国土交通省",
        "operator": "九州旅客鉄道",
        "operator:ja": "九州旅客鉄道",
        "public_transport": "station",
        "railway": "station",
        "source": "KSJ2",
        "source_ref": "http://nlftp.mlit.go.jp/ksj/jpgis/datalist/KsjTmplt-N02-v1_1.html",
        "train": "yes",
        "wikidata": "Q6862908",
        "wikipedia": "ja:南日向駅"
      }
    },
    {
      "id": "miyazaki_station_8289746110",
      "osmId": 8289746110,
      "osmType": "node",
      "prefectureId": "miyazaki",
      "type": "station",
      "subtype": "jr",
      "name": "美々津",
      "nameKana": null,
      "nameEn": "Mimitsu",
      "operator": "九州旅客鉄道",
      "network": "JR日豊線",
      "ref": null,
      "latitude": 32.3259681,
      "longitude": 131.6022507,
      "countryCode": "jp",
      "rawTags": {
        "name": "美々津",
        "name:en": "Mimitsu",
        "name:ja": "美々津",
        "name:ko": "미미쓰",
        "network": "JR日豊線",
        "note": "National-Land Numerical Information (Railway) 2007, MLIT Japan",
        "note:ja": "国土数値情報（鉄道データ）平成19年　国土交通省",
        "operator": "九州旅客鉄道",
        "operator:ja": "九州旅客鉄道",
        "public_transport": "station",
        "railway": "station",
        "source": "KSJ2",
        "source_ref": "http://nlftp.mlit.go.jp/ksj/jpgis/datalist/KsjTmplt-N02-v1_1.html",
        "train": "yes",
        "wikidata": "Q5358050",
        "wikipedia": "ja:美々津駅"
      }
    },
    {
      "id": "miyazaki_station_8291924411",
      "osmId": 8291924411,
      "osmType": "node",
      "prefectureId": "miyazaki",
      "type": "station",
      "subtype": "jr",
      "name": "都農",
      "nameKana": null,
      "nameEn": "Tsuno",
      "operator": "九州旅客鉄道",
      "network": "JR日豊線",
      "ref": null,
      "latitude": 32.2509827,
      "longitude": 131.5682475,
      "countryCode": "jp",
      "rawTags": {
        "KSJ2:LIN": "日豊線",
        "KSJ2:STN": "都農",
        "name": "都農",
        "name:en": "Tsuno",
        "name:ja": "都農",
        "name:ko": "쓰노",
        "network": "JR日豊線",
        "note": "National-Land Numerical Information (Railway) 2007, MLIT Japan",
        "note:ja": "国土数値情報（鉄道データ）平成19年　国土交通省",
        "operator": "九州旅客鉄道",
        "operator:ja": "九州旅客鉄道",
        "public_transport": "station",
        "railway": "station",
        "source": "KSJ2",
        "source_ref": "http://nlftp.mlit.go.jp/ksj/jpgis/datalist/KsjTmplt-N02-v1_1.html",
        "wikidata": "Q5357711",
        "wikipedia": "ja:都農駅"
      }
    },
    {
      "id": "miyazaki_station_8292115036",
      "osmId": 8292115036,
      "osmType": "node",
      "prefectureId": "miyazaki",
      "type": "station",
      "subtype": "jr",
      "name": "川南",
      "nameKana": null,
      "nameEn": "Kawaminami",
      "operator": "九州旅客鉄道",
      "network": "JR日豊線",
      "ref": null,
      "latitude": 32.192188,
      "longitude": 131.5531931,
      "countryCode": "jp",
      "rawTags": {
        "name": "川南",
        "name:en": "Kawaminami",
        "name:ja": "川南",
        "name:ko": "가와미나미",
        "network": "JR日豊線",
        "note": "National-Land Numerical Information (Railway) 2007, MLIT Japan",
        "note:ja": "国土数値情報（鉄道データ）平成19年　国土交通省",
        "operator": "九州旅客鉄道",
        "operator:ja": "九州旅客鉄道",
        "public_transport": "station",
        "railway": "station",
        "source": "KSJ2",
        "source_ref": "http://nlftp.mlit.go.jp/ksj/jpgis/datalist/KsjTmplt-N02-v1_1.html",
        "train": "yes",
        "wikidata": "Q5357937",
        "wikipedia": "ja:川南駅"
      }
    },
    {
      "id": "miyazaki_station_8292203746",
      "osmId": 8292203746,
      "osmType": "node",
      "prefectureId": "miyazaki",
      "type": "station",
      "subtype": "jr",
      "name": "高鍋",
      "nameKana": null,
      "nameEn": "Takanabe",
      "operator": "九州旅客鉄道",
      "network": "JR日豊線",
      "ref": null,
      "latitude": 32.122192,
      "longitude": 131.5334675,
      "countryCode": "jp",
      "rawTags": {
        "name": "高鍋",
        "name:en": "Takanabe",
        "name:ja": "高鍋",
        "name:ko": "다카나베",
        "network": "JR日豊線",
        "note": "National-Land Numerical Information (Railway) 2007, MLIT Japan",
        "note:ja": "国土数値情報（鉄道データ）平成19年　国土交通省",
        "operator": "九州旅客鉄道",
        "operator:ja": "九州旅客鉄道",
        "public_transport": "station",
        "railway": "station",
        "source": "KSJ2",
        "source_ref": "http://nlftp.mlit.go.jp/ksj/jpgis/datalist/KsjTmplt-N02-v1_1.html",
        "train": "yes",
        "wikidata": "Q5357588",
        "wikipedia": "ja:高鍋駅"
      }
    },
    {
      "id": "miyazaki_station_8293385039",
      "osmId": 8293385039,
      "osmType": "node",
      "prefectureId": "miyazaki",
      "type": "station",
      "subtype": "jr",
      "name": "田吉",
      "nameKana": "たよし",
      "nameEn": "Tayoshi",
      "operator": "九州旅客鉄道",
      "network": null,
      "ref": null,
      "latitude": 31.8792032,
      "longitude": 131.4303808,
      "countryCode": "jp",
      "rawTags": {
        "name": "田吉",
        "name:en": "Tayoshi",
        "name:ja": "田吉",
        "name:ja-Hira": "たよし",
        "name:ko": "다요시",
        "note": "National-Land Numerical Information (Railway) 2007, MLIT Japan",
        "note:ja": "国土数値情報（鉄道データ）平成19年　国土交通省",
        "operator": "九州旅客鉄道",
        "operator:ja": "九州旅客鉄道",
        "public_transport": "station",
        "railway": "station",
        "source": "Bing",
        "train": "yes",
        "wikidata": "Q7690310",
        "wikipedia": "ja:田吉駅"
      }
    },
    {
      "id": "miyazaki_station_8295253832",
      "osmId": 8295253832,
      "osmType": "node",
      "prefectureId": "miyazaki",
      "type": "station",
      "subtype": "jr",
      "name": "佐土原",
      "nameKana": null,
      "nameEn": "Sadowara",
      "operator": "九州旅客鉄道",
      "network": "JR日豊線",
      "ref": null,
      "latitude": 32.0223663,
      "longitude": 131.4771156,
      "countryCode": "jp",
      "rawTags": {
        "name": "佐土原",
        "name:en": "Sadowara",
        "name:ja": "佐土原",
        "name:ko": "사도와라",
        "network": "JR日豊線",
        "note": "National-Land Numerical Information (Railway) 2007, MLIT Japan",
        "note:ja": "国土数値情報（鉄道データ）平成19年　国土交通省",
        "operator": "九州旅客鉄道",
        "operator:ja": "九州旅客鉄道",
        "public_transport": "station",
        "railway": "station",
        "source": "KSJ2",
        "source_ref": "http://nlftp.mlit.go.jp/ksj/jpgis/datalist/KsjTmplt-N02-v1_1.html",
        "train": "yes",
        "wikidata": "Q5360779",
        "wikipedia": "ja:佐土原駅"
      }
    },
    {
      "id": "miyazaki_station_8295592571",
      "osmId": 8295592571,
      "osmType": "node",
      "prefectureId": "miyazaki",
      "type": "station",
      "subtype": "jr",
      "name": "宮崎神宮",
      "nameKana": null,
      "nameEn": "Miyazaki-Jingu",
      "operator": "九州旅客鉄道",
      "network": "JR日豊線",
      "ref": null,
      "latitude": 31.9384255,
      "longitude": 131.430539,
      "countryCode": "jp",
      "rawTags": {
        "alt_name:ko": "미야자키진구",
        "name": "宮崎神宮",
        "name:en": "Miyazaki-Jingu",
        "name:ja": "宮崎神宮",
        "name:ja_rm": "Miyazaki-Jingū",
        "name:ko": "미야자키신궁",
        "network": "JR日豊線",
        "note": "National-Land Numerical Information (Railway) 2007, MLIT Japan",
        "note:ja": "国土数値情報（鉄道データ）平成19年　国土交通省",
        "operator": "九州旅客鉄道",
        "operator:ja": "九州旅客鉄道",
        "public_transport": "station",
        "railway": "station",
        "source": "KSJ2",
        "source_ref": "http://nlftp.mlit.go.jp/ksj/jpgis/datalist/KsjTmplt-N02-v1_1.html",
        "train": "yes",
        "wikidata": "Q5357473",
        "wikipedia": "ja:宮崎神宮駅"
      }
    },
    {
      "id": "miyazaki_station_8295592585",
      "osmId": 8295592585,
      "osmType": "node",
      "prefectureId": "miyazaki",
      "type": "station",
      "subtype": "jr",
      "name": "蓮ヶ池",
      "nameKana": null,
      "nameEn": "Hasugaike",
      "operator": "九州旅客鉄道",
      "network": "JR日豊線",
      "ref": null,
      "latitude": 31.960183,
      "longitude": 131.442837,
      "countryCode": "jp",
      "rawTags": {
        "name": "蓮ヶ池",
        "name:en": "Hasugaike",
        "name:ja": "蓮ヶ池",
        "name:ko": "하스가이케",
        "network": "JR日豊線",
        "note": "National-Land Numerical Information (Railway) 2007, MLIT Japan",
        "note:ja": "国土数値情報（鉄道データ）平成19年　国土交通省",
        "operator": "九州旅客鉄道",
        "operator:ja": "九州旅客鉄道",
        "public_transport": "station",
        "railway": "station",
        "source": "KSJ2",
        "source_ref": "http://nlftp.mlit.go.jp/ksj/jpgis/datalist/KsjTmplt-N02-v1_1.html",
        "train": "yes",
        "wikidata": "Q5357244",
        "wikipedia": "ja:蓮ケ池駅"
      }
    },
    {
      "id": "miyazaki_station_8295592598",
      "osmId": 8295592598,
      "osmType": "node",
      "prefectureId": "miyazaki",
      "type": "station",
      "subtype": "jr",
      "name": "日向住吉",
      "nameKana": null,
      "nameEn": "Hyuga-Sumiyoshi",
      "operator": "九州旅客鉄道",
      "network": "JR日豊線",
      "ref": null,
      "latitude": 31.9907692,
      "longitude": 131.4576213,
      "countryCode": "jp",
      "rawTags": {
        "name": "日向住吉",
        "name:en": "Hyuga-Sumiyoshi",
        "name:ja": "日向住吉",
        "name:ja_rm": "Hyūga-Sumiyoshi",
        "name:ko": "휴가스미요시",
        "network": "JR日豊線",
        "note": "National-Land Numerical Information (Railway) 2007, MLIT Japan",
        "note:ja": "国土数値情報（鉄道データ）平成19年　国土交通省",
        "operator": "九州旅客鉄道",
        "operator:ja": "九州旅客鉄道",
        "public_transport": "station",
        "railway": "station",
        "source": "KSJ2",
        "source_ref": "http://nlftp.mlit.go.jp/ksj/jpgis/datalist/KsjTmplt-N02-v1_1.html",
        "train": "yes",
        "wikidata": "Q5357595",
        "wikipedia": "ja:日向住吉駅"
      }
    },
    {
      "id": "miyazaki_station_8404097085",
      "osmId": 8404097085,
      "osmType": "node",
      "prefectureId": "miyazaki",
      "type": "station",
      "subtype": "jr",
      "name": "東都農",
      "nameKana": "ひがしつの",
      "nameEn": "Higashi-Tsuno",
      "operator": "九州旅客鉄道",
      "network": "JR日豊線",
      "ref": null,
      "latitude": 32.2904225,
      "longitude": 131.5820648,
      "countryCode": "jp",
      "rawTags": {
        "name": "東都農",
        "name:en": "Higashi-Tsuno",
        "name:ja": "東都農",
        "name:ja-Hira": "ひがしつの",
        "name:ja-Latn": "Higashi-Tsuno",
        "name:ko": "히가시쓰노",
        "network": "JR日豊線",
        "operator": "九州旅客鉄道",
        "operator:ja": "九州旅客鉄道",
        "public_transport": "station",
        "railway": "station",
        "source": "KSJ2",
        "train": "yes",
        "wikidata": "Q5357741",
        "wikipedia": "ja:東都農駅"
      }
    },
    {
      "id": "miyazaki_airport_57013248",
      "osmId": 57013248,
      "osmType": "way",
      "prefectureId": "miyazaki",
      "type": "airport",
      "subtype": "domestic",
      "name": "宮崎空港",
      "nameKana": null,
      "nameEn": "Miyazaki Airport",
      "operator": null,
      "network": null,
      "ref": "KMI",
      "latitude": 31.8760552,
      "longitude": 131.447944,
      "countryCode": "jp",
      "rawTags": {
        "KSJ2:AAC": "45201",
        "KSJ2:AAC_label": "宮崎県宮崎市",
        "KSJ2:AD2": "1",
        "KSJ2:AD2_label": "国土交通大臣",
        "KSJ2:ARP": "31.8772222222 131.4486111111",
        "KSJ2:ATB": "31.8728055600 131.4415000000",
        "KSJ2:CLT": "21 30",
        "KSJ2:COA": "空港整備法に基づく第二種空港",
        "KSJ2:CompositeCurve": "cv78Airport",
        "KSJ2:DSA": "周辺整備空港に指定されていない特定飛行場",
        "KSJ2:INP": "1",
        "KSJ2:INP_label": "国土交通大臣",
        "KSJ2:IUC": "供用中",
        "KSJ2:NA3": "宮崎空港",
        "KSJ2:OPT": "07 30",
        "KSJ2:REF": "1",
        "KSJ2:REF_label": "ジェット定期便が就航している場合",
        "KSJ2:airport_id": "cf02_49",
        "KSJ2:runways": "2500 45",
        "addr:housenumber": "宮崎県宮崎市赤江1",
        "aeroway": "aerodrome",
        "barrier": "fence",
        "iata": "KMI",
        "icao": "RJFM",
        "name": "宮崎空港",
        "name:en": "Miyazaki Airport",
        "name:ja": "宮崎空港",
        "name:ja_rm": "Miyazaki Kuko",
        "name:ko": "미야자키공항",
        "note": "National-Land Numerical Information (Airport) 2007, MLIT Japan",
        "note:ja": "国土数値情報（空港データ）平成19年　国土交通省",
        "phone": "+81 985 51 5114",
        "source": "KSJ2",
        "source_ref": "http://nlftp.mlit.go.jp/ksj/jpgis/datalist/KsjTmplt-C28-v1_1.html",
        "website": "https://www.miyazaki-airport.co.jp/",
        "wikidata": "Q1378640"
      }
    },
    {
      "id": "miyazaki_bus_terminal_706664430",
      "osmId": 706664430,
      "osmType": "way",
      "prefectureId": "miyazaki",
      "type": "bus_terminal",
      "subtype": null,
      "name": "宮崎駅 西1",
      "nameKana": null,
      "nameEn": null,
      "operator": null,
      "network": null,
      "ref": null,
      "latitude": 31.9154742,
      "longitude": 131.4314008,
      "countryCode": "jp",
      "rawTags": {
        "amenity": "bus_station",
        "building": "yes",
        "bus": "yes",
        "name": "宮崎駅 西1",
        "public_transport": "station"
      }
    },
    {
      "id": "miyazaki_bus_terminal_706664661",
      "osmId": 706664661,
      "osmType": "way",
      "prefectureId": "miyazaki",
      "type": "bus_terminal",
      "subtype": null,
      "name": "宮崎駅 西2",
      "nameKana": null,
      "nameEn": null,
      "operator": null,
      "network": null,
      "ref": null,
      "latitude": 31.9154742,
      "longitude": 131.4317072,
      "countryCode": "jp",
      "rawTags": {
        "amenity": "bus_station",
        "building": "yes",
        "bus": "yes",
        "name": "宮崎駅 西2",
        "public_transport": "station"
      }
    },
    {
      "id": "miyazaki_bus_terminal_706665118",
      "osmId": 706665118,
      "osmType": "way",
      "prefectureId": "miyazaki",
      "type": "bus_terminal",
      "subtype": null,
      "name": "宮崎駅 西3",
      "nameKana": null,
      "nameEn": null,
      "operator": null,
      "network": null,
      "ref": null,
      "latitude": 31.9158846,
      "longitude": 131.4314364,
      "countryCode": "jp",
      "rawTags": {
        "amenity": "bus_station",
        "building": "yes",
        "bus": "yes",
        "name": "宮崎駅 西3",
        "public_transport": "station"
      }
    },
    {
      "id": "miyazaki_bus_terminal_753539653",
      "osmId": 753539653,
      "osmType": "way",
      "prefectureId": "miyazaki",
      "type": "bus_terminal",
      "subtype": null,
      "name": "宮崎交通 上椎葉車庫",
      "nameKana": null,
      "nameEn": null,
      "operator": null,
      "network": null,
      "ref": null,
      "latitude": 32.4658288,
      "longitude": 131.1556437,
      "countryCode": "jp",
      "rawTags": {
        "amenity": "bus_station",
        "building": "transportation",
        "building:levels": "1",
        "name": "宮崎交通 上椎葉車庫",
        "public_transport": "station",
        "tactile_paving": "no"
      }
    },
    {
      "id": "miyazaki_bus_terminal_754636309",
      "osmId": 754636309,
      "osmType": "way",
      "prefectureId": "miyazaki",
      "type": "bus_terminal",
      "subtype": null,
      "name": "高千穂バスセンター",
      "nameKana": null,
      "nameEn": "Takachiho Bus Center",
      "operator": null,
      "network": null,
      "ref": null,
      "latitude": 32.7096837,
      "longitude": 131.3091372,
      "countryCode": "jp",
      "rawTags": {
        "amenity": "bus_station",
        "name": "高千穂バスセンター",
        "name:en": "Takachiho Bus Center"
      }
    },
    {
      "id": "miyazaki_bus_terminal_757070348",
      "osmId": 757070348,
      "osmType": "way",
      "prefectureId": "miyazaki",
      "type": "bus_terminal",
      "subtype": null,
      "name": "宮崎交通 塚原車庫",
      "nameKana": null,
      "nameEn": null,
      "operator": null,
      "network": null,
      "ref": null,
      "latitude": 32.5104567,
      "longitude": 131.3258002,
      "countryCode": "jp",
      "rawTags": {
        "amenity": "bus_station",
        "building": "transportation",
        "name": "宮崎交通 塚原車庫"
      }
    },
    {
      "id": "miyazaki_bus_terminal_1267292007",
      "osmId": 1267292007,
      "osmType": "way",
      "prefectureId": "miyazaki",
      "type": "bus_terminal",
      "subtype": null,
      "name": "西都バスセンター",
      "nameKana": null,
      "nameEn": null,
      "operator": "宮崎交通株式会社",
      "network": null,
      "ref": null,
      "latitude": 32.106666,
      "longitude": 131.4053103,
      "countryCode": "jp",
      "rawTags": {
        "addr:postcode": "8810012",
        "amenity": "bus_station",
        "building": "bus_station",
        "bus": "yes",
        "internet_access": "wlan",
        "name": "西都バスセンター",
        "operator": "宮崎交通株式会社",
        "public_transport": "station"
      }
    },
    {
      "id": "miyazaki_bus_terminal_1271951421",
      "osmId": 1271951421,
      "osmType": "way",
      "prefectureId": "miyazaki",
      "type": "bus_terminal",
      "subtype": null,
      "name": "高鍋バスセンター",
      "nameKana": null,
      "nameEn": null,
      "operator": null,
      "network": null,
      "ref": null,
      "latitude": 32.1312551,
      "longitude": 131.5073721,
      "countryCode": "jp",
      "rawTags": {
        "amenity": "bus_station",
        "bus": "yes",
        "name": "高鍋バスセンター",
        "public_transport": "station"
      }
    },
    {
      "id": "miyazaki_ferry_terminal_1355350626",
      "osmId": 1355350626,
      "osmType": "way",
      "prefectureId": "miyazaki",
      "type": "ferry_terminal",
      "subtype": null,
      "name": "宮崎港フェリーターミナル",
      "nameKana": null,
      "nameEn": "Miyazaki Port Ferry Terminal",
      "operator": null,
      "network": null,
      "ref": null,
      "latitude": 31.9108934,
      "longitude": 131.4577615,
      "countryCode": "jp",
      "rawTags": {
        "amenity": "ferry_terminal",
        "building": "commercial",
        "cargo": "passengers;vehicle",
        "name": "宮崎港フェリーターミナル",
        "name:en": "Miyazaki Port Ferry Terminal"
      }
    }
  ]
}