{
  "fetchedAt": "2025-12-12T05:37:16.229Z",
  "prefectureId": "nagasaki",
  "prefectureName": "長崎県",
  "stats": {
    "station": 99,
    "airport": 7,
    "ferry_terminal": 70,
    "bus_terminal": 14,
    "total": 190
  },
  "data": [
    {
      "id": "nagasaki_station_265852520",
      "osmId": 265852520,
      "osmType": "node",
      "prefectureId": "nagasaki",
      "type": "station",
      "subtype": "jr",
      "name": "三河内",
      "nameKana": null,
      "nameEn": "Mikawachi",
      "operator": "九州旅客鉄道",
      "network": "JR佐世保線",
      "ref": null,
      "latitude": 33.1504687,
      "longitude": 129.8294343,
      "countryCode": "jp",
      "rawTags": {
        "KSJ2:LIN": "佐世保線",
        "KSJ2:STN": "三河内",
        "name": "三河内",
        "name:de": "Mikawachi",
        "name:en": "Mikawachi",
        "name:ja": "三河内",
        "name:ko": "미카와치",
        "network": "JR佐世保線",
        "note": "National-Land Numerical Information (Railway) 2007, MLIT Japan",
        "note:ja": "国土数値情報（鉄道データ）平成19年　国土交通省",
        "operator": "九州旅客鉄道",
        "railway": "station",
        "source": "KSJ2",
        "source_ref": "http://nlftp.mlit.go.jp/ksj/jpgis/datalist/KsjTmplt-N02-v1_1.html",
        "wikidata": "Q6845759",
        "wikipedia": "ja:三河内駅"
      }
    },
    {
      "id": "nagasaki_station_265852701",
      "osmId": 265852701,
      "osmType": "node",
      "prefectureId": "nagasaki",
      "type": "station",
      "subtype": "jr",
      "name": "日宇",
      "nameKana": null,
      "nameEn": "Hiu",
      "operator": "九州旅客鉄道",
      "network": "JR佐世保線",
      "ref": null,
      "latitude": 33.1572677,
      "longitude": 129.7580078,
      "countryCode": "jp",
      "rawTags": {
        "KSJ2:LIN": "佐世保線",
        "KSJ2:STN": "日宇",
        "name": "日宇",
        "name:de": "Hiu",
        "name:en": "Hiu",
        "name:ja": "日宇",
        "name:ko": "히우",
        "network": "JR佐世保線",
        "note": "National-Land Numerical Information (Railway) 2007, MLIT Japan",
        "note:ja": "国土数値情報（鉄道データ）平成19年　国土交通省",
        "operator": "九州旅客鉄道",
        "railway": "station",
        "source": "KSJ2",
        "source_ref": "http://nlftp.mlit.go.jp/ksj/jpgis/datalist/KsjTmplt-N02-v1_1.html",
        "wikidata": "Q5872748",
        "wikipedia": "ja:日宇駅"
      }
    },
    {
      "id": "nagasaki_station_265887634",
      "osmId": 265887634,
      "osmType": "node",
      "prefectureId": "nagasaki",
      "type": "station",
      "subtype": "private",
      "name": "千綿",
      "nameKana": null,
      "nameEn": "Chiwata",
      "operator": null,
      "network": null,
      "ref": null,
      "latitude": 33.0130398,
      "longitude": 129.945632,
      "countryCode": "jp",
      "rawTags": {
        "KSJ2:LIN": "大村線",
        "KSJ2:STN": "千綿",
        "name": "千綿",
        "name:en": "Chiwata",
        "name:ja": "千綿",
        "name:ko": "지와타",
        "note": "National-Land Numerical Information (Railway) 2007, MLIT Japan",
        "note:ja": "国土数値情報（鉄道データ）平成19年　国土交通省",
        "railway": "station",
        "source": "KSJ2",
        "source_ref": "http://nlftp.mlit.go.jp/ksj/jpgis/datalist/KsjTmplt-N02-v1_1.html",
        "wikidata": "Q5102598",
        "wikipedia": "ja:千綿駅"
      }
    },
    {
      "id": "nagasaki_station_265887755",
      "osmId": 265887755,
      "osmType": "node",
      "prefectureId": "nagasaki",
      "type": "station",
      "subtype": "private",
      "name": "南風崎",
      "nameKana": null,
      "nameEn": "Haenosaki",
      "operator": null,
      "network": null,
      "ref": null,
      "latitude": 33.0869357,
      "longitude": 129.8012427,
      "countryCode": "jp",
      "rawTags": {
        "KSJ2:LIN": "大村線",
        "KSJ2:STN": "南風崎",
        "name": "南風崎",
        "name:en": "Haenosaki",
        "name:ja": "南風崎",
        "name:ko": "하에노사키",
        "note": "National-Land Numerical Information (Railway) 2007, MLIT Japan",
        "note:ja": "国土数値情報（鉄道データ）平成19年　国土交通省",
        "railway": "station",
        "source": "KSJ2",
        "source_ref": "http://nlftp.mlit.go.jp/ksj/jpgis/datalist/KsjTmplt-N02-v1_1.html",
        "wikidata": "Q5638286",
        "wikipedia": "ja:南風崎駅"
      }
    },
    {
      "id": "nagasaki_station_265887777",
      "osmId": 265887777,
      "osmType": "node",
      "prefectureId": "nagasaki",
      "type": "station",
      "subtype": "private",
      "name": "彼杵",
      "nameKana": null,
      "nameEn": "Sonogi",
      "operator": null,
      "network": null,
      "ref": null,
      "latitude": 33.0396733,
      "longitude": 129.9150283,
      "countryCode": "jp",
      "rawTags": {
        "KSJ2:LIN": "大村線",
        "KSJ2:STN": "彼杵",
        "name": "彼杵",
        "name:en": "Sonogi",
        "name:ja": "彼杵",
        "name:ko": "소노기",
        "note": "National-Land Numerical Information (Railway) 2007, MLIT Japan",
        "note:ja": "国土数値情報（鉄道データ）平成19年　国土交通省",
        "railway": "station",
        "source": "KSJ2",
        "source_ref": "http://nlftp.mlit.go.jp/ksj/jpgis/datalist/KsjTmplt-N02-v1_1.html",
        "wikidata": "Q7562156",
        "wikipedia": "ja:彼杵駅"
      }
    },
    {
      "id": "nagasaki_station_265887778",
      "osmId": 265887778,
      "osmType": "node",
      "prefectureId": "nagasaki",
      "type": "station",
      "subtype": "private",
      "name": "川棚",
      "nameKana": null,
      "nameEn": "Kawatana",
      "operator": null,
      "network": null,
      "ref": null,
      "latitude": 33.0684952,
      "longitude": 129.863469,
      "countryCode": "jp",
      "rawTags": {
        "KSJ2:LIN": "大村線",
        "KSJ2:STN": "川棚",
        "name": "川棚",
        "name:en": "Kawatana",
        "name:ja": "川棚",
        "name:ko": "가와타나",
        "note": "National-Land Numerical Information (Railway) 2007, MLIT Japan",
        "note:ja": "国土数値情報（鉄道データ）平成19年　国土交通省",
        "railway": "station",
        "source": "KSJ2",
        "source_ref": "http://nlftp.mlit.go.jp/ksj/jpgis/datalist/KsjTmplt-N02-v1_1.html",
        "wheelchair": "limited",
        "wikidata": "Q6379885",
        "wikipedia": "ja:川棚駅"
      }
    },
    {
      "id": "nagasaki_station_265888119",
      "osmId": 265888119,
      "osmType": "node",
      "prefectureId": "nagasaki",
      "type": "station",
      "subtype": "private",
      "name": "小串郷",
      "nameKana": null,
      "nameEn": "Ogushigō",
      "operator": null,
      "network": null,
      "ref": null,
      "latitude": 33.063443,
      "longitude": 129.834718,
      "countryCode": "jp",
      "rawTags": {
        "KSJ2:LIN": "大村線",
        "KSJ2:STN": "小串郷",
        "name": "小串郷",
        "name:en": "Ogushigō",
        "name:ja": "小串郷",
        "name:ko": "오구시고",
        "note": "National-Land Numerical Information (Railway) 2007, MLIT Japan",
        "note:ja": "国土数値情報（鉄道データ）平成19年　国土交通省",
        "railway": "station",
        "source": "KSJ2",
        "source_ref": "http://nlftp.mlit.go.jp/ksj/jpgis/datalist/KsjTmplt-N02-v1_1.html",
        "wikidata": "Q7080305",
        "wikipedia": "ja:小串郷駅"
      }
    },
    {
      "id": "nagasaki_station_270856224",
      "osmId": 270856224,
      "osmType": "node",
      "prefectureId": "nagasaki",
      "type": "station",
      "subtype": "private",
      "name": "西木場",
      "nameKana": null,
      "nameEn": "Nishikoba",
      "operator": null,
      "network": null,
      "ref": null,
      "latitude": 33.3556668,
      "longitude": 129.6382538,
      "countryCode": "jp",
      "rawTags": {
        "KSJ2:LIN": "西九州線",
        "KSJ2:STN": "西木場",
        "name": "西木場",
        "name:en": "Nishikoba",
        "name:ja": "西木場",
        "name:ko": "니시코바",
        "note": "National-Land Numerical Information (Railway) 2007, MLIT Japan",
        "note:ja": "国土数値情報（鉄道データ）平成19年　国土交通省",
        "public_transport": "station",
        "railway": "station",
        "source": "KSJ2",
        "source_ref": "http://nlftp.mlit.go.jp/ksj/jpgis/datalist/KsjTmplt-N02-v1_1.html",
        "wikidata": "Q11628455",
        "wikipedia": "ja:西木場駅"
      }
    },
    {
      "id": "nagasaki_station_270856235",
      "osmId": 270856235,
      "osmType": "node",
      "prefectureId": "nagasaki",
      "type": "station",
      "subtype": "private",
      "name": "松浦発電所前",
      "nameKana": null,
      "nameEn": "Matsuura-Hatsudenshomae",
      "operator": null,
      "network": null,
      "ref": null,
      "latitude": 33.3470285,
      "longitude": 129.685576,
      "countryCode": "jp",
      "rawTags": {
        "KSJ2:LIN": "西九州線",
        "KSJ2:STN": "松浦発電所前",
        "alt_name:ko": "마쓰우라하쓰덴쇼마에",
        "name": "松浦発電所前",
        "name:en": "Matsuura-Hatsudenshomae",
        "name:ja": "松浦発電所前",
        "name:ko": "마쓰우라발전소앞",
        "note": "National-Land Numerical Information (Railway) 2007, MLIT Japan",
        "note:ja": "国土数値情報（鉄道データ）平成19年　国土交通省",
        "public_transport": "station",
        "railway": "station",
        "source": "KSJ2",
        "source_ref": "http://nlftp.mlit.go.jp/ksj/jpgis/datalist/KsjTmplt-N02-v1_1.html",
        "wikidata": "Q11531850",
        "wikipedia": "ja:松浦発電所前駅"
      }
    },
    {
      "id": "nagasaki_station_270856538",
      "osmId": 270856538,
      "osmType": "node",
      "prefectureId": "nagasaki",
      "type": "station",
      "subtype": "private",
      "name": "小浦",
      "nameKana": null,
      "nameEn": "Koura",
      "operator": null,
      "network": null,
      "ref": null,
      "latitude": 33.2221327,
      "longitude": 129.6416297,
      "countryCode": "jp",
      "rawTags": {
        "KSJ2:LIN": "西九州線",
        "KSJ2:STN": "小浦",
        "name": "小浦",
        "name:en": "Koura",
        "name:ja": "小浦",
        "name:ko": "고우라",
        "note": "National-Land Numerical Information (Railway) 2007, MLIT Japan",
        "note:ja": "国土数値情報（鉄道データ）平成19年　国土交通省",
        "public_transport": "station",
        "railway": "station",
        "source": "KSJ2",
        "source_ref": "http://nlftp.mlit.go.jp/ksj/jpgis/datalist/KsjTmplt-N02-v1_1.html",
        "wikidata": "Q6434684",
        "wikipedia": "ja:小浦駅 (長崎県)"
      }
    },
    {
      "id": "nagasaki_station_270856541",
      "osmId": 270856541,
      "osmType": "node",
      "prefectureId": "nagasaki",
      "type": "station",
      "subtype": "private",
      "name": "神田",
      "nameKana": null,
      "nameEn": "Kouda",
      "operator": null,
      "network": null,
      "ref": null,
      "latitude": 33.2613998,
      "longitude": 129.6712674,
      "countryCode": "jp",
      "rawTags": {
        "KSJ2:LIN": "西九州線",
        "KSJ2:STN": "神田",
        "name": "神田",
        "name:en": "Kouda",
        "name:ja": "神田",
        "name:ko": "고우다",
        "note": "National-Land Numerical Information (Railway) 2007, MLIT Japan",
        "note:ja": "国土数値情報（鉄道データ）平成19年　国土交通省",
        "public_transport": "station",
        "railway": "station",
        "source": "KSJ2",
        "source_ref": "http://nlftp.mlit.go.jp/ksj/jpgis/datalist/KsjTmplt-N02-v1_1.html",
        "wikidata": "Q11590678",
        "wikipedia": "ja:神田駅 (長崎県)"
      }
    },
    {
      "id": "nagasaki_station_270856544",
      "osmId": 270856544,
      "osmType": "node",
      "prefectureId": "nagasaki",
      "type": "station",
      "subtype": "private",
      "name": "山の田",
      "nameKana": null,
      "nameEn": "Yamanota",
      "operator": null,
      "network": null,
      "ref": null,
      "latitude": 33.1964397,
      "longitude": 129.7227309,
      "countryCode": "jp",
      "rawTags": {
        "KSJ2:LIN": "西九州線",
        "KSJ2:STN": "山の田",
        "name": "山の田",
        "name:en": "Yamanota",
        "name:ja": "山の田",
        "name:ko": "야마노타",
        "note": "National-Land Numerical Information (Railway) 2007, MLIT Japan",
        "note:ja": "国土数値情報（鉄道データ）平成19年　国土交通省",
        "public_transport": "station",
        "railway": "station",
        "source": "KSJ2",
        "source_ref": "http://nlftp.mlit.go.jp/ksj/jpgis/datalist/KsjTmplt-N02-v1_1.html",
        "wikidata": "Q11465799",
        "wikipedia": "ja:山の田駅"
      }
    },
    {
      "id": "nagasaki_station_270856547",
      "osmId": 270856547,
      "osmType": "node",
      "prefectureId": "nagasaki",
      "type": "station",
      "subtype": "private",
      "name": "北佐世保",
      "nameKana": null,
      "nameEn": "Kita-Sasebo",
      "operator": null,
      "network": null,
      "ref": null,
      "latitude": 33.1870131,
      "longitude": 129.7206621,
      "countryCode": "jp",
      "rawTags": {
        "KSJ2:LIN": "西九州線",
        "KSJ2:STN": "北佐世保",
        "name": "北佐世保",
        "name:en": "Kita-Sasebo",
        "name:ja": "北佐世保",
        "name:ko": "기타사세보",
        "note": "National-Land Numerical Information (Railway) 2007, MLIT Japan",
        "note:ja": "国土数値情報（鉄道データ）平成19年　国土交通省",
        "public_transport": "station",
        "railway": "station",
        "source": "KSJ2",
        "source_ref": "http://nlftp.mlit.go.jp/ksj/jpgis/datalist/KsjTmplt-N02-v1_1.html",
        "wikidata": "Q6417598",
        "wikipedia": "ja:北佐世保駅"
      }
    },
    {
      "id": "nagasaki_station_270856554",
      "osmId": 270856554,
      "osmType": "node",
      "prefectureId": "nagasaki",
      "type": "station",
      "subtype": "private",
      "name": "御厨",
      "nameKana": null,
      "nameEn": "Mikuriya",
      "operator": null,
      "network": null,
      "ref": null,
      "latitude": 33.3659315,
      "longitude": 129.6626582,
      "countryCode": "jp",
      "rawTags": {
        "KSJ2:LIN": "西九州線",
        "KSJ2:STN": "御厨",
        "name": "御厨",
        "name:en": "Mikuriya",
        "name:ja": "御厨",
        "name:ko": "미쿠리야",
        "note": "National-Land Numerical Information (Railway) 2007, MLIT Japan",
        "note:ja": "国土数値情報（鉄道データ）平成19年　国土交通省",
        "public_transport": "station",
        "railway": "station",
        "source": "KSJ2",
        "source_ref": "http://nlftp.mlit.go.jp/ksj/jpgis/datalist/KsjTmplt-N02-v1_1.html",
        "wikidata": "Q6850285",
        "wikipedia": "ja:御厨駅 (長崎県)"
      }
    },
    {
      "id": "nagasaki_station_270856661",
      "osmId": 270856661,
      "osmType": "node",
      "prefectureId": "nagasaki",
      "type": "station",
      "subtype": "private",
      "name": "西田平",
      "nameKana": null,
      "nameEn": "Nishi-Tabira",
      "operator": null,
      "network": null,
      "ref": null,
      "latitude": 33.3451394,
      "longitude": 129.5905073,
      "countryCode": "jp",
      "rawTags": {
        "KSJ2:LIN": "西九州線",
        "KSJ2:STN": "西田平",
        "name": "西田平",
        "name:en": "Nishi-Tabira",
        "name:ja": "西田平",
        "name:ko": "니시타비라",
        "note": "National-Land Numerical Information (Railway) 2007, MLIT Japan",
        "note:ja": "国土数値情報（鉄道データ）平成19年　国土交通省",
        "public_transport": "station",
        "railway": "station",
        "source": "KSJ2",
        "source_ref": "http://nlftp.mlit.go.jp/ksj/jpgis/datalist/KsjTmplt-N02-v1_1.html",
        "wikidata": "Q7040413",
        "wikipedia": "ja:西田平駅"
      }
    },
    {
      "id": "nagasaki_station_270856665",
      "osmId": 270856665,
      "osmType": "node",
      "prefectureId": "nagasaki",
      "type": "station",
      "subtype": "private",
      "name": "真申",
      "nameKana": null,
      "nameEn": "Masaru",
      "operator": null,
      "network": null,
      "ref": null,
      "latitude": 33.2067802,
      "longitude": 129.6512168,
      "countryCode": "jp",
      "rawTags": {
        "KSJ2:LIN": "西九州線",
        "KSJ2:STN": "真申",
        "name": "真申",
        "name:en": "Masaru",
        "name:ja": "真申",
        "name:ko": "마사루",
        "note": "National-Land Numerical Information (Railway) 2007, MLIT Japan",
        "note:ja": "国土数値情報（鉄道データ）平成19年　国土交通省",
        "public_transport": "station",
        "railway": "station",
        "source": "KSJ2",
        "source_ref": "http://nlftp.mlit.go.jp/ksj/jpgis/datalist/KsjTmplt-N02-v1_1.html",
        "wikidata": "Q11583416",
        "wikipedia": "ja:真申駅"
      }
    },
    {
      "id": "nagasaki_station_270856666",
      "osmId": 270856666,
      "osmType": "node",
      "prefectureId": "nagasaki",
      "type": "station",
      "subtype": "private",
      "name": "調川",
      "nameKana": null,
      "nameEn": "Tsukinokawa",
      "operator": null,
      "network": null,
      "ref": null,
      "latitude": 33.3519096,
      "longitude": 129.7273798,
      "countryCode": "jp",
      "rawTags": {
        "KSJ2:LIN": "西九州線",
        "KSJ2:STN": "調川",
        "name": "調川",
        "name:en": "Tsukinokawa",
        "name:ja": "調川",
        "name:ko": "쓰키노카와",
        "note": "National-Land Numerical Information (Railway) 2007, MLIT Japan",
        "note:ja": "国土数値情報（鉄道データ）平成19年　国土交通省",
        "railway": "station",
        "source": "KSJ2",
        "source_ref": "http://nlftp.mlit.go.jp/ksj/jpgis/datalist/KsjTmplt-N02-v1_1.html",
        "wikidata": "Q11631732",
        "wikipedia": "ja:調川駅"
      }
    },
    {
      "id": "nagasaki_station_270856736",
      "osmId": 270856736,
      "osmType": "node",
      "prefectureId": "nagasaki",
      "type": "station",
      "subtype": "private",
      "name": "鷹島口",
      "nameKana": null,
      "nameEn": "Takashimaguchi",
      "operator": null,
      "network": null,
      "ref": null,
      "latitude": 33.3541067,
      "longitude": 129.7617713,
      "countryCode": "jp",
      "rawTags": {
        "KSJ2:LIN": "西九州線",
        "KSJ2:STN": "鷹島口",
        "name": "鷹島口",
        "name:en": "Takashimaguchi",
        "name:ja": "鷹島口",
        "name:ko": "다카시마구치",
        "note": "National-Land Numerical Information (Railway) 2007, MLIT Japan",
        "note:ja": "国土数値情報（鉄道データ）平成19年　国土交通省",
        "railway": "station",
        "source": "KSJ2",
        "source_ref": "http://nlftp.mlit.go.jp/ksj/jpgis/datalist/KsjTmplt-N02-v1_1.html",
        "wikidata": "Q11676353",
        "wikipedia": "ja:鷹島口駅"
      }
    },
    {
      "id": "nagasaki_station_270856738",
      "osmId": 270856738,
      "osmType": "node",
      "prefectureId": "nagasaki",
      "type": "station",
      "subtype": "private",
      "name": "泉福寺",
      "nameKana": null,
      "nameEn": "Senpukuzi",
      "operator": null,
      "network": null,
      "ref": null,
      "latitude": 33.205235,
      "longitude": 129.7269064,
      "countryCode": "jp",
      "rawTags": {
        "KSJ2:LIN": "西九州線",
        "KSJ2:STN": "泉福寺",
        "name": "泉福寺",
        "name:en": "Senpukuzi",
        "name:ja": "泉福寺",
        "name:ko": "센푸쿠지",
        "note": "National-Land Numerical Information (Railway) 2007, MLIT Japan",
        "note:ja": "国土数値情報（鉄道データ）平成19年　国土交通省",
        "public_transport": "station",
        "railway": "station",
        "source": "KSJ2",
        "source_ref": "http://nlftp.mlit.go.jp/ksj/jpgis/datalist/KsjTmplt-N02-v1_1.html",
        "wikidata": "Q11554904",
        "wikipedia": "ja:泉福寺駅"
      }
    },
    {
      "id": "nagasaki_station_270856744",
      "osmId": 270856744,
      "osmType": "node",
      "prefectureId": "nagasaki",
      "type": "station",
      "subtype": "private",
      "name": "今福",
      "nameKana": null,
      "nameEn": "Imabuku",
      "operator": null,
      "network": null,
      "ref": null,
      "latitude": 33.3484353,
      "longitude": 129.7718989,
      "countryCode": "jp",
      "rawTags": {
        "KSJ2:LIN": "西九州線",
        "KSJ2:STN": "今福",
        "name": "今福",
        "name:en": "Imabuku",
        "name:ja": "今福",
        "name:ko": "이마부쿠",
        "note": "National-Land Numerical Information (Railway) 2007, MLIT Japan",
        "note:ja": "国土数値情報（鉄道データ）平成19年　国土交通省",
        "railway": "station",
        "source": "KSJ2",
        "source_ref": "http://nlftp.mlit.go.jp/ksj/jpgis/datalist/KsjTmplt-N02-v1_1.html",
        "wikidata": "Q11377363",
        "wikipedia": "ja:今福駅"
      }
    },
    {
      "id": "nagasaki_station_270856800",
      "osmId": 270856800,
      "osmType": "node",
      "prefectureId": "nagasaki",
      "type": "station",
      "subtype": "private",
      "name": "大学",
      "nameKana": null,
      "nameEn": "Daigaku",
      "operator": "松浦鉄道",
      "network": "松浦鉄道西九州線",
      "ref": null,
      "latitude": 33.1894176,
      "longitude": 129.6670927,
      "countryCode": "jp",
      "rawTags": {
        "KSJ2:LIN": "西九州線",
        "KSJ2:STN": "大学",
        "alt_name:ko": "다이가쿠",
        "name": "大学",
        "name:en": "Daigaku",
        "name:ja": "大学",
        "name:ko": "대학",
        "network": "松浦鉄道西九州線",
        "note": "National-Land Numerical Information (Railway) 2007, MLIT Japan",
        "note:ja": "国土数値情報（鉄道データ）平成19年　国土交通省",
        "operator": "松浦鉄道",
        "public_transport": "station",
        "railway": "station",
        "source": "KSJ2",
        "source_ref": "http://nlftp.mlit.go.jp/ksj/jpgis/datalist/KsjTmplt-N02-v1_1.html",
        "wikidata": "Q5209103",
        "wikipedia": "ja:大学駅"
      }
    },
    {
      "id": "nagasaki_station_270857109",
      "osmId": 270857109,
      "osmType": "node",
      "prefectureId": "nagasaki",
      "type": "station",
      "subtype": "private",
      "name": "すえたちばな",
      "nameKana": null,
      "nameEn": "Suetachibana",
      "operator": null,
      "network": null,
      "ref": null,
      "latitude": 33.31681,
      "longitude": 129.6138311,
      "countryCode": "jp",
      "rawTags": {
        "KSJ2:LIN": "西九州線",
        "KSJ2:STN": "すえたちばな",
        "name": "すえたちばな",
        "name:en": "Suetachibana",
        "name:ja": "すえたちばな",
        "name:ko": "스에타치바나",
        "note": "National-Land Numerical Information (Railway) 2007, MLIT Japan",
        "note:ja": "国土数値情報（鉄道データ）平成19年　国土交通省",
        "public_transport": "station",
        "railway": "station",
        "source": "KSJ2",
        "source_ref": "http://nlftp.mlit.go.jp/ksj/jpgis/datalist/KsjTmplt-N02-v1_1.html",
        "wikidata": "Q11269539",
        "wikipedia": "ja:すえたちばな駅"
      }
    },
    {
      "id": "nagasaki_station_270857153",
      "osmId": 270857153,
      "osmType": "node",
      "prefectureId": "nagasaki",
      "type": "station",
      "subtype": "private",
      "name": "野中",
      "nameKana": null,
      "nameEn": "Nonaka",
      "operator": null,
      "network": null,
      "ref": null,
      "latitude": 33.2116616,
      "longitude": 129.7085698,
      "countryCode": "jp",
      "rawTags": {
        "KSJ2:LIN": "西九州線",
        "KSJ2:STN": "野中",
        "name": "野中",
        "name:en": "Nonaka",
        "name:ja": "野中",
        "name:ko": "노나카",
        "note": "National-Land Numerical Information (Railway) 2007, MLIT Japan",
        "note:ja": "国土数値情報（鉄道データ）平成19年　国土交通省",
        "public_transport": "station",
        "railway": "station",
        "source": "KSJ2",
        "source_ref": "http://nlftp.mlit.go.jp/ksj/jpgis/datalist/KsjTmplt-N02-v1_1.html",
        "wikidata": "Q11645042",
        "wikipedia": "ja:野中駅"
      }
    },
    {
      "id": "nagasaki_station_270857158",
      "osmId": 270857158,
      "osmType": "node",
      "prefectureId": "nagasaki",
      "type": "station",
      "subtype": "private",
      "name": "左石",
      "nameKana": null,
      "nameEn": "Hidariishi",
      "operator": null,
      "network": null,
      "ref": null,
      "latitude": 33.2088154,
      "longitude": 129.7217217,
      "countryCode": "jp",
      "rawTags": {
        "KSJ2:LIN": "西九州線",
        "KSJ2:STN": "左石",
        "name": "左石",
        "name:en": "Hidariishi",
        "name:ja": "左石",
        "name:ko": "히다리이시",
        "note": "National-Land Numerical Information (Railway) 2007, MLIT Japan",
        "note:ja": "国土数値情報（鉄道データ）平成19年　国土交通省",
        "public_transport": "station",
        "railway": "station",
        "source": "KSJ2",
        "source_ref": "http://nlftp.mlit.go.jp/ksj/jpgis/datalist/KsjTmplt-N02-v1_1.html",
        "wikidata": "Q11479704",
        "wikipedia": "ja:左石駅"
      }
    },
    {
      "id": "nagasaki_station_270857176",
      "osmId": 270857176,
      "osmType": "node",
      "prefectureId": "nagasaki",
      "type": "station",
      "subtype": "private",
      "name": "江迎鹿町",
      "nameKana": null,
      "nameEn": "Emukaishikamachi",
      "operator": null,
      "network": null,
      "ref": null,
      "latitude": 33.3069396,
      "longitude": 129.6269064,
      "countryCode": "jp",
      "rawTags": {
        "KSJ2:LIN": "西九州線",
        "KSJ2:STN": "江迎鹿町",
        "name": "江迎鹿町",
        "name:en": "Emukaishikamachi",
        "name:ja": "江迎鹿町",
        "name:ko": "에무카에시카마치",
        "note": "National-Land Numerical Information (Railway) 2007, MLIT Japan",
        "note:ja": "国土数値情報（鉄道データ）平成19年　国土交通省",
        "public_transport": "station",
        "railway": "station",
        "source": "KSJ2",
        "source_ref": "http://nlftp.mlit.go.jp/ksj/jpgis/datalist/KsjTmplt-N02-v1_1.html",
        "wikidata": "Q5374871",
        "wikipedia": "ja:江迎鹿町駅"
      }
    },
    {
      "id": "nagasaki_station_270857361",
      "osmId": 270857361,
      "osmType": "node",
      "prefectureId": "nagasaki",
      "type": "station",
      "subtype": "private",
      "name": "中里",
      "nameKana": null,
      "nameEn": "Nakazato",
      "operator": null,
      "network": null,
      "ref": null,
      "latitude": 33.2082665,
      "longitude": 129.6879167,
      "countryCode": "jp",
      "rawTags": {
        "KSJ2:LIN": "西九州線",
        "KSJ2:STN": "中里",
        "name": "中里",
        "name:en": "Nakazato",
        "name:ja": "中里",
        "name:ko": "나카자토",
        "note": "National-Land Numerical Information (Railway) 2007, MLIT Japan",
        "note:ja": "国土数値情報（鉄道データ）平成19年　国土交通省",
        "public_transport": "station",
        "railway": "station",
        "source": "KSJ2",
        "source_ref": "http://nlftp.mlit.go.jp/ksj/jpgis/datalist/KsjTmplt-N02-v1_1.html",
        "wikidata": "Q6960396",
        "wikipedia": "ja:中里駅 (長崎県)"
      }
    },
    {
      "id": "nagasaki_station_270857945",
      "osmId": 270857945,
      "osmType": "node",
      "prefectureId": "nagasaki",
      "type": "station",
      "subtype": "private",
      "name": "本山",
      "nameKana": null,
      "nameEn": "Motoyama",
      "operator": null,
      "network": null,
      "ref": null,
      "latitude": 33.2071016,
      "longitude": 129.6823712,
      "countryCode": "jp",
      "rawTags": {
        "KSJ2:LIN": "西九州線",
        "KSJ2:STN": "本山",
        "name": "本山",
        "name:en": "Motoyama",
        "name:ja": "本山",
        "name:ko": "모토야마",
        "note": "National-Land Numerical Information (Railway) 2007, MLIT Japan",
        "note:ja": "国土数値情報（鉄道データ）平成19年　国土交通省",
        "railway": "station",
        "source": "KSJ2",
        "source_ref": "http://nlftp.mlit.go.jp/ksj/jpgis/datalist/KsjTmplt-N02-v1_1.html",
        "wikidata": "Q11520210",
        "wikipedia": "ja:本山駅 (長崎県)"
      }
    },
    {
      "id": "nagasaki_station_270857958",
      "osmId": 270857958,
      "osmType": "node",
      "prefectureId": "nagasaki",
      "type": "station",
      "subtype": "private",
      "name": "棚方",
      "nameKana": null,
      "nameEn": "Tanagata",
      "operator": null,
      "network": null,
      "ref": null,
      "latitude": 33.2016162,
      "longitude": 129.6517976,
      "countryCode": "jp",
      "rawTags": {
        "KSJ2:LIN": "西九州線",
        "KSJ2:STN": "棚方",
        "name": "棚方",
        "name:en": "Tanagata",
        "name:ja": "棚方",
        "name:ko": "다나카타",
        "note": "National-Land Numerical Information (Railway) 2007, MLIT Japan",
        "note:ja": "国土数値情報（鉄道データ）平成19年　国土交通省",
        "public_transport": "station",
        "railway": "station",
        "source": "KSJ2",
        "source_ref": "http://nlftp.mlit.go.jp/ksj/jpgis/datalist/KsjTmplt-N02-v1_1.html",
        "wikidata": "Q11539007",
        "wikipedia": "ja:棚方駅"
      }
    },
    {
      "id": "nagasaki_station_270857961",
      "osmId": 270857961,
      "osmType": "node",
      "prefectureId": "nagasaki",
      "type": "station",
      "subtype": "private",
      "name": "松浦",
      "nameKana": null,
      "nameEn": "Matsuura",
      "operator": "松浦鉄道",
      "network": "松浦鉄道西九州線",
      "ref": null,
      "latitude": 33.3441797,
      "longitude": 129.7077067,
      "countryCode": "jp",
      "rawTags": {
        "KSJ2:LIN": "西九州線",
        "KSJ2:STN": "松浦",
        "name": "松浦",
        "name:en": "Matsuura",
        "name:ja": "松浦",
        "name:ko": "마쓰우라",
        "network": "松浦鉄道西九州線",
        "note": "National-Land Numerical Information (Railway) 2007, MLIT Japan",
        "note:ja": "国土数値情報（鉄道データ）平成19年　国土交通省",
        "operator": "松浦鉄道",
        "railway": "station",
        "source": "KSJ2",
        "source_ref": "http://nlftp.mlit.go.jp/ksj/jpgis/datalist/KsjTmplt-N02-v1_1.html",
        "wikidata": "Q6788226",
        "wikipedia": "ja:松浦駅"
      }
    },
    {
      "id": "nagasaki_station_270858199",
      "osmId": 270858199,
      "osmType": "node",
      "prefectureId": "nagasaki",
      "type": "station",
      "subtype": "private",
      "name": "東田平",
      "nameKana": null,
      "nameEn": "Higashi-tabira",
      "operator": null,
      "network": null,
      "ref": null,
      "latitude": 33.3581894,
      "longitude": 129.6231256,
      "countryCode": "jp",
      "rawTags": {
        "KSJ2:LIN": "西九州線",
        "KSJ2:STN": "東田平",
        "name": "東田平",
        "name:en": "Higashi-tabira",
        "name:ja": "東田平",
        "name:ko": "히가시타비라",
        "note": "National-Land Numerical Information (Railway) 2007, MLIT Japan",
        "note:ja": "国土数値情報（鉄道データ）平成19年　国土交通省",
        "public_transport": "station",
        "railway": "station",
        "source": "KSJ2",
        "source_ref": "http://nlftp.mlit.go.jp/ksj/jpgis/datalist/KsjTmplt-N02-v1_1.html",
        "wikidata": "Q5753856",
        "wikipedia": "ja:東田平駅"
      }
    },
    {
      "id": "nagasaki_station_270858651",
      "osmId": 270858651,
      "osmType": "node",
      "prefectureId": "nagasaki",
      "type": "station",
      "subtype": "private",
      "name": "中田平",
      "nameKana": null,
      "nameEn": "Nakatabira",
      "operator": null,
      "network": null,
      "ref": null,
      "latitude": 33.3557199,
      "longitude": 129.6109509,
      "countryCode": "jp",
      "rawTags": {
        "KSJ2:LIN": "西九州線",
        "KSJ2:STN": "中田平",
        "name": "中田平",
        "name:en": "Nakatabira",
        "name:ja": "中田平",
        "name:ko": "나카타비라",
        "note": "National-Land Numerical Information (Railway) 2007, MLIT Japan",
        "note:ja": "国土数値情報（鉄道データ）平成19年　国土交通省",
        "public_transport": "station",
        "railway": "station",
        "source": "KSJ2",
        "source_ref": "http://nlftp.mlit.go.jp/ksj/jpgis/datalist/KsjTmplt-N02-v1_1.html",
        "wikidata": "Q11366692",
        "wikipedia": "ja:中田平駅"
      }
    },
    {
      "id": "nagasaki_station_270858731",
      "osmId": 270858731,
      "osmType": "node",
      "prefectureId": "nagasaki",
      "type": "station",
      "subtype": "private",
      "name": "皆瀬",
      "nameKana": null,
      "nameEn": "Kaize",
      "operator": null,
      "network": null,
      "ref": null,
      "latitude": 33.2134293,
      "longitude": 129.7016395,
      "countryCode": "jp",
      "rawTags": {
        "KSJ2:LIN": "西九州線",
        "KSJ2:STN": "皆瀬",
        "name": "皆瀬",
        "name:en": "Kaize",
        "name:ja": "皆瀬",
        "name:ko": "가이제",
        "note": "National-Land Numerical Information (Railway) 2007, MLIT Japan",
        "note:ja": "国土数値情報（鉄道データ）平成19年　国土交通省",
        "public_transport": "station",
        "railway": "station",
        "source": "KSJ2",
        "source_ref": "http://nlftp.mlit.go.jp/ksj/jpgis/datalist/KsjTmplt-N02-v1_1.html",
        "wikidata": "Q11580977",
        "wikipedia": "ja:皆瀬駅"
      }
    },
    {
      "id": "nagasaki_station_270859069",
      "osmId": 270859069,
      "osmType": "node",
      "prefectureId": "nagasaki",
      "type": "station",
      "subtype": "private",
      "name": "前浜",
      "nameKana": null,
      "nameEn": "Maehama",
      "operator": null,
      "network": null,
      "ref": null,
      "latitude": 33.3585654,
      "longitude": 129.7359176,
      "countryCode": "jp",
      "rawTags": {
        "KSJ2:LIN": "西九州線",
        "KSJ2:STN": "前浜",
        "name": "前浜",
        "name:en": "Maehama",
        "name:ja": "前浜",
        "name:ko": "마에하마",
        "note": "National-Land Numerical Information (Railway) 2007, MLIT Japan",
        "note:ja": "国土数値情報（鉄道データ）平成19年　国土交通省",
        "public_transport": "station",
        "railway": "station",
        "source": "KSJ2",
        "source_ref": "http://nlftp.mlit.go.jp/ksj/jpgis/datalist/KsjTmplt-N02-v1_1.html",
        "wikidata": "Q11397350",
        "wikipedia": "ja:前浜駅"
      }
    },
    {
      "id": "nagasaki_station_270859178",
      "osmId": 270859178,
      "osmType": "node",
      "prefectureId": "nagasaki",
      "type": "station",
      "subtype": "private",
      "name": "吉井",
      "nameKana": null,
      "nameEn": "Yoshii",
      "operator": null,
      "network": null,
      "ref": null,
      "latitude": 33.2664737,
      "longitude": 129.6852124,
      "countryCode": "jp",
      "rawTags": {
        "KSJ2:LIN": "西九州線",
        "KSJ2:STN": "吉井",
        "name": "吉井",
        "name:en": "Yoshii",
        "name:ja": "吉井",
        "name:ko": "요시이",
        "note": "National-Land Numerical Information (Railway) 2007, MLIT Japan",
        "note:ja": "国土数値情報（鉄道データ）平成19年　国土交通省",
        "railway": "station",
        "source": "KSJ2",
        "source_ref": "http://nlftp.mlit.go.jp/ksj/jpgis/datalist/KsjTmplt-N02-v1_1.html",
        "wikidata": "Q8056090",
        "wikipedia": "ja:吉井駅 (長崎県)"
      }
    },
    {
      "id": "nagasaki_station_270859200",
      "osmId": 270859200,
      "osmType": "node",
      "prefectureId": "nagasaki",
      "type": "station",
      "subtype": "private",
      "name": "清峰高校前",
      "nameKana": null,
      "nameEn": "Seihoukoukou-mae",
      "operator": null,
      "network": null,
      "ref": null,
      "latitude": 33.2478359,
      "longitude": 129.6567332,
      "countryCode": "jp",
      "rawTags": {
        "KSJ2:LIN": "西九州線",
        "KSJ2:STN": "清峰高校前",
        "alt_name:ko": "세이호코코마에",
        "name": "清峰高校前",
        "name:en": "Seihoukoukou-mae",
        "name:ja": "清峰高校前",
        "name:ko": "세이호고교앞",
        "note": "National-Land Numerical Information (Railway) 2007, MLIT Japan",
        "note:ja": "国土数値情報（鉄道データ）平成19年　国土交通省",
        "public_transport": "station",
        "railway": "station",
        "source": "KSJ2",
        "source_ref": "http://nlftp.mlit.go.jp/ksj/jpgis/datalist/KsjTmplt-N02-v1_1.html",
        "wikidata": "Q11560590",
        "wikipedia": "ja:清峰高校前駅"
      }
    },
    {
      "id": "nagasaki_station_270859351",
      "osmId": 270859351,
      "osmType": "node",
      "prefectureId": "nagasaki",
      "type": "station",
      "subtype": "private",
      "name": "高岩",
      "nameKana": null,
      "nameEn": "Takaiwa",
      "operator": null,
      "network": null,
      "ref": null,
      "latitude": 33.2979488,
      "longitude": 129.6369864,
      "countryCode": "jp",
      "rawTags": {
        "KSJ2:LIN": "西九州線",
        "KSJ2:STN": "高岩",
        "name": "高岩",
        "name:en": "Takaiwa",
        "name:ja": "高岩",
        "name:ko": "다카이와",
        "note": "National-Land Numerical Information (Railway) 2007, MLIT Japan",
        "note:ja": "国土数値情報（鉄道データ）平成19年　国土交通省",
        "public_transport": "station",
        "railway": "station",
        "source": "KSJ2",
        "source_ref": "http://nlftp.mlit.go.jp/ksj/jpgis/datalist/KsjTmplt-N02-v1_1.html",
        "wikidata": "Q11669574",
        "wikipedia": "ja:高岩駅 (長崎県)"
      }
    },
    {
      "id": "nagasaki_station_270860042",
      "osmId": 270860042,
      "osmType": "node",
      "prefectureId": "nagasaki",
      "type": "station",
      "subtype": "private",
      "name": "いのつき",
      "nameKana": null,
      "nameEn": "Inoysuki",
      "operator": null,
      "network": null,
      "ref": null,
      "latitude": 33.2826893,
      "longitude": 129.6675474,
      "countryCode": "jp",
      "rawTags": {
        "KSJ2:LIN": "西九州線",
        "KSJ2:STN": "いのつき",
        "name": "いのつき",
        "name:en": "Inoysuki",
        "name:ja": "いのつき",
        "name:ko": "이노쓰키",
        "note": "National-Land Numerical Information (Railway) 2007, MLIT Japan",
        "note:ja": "国土数値情報（鉄道データ）平成19年　国土交通省",
        "public_transport": "station",
        "railway": "station",
        "source": "KSJ2",
        "source_ref": "http://nlftp.mlit.go.jp/ksj/jpgis/datalist/KsjTmplt-N02-v1_1.html",
        "wikidata": "Q11259923",
        "wikipedia": "ja:いのつき駅"
      }
    },
    {
      "id": "nagasaki_station_270860581",
      "osmId": 270860581,
      "osmType": "node",
      "prefectureId": "nagasaki",
      "type": "station",
      "subtype": "private",
      "name": "中佐世保",
      "nameKana": null,
      "nameEn": "Naka-Sasebo",
      "operator": null,
      "network": null,
      "ref": null,
      "latitude": 33.1721971,
      "longitude": 129.7223318,
      "countryCode": "jp",
      "rawTags": {
        "KSJ2:LIN": "西九州線",
        "KSJ2:STN": "中佐世保",
        "name": "中佐世保",
        "name:en": "Naka-Sasebo",
        "name:ja": "中佐世保",
        "name:ko": "나카사세보",
        "note": "National-Land Numerical Information (Railway) 2007, MLIT Japan",
        "note:ja": "国土数値情報（鉄道データ）平成19年　国土交通省",
        "public_transport": "station",
        "railway": "station",
        "source": "KSJ2",
        "source_ref": "http://nlftp.mlit.go.jp/ksj/jpgis/datalist/KsjTmplt-N02-v1_1.html",
        "wikidata": "Q6960093",
        "wikipedia": "ja:中佐世保駅"
      }
    },
    {
      "id": "nagasaki_station_270860909",
      "osmId": 270860909,
      "osmType": "node",
      "prefectureId": "nagasaki",
      "type": "station",
      "subtype": "private",
      "name": "潜竜ヶ滝",
      "nameKana": null,
      "nameEn": "Senryūgataki",
      "operator": null,
      "network": null,
      "ref": null,
      "latitude": 33.2808367,
      "longitude": 129.6836143,
      "countryCode": "jp",
      "rawTags": {
        "KSJ2:LIN": "西九州線",
        "KSJ2:STN": "潜竜ヶ滝",
        "name": "潜竜ヶ滝",
        "name:en": "Senryūgataki",
        "name:ja": "潜竜ヶ滝",
        "name:ko": "센류가타키",
        "note": "National-Land Numerical Information (Railway) 2007, MLIT Japan",
        "note:ja": "国土数値情報（鉄道データ）平成19年　国土交通省",
        "public_transport": "station",
        "railway": "station",
        "source": "KSJ2",
        "source_ref": "http://nlftp.mlit.go.jp/ksj/jpgis/datalist/KsjTmplt-N02-v1_1.html",
        "wikidata": "Q7450931",
        "wikipedia": "ja:潜竜ヶ滝駅"
      }
    },
    {
      "id": "nagasaki_station_270861131",
      "osmId": 270861131,
      "osmType": "node",
      "prefectureId": "nagasaki",
      "type": "station",
      "subtype": "private",
      "name": "佐世保中央",
      "nameKana": null,
      "nameEn": "Sasebo-Chuou",
      "operator": null,
      "network": null,
      "ref": null,
      "latitude": 33.170977,
      "longitude": 129.7206582,
      "countryCode": "jp",
      "rawTags": {
        "KSJ2:LIN": "西九州線",
        "KSJ2:STN": "佐世保中央",
        "alt_name:ko": "사세보추오",
        "name": "佐世保中央",
        "name:en": "Sasebo-Chuou",
        "name:ja": "佐世保中央",
        "name:ko": "사세보중앙",
        "note": "National-Land Numerical Information (Railway) 2007, MLIT Japan",
        "note:ja": "国土数値情報（鉄道データ）平成19年　国土交通省",
        "public_transport": "station",
        "railway": "station",
        "source": "KSJ2",
        "source_ref": "http://nlftp.mlit.go.jp/ksj/jpgis/datalist/KsjTmplt-N02-v1_1.html",
        "wikidata": "Q7425052",
        "wikipedia": "ja:佐世保中央駅"
      }
    },
    {
      "id": "nagasaki_ferry_terminal_506654674",
      "osmId": 506654674,
      "osmType": "node",
      "prefectureId": "nagasaki",
      "type": "ferry_terminal",
      "subtype": null,
      "name": "郷ノ浦港フェリーターミナル",
      "nameKana": null,
      "nameEn": "Kounoura Port Perry Terminal",
      "operator": null,
      "network": null,
      "ref": null,
      "latitude": 33.7423282,
      "longitude": 129.685292,
      "countryCode": "jp",
      "rawTags": {
        "amenity": "ferry_terminal",
        "ferry": "yes",
        "name": "郷ノ浦港フェリーターミナル",
        "name:en": "Kounoura Port Perry Terminal",
        "name:ko": "고우노우라항 페리 터미널",
        "phone": "920470003",
        "public_transport": "station",
        "source": "bing"
      }
    },
    {
      "id": "nagasaki_airport_711614987",
      "osmId": 711614987,
      "osmType": "node",
      "prefectureId": "nagasaki",
      "type": "airport",
      "subtype": "domestic",
      "name": "壱岐空港",
      "nameKana": null,
      "nameEn": "Iki Airport",
      "operator": null,
      "network": null,
      "ref": "IKI",
      "latitude": 33.749026,
      "longitude": 129.785263,
      "countryCode": "jp",
      "rawTags": {
        "KSJ2:AAC": "42210",
        "KSJ2:AAC_label": "長崎県壱岐市",
        "KSJ2:AD2": "5",
        "KSJ2:AD2_label": "都道府県",
        "KSJ2:ARP": "33.7491666667 129.7858333333",
        "KSJ2:ATB": "33.7499722200 129.7838611000",
        "KSJ2:CLT": "18 00",
        "KSJ2:COA": "空港整備法に基づく第三種空港",
        "KSJ2:CompositeCurve": "cv64Airport",
        "KSJ2:DSA": "特定飛行場以外",
        "KSJ2:INP": "5",
        "KSJ2:INP_label": "都道府県",
        "KSJ2:IUC": "供用中",
        "KSJ2:NA3": "壱岐空港",
        "KSJ2:OPT": "08 00",
        "KSJ2:REF": "2",
        "KSJ2:REF_label": "プロペラ定期便が就航している場合",
        "KSJ2:airport_id": "cf02_38",
        "KSJ2:runways": "1200 30",
        "aeroway": "aerodrome",
        "iata": "IKI",
        "icao": "RJDB",
        "layer": "1",
        "name": "壱岐空港",
        "name:en": "Iki Airport",
        "name:ja": "壱岐空港",
        "name:ja_rm": "Iki Kuko",
        "name:ko": "이키공항",
        "note": "National-Land Numerical Information (Airport) 2007, MLIT Japan",
        "note:ja": "国土数値情報（空港データ）平成19年　国土交通省",
        "source": "KSJ2",
        "source_ref": "http://nlftp.mlit.go.jp/ksj/jpgis/datalist/KsjTmplt-C28-v1_1.html",
        "wikidata": "Q1038664",
        "wikipedia": "en:Iki Airport"
      }
    },
    {
      "id": "nagasaki_airport_711616938",
      "osmId": 711616938,
      "osmType": "node",
      "prefectureId": "nagasaki",
      "type": "airport",
      "subtype": "domestic",
      "name": "対馬空港",
      "nameKana": null,
      "nameEn": "Tsushima Airport",
      "operator": null,
      "network": null,
      "ref": "TSJ",
      "latitude": 34.284574,
      "longitude": 129.3313529,
      "countryCode": "jp",
      "rawTags": {
        "KSJ2:AAC": "42209",
        "KSJ2:AAC_label": "長崎県対馬市",
        "KSJ2:AD2": "5",
        "KSJ2:AD2_label": "都道府県",
        "KSJ2:ARP": "34.2850000000 129.3305555556",
        "KSJ2:ATB": "34.2857809900 129.3262281000",
        "KSJ2:CLT": "19 30",
        "KSJ2:COA": "空港整備法に基づく第三種空港",
        "KSJ2:CompositeCurve": "cv56Airport",
        "KSJ2:DSA": "特定飛行場以外",
        "KSJ2:INP": "5",
        "KSJ2:INP_label": "都道府県",
        "KSJ2:IUC": "供用中",
        "KSJ2:NA3": "対馬空港",
        "KSJ2:OPT": "08 00",
        "KSJ2:REF": "1",
        "KSJ2:REF_label": "ジェット定期便が就航している場合",
        "KSJ2:airport_id": "cf02_39",
        "KSJ2:runways": "1900 45",
        "addr:housenumber": "長崎県対馬市美津島町鶏知乙283",
        "aeroway": "aerodrome",
        "alt_name:ko": "대마공항",
        "iata": "TSJ",
        "icao": "RJDT",
        "layer": "1",
        "name": "対馬空港",
        "name:en": "Tsushima Airport",
        "name:ja": "対馬空港",
        "name:ja_rm": "Tsushima Kuko",
        "name:ko": "쓰시마공항",
        "name:zh": "对马机场",
        "name:zh-Hans": "对马机场",
        "name:zh-Hant": "對馬機場",
        "note": "National-Land Numerical Information (Airport) 2007, MLIT Japan",
        "note:ja": "国土数値情報（空港データ）平成19年　国土交通省",
        "phone": "+81 920-54-3396",
        "source": "KSJ2",
        "source_ref": "http://nlftp.mlit.go.jp/ksj/jpgis/datalist/KsjTmplt-C28-v1_1.html",
        "website": "https://tsushima-airport.co.jp/",
        "wikidata": "Q1134491",
        "wikipedia": "ja:対馬空港"
      }
    },
    {
      "id": "nagasaki_ferry_terminal_1120656820",
      "osmId": 1120656820,
      "osmType": "node",
      "prefectureId": "nagasaki",
      "type": "ferry_terminal",
      "subtype": null,
      "name": "高島",
      "nameKana": null,
      "nameEn": null,
      "operator": null,
      "network": null,
      "ref": null,
      "latitude": 32.6569615,
      "longitude": 129.7570075,
      "countryCode": "jp",
      "rawTags": {
        "amenity": "ferry_terminal",
        "ferry": "yes",
        "name": "高島",
        "public_transport": "station"
      }
    },
    {
      "id": "nagasaki_ferry_terminal_1120656910",
      "osmId": 1120656910,
      "osmType": "node",
      "prefectureId": "nagasaki",
      "type": "ferry_terminal",
      "subtype": null,
      "name": "端島（軍艦島）",
      "nameKana": null,
      "nameEn": null,
      "operator": null,
      "network": null,
      "ref": null,
      "latitude": 32.62664,
      "longitude": 129.7388323,
      "countryCode": "jp",
      "rawTags": {
        "amenity": "ferry_terminal",
        "ferry": "yes",
        "name": "端島（軍艦島）",
        "public_transport": "station"
      }
    },
    {
      "id": "nagasaki_ferry_terminal_1121649854",
      "osmId": 1121649854,
      "osmType": "node",
      "prefectureId": "nagasaki",
      "type": "ferry_terminal",
      "subtype": null,
      "name": "九商フェリー 島原フェリーターミナル",
      "nameKana": null,
      "nameEn": null,
      "operator": null,
      "network": null,
      "ref": null,
      "latitude": 32.7670501,
      "longitude": 130.373179,
      "countryCode": "jp",
      "rawTags": {
        "amenity": "ferry_terminal",
        "cargo": "passengers;vehicle",
        "ferry": "yes",
        "int_name": "Kyusho Ferry Shimabara Ferry Terminal",
        "name": "九商フェリー 島原フェリーターミナル",
        "public_transport": "station"
      }
    },
    {
      "id": "nagasaki_ferry_terminal_1441150922",
      "osmId": 1441150922,
      "osmType": "node",
      "prefectureId": "nagasaki",
      "type": "ferry_terminal",
      "subtype": null,
      "name": "小值賀港ターミナル",
      "nameKana": null,
      "nameEn": null,
      "operator": null,
      "network": null,
      "ref": null,
      "latitude": 33.1862976,
      "longitude": 129.0625203,
      "countryCode": "jp",
      "rawTags": {
        "amenity": "ferry_terminal",
        "ferry": "yes",
        "name": "小值賀港ターミナル",
        "name:ja": "小値賀港ターミナル",
        "public_transport": "station"
      }
    },
    {
      "id": "nagasaki_ferry_terminal_1769294270",
      "osmId": 1769294270,
      "osmType": "node",
      "prefectureId": "nagasaki",
      "type": "ferry_terminal",
      "subtype": null,
      "name": "伊王島",
      "nameKana": null,
      "nameEn": null,
      "operator": null,
      "network": null,
      "ref": null,
      "latitude": 32.7032828,
      "longitude": 129.7800588,
      "countryCode": "jp",
      "rawTags": {
        "amenity": "ferry_terminal",
        "ferry": "yes",
        "name": "伊王島",
        "public_transport": "station"
      }
    },
    {
      "id": "nagasaki_ferry_terminal_1769294301",
      "osmId": 1769294301,
      "osmType": "node",
      "prefectureId": "nagasaki",
      "type": "ferry_terminal",
      "subtype": null,
      "name": "長崎",
      "nameKana": null,
      "nameEn": "3",
      "operator": null,
      "network": null,
      "ref": null,
      "latitude": 32.7447208,
      "longitude": 129.8683781,
      "countryCode": "jp",
      "rawTags": {
        "amenity": "ferry_terminal",
        "ferry": "yes",
        "name": "長崎",
        "name:en": "3",
        "public_transport": "station"
      }
    },
    {
      "id": "nagasaki_ferry_terminal_1794050178",
      "osmId": 1794050178,
      "osmType": "node",
      "prefectureId": "nagasaki",
      "type": "ferry_terminal",
      "subtype": null,
      "name": "神浦・池島フェリー乗場",
      "nameKana": null,
      "nameEn": null,
      "operator": null,
      "network": null,
      "ref": null,
      "latitude": 32.880208,
      "longitude": 129.6792853,
      "countryCode": "jp",
      "rawTags": {
        "amenity": "ferry_terminal",
        "ferry": "yes",
        "name": "神浦・池島フェリー乗場",
        "public_transport": "station"
      }
    },
    {
      "id": "nagasaki_ferry_terminal_1796758923",
      "osmId": 1796758923,
      "osmType": "node",
      "prefectureId": "nagasaki",
      "type": "ferry_terminal",
      "subtype": null,
      "name": "瀬渡しばらもん",
      "nameKana": null,
      "nameEn": null,
      "operator": null,
      "network": null,
      "ref": null,
      "latitude": 33.1015905,
      "longitude": 129.7533897,
      "countryCode": "jp",
      "rawTags": {
        "amenity": "ferry_terminal",
        "name": "瀬渡しばらもん"
      }
    },
    {
      "id": "nagasaki_ferry_terminal_2707944465",
      "osmId": 2707944465,
      "osmType": "node",
      "prefectureId": "nagasaki",
      "type": "ferry_terminal",
      "subtype": null,
      "name": "福江",
      "nameKana": null,
      "nameEn": "Fukue",
      "operator": null,
      "network": null,
      "ref": null,
      "latitude": 32.697754,
      "longitude": 128.8524395,
      "countryCode": "jp",
      "rawTags": {
        "amenity": "ferry_terminal",
        "ferry": "yes",
        "name": "福江",
        "name:en": "Fukue",
        "public_transport": "station"
      }
    },
    {
      "id": "nagasaki_ferry_terminal_3023900936",
      "osmId": 3023900936,
      "osmType": "node",
      "prefectureId": "nagasaki",
      "type": "ferry_terminal",
      "subtype": null,
      "name": "九十九島パールシーリゾート",
      "nameKana": null,
      "nameEn": null,
      "operator": null,
      "network": null,
      "ref": null,
      "latitude": 33.1624548,
      "longitude": 129.6789408,
      "countryCode": "jp",
      "rawTags": {
        "amenity": "ferry_terminal",
        "ferry": "yes",
        "name": "九十九島パールシーリゾート",
        "public_transport": "station"
      }
    },
    {
      "id": "nagasaki_station_4055682916",
      "osmId": 4055682916,
      "osmType": "node",
      "prefectureId": "nagasaki",
      "type": "station",
      "subtype": "jr",
      "name": "現川",
      "nameKana": null,
      "nameEn": "Utsutsugawa",
      "operator": "九州旅客鉄道",
      "network": null,
      "ref": null,
      "latitude": 32.7910097,
      "longitude": 129.9259418,
      "countryCode": "jp",
      "rawTags": {
        "KSJ2:LIN": "長崎線",
        "KSJ2:STN": "現川",
        "name": "現川",
        "name:de": "Utsutsugawa",
        "name:en": "Utsutsugawa",
        "name:ja": "現川",
        "name:ko": "우쓰쓰가와",
        "note": "National-Land Numerical Information (Railway) 2007, MLIT Japan",
        "note:ja": "国土数値情報（鉄道データ）平成19年　国土交通省",
        "operator": "九州旅客鉄道",
        "operator:ja": "九州旅客鉄道",
        "public_transport": "station",
        "railway": "station",
        "source": "KSJ2",
        "source_ref": "http://nlftp.mlit.go.jp/ksj/jpgis/datalist/KsjTmplt-N02-v1_1.html",
        "wikidata": "Q5355514",
        "wikipedia": "ja:現川駅"
      }
    },
    {
      "id": "nagasaki_ferry_terminal_4240955316",
      "osmId": 4240955316,
      "osmType": "node",
      "prefectureId": "nagasaki",
      "type": "ferry_terminal",
      "subtype": null,
      "name": "田の浦港",
      "nameKana": null,
      "nameEn": "Tanoura",
      "operator": null,
      "network": null,
      "ref": null,
      "latitude": 32.7818649,
      "longitude": 128.8419861,
      "countryCode": "jp",
      "rawTags": {
        "amenity": "ferry_terminal",
        "ferry": "yes",
        "name": "田の浦港",
        "name:en": "Tanoura",
        "public_transport": "station"
      }
    },
    {
      "id": "nagasaki_ferry_terminal_4715940544",
      "osmId": 4715940544,
      "osmType": "node",
      "prefectureId": "nagasaki",
      "type": "ferry_terminal",
      "subtype": null,
      "name": "嵯峨島港",
      "nameKana": null,
      "nameEn": null,
      "operator": null,
      "network": null,
      "ref": null,
      "latitude": 32.728348,
      "longitude": 128.6010501,
      "countryCode": "jp",
      "rawTags": {
        "amenity": "ferry_terminal",
        "cargo": "passengers",
        "name": "嵯峨島港"
      }
    },
    {
      "id": "nagasaki_ferry_terminal_4726129810",
      "osmId": 4726129810,
      "osmType": "node",
      "prefectureId": "nagasaki",
      "type": "ferry_terminal",
      "subtype": null,
      "name": "黄島港",
      "nameKana": null,
      "nameEn": null,
      "operator": null,
      "network": null,
      "ref": null,
      "latitude": 32.5706359,
      "longitude": 128.9045721,
      "countryCode": "jp",
      "rawTags": {
        "amenity": "ferry_terminal",
        "cargo": "passengers",
        "name": "黄島港"
      }
    },
    {
      "id": "nagasaki_ferry_terminal_4727951774",
      "osmId": 4727951774,
      "osmType": "node",
      "prefectureId": "nagasaki",
      "type": "ferry_terminal",
      "subtype": null,
      "name": "黒島港",
      "nameKana": null,
      "nameEn": null,
      "operator": null,
      "network": null,
      "ref": null,
      "latitude": 32.6048659,
      "longitude": 128.832819,
      "countryCode": "jp",
      "rawTags": {
        "amenity": "ferry_terminal",
        "cargo": "passengers",
        "name": "黒島港"
      }
    },
    {
      "id": "nagasaki_ferry_terminal_4727960353",
      "osmId": 4727960353,
      "osmType": "node",
      "prefectureId": "nagasaki",
      "type": "ferry_terminal",
      "subtype": null,
      "name": "伊福貴",
      "nameKana": null,
      "nameEn": null,
      "operator": null,
      "network": null,
      "ref": null,
      "latitude": 32.7544288,
      "longitude": 128.9688621,
      "countryCode": "jp",
      "rawTags": {
        "amenity": "ferry_terminal",
        "cargo": "passengers",
        "name": "伊福貴"
      }
    },
    {
      "id": "nagasaki_ferry_terminal_4727960359",
      "osmId": 4727960359,
      "osmType": "node",
      "prefectureId": "nagasaki",
      "type": "ferry_terminal",
      "subtype": null,
      "name": "本窯港",
      "nameKana": null,
      "nameEn": null,
      "operator": null,
      "network": null,
      "ref": null,
      "latitude": 32.7692786,
      "longitude": 128.9915277,
      "countryCode": "jp",
      "rawTags": {
        "amenity": "ferry_terminal",
        "name": "本窯港"
      }
    },
    {
      "id": "nagasaki_ferry_terminal_4727960385",
      "osmId": 4727960385,
      "osmType": "node",
      "prefectureId": "nagasaki",
      "type": "ferry_terminal",
      "subtype": null,
      "name": "赤島港",
      "nameKana": null,
      "nameEn": null,
      "operator": null,
      "network": null,
      "ref": null,
      "latitude": 32.596591,
      "longitude": 128.9211279,
      "countryCode": "jp",
      "rawTags": {
        "amenity": "ferry_terminal",
        "cargo": "passengers",
        "name": "赤島港"
      }
    },
    {
      "id": "nagasaki_ferry_terminal_4727961101",
      "osmId": 4727961101,
      "osmType": "node",
      "prefectureId": "nagasaki",
      "type": "ferry_terminal",
      "subtype": null,
      "name": "富江港",
      "nameKana": null,
      "nameEn": null,
      "operator": null,
      "network": null,
      "ref": null,
      "latitude": 32.6172976,
      "longitude": 128.7701854,
      "countryCode": "jp",
      "rawTags": {
        "amenity": "ferry_terminal",
        "cargo": "passengers",
        "name": "富江港"
      }
    },
    {
      "id": "nagasaki_bus_terminal_4813297421",
      "osmId": 4813297421,
      "osmType": "node",
      "prefectureId": "nagasaki",
      "type": "bus_terminal",
      "subtype": null,
      "name": "新地バスターミナル",
      "nameKana": null,
      "nameEn": "Shinchi Bus Terminal",
      "operator": null,
      "network": null,
      "ref": null,
      "latitude": 32.7416549,
      "longitude": 129.8743368,
      "countryCode": "jp",
      "rawTags": {
        "amenity": "bus_station",
        "bus": "yes",
        "name": "新地バスターミナル",
        "name:en": "Shinchi Bus Terminal",
        "public_transport": "station"
      }
    },
    {
      "id": "nagasaki_bus_terminal_4883143994",
      "osmId": 4883143994,
      "osmType": "node",
      "prefectureId": "nagasaki",
      "type": "bus_terminal",
      "subtype": null,
      "name": "長崎駅前",
      "nameKana": "ながさきえきまえ",
      "nameEn": "Nagasaki Eki-mae",
      "operator": null,
      "network": null,
      "ref": null,
      "latitude": 32.7532826,
      "longitude": 129.8717275,
      "countryCode": "jp",
      "rawTags": {
        "amenity": "bus_station",
        "bus": "yes",
        "name": "長崎駅前",
        "name:en": "Nagasaki Eki-mae",
        "name:ja": "長崎駅前",
        "name:ja-Hira": "ながさきえきまえ",
        "public_transport": "station"
      }
    },
    {
      "id": "nagasaki_ferry_terminal_5187769301",
      "osmId": 5187769301,
      "osmType": "node",
      "prefectureId": "nagasaki",
      "type": "ferry_terminal",
      "subtype": null,
      "name": "奈良尾港ターミナル",
      "nameKana": null,
      "nameEn": null,
      "operator": null,
      "network": null,
      "ref": null,
      "latitude": 32.8457198,
      "longitude": 129.0612724,
      "countryCode": "jp",
      "rawTags": {
        "amenity": "ferry_terminal",
        "ferry": "yes",
        "name": "奈良尾港ターミナル",
        "public_transport": "station"
      }
    },
    {
      "id": "nagasaki_bus_terminal_5304391321",
      "osmId": 5304391321,
      "osmType": "node",
      "prefectureId": "nagasaki",
      "type": "bus_terminal",
      "subtype": null,
      "name": "佐世保市交通局矢峰営業所",
      "nameKana": null,
      "nameEn": null,
      "operator": null,
      "network": null,
      "ref": null,
      "latitude": 33.2116602,
      "longitude": 129.744265,
      "countryCode": "jp",
      "rawTags": {
        "addr:housenumber": "長崎県佐世保市矢峰町157",
        "addr:postcode": "857-0133",
        "addr:street": "国道４９８号",
        "amenity": "bus_station",
        "name": "佐世保市交通局矢峰営業所",
        "opening_hours": "Mo-Su 06:00-22:30",
        "phone": "0956-49-2125",
        "website": "http://city-sasebo-koutuu.jp/contact.html"
      }
    },
    {
      "id": "nagasaki_bus_terminal_5304615523",
      "osmId": 5304615523,
      "osmType": "node",
      "prefectureId": "nagasaki",
      "type": "bus_terminal",
      "subtype": null,
      "name": "西肥自動車（株） 東部営業所田子の浦待合所乗車券発売所",
      "nameKana": null,
      "nameEn": null,
      "operator": null,
      "network": null,
      "ref": null,
      "latitude": 33.1395723,
      "longitude": 129.7920522,
      "countryCode": "jp",
      "rawTags": {
        "addr:housenumber": "長崎県佐世保市早岐３丁目11",
        "addr:postcode": "859-3215",
        "addr:street": "国道２０２号",
        "amenity": "bus_station",
        "name": "西肥自動車（株） 東部営業所田子の浦待合所乗車券発売所",
        "opening_hours": "Mo-Su 10:00-13:00, 14:00-18:00",
        "phone": "0956-39-0561",
        "website": "https://www.bus.saihigroup.co.jp/help/2264.html"
      }
    },
    {
      "id": "nagasaki_bus_terminal_5304665122",
      "osmId": 5304665122,
      "osmType": "node",
      "prefectureId": "nagasaki",
      "type": "bus_terminal",
      "subtype": null,
      "name": "平戸口桟橋バスターミナル",
      "nameKana": null,
      "nameEn": null,
      "operator": null,
      "network": null,
      "ref": null,
      "latitude": 33.3627709,
      "longitude": 129.5779988,
      "countryCode": "jp",
      "rawTags": {
        "addr:housenumber": "長崎県平戸市田平町山内免344",
        "addr:postcode": "859-4825",
        "addr:street": "国道２０４号",
        "amenity": "bus_station",
        "name": "平戸口桟橋バスターミナル",
        "opening_hours": "Mo-Sa 09:00-13:00, 14:00-17:00",
        "phone": "0950-57-0241",
        "website": "https://www.bus.saihigroup.co.jp/help/2264.html"
      }
    },
    {
      "id": "nagasaki_ferry_terminal_5426307493",
      "osmId": 5426307493,
      "osmType": "node",
      "prefectureId": "nagasaki",
      "type": "ferry_terminal",
      "subtype": null,
      "name": "厳原港",
      "nameKana": null,
      "nameEn": "Izuhara Port",
      "operator": null,
      "network": null,
      "ref": null,
      "latitude": 34.1974706,
      "longitude": 129.2919655,
      "countryCode": "jp",
      "rawTags": {
        "amenity": "ferry_terminal",
        "ferry": "yes",
        "name": "厳原港",
        "name:en": "Izuhara Port",
        "name:ja": "厳原港",
        "name:ko": "이즈하라항",
        "public_transport": "station"
      }
    },
    {
      "id": "nagasaki_ferry_terminal_5426307506",
      "osmId": 5426307506,
      "osmType": "node",
      "prefectureId": "nagasaki",
      "type": "ferry_terminal",
      "subtype": null,
      "name": "比田勝港",
      "nameKana": null,
      "nameEn": "Port Hitakatsu",
      "operator": null,
      "network": null,
      "ref": null,
      "latitude": 34.6556705,
      "longitude": 129.4691988,
      "countryCode": "jp",
      "rawTags": {
        "addr:block_number": "958-16",
        "addr:city": "対馬市",
        "addr:neighbourhood": "上対馬町",
        "addr:postcode": "817-1701",
        "addr:province": "長崎県",
        "addr:quarter": "比田勝",
        "alt_name:ko": "히타카츠항",
        "amenity": "ferry_terminal",
        "ferry": "yes",
        "name": "比田勝港",
        "name:en": "Port Hitakatsu",
        "name:ja": "比田勝港",
        "name:ko": "히타카쓰항",
        "public_transport": "station",
        "wikidata": "Q11547472",
        "wikipedia": "ja:比田勝港"
      }
    },
    {
      "id": "nagasaki_station_5694791678",
      "osmId": 5694791678,
      "osmType": "node",
      "prefectureId": "nagasaki",
      "type": "station",
      "subtype": "jr",
      "name": "早岐",
      "nameKana": null,
      "nameEn": "Haiki",
      "operator": "九州旅客鉄道",
      "network": null,
      "ref": null,
      "latitude": 33.1337013,
      "longitude": 129.7992906,
      "countryCode": "jp",
      "rawTags": {
        "KSJ2:LIN": "佐世保線",
        "KSJ2:STN": "早岐",
        "contact:website": "https://www.jrkyushu.co.jp/railway/station/1191767_1601.html",
        "name": "早岐",
        "name:de": "Haiki",
        "name:en": "Haiki",
        "name:ja": "早岐",
        "name:ko": "하이키",
        "note": "National-Land Numerical Information (Railway) 2007, MLIT Japan",
        "note:ja": "国土数値情報（鉄道データ）平成19年　国土交通省",
        "operator": "九州旅客鉄道",
        "operator:en": "Kyushu Railway Company",
        "operator:ja": "九州旅客鉄道",
        "public_transport": "station",
        "railway": "station",
        "source": "KSJ2",
        "source_ref": "http://nlftp.mlit.go.jp/ksj/jpgis/datalist/KsjTmplt-N02-v1_1.html",
        "wikidata": "Q5639131",
        "wikipedia": "ja:早岐駅"
      }
    },
    {
      "id": "nagasaki_bus_terminal_5728571319",
      "osmId": 5728571319,
      "osmType": "node",
      "prefectureId": "nagasaki",
      "type": "bus_terminal",
      "subtype": null,
      "name": "長崎バス 時津営業所",
      "nameKana": null,
      "nameEn": null,
      "operator": null,
      "network": null,
      "ref": null,
      "latitude": 32.8522686,
      "longitude": 129.824755,
      "countryCode": "jp",
      "rawTags": {
        "amenity": "bus_station",
        "bus": "yes",
        "name": "長崎バス 時津営業所",
        "public_transport": "station"
      }
    },
    {
      "id": "nagasaki_station_6050944591",
      "osmId": 6050944591,
      "osmType": "node",
      "prefectureId": "nagasaki",
      "type": "station",
      "subtype": "private",
      "name": "たびら平戸口",
      "nameKana": null,
      "nameEn": "Tabirahiratoguchi",
      "operator": null,
      "network": null,
      "ref": null,
      "latitude": 33.3626788,
      "longitude": 129.5827639,
      "countryCode": "jp",
      "rawTags": {
        "KSJ2:LIN": "西九州線",
        "KSJ2:STN": "たびら平戸口",
        "name": "たびら平戸口",
        "name:en": "Tabirahiratoguchi",
        "name:ja": "たびら平戸口",
        "name:ko": "다비라히라도구치",
        "note": "National-Land Numerical Information (Railway) 2007, MLIT Japan",
        "note:ja": "国土数値情報（鉄道データ）平成19年　国土交通省",
        "public_transport": "station",
        "railway": "station",
        "source": "KSJ2",
        "source_ref": "http://nlftp.mlit.go.jp/ksj/jpgis/datalist/KsjTmplt-N02-v1_1.html",
        "wikidata": "Q7673072",
        "wikipedia": "ja:たびら平戸口駅"
      }
    },
    {
      "id": "nagasaki_ferry_terminal_6054687531",
      "osmId": 6054687531,
      "osmType": "node",
      "prefectureId": "nagasaki",
      "type": "ferry_terminal",
      "subtype": null,
      "name": "Mogi-Tomioka",
      "nameKana": null,
      "nameEn": null,
      "operator": null,
      "network": null,
      "ref": null,
      "latitude": 32.7074975,
      "longitude": 129.913631,
      "countryCode": "jp",
      "rawTags": {
        "amenity": "ferry_terminal",
        "name": "Mogi-Tomioka"
      }
    },
    {
      "id": "nagasaki_bus_terminal_6426295977",
      "osmId": 6426295977,
      "osmType": "node",
      "prefectureId": "nagasaki",
      "type": "bus_terminal",
      "subtype": null,
      "name": "長崎バス大橋営業所",
      "nameKana": null,
      "nameEn": null,
      "operator": "長崎自動車",
      "network": null,
      "ref": null,
      "latitude": 32.7779975,
      "longitude": 129.8583086,
      "countryCode": "jp",
      "rawTags": {
        "addr:city": "長崎市",
        "addr:neighbourhood": "2番9号",
        "addr:postcode": "852-8035",
        "addr:province": "長崎県",
        "addr:quarter": "油木町",
        "amenity": "bus_station",
        "bus": "yes",
        "name": "長崎バス大橋営業所",
        "operator": "長崎自動車",
        "public_transport": "station",
        "wikidata": "Q11652349",
        "wikipedia": "ja:長崎バス大橋営業所"
      }
    },
    {
      "id": "nagasaki_station_6871807890",
      "osmId": 6871807890,
      "osmType": "node",
      "prefectureId": "nagasaki",
      "type": "station",
      "subtype": "private",
      "name": "ハウステンボス",
      "nameKana": null,
      "nameEn": "Huis Ten Bosch",
      "operator": null,
      "network": null,
      "ref": null,
      "latitude": 33.0917944,
      "longitude": 129.796595,
      "countryCode": "jp",
      "rawTags": {
        "KSJ2:LIN": "大村線",
        "KSJ2:STN": "ハウステンボス",
        "name": "ハウステンボス",
        "name:en": "Huis Ten Bosch",
        "name:ja": "ハウステンボス",
        "name:ko": "하우스텐보스",
        "name:nl": "Huis Ten Bosch",
        "note": "National-Land Numerical Information (Railway) 2007, MLIT Japan",
        "note:ja": "国土数値情報（鉄道データ）平成19年　国土交通省",
        "railway": "station",
        "source": "KSJ2",
        "source_ref": "http://nlftp.mlit.go.jp/ksj/jpgis/datalist/KsjTmplt-N02-v1_1.html",
        "wikidata": "Q852106",
        "wikipedia": "ja:ハウステンボス駅"
      }
    },
    {
      "id": "nagasaki_station_7330287866",
      "osmId": 7330287866,
      "osmType": "node",
      "prefectureId": "nagasaki",
      "type": "station",
      "subtype": "private",
      "name": "竹松",
      "nameKana": null,
      "nameEn": "Takematsu",
      "operator": null,
      "network": null,
      "ref": null,
      "latitude": 32.9400476,
      "longitude": 129.9529155,
      "countryCode": "jp",
      "rawTags": {
        "KSJ2:LIN": "大村線",
        "KSJ2:STN": "竹松",
        "name": "竹松",
        "name:de": "Takematsu",
        "name:en": "Takematsu",
        "name:ja": "竹松",
        "name:ko": "다케마쓰",
        "note": "National-Land Numerical Information (Railway) 2007, MLIT Japan",
        "note:ja": "国土数値情報（鉄道データ）平成19年　国土交通省",
        "railway": "station",
        "source": "KSJ2",
        "source_ref": "http://nlftp.mlit.go.jp/ksj/jpgis/datalist/KsjTmplt-N02-v1_1.html",
        "wikidata": "Q7678011",
        "wikipedia": "ja:竹松駅"
      }
    },
    {
      "id": "nagasaki_station_7330322211",
      "osmId": 7330322211,
      "osmType": "node",
      "prefectureId": "nagasaki",
      "type": "station",
      "subtype": "jr",
      "name": "新大村",
      "nameKana": null,
      "nameEn": "Shin-Ōmura",
      "operator": "九州旅客鉄道",
      "network": null,
      "ref": null,
      "latitude": 32.9329805,
      "longitude": 129.9570496,
      "countryCode": "jp",
      "rawTags": {
        "addr:block_number": "115",
        "addr:city": "大村市",
        "addr:housenumber": "3",
        "addr:neighbourhood": "3",
        "addr:postcode": "856-0027",
        "addr:province": "長崎県",
        "addr:quarter": "植松",
        "name": "新大村",
        "name:de": "Shin-Ōmura",
        "name:en": "Shin-Ōmura",
        "name:ja": "新大村",
        "operator": "九州旅客鉄道",
        "public_transport": "station",
        "railway": "station",
        "train": "yes",
        "wikidata": "Q7497155",
        "wikipedia": "ja:新大村駅"
      }
    },
    {
      "id": "nagasaki_station_7340985751",
      "osmId": 7340985751,
      "osmType": "node",
      "prefectureId": "nagasaki",
      "type": "station",
      "subtype": "jr",
      "name": "浦上",
      "nameKana": "うらかみ",
      "nameEn": "Urakami",
      "operator": "九州旅客鉄道株式会社",
      "network": null,
      "ref": null,
      "latitude": 32.7654021,
      "longitude": 129.8633223,
      "countryCode": "jp",
      "rawTags": {
        "brand": "JR九州",
        "brand:en": "JR Kyushu",
        "brand:ja": "JR九州",
        "bus": "yes",
        "entrance": "yes",
        "name": "浦上",
        "name:de": "Urakami",
        "name:en": "Urakami",
        "name:ja": "浦上",
        "name:ja-Hira": "うらかみ",
        "name:ja-Latn": "Urakami",
        "operator": "九州旅客鉄道株式会社",
        "operator:en": "Kyushu Railway Company",
        "operator:ja": "九州旅客鉄道株式会社",
        "operator:wikidata": "Q498366",
        "owner": "九州旅客鉄道株式会社",
        "owner:en": "Kyushu Railway Company",
        "owner:ja": "九州旅客鉄道株式会社",
        "owner:wikidata": "Q498366",
        "public_transport": "station",
        "railway": "station",
        "start_date": "2020-03-28",
        "wikidata": "Q5356132"
      }
    },
    {
      "id": "nagasaki_station_7341733984",
      "osmId": 7341733984,
      "osmType": "node",
      "prefectureId": "nagasaki",
      "type": "station",
      "subtype": "jr",
      "name": "佐世保",
      "nameKana": null,
      "nameEn": "Sasebo",
      "operator": "九州旅客鉄道",
      "network": null,
      "ref": null,
      "latitude": 33.1637103,
      "longitude": 129.7260999,
      "countryCode": "jp",
      "rawTags": {
        "KSJ2:LIN": "佐世保線",
        "KSJ2:STN": "佐世保",
        "name": "佐世保",
        "name:en": "Sasebo",
        "name:ja": "佐世保",
        "name:ko": "사세보",
        "note": "National-Land Numerical Information (Railway) 2007, MLIT Japan",
        "note:ja": "国土数値情報（鉄道データ）平成19年　国土交通省",
        "operator": "九州旅客鉄道",
        "public_transport": "station",
        "railway": "station",
        "source": "KSJ2",
        "source_ref": "http://nlftp.mlit.go.jp/ksj/jpgis/datalist/KsjTmplt-N02-v1_1.html",
        "wikidata": "Q848748",
        "wikipedia": "ja:佐世保駅"
      }
    },
    {
      "id": "nagasaki_station_7550110002",
      "osmId": 7550110002,
      "osmType": "node",
      "prefectureId": "nagasaki",
      "type": "station",
      "subtype": "jr",
      "name": "長崎",
      "nameKana": "ながさき",
      "nameEn": "Nagasaki",
      "operator": "九州旅客鉄道株式会社",
      "network": "JR",
      "ref": "1",
      "latitude": 32.7525953,
      "longitude": 129.8686364,
      "countryCode": "jp",
      "rawTags": {
        "brand": "JR九州",
        "brand:en": "JR Kyushu",
        "brand:ja": "JR九州",
        "loc_ref": "1",
        "name": "長崎",
        "name:en": "Nagasaki",
        "name:ja": "長崎",
        "name:ja-Hira": "ながさき",
        "name:ja-Latn": "Nagasaki",
        "network": "JR",
        "network:en": "JR",
        "network:ja": "JR",
        "network:wikidata": "Q864495",
        "operator": "九州旅客鉄道株式会社",
        "operator:en": "Kyushu Railway Company",
        "operator:ja": "九州旅客鉄道株式会社",
        "operator:wikidata": "Q498366",
        "owner": "九州旅客鉄道株式会社",
        "owner:en": "Kyushu Railway Company",
        "owner:ja": "九州旅客鉄道株式会社",
        "owner:wikidata": "Q498366",
        "public_transport": "station",
        "railway": "station",
        "ref": "1",
        "train": "yes",
        "wikidata": "Q1076315"
      }
    },
    {
      "id": "nagasaki_ferry_terminal_7726290419",
      "osmId": 7726290419,
      "osmType": "node",
      "prefectureId": "nagasaki",
      "type": "ferry_terminal",
      "subtype": null,
      "name": "二位港",
      "nameKana": null,
      "nameEn": null,
      "operator": "対馬市",
      "network": null,
      "ref": null,
      "latitude": 34.3839496,
      "longitude": 129.3119411,
      "countryCode": "jp",
      "rawTags": {
        "amenity": "ferry_terminal",
        "ferry": "yes",
        "name": "二位港",
        "operator": "対馬市",
        "public_transport": "station"
      }
    },
    {
      "id": "nagasaki_ferry_terminal_7726290420",
      "osmId": 7726290420,
      "osmType": "node",
      "prefectureId": "nagasaki",
      "type": "ferry_terminal",
      "subtype": null,
      "name": "卯麦港",
      "nameKana": null,
      "nameEn": null,
      "operator": "対馬市",
      "network": null,
      "ref": null,
      "latitude": 34.3846461,
      "longitude": 129.295795,
      "countryCode": "jp",
      "rawTags": {
        "amenity": "ferry_terminal",
        "ferry": "yes",
        "name": "卯麦港",
        "operator": "対馬市",
        "public_transport": "station"
      }
    },
    {
      "id": "nagasaki_ferry_terminal_7726290421",
      "osmId": 7726290421,
      "osmType": "node",
      "prefectureId": "nagasaki",
      "type": "ferry_terminal",
      "subtype": null,
      "name": "佐志賀港",
      "nameKana": null,
      "nameEn": null,
      "operator": null,
      "network": null,
      "ref": null,
      "latitude": 34.3630507,
      "longitude": 129.3022411,
      "countryCode": "jp",
      "rawTags": {
        "amenity": "ferry_terminal",
        "ferry": "yes",
        "name": "佐志賀港",
        "public_transport": "station"
      }
    },
    {
      "id": "nagasaki_ferry_terminal_7726290422",
      "osmId": 7726290422,
      "osmType": "node",
      "prefectureId": "nagasaki",
      "type": "ferry_terminal",
      "subtype": null,
      "name": "嵯峨港",
      "nameKana": null,
      "nameEn": null,
      "operator": "対馬市",
      "network": null,
      "ref": null,
      "latitude": 34.3562683,
      "longitude": 129.3104846,
      "countryCode": "jp",
      "rawTags": {
        "amenity": "ferry_terminal",
        "ferry": "yes",
        "name": "嵯峨港",
        "operator": "対馬市",
        "public_transport": "station"
      }
    },
    {
      "id": "nagasaki_ferry_terminal_7726290423",
      "osmId": 7726290423,
      "osmType": "node",
      "prefectureId": "nagasaki",
      "type": "ferry_terminal",
      "subtype": null,
      "name": "貝鮒港",
      "nameKana": null,
      "nameEn": null,
      "operator": "対馬市",
      "network": null,
      "ref": null,
      "latitude": 34.3441811,
      "longitude": 129.3091527,
      "countryCode": "jp",
      "rawTags": {
        "amenity": "ferry_terminal",
        "ferry": "yes",
        "name": "貝鮒港",
        "operator": "対馬市",
        "public_transport": "station"
      }
    },
    {
      "id": "nagasaki_ferry_terminal_7726290424",
      "osmId": 7726290424,
      "osmType": "node",
      "prefectureId": "nagasaki",
      "type": "ferry_terminal",
      "subtype": null,
      "name": "水崎港",
      "nameKana": null,
      "nameEn": null,
      "operator": "対馬市",
      "network": null,
      "ref": null,
      "latitude": 34.3562243,
      "longitude": 129.2704355,
      "countryCode": "jp",
      "rawTags": {
        "amenity": "ferry_terminal",
        "ferry": "yes",
        "name": "水崎港",
        "operator": "対馬市",
        "public_transport": "station"
      }
    },
    {
      "id": "nagasaki_ferry_terminal_7726290425",
      "osmId": 7726290425,
      "osmType": "node",
      "prefectureId": "nagasaki",
      "type": "ferry_terminal",
      "subtype": null,
      "name": "加志々港",
      "nameKana": null,
      "nameEn": null,
      "operator": "対馬市",
      "network": null,
      "ref": null,
      "latitude": 34.3552757,
      "longitude": 129.2661821,
      "countryCode": "jp",
      "rawTags": {
        "amenity": "ferry_terminal",
        "ferry": "yes",
        "name": "加志々港",
        "operator": "対馬市",
        "public_transport": "station"
      }
    },
    {
      "id": "nagasaki_ferry_terminal_7726290426",
      "osmId": 7726290426,
      "osmType": "node",
      "prefectureId": "nagasaki",
      "type": "ferry_terminal",
      "subtype": null,
      "name": "長板浦港",
      "nameKana": null,
      "nameEn": null,
      "operator": "対馬市",
      "network": null,
      "ref": null,
      "latitude": 34.2847193,
      "longitude": 129.3151616,
      "countryCode": "jp",
      "rawTags": {
        "amenity": "ferry_terminal",
        "ferry": "yes",
        "name": "長板浦港",
        "operator": "対馬市",
        "public_transport": "station"
      }
    },
    {
      "id": "nagasaki_ferry_terminal_7823003966",
      "osmId": 7823003966,
      "osmType": "node",
      "prefectureId": "nagasaki",
      "type": "ferry_terminal",
      "subtype": null,
      "name": "奈良尾",
      "nameKana": null,
      "nameEn": null,
      "operator": null,
      "network": null,
      "ref": null,
      "latitude": 32.8461665,
      "longitude": 129.0614283,
      "countryCode": "jp",
      "rawTags": {
        "amenity": "ferry_terminal",
        "ferry": "yes",
        "name": "奈良尾",
        "public_transport": "station"
      }
    },
    {
      "id": "nagasaki_station_7836635368",
      "osmId": 7836635368,
      "osmType": "node",
      "prefectureId": "nagasaki",
      "type": "station",
      "subtype": "private",
      "name": "島原港",
      "nameKana": null,
      "nameEn": "Shimabara-Kou",
      "operator": null,
      "network": null,
      "ref": null,
      "latitude": 32.7687503,
      "longitude": 130.3703356,
      "countryCode": "jp",
      "rawTags": {
        "KSJ2:LIN": "島原鉄道線",
        "alt_name:ko": "시마바라가이코",
        "name": "島原港",
        "name:en": "Shimabara-Kou",
        "name:ja": "島原港",
        "name:ko": "시마바라외항",
        "public_transport": "station",
        "railway": "station",
        "source": "GSImaps/std",
        "wikidata": "Q11476232",
        "wikipedia": "ja:島原港駅"
      }
    },
    {
      "id": "nagasaki_station_7836635369",
      "osmId": 7836635369,
      "osmType": "node",
      "prefectureId": "nagasaki",
      "type": "station",
      "subtype": "private",
      "name": "島原船津",
      "nameKana": null,
      "nameEn": "Shimabara-Funatsu",
      "operator": null,
      "network": null,
      "ref": null,
      "latitude": 32.7758888,
      "longitude": 130.3756826,
      "countryCode": "jp",
      "rawTags": {
        "KSJ2:LIN": "島原鉄道線",
        "name": "島原船津",
        "name:en": "Shimabara-Funatsu",
        "name:ja": "島原船津",
        "name:ko": "미나미시마바라",
        "public_transport": "station",
        "railway": "station",
        "source": "GSImaps/std",
        "wikidata": "Q11407780",
        "wikipedia": "ja:島原船津駅"
      }
    },
    {
      "id": "nagasaki_station_7836635384",
      "osmId": 7836635384,
      "osmType": "node",
      "prefectureId": "nagasaki",
      "type": "station",
      "subtype": "private",
      "name": "霊丘公園体育館",
      "nameKana": null,
      "nameEn": "Reikyukoen-Taiikukan",
      "operator": null,
      "network": null,
      "ref": null,
      "latitude": 32.7825548,
      "longitude": 130.3741679,
      "countryCode": "jp",
      "rawTags": {
        "KSJ2:LIN": "島原鉄道線",
        "alt_name:ko": "시마테쓰혼샤마에",
        "name": "霊丘公園体育館",
        "name:en": "Reikyukoen-Taiikukan",
        "name:ja": "霊丘公園体育館",
        "name:ko": "시마테쓰본사앞",
        "public_transport": "station",
        "railway": "station",
        "source": "GSImaps/std",
        "wikidata": "Q11477072",
        "wikipedia": "ja:霊丘公園体育館駅"
      }
    },
    {
      "id": "nagasaki_station_7836776086",
      "osmId": 7836776086,
      "osmType": "node",
      "prefectureId": "nagasaki",
      "type": "station",
      "subtype": "private",
      "name": "島原",
      "nameKana": null,
      "nameEn": "Shimabara",
      "operator": null,
      "network": null,
      "ref": null,
      "latitude": 32.7903299,
      "longitude": 130.3708063,
      "countryCode": "jp",
      "rawTags": {
        "KSJ2:LIN": "島原鉄道線",
        "KSJ2:STN": "島原",
        "name": "島原",
        "name:en": "Shimabara",
        "name:ja": "島原",
        "name:ko": "시마바라",
        "note": "National-Land Numerical Information (Railway) 2007, MLIT Japan",
        "note:ja": "国土数値情報（鉄道データ）平成19年　国土交通省",
        "public_transport": "station",
        "railway": "station",
        "source": "KSJ2 + English name",
        "source_ref": "http://nlftp.mlit.go.jp/ksj/jpgis/datalist/KsjTmplt-N02-v1_1.html",
        "wikidata": "Q7496811",
        "wikipedia": "ja:島原駅"
      }
    },
    {
      "id": "nagasaki_station_7836776087",
      "osmId": 7836776087,
      "osmType": "node",
      "prefectureId": "nagasaki",
      "type": "station",
      "subtype": "private",
      "name": "三会",
      "nameKana": null,
      "nameEn": "Mie",
      "operator": null,
      "network": null,
      "ref": null,
      "latitude": 32.8146363,
      "longitude": 130.3574623,
      "countryCode": "jp",
      "rawTags": {
        "KSJ2:LIN": "島原鉄道線",
        "KSJ2:STN": "三会",
        "name": "三会",
        "name:en": "Mie",
        "name:ja": "三会",
        "name:ko": "미에",
        "note": "National-Land Numerical Information (Railway) 2007, MLIT Japan",
        "note:ja": "国土数値情報（鉄道データ）平成19年　国土交通省",
        "public_transport": "station",
        "railway": "station",
        "source": "KSJ2",
        "source_ref": "http://nlftp.mlit.go.jp/ksj/jpgis/datalist/KsjTmplt-N02-v1_1.html",
        "wikidata": "Q11354374",
        "wikipedia": "ja:三会駅"
      }
    },
    {
      "id": "nagasaki_station_7836776088",
      "osmId": 7836776088,
      "osmType": "node",
      "prefectureId": "nagasaki",
      "type": "station",
      "subtype": "private",
      "name": "松尾",
      "nameKana": null,
      "nameEn": "Matsuo",
      "operator": null,
      "network": null,
      "ref": null,
      "latitude": 32.8341487,
      "longitude": 130.3477089,
      "countryCode": "jp",
      "rawTags": {
        "KSJ2:LIN": "島原鉄道線",
        "name": "松尾",
        "name:en": "Matsuo",
        "name:ja": "松尾",
        "name:ko": "마쓰오마치",
        "public_transport": "station",
        "railway": "station",
        "source": "GSImaps/std",
        "wikidata": "Q11529676",
        "wikipedia": "ja:松尾駅"
      }
    },
    {
      "id": "nagasaki_station_7836776089",
      "osmId": 7836776089,
      "osmType": "node",
      "prefectureId": "nagasaki",
      "type": "station",
      "subtype": "private",
      "name": "大三東",
      "nameKana": null,
      "nameEn": "Oomisaki",
      "operator": null,
      "network": null,
      "ref": null,
      "latitude": 32.8437625,
      "longitude": 130.3447031,
      "countryCode": "jp",
      "rawTags": {
        "KSJ2:LIN": "島原鉄道線",
        "KSJ2:STN": "大三東",
        "name": "大三東",
        "name:en": "Oomisaki",
        "name:ja": "大三東",
        "name:ko": "오미사키",
        "note": "National-Land Numerical Information (Railway) 2007, MLIT Japan",
        "note:ja": "国土数値情報（鉄道データ）平成19年　国土交通省",
        "public_transport": "station",
        "railway": "station",
        "source": "KSJ2",
        "source_ref": "http://nlftp.mlit.go.jp/ksj/jpgis/datalist/KsjTmplt-N02-v1_1.html",
        "wikidata": "Q11431812",
        "wikipedia": "ja:大三東駅"
      }
    },
    {
      "id": "nagasaki_station_7836776096",
      "osmId": 7836776096,
      "osmType": "node",
      "prefectureId": "nagasaki",
      "type": "station",
      "subtype": "private",
      "name": "有明湯江",
      "nameKana": null,
      "nameEn": "Ariake-Yue",
      "operator": null,
      "network": null,
      "ref": null,
      "latitude": 32.8582662,
      "longitude": 130.3282037,
      "countryCode": "jp",
      "rawTags": {
        "KSJ2:LIN": "島原鉄道線",
        "name": "有明湯江",
        "name:en": "Ariake-Yue",
        "name:ja": "有明湯江",
        "name:ko": "시마테쓰유에",
        "public_transport": "station",
        "railway": "station",
        "source": "GSImaps/std",
        "wikidata": "Q11477073",
        "wikipedia": "ja:有明湯江駅"
      }
    },
    {
      "id": "nagasaki_station_7836776097",
      "osmId": 7836776097,
      "osmType": "node",
      "prefectureId": "nagasaki",
      "type": "station",
      "subtype": "private",
      "name": "神代",
      "nameKana": null,
      "nameEn": "Kojiro",
      "operator": null,
      "network": null,
      "ref": null,
      "latitude": 32.8716112,
      "longitude": 130.2697198,
      "countryCode": "jp",
      "rawTags": {
        "KSJ2:LIN": "島原鉄道線",
        "name": "神代",
        "name:en": "Kojiro",
        "name:ja": "神代",
        "name:ko": "고지로마치",
        "public_transport": "station",
        "railway": "station",
        "source": "GSImaps/std",
        "wikidata": "Q11588698",
        "wikipedia": "ja:神代駅"
      }
    },
    {
      "id": "nagasaki_station_7836776098",
      "osmId": 7836776098,
      "osmType": "node",
      "prefectureId": "nagasaki",
      "type": "station",
      "subtype": "private",
      "name": "多比良",
      "nameKana": null,
      "nameEn": "Taira",
      "operator": null,
      "network": null,
      "ref": null,
      "latitude": 32.8718001,
      "longitude": 130.3089249,
      "countryCode": "jp",
      "rawTags": {
        "KSJ2:LIN": "島原鉄道線",
        "name": "多比良",
        "name:en": "Taira",
        "name:ja": "多比良",
        "name:ko": "다이라마치",
        "public_transport": "station",
        "railway": "station",
        "source": "GSImaps/std",
        "wikidata": "Q11430815",
        "wikipedia": "ja:多比良駅"
      }
    },
    {
      "id": "nagasaki_station_7836776119",
      "osmId": 7836776119,
      "osmType": "node",
      "prefectureId": "nagasaki",
      "type": "station",
      "subtype": "private",
      "name": "西郷",
      "nameKana": null,
      "nameEn": "Saigo",
      "operator": null,
      "network": null,
      "ref": null,
      "latitude": 32.8728923,
      "longitude": 130.2439633,
      "countryCode": "jp",
      "rawTags": {
        "KSJ2:LIN": "島原鉄道線",
        "KSJ2:STN": "西郷",
        "name": "西郷",
        "name:en": "Saigo",
        "name:ja": "西郷",
        "name:ko": "사이고",
        "note": "National-Land Numerical Information (Railway) 2007, MLIT Japan",
        "note:ja": "国土数値情報（鉄道データ）平成19年　国土交通省",
        "public_transport": "station",
        "railway": "station",
        "source": "KSJ2",
        "source_ref": "http://nlftp.mlit.go.jp/ksj/jpgis/datalist/KsjTmplt-N02-v1_1.html",
        "wikidata": "Q11629703",
        "wikipedia": "ja:西郷駅"
      }
    },
    {
      "id": "nagasaki_station_7836776120",
      "osmId": 7836776120,
      "osmType": "node",
      "prefectureId": "nagasaki",
      "type": "station",
      "subtype": "private",
      "name": "大正",
      "nameKana": null,
      "nameEn": "Taisho",
      "operator": null,
      "network": null,
      "ref": null,
      "latitude": 32.8602867,
      "longitude": 130.2253455,
      "countryCode": "jp",
      "rawTags": {
        "KSJ2:LIN": "島原鉄道線",
        "KSJ2:STN": "大正",
        "name": "大正",
        "name:en": "Taisho",
        "name:ja": "大正",
        "name:ko": "다이쇼",
        "note": "National-Land Numerical Information (Railway) 2007, MLIT Japan",
        "note:ja": "国土数値情報（鉄道データ）平成19年　国土交通省",
        "public_transport": "station",
        "railway": "station",
        "source": "KSJ2",
        "source_ref": "http://nlftp.mlit.go.jp/ksj/jpgis/datalist/KsjTmplt-N02-v1_1.html",
        "wikidata": "Q11436742",
        "wikipedia": "ja:大正駅 (長崎県)"
      }
    },
    {
      "id": "nagasaki_station_7836776121",
      "osmId": 7836776121,
      "osmType": "node",
      "prefectureId": "nagasaki",
      "type": "station",
      "subtype": "private",
      "name": "古部",
      "nameKana": null,
      "nameEn": "Kobe",
      "operator": null,
      "network": null,
      "ref": null,
      "latitude": 32.8564918,
      "longitude": 130.2137709,
      "countryCode": "jp",
      "rawTags": {
        "KSJ2:LIN": "島原鉄道線",
        "KSJ2:STN": "古部",
        "name": "古部",
        "name:en": "Kobe",
        "name:ja": "古部",
        "name:ko": "고베",
        "note": "National-Land Numerical Information (Railway) 2007, MLIT Japan",
        "note:ja": "国土数値情報（鉄道データ）平成19年　国土交通省",
        "public_transport": "station",
        "railway": "station",
        "source": "KSJ2",
        "source_ref": "http://nlftp.mlit.go.jp/ksj/jpgis/datalist/KsjTmplt-N02-v1_1.html",
        "wikidata": "Q11411723",
        "wikipedia": "ja:古部駅"
      }
    },
    {
      "id": "nagasaki_station_7836776122",
      "osmId": 7836776122,
      "osmType": "node",
      "prefectureId": "nagasaki",
      "type": "station",
      "subtype": "private",
      "name": "吾妻",
      "nameKana": null,
      "nameEn": "Azuma",
      "operator": null,
      "network": null,
      "ref": null,
      "latitude": 32.8404223,
      "longitude": 130.1899206,
      "countryCode": "jp",
      "rawTags": {
        "KSJ2:LIN": "島原鉄道線",
        "KSJ2:STN": "吾妻",
        "name": "吾妻",
        "name:en": "Azuma",
        "name:ja": "吾妻",
        "name:ko": "아즈마",
        "note": "National-Land Numerical Information (Railway) 2007, MLIT Japan",
        "note:ja": "国土数値情報（鉄道データ）平成19年　国土交通省",
        "public_transport": "station",
        "railway": "station",
        "source": "KSJ2",
        "source_ref": "http://nlftp.mlit.go.jp/ksj/jpgis/datalist/KsjTmplt-N02-v1_1.html",
        "wikidata": "Q11416650",
        "wikipedia": "ja:吾妻駅"
      }
    },
    {
      "id": "nagasaki_station_7836776123",
      "osmId": 7836776123,
      "osmType": "node",
      "prefectureId": "nagasaki",
      "type": "station",
      "subtype": "private",
      "name": "阿母崎",
      "nameKana": null,
      "nameEn": "Abazaki",
      "operator": "島原鉄道",
      "network": "島原鉄道線",
      "ref": null,
      "latitude": 32.8300323,
      "longitude": 130.1706317,
      "countryCode": "jp",
      "rawTags": {
        "KSJ2:LIN": "島原鉄道線",
        "KSJ2:STN": "阿母崎",
        "name": "阿母崎",
        "name:en": "Abazaki",
        "name:ja": "阿母崎",
        "name:ko": "아보자키",
        "network": "島原鉄道線",
        "note": "National-Land Numerical Information (Railway) 2007, MLIT Japan",
        "note:ja": "国土数値情報（鉄道データ）平成19年　国土交通省",
        "operator": "島原鉄道",
        "public_transport": "station",
        "railway": "station",
        "source": "KSJ2",
        "source_ref": "http://nlftp.mlit.go.jp/ksj/jpgis/datalist/KsjTmplt-N02-v1_1.html",
        "start_date": "1955-03-09",
        "wikidata": "Q11657480",
        "wikipedia": "ja:阿母崎駅"
      }
    },
    {
      "id": "nagasaki_station_7836776124",
      "osmId": 7836776124,
      "osmType": "node",
      "prefectureId": "nagasaki",
      "type": "station",
      "subtype": "private",
      "name": "愛野",
      "nameKana": null,
      "nameEn": "Aino",
      "operator": null,
      "network": null,
      "ref": null,
      "latitude": 32.818984,
      "longitude": 130.1563101,
      "countryCode": "jp",
      "rawTags": {
        "KSJ2:LIN": "島原鉄道線",
        "KSJ2:STN": "愛野",
        "name": "愛野",
        "name:en": "Aino",
        "name:ja": "愛野",
        "name:ko": "아이노",
        "note": "National-Land Numerical Information (Railway) 2007, MLIT Japan",
        "note:ja": "国土数値情報（鉄道データ）平成19年　国土交通省",
        "public_transport": "station",
        "railway": "station",
        "source": "KSJ2",
        "source_ref": "http://nlftp.mlit.go.jp/ksj/jpgis/datalist/KsjTmplt-N02-v1_1.html",
        "wikidata": "Q11494902",
        "wikipedia": "ja:愛野駅 (長崎県)"
      }
    },
    {
      "id": "nagasaki_station_7836776125",
      "osmId": 7836776125,
      "osmType": "node",
      "prefectureId": "nagasaki",
      "type": "station",
      "subtype": "private",
      "name": "諫早東高校",
      "nameKana": null,
      "nameEn": "Isahayahigasikoukou",
      "operator": null,
      "network": null,
      "ref": null,
      "latitude": 32.8235338,
      "longitude": 130.1490842,
      "countryCode": "jp",
      "rawTags": {
        "alt_name:ko": "이사하야히가시코코마에",
        "name": "諫早東高校",
        "name:en": "Isahayahigasikoukou",
        "name:ja": "諫早東高校",
        "name:ko": "이사하야히가시고교앞",
        "public_transport": "station",
        "railway": "station",
        "source": "GSImaps/std",
        "wikidata": "Q11632014",
        "wikipedia": "ja:諫早東高校駅"
      }
    },
    {
      "id": "nagasaki_station_7836776126",
      "osmId": 7836776126,
      "osmType": "node",
      "prefectureId": "nagasaki",
      "type": "station",
      "subtype": "private",
      "name": "釜ノ鼻",
      "nameKana": null,
      "nameEn": "Kamanohana",
      "operator": null,
      "network": null,
      "ref": null,
      "latitude": 32.8339505,
      "longitude": 130.1357194,
      "countryCode": "jp",
      "rawTags": {
        "KSJ2:LIN": "島原鉄道線",
        "KSJ2:STN": "釜ノ鼻",
        "name": "釜ノ鼻",
        "name:en": "Kamanohana",
        "name:ja": "釜ノ鼻",
        "name:ko": "가마노하나",
        "note": "National-Land Numerical Information (Railway) 2007, MLIT Japan",
        "note:ja": "国土数値情報（鉄道データ）平成19年　国土交通省",
        "public_transport": "station",
        "railway": "station",
        "source": "KSJ2",
        "source_ref": "http://nlftp.mlit.go.jp/ksj/jpgis/datalist/KsjTmplt-N02-v1_1.html",
        "wikidata": "Q11648054",
        "wikipedia": "ja:釜ノ鼻駅"
      }
    },
    {
      "id": "nagasaki_station_7836776127",
      "osmId": 7836776127,
      "osmType": "node",
      "prefectureId": "nagasaki",
      "type": "station",
      "subtype": "private",
      "name": "森山",
      "nameKana": null,
      "nameEn": "Moriyama",
      "operator": null,
      "network": null,
      "ref": null,
      "latitude": 32.8350824,
      "longitude": 130.113498,
      "countryCode": "jp",
      "rawTags": {
        "KSJ2:LIN": "島原鉄道線",
        "KSJ2:STN": "森山",
        "name": "森山",
        "name:en": "Moriyama",
        "name:ja": "森山",
        "name:ko": "모리야마",
        "note": "National-Land Numerical Information (Railway) 2007, MLIT Japan",
        "note:ja": "国土数値情報（鉄道データ）平成19年　国土交通省",
        "public_transport": "station",
        "railway": "station",
        "source": "KSJ2",
        "source_ref": "http://nlftp.mlit.go.jp/ksj/jpgis/datalist/KsjTmplt-N02-v1_1.html",
        "wikidata": "Q11539514",
        "wikipedia": "ja:森山駅"
      }
    },
    {
      "id": "nagasaki_station_7836776133",
      "osmId": 7836776133,
      "osmType": "node",
      "prefectureId": "nagasaki",
      "type": "station",
      "subtype": "private",
      "name": "干拓の里",
      "nameKana": null,
      "nameEn": "Kantakunosato",
      "operator": null,
      "network": null,
      "ref": null,
      "latitude": 32.836207,
      "longitude": 130.0934585,
      "countryCode": "jp",
      "rawTags": {
        "KSJ2:LIN": "島原鉄道線",
        "KSJ2:STN": "干拓の里",
        "name": "干拓の里",
        "name:en": "Kantakunosato",
        "name:ja": "干拓の里",
        "name:ko": "간타쿠노사토",
        "note": "National-Land Numerical Information (Railway) 2007, MLIT Japan",
        "note:ja": "国土数値情報（鉄道データ）平成19年　国土交通省",
        "public_transport": "station",
        "railway": "station",
        "source": "KSJ2",
        "source_ref": "http://nlftp.mlit.go.jp/ksj/jpgis/datalist/KsjTmplt-N02-v1_1.html",
        "wikidata": "Q11481900",
        "wikipedia": "ja:干拓の里駅"
      }
    },
    {
      "id": "nagasaki_station_7836776134",
      "osmId": 7836776134,
      "osmType": "node",
      "prefectureId": "nagasaki",
      "type": "station",
      "subtype": "private",
      "name": "小野",
      "nameKana": null,
      "nameEn": "Ono",
      "operator": null,
      "network": null,
      "ref": null,
      "latitude": 32.8339336,
      "longitude": 130.0860069,
      "countryCode": "jp",
      "rawTags": {
        "KSJ2:LIN": "島原鉄道線",
        "name": "小野",
        "name:en": "Ono",
        "name:ja": "小野",
        "name:ko": "오노혼마치",
        "public_transport": "station",
        "railway": "station",
        "source": "GSImaps/std",
        "wikidata": "Q11464116",
        "wikipedia": "ja:小野駅"
      }
    },
    {
      "id": "nagasaki_station_7836776135",
      "osmId": 7836776135,
      "osmType": "node",
      "prefectureId": "nagasaki",
      "type": "station",
      "subtype": "private",
      "name": "幸",
      "nameKana": null,
      "nameEn": "Saiwai",
      "operator": null,
      "network": null,
      "ref": null,
      "latitude": 32.8371005,
      "longitude": 130.0667457,
      "countryCode": "jp",
      "rawTags": {
        "KSJ2:LIN": "島原鉄道線",
        "KSJ2:STN": "幸",
        "name": "幸",
        "name:en": "Saiwai",
        "name:ja": "幸",
        "name:ko": "사이와이",
        "note": "National-Land Numerical Information (Railway) 2007, MLIT Japan",
        "note:ja": "国土数値情報（鉄道データ）平成19年　国土交通省",
        "public_transport": "station",
        "railway": "station",
        "source": "KSJ2",
        "source_ref": "http://nlftp.mlit.go.jp/ksj/jpgis/datalist/KsjTmplt-N02-v1_1.html",
        "wikidata": "Q11484096",
        "wikipedia": "ja:幸駅"
      }
    },
    {
      "id": "nagasaki_station_7836776136",
      "osmId": 7836776136,
      "osmType": "node",
      "prefectureId": "nagasaki",
      "type": "station",
      "subtype": "private",
      "name": "本諫早",
      "nameKana": null,
      "nameEn": "Hon-Isahaya",
      "operator": null,
      "network": null,
      "ref": null,
      "latitude": 32.8416494,
      "longitude": 130.052982,
      "countryCode": "jp",
      "rawTags": {
        "KSJ2:LIN": "島原鉄道線",
        "KSJ2:STN": "本諫早",
        "name": "本諫早",
        "name:en": "Hon-Isahaya",
        "name:ja": "本諫早",
        "name:ko": "혼이사하야",
        "note": "National-Land Numerical Information (Railway) 2007, MLIT Japan",
        "note:ja": "国土数値情報（鉄道データ）平成19年　国土交通省",
        "public_transport": "station",
        "railway": "station",
        "source": "KSJ2",
        "source_ref": "http://nlftp.mlit.go.jp/ksj/jpgis/datalist/KsjTmplt-N02-v1_1.html",
        "wikidata": "Q5891910",
        "wikipedia": "ja:本諫早駅"
      }
    },
    {
      "id": "nagasaki_station_7846259984",
      "osmId": 7846259984,
      "osmType": "node",
      "prefectureId": "nagasaki",
      "type": "station",
      "subtype": "jr",
      "name": "肥前長田",
      "nameKana": null,
      "nameEn": "Hizen-Nagata",
      "operator": "九州旅客鉄道",
      "network": null,
      "ref": null,
      "latitude": 32.8620516,
      "longitude": 130.0802681,
      "countryCode": "jp",
      "rawTags": {
        "KSJ2:LIN": "長崎線",
        "KSJ2:STN": "肥前長田",
        "name": "肥前長田",
        "name:en": "Hizen-Nagata",
        "name:ja": "肥前長田",
        "name:ko": "히젠나가타",
        "note": "National-Land Numerical Information (Railway) 2007, MLIT Japan",
        "note:ja": "国土数値情報（鉄道データ）平成19年　国土交通省",
        "operator": "九州旅客鉄道",
        "public_transport": "station",
        "railway": "station",
        "source": "KSJ2",
        "source_ref": "http://nlftp.mlit.go.jp/ksj/jpgis/datalist/KsjTmplt-N02-v1_1.html",
        "wikidata": "Q5355503",
        "wikipedia": "ja:肥前長田駅"
      }
    },
    {
      "id": "nagasaki_station_7887121337",
      "osmId": 7887121337,
      "osmType": "node",
      "prefectureId": "nagasaki",
      "type": "station",
      "subtype": "jr",
      "name": "小長井",
      "nameKana": null,
      "nameEn": "Konagai",
      "operator": "九州旅客鉄道",
      "network": null,
      "ref": null,
      "latitude": 32.923787,
      "longitude": 130.1862475,
      "countryCode": "jp",
      "rawTags": {
        "KSJ2:LIN": "長崎線",
        "KSJ2:STN": "小長井",
        "name": "小長井",
        "name:en": "Konagai",
        "name:ja": "小長井",
        "name:ko": "고나가이",
        "note": "National-Land Numerical Information (Railway) 2007, MLIT Japan",
        "note:ja": "国土数値情報（鉄道データ）平成19年　国土交通省",
        "operator": "九州旅客鉄道",
        "public_transport": "station",
        "railway": "station",
        "source": "KSJ2",
        "source_ref": "http://nlftp.mlit.go.jp/ksj/jpgis/datalist/KsjTmplt-N02-v1_1.html",
        "wikidata": "Q6428718",
        "wikipedia": "ja:小長井駅"
      }
    },
    {
      "id": "nagasaki_station_7887121338",
      "osmId": 7887121338,
      "osmType": "node",
      "prefectureId": "nagasaki",
      "type": "station",
      "subtype": "jr",
      "name": "長里",
      "nameKana": null,
      "nameEn": "Nagasato",
      "operator": "九州旅客鉄道",
      "network": null,
      "ref": null,
      "latitude": 32.9151164,
      "longitude": 130.1650447,
      "countryCode": "jp",
      "rawTags": {
        "KSJ2:LIN": "長崎線",
        "KSJ2:STN": "長里",
        "name": "長里",
        "name:en": "Nagasato",
        "name:ja": "長里",
        "name:ko": "나가사토",
        "note": "National-Land Numerical Information (Railway) 2007, MLIT Japan",
        "note:ja": "国土数値情報（鉄道データ）平成19年　国土交通省",
        "operator": "九州旅客鉄道",
        "public_transport": "station",
        "railway": "station",
        "source": "KSJ2",
        "source_ref": "http://nlftp.mlit.go.jp/ksj/jpgis/datalist/KsjTmplt-N02-v1_1.html",
        "wikidata": "Q5356801",
        "wikipedia": "ja:長里駅"
      }
    },
    {
      "id": "nagasaki_station_7887121339",
      "osmId": 7887121339,
      "osmType": "node",
      "prefectureId": "nagasaki",
      "type": "station",
      "subtype": "jr",
      "name": "湯江",
      "nameKana": null,
      "nameEn": "Yue",
      "operator": "九州旅客鉄道",
      "network": null,
      "ref": null,
      "latitude": 32.9050419,
      "longitude": 130.1399392,
      "countryCode": "jp",
      "rawTags": {
        "KSJ2:LIN": "長崎線",
        "KSJ2:STN": "湯江",
        "name": "湯江",
        "name:en": "Yue",
        "name:ja": "湯江",
        "name:ko": "유에",
        "note": "National-Land Numerical Information (Railway) 2007, MLIT Japan",
        "note:ja": "国土数値情報（鉄道データ）平成19年　国土交通省",
        "operator": "九州旅客鉄道",
        "public_transport": "station",
        "railway": "station",
        "source": "KSJ2",
        "source_ref": "http://nlftp.mlit.go.jp/ksj/jpgis/datalist/KsjTmplt-N02-v1_1.html",
        "wikidata": "Q5355790",
        "wikipedia": "ja:湯江駅"
      }
    },
    {
      "id": "nagasaki_station_7887121340",
      "osmId": 7887121340,
      "osmType": "node",
      "prefectureId": "nagasaki",
      "type": "station",
      "subtype": "jr",
      "name": "小江",
      "nameKana": null,
      "nameEn": "Oe",
      "operator": "九州旅客鉄道",
      "network": null,
      "ref": null,
      "latitude": 32.8917293,
      "longitude": 130.1127516,
      "countryCode": "jp",
      "rawTags": {
        "KSJ2:LIN": "長崎線",
        "KSJ2:STN": "小江",
        "name": "小江",
        "name:en": "Oe",
        "name:ja": "小江",
        "name:ko": "오에",
        "note": "National-Land Numerical Information (Railway) 2007, MLIT Japan",
        "note:ja": "国土数値情報（鉄道データ）平成19年　国土交通省",
        "operator": "九州旅客鉄道",
        "public_transport": "station",
        "railway": "station",
        "source": "KSJ2",
        "source_ref": "http://nlftp.mlit.go.jp/ksj/jpgis/datalist/KsjTmplt-N02-v1_1.html",
        "wikidata": "Q5355652",
        "wikipedia": "ja:小江駅"
      }
    },
    {
      "id": "nagasaki_station_7887750908",
      "osmId": 7887750908,
      "osmType": "node",
      "prefectureId": "nagasaki",
      "type": "station",
      "subtype": "jr",
      "name": "喜々津",
      "nameKana": null,
      "nameEn": "Kikitsu",
      "operator": "九州旅客鉄道",
      "network": null,
      "ref": null,
      "latitude": 32.832716,
      "longitude": 129.9869178,
      "countryCode": "jp",
      "rawTags": {
        "KSJ2:LIN": "長崎線",
        "KSJ2:STN": "喜々津",
        "name": "喜々津",
        "name:de": "Kikitsu",
        "name:en": "Kikitsu",
        "name:ja": "喜々津",
        "name:ko": "기키쓰",
        "note": "National-Land Numerical Information (Railway) 2007, MLIT Japan",
        "note:ja": "国土数値情報（鉄道データ）平成19年　国土交通省",
        "operator": "九州旅客鉄道",
        "operator:ja": "九州旅客鉄道",
        "public_transport": "station",
        "railway": "station",
        "source": "KSJ2",
        "source_ref": "http://nlftp.mlit.go.jp/ksj/jpgis/datalist/KsjTmplt-N02-v1_1.html",
        "wikidata": "Q5356036",
        "wikipedia": "ja:喜々津駅"
      }
    },
    {
      "id": "nagasaki_station_7887750911",
      "osmId": 7887750911,
      "osmType": "node",
      "prefectureId": "nagasaki",
      "type": "station",
      "subtype": "jr",
      "name": "諫早",
      "nameKana": null,
      "nameEn": "Isahaya",
      "operator": "九州旅客鉄道",
      "network": null,
      "ref": null,
      "latitude": 32.8515808,
      "longitude": 130.041437,
      "countryCode": "jp",
      "rawTags": {
        "KSJ2:LIN": "大村線",
        "KSJ2:STN": "諫早",
        "contact:website": "https://www.jrkyushu.co.jp/railway/station/1191402_1601.html",
        "name": "諫早",
        "name:de": "Isahaya",
        "name:en": "Isahaya",
        "name:ja": "諫早",
        "name:ko": "이사하야",
        "note": "National-Land Numerical Information (Railway) 2007, MLIT Japan",
        "note:ja": "国土数値情報（鉄道データ）平成19年　国土交通省",
        "operator": "九州旅客鉄道",
        "operator:ja": "九州旅客鉄道",
        "public_transport": "station",
        "railway": "station",
        "source": "KSJ2... English name added",
        "source_ref": "http://nlftp.mlit.go.jp/ksj/jpgis/datalist/KsjTmplt-N02-v1_1.html",
        "usage": "main",
        "wikidata": "Q901393",
        "wikipedia": "ja:諫早駅"
      }
    },
    {
      "id": "nagasaki_station_7887750914",
      "osmId": 7887750914,
      "osmType": "node",
      "prefectureId": "nagasaki",
      "type": "station",
      "subtype": "jr",
      "name": "西諫早",
      "nameKana": null,
      "nameEn": "Nishi-Isahaya",
      "operator": "九州旅客鉄道",
      "network": null,
      "ref": null,
      "latitude": 32.8398353,
      "longitude": 130.02158,
      "countryCode": "jp",
      "rawTags": {
        "KSJ2:LIN": "長崎線",
        "KSJ2:STN": "西諫早",
        "name": "西諫早",
        "name:de": "Nishi-Isahaya",
        "name:en": "Nishi-Isahaya",
        "name:ja": "西諫早",
        "name:ko": "니시이사하야",
        "note": "National-Land Numerical Information (Railway) 2007, MLIT Japan",
        "note:ja": "国土数値情報（鉄道データ）平成19年　国土交通省",
        "operator": "九州旅客鉄道",
        "operator:ja": "九州旅客鉄道",
        "public_transport": "station",
        "railway": "station",
        "source": "KSJ2",
        "source_ref": "http://nlftp.mlit.go.jp/ksj/jpgis/datalist/KsjTmplt-N02-v1_1.html",
        "wikidata": "Q1066111",
        "wikipedia": "ja:西諫早駅"
      }
    },
    {
      "id": "nagasaki_station_7887750927",
      "osmId": 7887750927,
      "osmType": "node",
      "prefectureId": "nagasaki",
      "type": "station",
      "subtype": "jr",
      "name": "長与",
      "nameKana": null,
      "nameEn": "Nagayo",
      "operator": "九州旅客鉄道",
      "network": null,
      "ref": null,
      "latitude": 32.8190302,
      "longitude": 129.8793666,
      "countryCode": "jp",
      "rawTags": {
        "KSJ2:LIN": "長崎線",
        "KSJ2:STN": "長与",
        "name": "長与",
        "name:de": "Nagayo",
        "name:en": "Nagayo",
        "name:ja": "長与",
        "name:ko": "나가요",
        "note": "National-Land Numerical Information (Railway) 2007, MLIT Japan",
        "note:ja": "国土数値情報（鉄道データ）平成19年　国土交通省",
        "operator": "九州旅客鉄道",
        "operator:ja": "九州旅客鉄道",
        "public_transport": "station",
        "railway": "station",
        "source": "KSJ2",
        "source_ref": "http://nlftp.mlit.go.jp/ksj/jpgis/datalist/KsjTmplt-N02-v1_1.html",
        "wikidata": "Q6958730",
        "wikipedia": "ja:長与駅"
      }
    },
    {
      "id": "nagasaki_station_7887750928",
      "osmId": 7887750928,
      "osmType": "node",
      "prefectureId": "nagasaki",
      "type": "station",
      "subtype": "jr",
      "name": "高田",
      "nameKana": null,
      "nameEn": "Kouda",
      "operator": "九州旅客鉄道",
      "network": null,
      "ref": null,
      "latitude": 32.8193492,
      "longitude": 129.8690026,
      "countryCode": "jp",
      "rawTags": {
        "KSJ2:LIN": "長崎線",
        "KSJ2:STN": "高田",
        "name": "高田",
        "name:en": "Kouda",
        "name:ja": "高田",
        "name:ko": "고다",
        "note": "National-Land Numerical Information (Railway) 2007, MLIT Japan",
        "note:ja": "国土数値情報（鉄道データ）平成19年　国土交通省",
        "operator": "九州旅客鉄道",
        "operator:ja": "九州旅客鉄道",
        "public_transport": "station",
        "railway": "station",
        "source": "KSJ2",
        "source_ref": "http://nlftp.mlit.go.jp/ksj/jpgis/datalist/KsjTmplt-N02-v1_1.html",
        "wikidata": "Q5356482",
        "wikipedia": "ja:高田駅 (長崎県)"
      }
    },
    {
      "id": "nagasaki_station_7887750929",
      "osmId": 7887750929,
      "osmType": "node",
      "prefectureId": "nagasaki",
      "type": "station",
      "subtype": "jr",
      "name": "道ノ尾",
      "nameKana": null,
      "nameEn": "Michino",
      "operator": "九州旅客鉄道",
      "network": null,
      "ref": null,
      "latitude": 32.8039603,
      "longitude": 129.852916,
      "countryCode": "jp",
      "rawTags": {
        "KSJ2:LIN": "長崎線",
        "KSJ2:STN": "道ノ尾",
        "name": "道ノ尾",
        "name:en": "Michino",
        "name:ja": "道ノ尾",
        "name:ko": "미치노오",
        "note": "National-Land Numerical Information (Railway) 2007, MLIT Japan",
        "note:ja": "国土数値情報（鉄道データ）平成19年　国土交通省",
        "operator": "九州旅客鉄道",
        "operator:ja": "九州旅客鉄道",
        "public_transport": "station",
        "railway": "station",
        "source": "KSJ2",
        "source_ref": "http://nlftp.mlit.go.jp/ksj/jpgis/datalist/KsjTmplt-N02-v1_1.html",
        "wikidata": "Q5356492",
        "wikipedia": "ja:道ノ尾駅"
      }
    },
    {
      "id": "nagasaki_station_7887750932",
      "osmId": 7887750932,
      "osmType": "node",
      "prefectureId": "nagasaki",
      "type": "station",
      "subtype": "jr",
      "name": "東諫早",
      "nameKana": null,
      "nameEn": "Higashi-Isahaya",
      "operator": "九州旅客鉄道",
      "network": null,
      "ref": null,
      "latitude": 32.8528881,
      "longitude": 130.0619942,
      "countryCode": "jp",
      "rawTags": {
        "KSJ2:LIN": "長崎線",
        "KSJ2:STN": "東諫早",
        "name": "東諫早",
        "name:en": "Higashi-Isahaya",
        "name:ja": "東諫早",
        "name:ko": "히가시이사하야",
        "note": "National-Land Numerical Information (Railway) 2007, MLIT Japan",
        "note:ja": "国土数値情報（鉄道データ）平成19年　国土交通省",
        "operator": "九州旅客鉄道",
        "operator:ja": "九州旅客鉄道",
        "public_transport": "station",
        "railway": "station",
        "source": "KSJ2",
        "source_ref": "http://nlftp.mlit.go.jp/ksj/jpgis/datalist/KsjTmplt-N02-v1_1.html",
        "wikidata": "Q5356543",
        "wikipedia": "ja:東諫早駅"
      }
    },
    {
      "id": "nagasaki_station_7887750934",
      "osmId": 7887750934,
      "osmType": "node",
      "prefectureId": "nagasaki",
      "type": "station",
      "subtype": "jr",
      "name": "東園",
      "nameKana": null,
      "nameEn": "Higashisono",
      "operator": "九州旅客鉄道",
      "network": null,
      "ref": null,
      "latitude": 32.8468121,
      "longitude": 129.9620806,
      "countryCode": "jp",
      "rawTags": {
        "KSJ2:LIN": "長崎線",
        "KSJ2:STN": "東園",
        "name": "東園",
        "name:de": "Higashisono",
        "name:en": "Higashisono",
        "name:ja": "東園",
        "name:ko": "히가시소노",
        "note": "National-Land Numerical Information (Railway) 2007, MLIT Japan",
        "note:ja": "国土数値情報（鉄道データ）平成19年　国土交通省",
        "operator": "九州旅客鉄道",
        "operator:ja": "九州旅客鉄道",
        "public_transport": "station",
        "railway": "station",
        "source": "KSJ2",
        "source_ref": "http://nlftp.mlit.go.jp/ksj/jpgis/datalist/KsjTmplt-N02-v1_1.html",
        "wikidata": "Q5355431",
        "wikipedia": "ja:東園駅"
      }
    },
    {
      "id": "nagasaki_station_7887750935",
      "osmId": 7887750935,
      "osmType": "node",
      "prefectureId": "nagasaki",
      "type": "station",
      "subtype": "jr",
      "name": "大草",
      "nameKana": null,
      "nameEn": "Ookusa",
      "operator": "九州旅客鉄道",
      "network": null,
      "ref": null,
      "latitude": 32.8601184,
      "longitude": 129.9383604,
      "countryCode": "jp",
      "rawTags": {
        "KSJ2:LIN": "長崎線",
        "KSJ2:STN": "大草",
        "name": "大草",
        "name:de": "Ookusa",
        "name:en": "Ookusa",
        "name:ja": "大草",
        "name:ko": "오쿠사",
        "note": "National-Land Numerical Information (Railway) 2007, MLIT Japan",
        "note:ja": "国土数値情報（鉄道データ）平成19年　国土交通省",
        "operator": "九州旅客鉄道",
        "operator:ja": "九州旅客鉄道",
        "public_transport": "station",
        "railway": "station",
        "source": "KSJ2",
        "source_ref": "http://nlftp.mlit.go.jp/ksj/jpgis/datalist/KsjTmplt-N02-v1_1.html",
        "wikidata": "Q5355384",
        "wikipedia": "ja:大草駅"
      }
    },
    {
      "id": "nagasaki_station_7887750937",
      "osmId": 7887750937,
      "osmType": "node",
      "prefectureId": "nagasaki",
      "type": "station",
      "subtype": "jr",
      "name": "西浦上",
      "nameKana": null,
      "nameEn": "Nishi-Urakami",
      "operator": "九州旅客鉄道",
      "network": null,
      "ref": null,
      "latitude": 32.7905683,
      "longitude": 129.8589537,
      "countryCode": "jp",
      "rawTags": {
        "KSJ2:LIN": "長崎線",
        "KSJ2:STN": "西浦上",
        "name": "西浦上",
        "name:en": "Nishi-Urakami",
        "name:ja": "西浦上",
        "name:ko": "니시우라카미",
        "note": "National-Land Numerical Information (Railway) 2007, MLIT Japan",
        "note:ja": "国土数値情報（鉄道データ）平成19年　国土交通省",
        "operator": "九州旅客鉄道",
        "operator:ja": "九州旅客鉄道",
        "public_transport": "station",
        "railway": "station",
        "source": "KSJ2",
        "source_ref": "http://nlftp.mlit.go.jp/ksj/jpgis/datalist/KsjTmplt-N02-v1_1.html",
        "wikidata": "Q5356633",
        "wikipedia": "ja:西浦上駅"
      }
    },
    {
      "id": "nagasaki_ferry_terminal_8090119332",
      "osmId": 8090119332,
      "osmType": "node",
      "prefectureId": "nagasaki",
      "type": "ferry_terminal",
      "subtype": null,
      "name": "9",
      "nameKana": null,
      "nameEn": null,
      "operator": null,
      "network": null,
      "ref": null,
      "latitude": 32.744691,
      "longitude": 129.8694016,
      "countryCode": "jp",
      "rawTags": {
        "amenity": "ferry_terminal",
        "ferry": "yes",
        "name": "9",
        "public_transport": "station"
      }
    },
    {
      "id": "nagasaki_ferry_terminal_8337138241",
      "osmId": 8337138241,
      "osmType": "node",
      "prefectureId": "nagasaki",
      "type": "ferry_terminal",
      "subtype": null,
      "name": "奥浦港",
      "nameKana": null,
      "nameEn": null,
      "operator": null,
      "network": null,
      "ref": null,
      "latitude": 32.7446148,
      "longitude": 128.8256694,
      "countryCode": "jp",
      "rawTags": {
        "amenity": "ferry_terminal",
        "cargo": "passengers",
        "name": "奥浦港"
      }
    },
    {
      "id": "nagasaki_ferry_terminal_8337138301",
      "osmId": 8337138301,
      "osmType": "node",
      "prefectureId": "nagasaki",
      "type": "ferry_terminal",
      "subtype": null,
      "name": "貝津港",
      "nameKana": null,
      "nameEn": null,
      "operator": null,
      "network": null,
      "ref": null,
      "latitude": 32.7142323,
      "longitude": 128.6532677,
      "countryCode": "jp",
      "rawTags": {
        "amenity": "ferry_terminal",
        "cargo": "passengers",
        "name": "貝津港"
      }
    },
    {
      "id": "nagasaki_station_8644229067",
      "osmId": 8644229067,
      "osmType": "node",
      "prefectureId": "nagasaki",
      "type": "station",
      "subtype": "jr",
      "name": "市布",
      "nameKana": null,
      "nameEn": "Ichinuno",
      "operator": "九州旅客鉄道",
      "network": null,
      "ref": null,
      "latitude": 32.8198394,
      "longitude": 129.9667932,
      "countryCode": "jp",
      "rawTags": {
        "KSJ2:LIN": "長崎線",
        "KSJ2:STN": "市布",
        "name": "市布",
        "name:de": "Ichinuno",
        "name:en": "Ichinuno",
        "name:ja": "市布",
        "name:ko": "이치누노",
        "note": "National-Land Numerical Information (Railway) 2007, MLIT Japan",
        "note:ja": "国土数値情報（鉄道データ）平成19年　国土交通省",
        "operator": "九州旅客鉄道",
        "railway": "station",
        "source": "KSJ2",
        "source_ref": "http://nlftp.mlit.go.jp/ksj/jpgis/datalist/KsjTmplt-N02-v1_1.html",
        "wikidata": "Q5356149",
        "wikipedia": "ja:市布駅"
      }
    },
    {
      "id": "nagasaki_station_8644229079",
      "osmId": 8644229079,
      "osmType": "node",
      "prefectureId": "nagasaki",
      "type": "station",
      "subtype": "jr",
      "name": "肥前古賀",
      "nameKana": null,
      "nameEn": "Hizen-Koga",
      "operator": "九州旅客鉄道",
      "network": null,
      "ref": null,
      "latitude": 32.7983589,
      "longitude": 129.95162,
      "countryCode": "jp",
      "rawTags": {
        "KSJ2:LIN": "長崎線",
        "KSJ2:STN": "肥前古賀",
        "name": "肥前古賀",
        "name:de": "Hizen-Kogen",
        "name:en": "Hizen-Koga",
        "name:ja": "肥前古賀",
        "name:ko": "히젠코가",
        "note": "National-Land Numerical Information (Railway) 2007, MLIT Japan",
        "note:ja": "国土数値情報（鉄道データ）平成19年　国土交通省",
        "operator": "九州旅客鉄道",
        "railway": "station",
        "source": "KSJ2",
        "source_ref": "http://nlftp.mlit.go.jp/ksj/jpgis/datalist/KsjTmplt-N02-v1_1.html",
        "wikidata": "Q5356000",
        "wikipedia": "ja:肥前古賀駅"
      }
    },
    {
      "id": "nagasaki_station_8644287717",
      "osmId": 8644287717,
      "osmType": "node",
      "prefectureId": "nagasaki",
      "type": "station",
      "subtype": "jr",
      "name": "本川内",
      "nameKana": null,
      "nameEn": "Honkawachi",
      "operator": "九州旅客鉄道",
      "network": null,
      "ref": null,
      "latitude": 32.8322805,
      "longitude": 129.8998748,
      "countryCode": "jp",
      "rawTags": {
        "KSJ2:LIN": "長崎線",
        "KSJ2:STN": "本川内",
        "name": "本川内",
        "name:de": "Honkawachi",
        "name:en": "Honkawachi",
        "name:ja": "本川内",
        "name:ko": "혼카와치",
        "note": "National-Land Numerical Information (Railway) 2007, MLIT Japan",
        "note:ja": "国土数値情報（鉄道データ）平成19年　国土交通省",
        "operator": "九州旅客鉄道",
        "public_transport": "station",
        "railway": "station",
        "source": "KSJ2",
        "source_ref": "http://nlftp.mlit.go.jp/ksj/jpgis/datalist/KsjTmplt-N02-v1_1.html",
        "train": "yes",
        "wikidata": "Q5355952",
        "wikipedia": "ja:本川内駅"
      }
    },
    {
      "id": "nagasaki_station_8644434136",
      "osmId": 8644434136,
      "osmType": "node",
      "prefectureId": "nagasaki",
      "type": "station",
      "subtype": "private",
      "name": "諏訪",
      "nameKana": null,
      "nameEn": "Suwa",
      "operator": null,
      "network": null,
      "ref": null,
      "latitude": 32.9234921,
      "longitude": 129.9603116,
      "countryCode": "jp",
      "rawTags": {
        "KSJ2:LIN": "大村線",
        "KSJ2:STN": "諏訪",
        "name": "諏訪",
        "name:de": "Suwa",
        "name:en": "Suwa",
        "name:ja": "諏訪",
        "name:ko": "스와",
        "note": "National-Land Numerical Information (Railway) 2007, MLIT Japan",
        "note:ja": "国土数値情報（鉄道データ）平成19年　国土交通省",
        "railway": "station",
        "source": "KSJ2",
        "source_ref": "http://nlftp.mlit.go.jp/ksj/jpgis/datalist/KsjTmplt-N02-v1_1.html",
        "wikidata": "Q7650541",
        "wikipedia": "ja:諏訪駅"
      }
    },
    {
      "id": "nagasaki_station_8644434174",
      "osmId": 8644434174,
      "osmType": "node",
      "prefectureId": "nagasaki",
      "type": "station",
      "subtype": "private",
      "name": "大村",
      "nameKana": null,
      "nameEn": "Ōmura",
      "operator": null,
      "network": null,
      "ref": null,
      "latitude": 32.9107294,
      "longitude": 129.9623676,
      "countryCode": "jp",
      "rawTags": {
        "KSJ2:LIN": "大村線",
        "KSJ2:STN": "大村",
        "name": "大村",
        "name:de": "Ōmura",
        "name:en": "Ōmura",
        "name:ja": "大村",
        "name:ko": "오무라",
        "name:zh": "大村",
        "note": "National-Land Numerical Information (Railway) 2007, MLIT Japan",
        "note:ja": "国土数値情報（鉄道データ）平成19年　国土交通省",
        "public_transport": "station",
        "railway": "station",
        "source": "KSJ2",
        "source_ref": "http://nlftp.mlit.go.jp/ksj/jpgis/datalist/KsjTmplt-N02-v1_1.html",
        "wikidata": "Q8081636",
        "wikipedia": "ja:大村駅 (長崎県)"
      }
    },
    {
      "id": "nagasaki_station_8644434180",
      "osmId": 8644434180,
      "osmType": "node",
      "prefectureId": "nagasaki",
      "type": "station",
      "subtype": "private",
      "name": "岩松",
      "nameKana": null,
      "nameEn": "Iwamatsu",
      "operator": null,
      "network": null,
      "ref": null,
      "latitude": 32.8903864,
      "longitude": 129.9817224,
      "countryCode": "jp",
      "rawTags": {
        "KSJ2:LIN": "大村線",
        "KSJ2:STN": "岩松",
        "name": "岩松",
        "name:de": "Iwamatsu",
        "name:en": "Iwamatsu",
        "name:ja": "岩松",
        "name:ko": "이와마쓰",
        "name:zh": "岩松",
        "note": "National-Land Numerical Information (Railway) 2007, MLIT Japan",
        "note:ja": "国土数値情報（鉄道データ）平成19年　国土交通省",
        "railway": "station",
        "source": "KSJ2",
        "source_ref": "http://nlftp.mlit.go.jp/ksj/jpgis/datalist/KsjTmplt-N02-v1_1.html",
        "wikidata": "Q6100462",
        "wikipedia": "ja:岩松駅"
      }
    },
    {
      "id": "nagasaki_station_8657108015",
      "osmId": 8657108015,
      "osmType": "node",
      "prefectureId": "nagasaki",
      "type": "station",
      "subtype": "jr",
      "name": "大塔",
      "nameKana": null,
      "nameEn": "Daitou",
      "operator": "九州旅客鉄道",
      "network": "JR佐世保線",
      "ref": null,
      "latitude": 33.148978,
      "longitude": 129.782044,
      "countryCode": "jp",
      "rawTags": {
        "KSJ2:LIN": "佐世保線",
        "KSJ2:STN": "大塔",
        "name": "大塔",
        "name:de": "Daitou",
        "name:en": "Daitou",
        "name:ja": "大塔",
        "name:ko": "다이토",
        "network": "JR佐世保線",
        "note": "National-Land Numerical Information (Railway) 2007, MLIT Japan",
        "note:ja": "国土数値情報（鉄道データ）平成19年　国土交通省",
        "operator": "九州旅客鉄道",
        "railway": "station",
        "source": "KSJ2",
        "source_ref": "http://nlftp.mlit.go.jp/ksj/jpgis/datalist/KsjTmplt-N02-v1_1.html",
        "wikidata": "Q5209814",
        "wikipedia": "ja:大塔駅"
      }
    },
    {
      "id": "nagasaki_ferry_terminal_8920787432",
      "osmId": 8920787432,
      "osmType": "node",
      "prefectureId": "nagasaki",
      "type": "ferry_terminal",
      "subtype": null,
      "name": "フェリーくろしま乗り場",
      "nameKana": null,
      "nameEn": null,
      "operator": null,
      "network": null,
      "ref": null,
      "latitude": 33.170902,
      "longitude": 129.5925578,
      "countryCode": "jp",
      "rawTags": {
        "amenity": "ferry_terminal",
        "ferry": "yes",
        "name": "フェリーくろしま乗り場",
        "public_transport": "station"
      }
    },
    {
      "id": "nagasaki_ferry_terminal_9285090460",
      "osmId": 9285090460,
      "osmType": "node",
      "prefectureId": "nagasaki",
      "type": "ferry_terminal",
      "subtype": null,
      "name": "旅客船発着所",
      "nameKana": null,
      "nameEn": null,
      "operator": null,
      "network": null,
      "ref": null,
      "latitude": 32.9120047,
      "longitude": 129.9248627,
      "countryCode": "jp",
      "rawTags": {
        "amenity": "ferry_terminal",
        "ferry": "yes",
        "name": "旅客船発着所",
        "public_transport": "station",
        "survey:date": "2022-05-02"
      }
    },
    {
      "id": "nagasaki_ferry_terminal_9324950230",
      "osmId": 9324950230,
      "osmType": "node",
      "prefectureId": "nagasaki",
      "type": "ferry_terminal",
      "subtype": null,
      "name": "元船",
      "nameKana": null,
      "nameEn": null,
      "operator": null,
      "network": null,
      "ref": null,
      "latitude": 32.7479665,
      "longitude": 129.8703703,
      "countryCode": "jp",
      "rawTags": {
        "amenity": "ferry_terminal",
        "ferry": "yes",
        "name": "元船",
        "public_transport": "station"
      }
    },
    {
      "id": "nagasaki_ferry_terminal_9551633396",
      "osmId": 9551633396,
      "osmType": "node",
      "prefectureId": "nagasaki",
      "type": "ferry_terminal",
      "subtype": null,
      "name": "神浦港",
      "nameKana": null,
      "nameEn": null,
      "operator": null,
      "network": null,
      "ref": null,
      "latitude": 33.2548582,
      "longitude": 129.0946886,
      "countryCode": "jp",
      "rawTags": {
        "amenity": "ferry_terminal",
        "name": "神浦港"
      }
    },
    {
      "id": "nagasaki_ferry_terminal_9588844916",
      "osmId": 9588844916,
      "osmType": "node",
      "prefectureId": "nagasaki",
      "type": "ferry_terminal",
      "subtype": null,
      "name": "有川港",
      "nameKana": null,
      "nameEn": null,
      "operator": null,
      "network": null,
      "ref": null,
      "latitude": 32.9870097,
      "longitude": 129.1112603,
      "countryCode": "jp",
      "rawTags": {
        "amenity": "ferry_terminal",
        "ferry": "yes",
        "name": "有川港",
        "public_transport": "station",
        "wikidata": "Q30934875",
        "wikipedia": "ja:有川港"
      }
    },
    {
      "id": "nagasaki_ferry_terminal_9858165357",
      "osmId": 9858165357,
      "osmType": "node",
      "prefectureId": "nagasaki",
      "type": "ferry_terminal",
      "subtype": null,
      "name": "11",
      "nameKana": null,
      "nameEn": null,
      "operator": null,
      "network": null,
      "ref": null,
      "latitude": 32.7443193,
      "longitude": 129.8692476,
      "countryCode": "jp",
      "rawTags": {
        "amenity": "ferry_terminal",
        "ferry": "yes",
        "name": "11",
        "public_transport": "station"
      }
    },
    {
      "id": "nagasaki_station_10048545445",
      "osmId": 10048545445,
      "osmType": "node",
      "prefectureId": "nagasaki",
      "type": "station",
      "subtype": "jr",
      "name": "大村車両基地",
      "nameKana": null,
      "nameEn": "Ōmura Rail Yard",
      "operator": "九州旅客鉄道",
      "network": null,
      "ref": null,
      "latitude": 32.9553758,
      "longitude": 129.9444515,
      "countryCode": "jp",
      "rawTags": {
        "addr:block_number": "1058",
        "addr:city": "大村市",
        "addr:housenumber": "1",
        "addr:neighbourhood": "三丁目",
        "addr:postcode": "856-0807",
        "addr:province": "長崎県",
        "addr:quarter": "宮小路",
        "name": "大村車両基地",
        "name:en": "Ōmura Rail Yard",
        "name:ja": "大村車両基地",
        "operator": "九州旅客鉄道",
        "operator:ja": "九州旅客鉄道",
        "public_transport": "station",
        "railway": "station",
        "start_date": "2022-09-23",
        "train": "yes",
        "wikidata": "Q102422742",
        "wikipedia": "ja:大村車両基地駅"
      }
    },
    {
      "id": "nagasaki_ferry_terminal_10682874870",
      "osmId": 10682874870,
      "osmType": "node",
      "prefectureId": "nagasaki",
      "type": "ferry_terminal",
      "subtype": null,
      "name": "熊本フェリー 島原フェリーターミナル",
      "nameKana": null,
      "nameEn": null,
      "operator": null,
      "network": null,
      "ref": null,
      "latitude": 32.7668786,
      "longitude": 130.3740487,
      "countryCode": "jp",
      "rawTags": {
        "amenity": "ferry_terminal",
        "cargo": "passengers;vehicle",
        "ferry": "yes",
        "int_name": "Kumamoto Ferry Shimabara Ferry Terminal",
        "name": "熊本フェリー 島原フェリーターミナル",
        "public_transport": "station"
      }
    },
    {
      "id": "nagasaki_station_11697167707",
      "osmId": 11697167707,
      "osmType": "node",
      "prefectureId": "nagasaki",
      "type": "station",
      "subtype": "private",
      "name": "松原",
      "nameKana": null,
      "nameEn": "Matsubara",
      "operator": null,
      "network": null,
      "ref": null,
      "latitude": 32.9780558,
      "longitude": 129.9462242,
      "countryCode": "jp",
      "rawTags": {
        "KSJ2:LIN": "大村線",
        "KSJ2:STN": "松原",
        "name": "松原",
        "name:en": "Matsubara",
        "name:ja": "松原",
        "name:ko": "마쓰바라",
        "note": "National-Land Numerical Information (Railway) 2007, MLIT Japan",
        "note:ja": "国土数値情報（鉄道データ）平成19年　国土交通省",
        "railway": "station",
        "source": "KSJ2",
        "source_ref": "http://nlftp.mlit.go.jp/ksj/jpgis/datalist/KsjTmplt-N02-v1_1.html",
        "wikidata": "Q6788015",
        "wikipedia": "ja:松原駅 (長崎県)"
      }
    },
    {
      "id": "nagasaki_station_12247972621",
      "osmId": 12247972621,
      "osmType": "node",
      "prefectureId": "nagasaki",
      "type": "station",
      "subtype": "private",
      "name": "上相浦",
      "nameKana": null,
      "nameEn": "Kami-Ainoura",
      "operator": "松浦鉄道",
      "network": "松浦鉄道西九州線",
      "ref": null,
      "latitude": 33.1955002,
      "longitude": 129.6705261,
      "countryCode": "jp",
      "rawTags": {
        "KSJ2:LIN": "西九州線",
        "KSJ2:STN": "上相浦",
        "name": "上相浦",
        "name:en": "Kami-Ainoura",
        "name:ja": "上相浦",
        "name:ko": "가미아이노우라",
        "network": "松浦鉄道西九州線",
        "note": "National-Land Numerical Information (Railway) 2007, MLIT Japan",
        "note:ja": "国土数値情報（鉄道データ）平成19年　国土交通省",
        "operator": "松浦鉄道",
        "operator:ja": "松浦鉄道",
        "public_transport": "station",
        "railway": "station",
        "source": "KSJ2",
        "source_ref": "http://nlftp.mlit.go.jp/ksj/jpgis/datalist/KsjTmplt-N02-v1_1.html",
        "wikidata": "Q11359964",
        "wikipedia": "ja:上相浦駅"
      }
    },
    {
      "id": "nagasaki_station_12247972665",
      "osmId": 12247972665,
      "osmType": "node",
      "prefectureId": "nagasaki",
      "type": "station",
      "subtype": "private",
      "name": "相浦",
      "nameKana": null,
      "nameEn": "Ainoura",
      "operator": "松浦鉄道",
      "network": "松浦鉄道西九州線",
      "ref": null,
      "latitude": 33.192683,
      "longitude": 129.6572562,
      "countryCode": "jp",
      "rawTags": {
        "KSJ2:LIN": "西九州線",
        "KSJ2:STN": "相浦",
        "name": "相浦",
        "name:en": "Ainoura",
        "name:ja": "相浦",
        "name:ko": "아이노우라",
        "network": "松浦鉄道西九州線",
        "note": "National-Land Numerical Information (Railway) 2007, MLIT Japan",
        "note:ja": "国土数値情報（鉄道データ）平成19年　国土交通省",
        "operator": "松浦鉄道",
        "public_transport": "station",
        "railway": "station",
        "source": "KSJ2",
        "source_ref": "http://nlftp.mlit.go.jp/ksj/jpgis/datalist/KsjTmplt-N02-v1_1.html",
        "wikidata": "Q11582233",
        "wikipedia": "ja:相浦駅"
      }
    },
    {
      "id": "nagasaki_station_12248150948",
      "osmId": 12248150948,
      "osmType": "node",
      "prefectureId": "nagasaki",
      "type": "station",
      "subtype": "private",
      "name": "佐々",
      "nameKana": null,
      "nameEn": "Saza",
      "operator": null,
      "network": null,
      "ref": null,
      "latitude": 33.2368061,
      "longitude": 129.6470519,
      "countryCode": "jp",
      "rawTags": {
        "KSJ2:LIN": "西九州線",
        "KSJ2:STN": "佐々",
        "name": "佐々",
        "name:en": "Saza",
        "name:ja": "佐々",
        "name:ko": "사자",
        "note": "National-Land Numerical Information (Railway) 2007, MLIT Japan",
        "note:ja": "国土数値情報（鉄道データ）平成19年　国土交通省",
        "public_transport": "station",
        "railway": "station",
        "source": "KSJ2",
        "source_ref": "http://nlftp.mlit.go.jp/ksj/jpgis/datalist/KsjTmplt-N02-v1_1.html",
        "wikidata": "Q7429393",
        "wikipedia": "ja:佐々駅"
      }
    },
    {
      "id": "nagasaki_ferry_terminal_12291703343",
      "osmId": 12291703343,
      "osmType": "node",
      "prefectureId": "nagasaki",
      "type": "ferry_terminal",
      "subtype": null,
      "name": "辰の島発",
      "nameKana": null,
      "nameEn": null,
      "operator": null,
      "network": null,
      "ref": null,
      "latitude": 33.8636889,
      "longitude": 129.6790394,
      "countryCode": "jp",
      "rawTags": {
        "amenity": "ferry_terminal",
        "ferry": "yes",
        "name": "辰の島発",
        "public_transport": "station"
      }
    },
    {
      "id": "nagasaki_ferry_terminal_12292806972",
      "osmId": 12292806972,
      "osmType": "node",
      "prefectureId": "nagasaki",
      "type": "ferry_terminal",
      "subtype": null,
      "name": "勝本港発",
      "nameKana": null,
      "nameEn": null,
      "operator": null,
      "network": null,
      "ref": null,
      "latitude": 33.8544442,
      "longitude": 129.6956216,
      "countryCode": "jp",
      "rawTags": {
        "amenity": "ferry_terminal",
        "ferry": "yes",
        "name": "勝本港発",
        "public_transport": "station",
        "tourism": "attraction"
      }
    },
    {
      "id": "nagasaki_ferry_terminal_12738923153",
      "osmId": 12738923153,
      "osmType": "node",
      "prefectureId": "nagasaki",
      "type": "ferry_terminal",
      "subtype": null,
      "name": "10",
      "nameKana": null,
      "nameEn": null,
      "operator": null,
      "network": null,
      "ref": null,
      "latitude": 32.7446856,
      "longitude": 129.8695671,
      "countryCode": "jp",
      "rawTags": {
        "amenity": "ferry_terminal",
        "ferry": "yes",
        "name": "10",
        "public_transport": "station"
      }
    },
    {
      "id": "nagasaki_ferry_terminal_12741841850",
      "osmId": 12741841850,
      "osmType": "node",
      "prefectureId": "nagasaki",
      "type": "ferry_terminal",
      "subtype": null,
      "name": "海上タクシーじゅうふく乗り場",
      "nameKana": null,
      "nameEn": null,
      "operator": null,
      "network": null,
      "ref": null,
      "latitude": 33.1708014,
      "longitude": 129.5924391,
      "countryCode": "jp",
      "rawTags": {
        "amenity": "ferry_terminal",
        "ferry": "yes",
        "name": "海上タクシーじゅうふく乗り場",
        "public_transport": "station"
      }
    },
    {
      "id": "nagasaki_ferry_terminal_12790933425",
      "osmId": 12790933425,
      "osmType": "node",
      "prefectureId": "nagasaki",
      "type": "ferry_terminal",
      "subtype": null,
      "name": "6",
      "nameKana": null,
      "nameEn": null,
      "operator": null,
      "network": null,
      "ref": null,
      "latitude": 32.7443288,
      "longitude": 129.8683946,
      "countryCode": "jp",
      "rawTags": {
        "amenity": "ferry_terminal",
        "ferry": "yes",
        "name": "6",
        "public_transport": "station"
      }
    },
    {
      "id": "nagasaki_ferry_terminal_12790933426",
      "osmId": 12790933426,
      "osmType": "node",
      "prefectureId": "nagasaki",
      "type": "ferry_terminal",
      "subtype": null,
      "name": "5",
      "nameKana": null,
      "nameEn": null,
      "operator": null,
      "network": null,
      "ref": null,
      "latitude": 32.7443646,
      "longitude": 129.8682284,
      "countryCode": "jp",
      "rawTags": {
        "amenity": "ferry_terminal",
        "ferry": "yes",
        "name": "5",
        "public_transport": "station"
      }
    },
    {
      "id": "nagasaki_ferry_terminal_12790933427",
      "osmId": 12790933427,
      "osmType": "node",
      "prefectureId": "nagasaki",
      "type": "ferry_terminal",
      "subtype": null,
      "name": "4",
      "nameKana": null,
      "nameEn": null,
      "operator": null,
      "network": null,
      "ref": null,
      "latitude": 32.744683,
      "longitude": 129.8685468,
      "countryCode": "jp",
      "rawTags": {
        "amenity": "ferry_terminal",
        "ferry": "yes",
        "name": "4",
        "public_transport": "station"
      }
    },
    {
      "id": "nagasaki_ferry_terminal_12790933428",
      "osmId": 12790933428,
      "osmType": "node",
      "prefectureId": "nagasaki",
      "type": "ferry_terminal",
      "subtype": null,
      "name": "2",
      "nameKana": null,
      "nameEn": null,
      "operator": null,
      "network": null,
      "ref": null,
      "latitude": 32.7450402,
      "longitude": 129.8686948,
      "countryCode": "jp",
      "rawTags": {
        "amenity": "ferry_terminal",
        "ferry": "yes",
        "name": "2",
        "public_transport": "station"
      }
    },
    {
      "id": "nagasaki_ferry_terminal_12790933429",
      "osmId": 12790933429,
      "osmType": "node",
      "prefectureId": "nagasaki",
      "type": "ferry_terminal",
      "subtype": null,
      "name": "1",
      "nameKana": null,
      "nameEn": null,
      "operator": null,
      "network": null,
      "ref": null,
      "latitude": 32.7450867,
      "longitude": 129.8685293,
      "countryCode": "jp",
      "rawTags": {
        "amenity": "ferry_terminal",
        "ferry": "yes",
        "name": "1",
        "public_transport": "station"
      }
    },
    {
      "id": "nagasaki_ferry_terminal_12790933430",
      "osmId": 12790933430,
      "osmType": "node",
      "prefectureId": "nagasaki",
      "type": "ferry_terminal",
      "subtype": null,
      "name": "12",
      "nameKana": null,
      "nameEn": null,
      "operator": null,
      "network": null,
      "ref": null,
      "latitude": 32.7442847,
      "longitude": 129.8694022,
      "countryCode": "jp",
      "rawTags": {
        "amenity": "ferry_terminal",
        "ferry": "yes",
        "name": "12",
        "public_transport": "station"
      }
    },
    {
      "id": "nagasaki_ferry_terminal_12790933431",
      "osmId": 12790933431,
      "osmType": "node",
      "prefectureId": "nagasaki",
      "type": "ferry_terminal",
      "subtype": null,
      "name": "8",
      "nameKana": null,
      "nameEn": null,
      "operator": null,
      "network": null,
      "ref": null,
      "latitude": 32.7449889,
      "longitude": 129.8696998,
      "countryCode": "jp",
      "rawTags": {
        "amenity": "ferry_terminal",
        "ferry": "yes",
        "name": "8",
        "public_transport": "station"
      }
    },
    {
      "id": "nagasaki_ferry_terminal_12790933432",
      "osmId": 12790933432,
      "osmType": "node",
      "prefectureId": "nagasaki",
      "type": "ferry_terminal",
      "subtype": null,
      "name": "7",
      "nameKana": null,
      "nameEn": null,
      "operator": null,
      "network": null,
      "ref": null,
      "latitude": 32.745042,
      "longitude": 129.8695451,
      "countryCode": "jp",
      "rawTags": {
        "amenity": "ferry_terminal",
        "ferry": "yes",
        "name": "7",
        "public_transport": "station"
      }
    },
    {
      "id": "nagasaki_ferry_terminal_13203838759",
      "osmId": 13203838759,
      "osmType": "node",
      "prefectureId": "nagasaki",
      "type": "ferry_terminal",
      "subtype": null,
      "name": "池島フェリー乗り場",
      "nameKana": null,
      "nameEn": null,
      "operator": "西海沿岸商船",
      "network": "大瀬戸池島,佐世保池島",
      "ref": null,
      "latitude": 32.8885025,
      "longitude": 129.6051891,
      "countryCode": "jp",
      "rawTags": {
        "amenity": "ferry_terminal",
        "ferry": "yes",
        "name": "池島フェリー乗り場",
        "network": "大瀬戸池島,佐世保池島",
        "operator": "西海沿岸商船",
        "public_transport": "station"
      }
    },
    {
      "id": "nagasaki_ferry_terminal_13203838763",
      "osmId": 13203838763,
      "osmType": "node",
      "prefectureId": "nagasaki",
      "type": "ferry_terminal",
      "subtype": null,
      "name": "進栄丸（神浦池島地域交通線）乗り場",
      "nameKana": null,
      "nameEn": null,
      "operator": "進栄丸",
      "network": "神浦－池島",
      "ref": null,
      "latitude": 32.8883905,
      "longitude": 129.6052126,
      "countryCode": "jp",
      "rawTags": {
        "amenity": "ferry_terminal",
        "ferry": "yes",
        "internet_access": "no",
        "name": "進栄丸（神浦池島地域交通線）乗り場",
        "network": "神浦－池島",
        "operator": "進栄丸",
        "public_transport": "station"
      }
    },
    {
      "id": "nagasaki_ferry_terminal_13203838764",
      "osmId": 13203838764,
      "osmType": "node",
      "prefectureId": "nagasaki",
      "type": "ferry_terminal",
      "subtype": null,
      "name": "進栄丸乗場",
      "nameKana": null,
      "nameEn": null,
      "operator": "進栄丸",
      "network": "神浦・池島地域交通船",
      "ref": null,
      "latitude": 32.8802769,
      "longitude": 129.6788168,
      "countryCode": "jp",
      "rawTags": {
        "amenity": "ferry_terminal",
        "ferry": "yes",
        "name": "進栄丸乗場",
        "network": "神浦・池島地域交通船",
        "operator": "進栄丸",
        "public_transport": "station"
      }
    },
    {
      "id": "nagasaki_airport_57014922",
      "osmId": 57014922,
      "osmType": "way",
      "prefectureId": "nagasaki",
      "type": "airport",
      "subtype": "domestic",
      "name": "五島福江空港",
      "nameKana": null,
      "nameEn": "Goto-Fukue Airport",
      "operator": "Gotō, Nagasaki",
      "network": null,
      "ref": "FUJ",
      "latitude": 32.6668356,
      "longitude": 128.8329832,
      "countryCode": "jp",
      "rawTags": {
        "KSJ2:AAC": "42211",
        "KSJ2:AAC_label": "長崎県, *",
        "KSJ2:AD2": "5",
        "KSJ2:AD2_label": "都道府県",
        "KSJ2:ARP": "32.6663888889 128.8327777778",
        "KSJ2:ATB": "32.6683055600 128.8375278000",
        "KSJ2:CLT": "19 30",
        "KSJ2:COA": "空港整備法に基づく第三種空港",
        "KSJ2:CompositeCurve": "cv76Airport",
        "KSJ2:DSA": "特定飛行場以外",
        "KSJ2:INP": "5",
        "KSJ2:INP_label": "都道府県",
        "KSJ2:IUC": "供用中",
        "KSJ2:NA3": "福江空港",
        "KSJ2:OPT": "08 00",
        "KSJ2:REF": "2",
        "KSJ2:REF_label": "プロペラ定期便が就航している場合",
        "KSJ2:airport_id": "cf02_42",
        "KSJ2:runways": "2000 45",
        "aerodrome:type": "public",
        "aeroway": "aerodrome",
        "barrier": "fence",
        "ele": "83",
        "iata": "FUJ",
        "icao": "RJFE",
        "name": "五島福江空港",
        "name:en": "Goto-Fukue Airport",
        "name:ja": "五島福江空港",
        "name:ja_rm": "Gotō Fukue Kūkō",
        "name:ko": "고토후쿠에공항",
        "note": "National-Land Numerical Information (Airport) 2007, MLIT Japan",
        "note:ja": "国土数値情報（空港データ）平成19年　国土交通省",
        "operator": "Gotō, Nagasaki",
        "source": "KSJ2",
        "source_ref": "http://nlftp.mlit.go.jp/ksj/jpgis/datalist/KsjTmplt-C28-v1_1.html",
        "wikidata": "Q1431393",
        "wikipedia": "ja:福江空港",
        "wikipedia:en": "Fukue Airport"
      }
    },
    {
      "id": "nagasaki_airport_57015147",
      "osmId": 57015147,
      "osmType": "way",
      "prefectureId": "nagasaki",
      "type": "airport",
      "subtype": "domestic",
      "name": "長崎空港",
      "nameKana": null,
      "nameEn": "Nagasaki Airport",
      "operator": "長崎空港ビルディング",
      "network": null,
      "ref": "NGS",
      "latitude": 32.9171843,
      "longitude": 129.913497,
      "countryCode": "jp",
      "rawTags": {
        "KSJ2:AAC": "42205",
        "KSJ2:AAC_label": "長崎県大村市",
        "KSJ2:AD2": "1",
        "KSJ2:AD2_label": "国土交通大臣",
        "KSJ2:ARP": "32.9169444444 129.9136111111",
        "KSJ2:ATB": "32.9142222200 129.9223889000",
        "KSJ2:CLT": "22 00",
        "KSJ2:COA": "空港整備法に基づく第二種空港",
        "KSJ2:CompositeCurve": "cv74Airport",
        "KSJ2:DSA": "特定飛行場以外",
        "KSJ2:INP": "1",
        "KSJ2:INP_label": "国土交通大臣",
        "KSJ2:IUC": "供用中",
        "KSJ2:NA3": "長崎空港",
        "KSJ2:OPT": "07 00",
        "KSJ2:REF": "1",
        "KSJ2:REF_label": "ジェット定期便が就航している場合",
        "KSJ2:airport_id": "cf02_98",
        "KSJ2:runways": "1200 30,3000 60",
        "addr:block_number": "593",
        "addr:city": "大村市",
        "addr:postcode": "856-0816",
        "addr:province": "長崎県",
        "addr:quarter": "箕島町",
        "aerodrome:type": "military/public",
        "aeroway": "aerodrome",
        "closest_town": "Omura",
        "ele": "5",
        "fenced": "yes",
        "iata": "NGS",
        "icao": "RJFU",
        "name": "長崎空港",
        "name:en": "Nagasaki Airport",
        "name:ja": "長崎空港",
        "name:ja_rm": "Nagasaki Kūkō",
        "name:ko": "나가사키공항",
        "name:zh-Hans": "长崎机场",
        "name:zh-Hant": "長崎機場",
        "note": "National-Land Numerical Information (Airport) 2007, MLIT Japan",
        "note:ja": "国土数値情報（空港データ）平成19年　国土交通省",
        "operator": "長崎空港ビルディング",
        "phone": "+81 957-52-5555",
        "source": "GIS ortho",
        "source_ref": "http://nlftp.mlit.go.jp/ksj/jpgis/datalist/KsjTmplt-C28-v1_1.html",
        "website": "https://nagasaki-airport.jp/",
        "wikidata": "Q133796",
        "wikipedia": "ja:長崎空港"
      }
    },
    {
      "id": "nagasaki_airport_205860172",
      "osmId": 205860172,
      "osmType": "way",
      "prefectureId": "nagasaki",
      "type": "airport",
      "subtype": "military",
      "name": "海上自衛隊大村航空基地",
      "nameKana": null,
      "nameEn": "海上JMSDF Ōmura Air Base",
      "operator": null,
      "network": null,
      "ref": "OMJ",
      "latitude": 32.9275374,
      "longitude": 129.9335647,
      "countryCode": "jp",
      "rawTags": {
        "aeroway": "aerodrome",
        "iata": "OMJ",
        "icao": "RJDU",
        "landuse": "military",
        "name": "海上自衛隊大村航空基地",
        "name:en": "海上JMSDF Ōmura Air Base",
        "source": "bing",
        "wikidata": "Q11436069",
        "wikipedia": "ja:大村航空基地"
      }
    },
    {
      "id": "nagasaki_ferry_terminal_408871754",
      "osmId": 408871754,
      "osmType": "way",
      "prefectureId": "nagasaki",
      "type": "ferry_terminal",
      "subtype": null,
      "name": "島原外港フェリーターミナル",
      "nameKana": null,
      "nameEn": "Shimabara Ferry Terminal",
      "operator": null,
      "network": null,
      "ref": null,
      "latitude": 32.7670366,
      "longitude": 130.3727187,
      "countryCode": "jp",
      "rawTags": {
        "amenity": "ferry_terminal",
        "building": "yes",
        "ferry": "no",
        "name": "島原外港フェリーターミナル",
        "name:en": "Shimabara Ferry Terminal",
        "name:ja": "島原外港フェリーターミナル",
        "public_transport": "station"
      }
    },
    {
      "id": "nagasaki_ferry_terminal_411009795",
      "osmId": 411009795,
      "osmType": "way",
      "prefectureId": "nagasaki",
      "type": "ferry_terminal",
      "subtype": null,
      "name": "口之津港ターミナルビル",
      "nameKana": null,
      "nameEn": null,
      "operator": null,
      "network": null,
      "ref": null,
      "latitude": 32.6093011,
      "longitude": 130.1858207,
      "countryCode": "jp",
      "rawTags": {
        "amenity": "ferry_terminal",
        "ferry": "yes",
        "name": "口之津港ターミナルビル",
        "public_transport": "station"
      }
    },
    {
      "id": "nagasaki_ferry_terminal_412860738",
      "osmId": 412860738,
      "osmType": "way",
      "prefectureId": "nagasaki",
      "type": "ferry_terminal",
      "subtype": null,
      "name": "芦辺港ターミナル",
      "nameKana": null,
      "nameEn": null,
      "operator": null,
      "network": null,
      "ref": null,
      "latitude": 33.8096034,
      "longitude": 129.7533051,
      "countryCode": "jp",
      "rawTags": {
        "amenity": "ferry_terminal",
        "building": "yes",
        "building:levels": "2",
        "ferry": "yes",
        "name": "芦辺港ターミナル",
        "public_transport": "station"
      }
    },
    {
      "id": "nagasaki_ferry_terminal_412860739",
      "osmId": 412860739,
      "osmType": "way",
      "prefectureId": "nagasaki",
      "type": "ferry_terminal",
      "subtype": null,
      "name": "芦辺ジェットフォイル乗場",
      "nameKana": null,
      "nameEn": null,
      "operator": null,
      "network": null,
      "ref": null,
      "latitude": 33.810597,
      "longitude": 129.7538523,
      "countryCode": "jp",
      "rawTags": {
        "amenity": "ferry_terminal",
        "building": "yes",
        "building:levels": "1",
        "ferry": "yes",
        "name": "芦辺ジェットフォイル乗場",
        "public_transport": "station"
      }
    },
    {
      "id": "nagasaki_airport_454193654",
      "osmId": 454193654,
      "osmType": "way",
      "prefectureId": "nagasaki",
      "type": "airport",
      "subtype": "domestic",
      "name": "上五島空港",
      "nameKana": null,
      "nameEn": "Kamigoto Airport",
      "operator": null,
      "network": null,
      "ref": "RJDK",
      "latitude": 33.0134262,
      "longitude": 129.1923979,
      "countryCode": "jp",
      "rawTags": {
        "aeroway": "aerodrome",
        "icao": "RJDK",
        "name": "上五島空港",
        "name:en": "Kamigoto Airport",
        "name:ja": "上五島空港",
        "name:ko": "가미고토공항",
        "wikidata": "Q3276359"
      }
    },
    {
      "id": "nagasaki_airport_454205459",
      "osmId": 454205459,
      "osmType": "way",
      "prefectureId": "nagasaki",
      "type": "airport",
      "subtype": "domestic",
      "name": "小値賀空港",
      "nameKana": null,
      "nameEn": "Ojika Airport",
      "operator": null,
      "network": null,
      "ref": "RJDO",
      "latitude": 33.1907777,
      "longitude": 129.0902797,
      "countryCode": "jp",
      "rawTags": {
        "aeroway": "aerodrome",
        "icao": "RJDO",
        "name": "小値賀空港",
        "name:en": "Ojika Airport",
        "name:ja": "小値賀空港",
        "source": "ourairports.com",
        "wikidata": "Q1018757",
        "wikipedia": "ja:小値賀空港"
      }
    },
    {
      "id": "nagasaki_bus_terminal_463779553",
      "osmId": 463779553,
      "osmType": "way",
      "prefectureId": "nagasaki",
      "type": "bus_terminal",
      "subtype": null,
      "name": "Bus Ticket Office",
      "nameKana": null,
      "nameEn": null,
      "operator": null,
      "network": null,
      "ref": null,
      "latitude": 34.2035563,
      "longitude": 129.2892541,
      "countryCode": "jp",
      "rawTags": {
        "amenity": "bus_station",
        "building": "transportation",
        "bus": "yes",
        "name": "Bus Ticket Office",
        "public_transport": "station"
      }
    },
    {
      "id": "nagasaki_ferry_terminal_463780786",
      "osmId": 463780786,
      "osmType": "way",
      "prefectureId": "nagasaki",
      "type": "ferry_terminal",
      "subtype": null,
      "name": "厳原港フェリーターミナル",
      "nameKana": null,
      "nameEn": "Izuhara Port Perry Terminal",
      "operator": null,
      "network": null,
      "ref": null,
      "latitude": 34.1978886,
      "longitude": 129.2913453,
      "countryCode": "jp",
      "rawTags": {
        "amenity": "ferry_terminal",
        "ferry": "yes",
        "internet_access": "wlan",
        "name": "厳原港フェリーターミナル",
        "name:en": "Izuhara Port Perry Terminal",
        "name:ko": "이즈하라항 페리터미널",
        "phone": "+81 920520001",
        "public_transport": "station"
      }
    },
    {
      "id": "nagasaki_ferry_terminal_464517651",
      "osmId": 464517651,
      "osmType": "way",
      "prefectureId": "nagasaki",
      "type": "ferry_terminal",
      "subtype": null,
      "name": "Domestic Ferry - Aso Bay",
      "nameKana": null,
      "nameEn": null,
      "operator": null,
      "network": null,
      "ref": null,
      "latitude": 34.2848365,
      "longitude": 129.3149532,
      "countryCode": "jp",
      "rawTags": {
        "amenity": "ferry_terminal",
        "building": "yes",
        "name": "Domestic Ferry - Aso Bay"
      }
    },
    {
      "id": "nagasaki_ferry_terminal_492260166",
      "osmId": 492260166,
      "osmType": "way",
      "prefectureId": "nagasaki",
      "type": "ferry_terminal",
      "subtype": null,
      "name": "比田勝港国際ターミナル",
      "nameKana": null,
      "nameEn": "Hitakatsu International Terminal",
      "operator": null,
      "network": null,
      "ref": null,
      "latitude": 34.6559387,
      "longitude": 129.4696189,
      "countryCode": "jp",
      "rawTags": {
        "amenity": "ferry_terminal",
        "building": "yes",
        "ferry": "yes",
        "name": "比田勝港国際ターミナル",
        "name:en": "Hitakatsu International Terminal",
        "name:ko": "히타카쓰항 국제터미널",
        "public_transport": "station"
      }
    },
    {
      "id": "nagasaki_bus_terminal_492263181",
      "osmId": 492263181,
      "osmType": "way",
      "prefectureId": "nagasaki",
      "type": "bus_terminal",
      "subtype": null,
      "name": "対馬交通（株）上県（営）",
      "nameKana": null,
      "nameEn": "Tsushima Kotsu Co., Ltd., Kami Prefecture",
      "operator": null,
      "network": null,
      "ref": null,
      "latitude": 34.6535562,
      "longitude": 129.4590312,
      "countryCode": "jp",
      "rawTags": {
        "amenity": "bus_station",
        "building": "yes",
        "name": "対馬交通（株）上県（営）",
        "name:en": "Tsushima Kotsu Co., Ltd., Kami Prefecture",
        "name:ja": "対馬交通（株）上県（営）",
        "name:ko": "쓰시마교통(주) 가미아가타"
      }
    },
    {
      "id": "nagasaki_ferry_terminal_614501956",
      "osmId": 614501956,
      "osmType": "way",
      "prefectureId": "nagasaki",
      "type": "ferry_terminal",
      "subtype": null,
      "name": "Tokiwa Terminal",
      "nameKana": null,
      "nameEn": null,
      "operator": "Gunkanjima Concierge",
      "network": null,
      "ref": null,
      "latitude": 32.7378172,
      "longitude": 129.8699944,
      "countryCode": "jp",
      "rawTags": {
        "amenity": "ferry_terminal",
        "building": "yes",
        "ferry": "yes",
        "name": "Tokiwa Terminal",
        "operator": "Gunkanjima Concierge",
        "public_transport": "station"
      }
    },
    {
      "id": "nagasaki_bus_terminal_639976052",
      "osmId": 639976052,
      "osmType": "way",
      "prefectureId": "nagasaki",
      "type": "bus_terminal",
      "subtype": null,
      "name": "佐世保バスターミナル待合所",
      "nameKana": null,
      "nameEn": null,
      "operator": null,
      "network": null,
      "ref": null,
      "latitude": 33.1645121,
      "longitude": 129.7271468,
      "countryCode": "jp",
      "rawTags": {
        "amenity": "bus_station",
        "building": "yes",
        "bus": "yes",
        "name": "佐世保バスターミナル待合所",
        "public_transport": "station"
      }
    },
    {
      "id": "nagasaki_bus_terminal_733131866",
      "osmId": 733131866,
      "osmType": "way",
      "prefectureId": "nagasaki",
      "type": "bus_terminal",
      "subtype": null,
      "name": "長崎バス　さくらの里営業所",
      "nameKana": null,
      "nameEn": null,
      "operator": null,
      "network": null,
      "ref": null,
      "latitude": 32.8260236,
      "longitude": 129.7625759,
      "countryCode": "jp",
      "rawTags": {
        "amenity": "bus_station",
        "building": "yes",
        "bus": "yes",
        "name": "長崎バス　さくらの里営業所",
        "public_transport": "station",
        "source": "GSImaps/std"
      }
    },
    {
      "id": "nagasaki_bus_terminal_753609498",
      "osmId": 753609498,
      "osmType": "way",
      "prefectureId": "nagasaki",
      "type": "bus_terminal",
      "subtype": null,
      "name": "佐世保バスセンター",
      "nameKana": null,
      "nameEn": null,
      "operator": null,
      "network": null,
      "ref": null,
      "latitude": 33.1639936,
      "longitude": 129.7277668,
      "countryCode": "jp",
      "rawTags": {
        "amenity": "bus_station",
        "building": "retail",
        "bus": "yes",
        "name": "佐世保バスセンター",
        "public_transport": "station"
      }
    },
    {
      "id": "nagasaki_ferry_terminal_757482921",
      "osmId": 757482921,
      "osmType": "way",
      "prefectureId": "nagasaki",
      "type": "ferry_terminal",
      "subtype": null,
      "name": "小値賀港",
      "nameKana": null,
      "nameEn": null,
      "operator": null,
      "network": null,
      "ref": null,
      "latitude": 33.1869411,
      "longitude": 129.0630794,
      "countryCode": "jp",
      "rawTags": {
        "amenity": "ferry_terminal",
        "building": "yes",
        "ferry": "yes",
        "name": "小値賀港",
        "public_transport": "station"
      }
    },
    {
      "id": "nagasaki_ferry_terminal_944741192",
      "osmId": 944741192,
      "osmType": "way",
      "prefectureId": "nagasaki",
      "type": "ferry_terminal",
      "subtype": null,
      "name": "新みなとターミナル",
      "nameKana": null,
      "nameEn": null,
      "operator": null,
      "network": null,
      "ref": null,
      "latitude": 33.1637372,
      "longitude": 129.722471,
      "countryCode": "jp",
      "rawTags": {
        "amenity": "ferry_terminal",
        "building": "yes",
        "ferry": "yes",
        "name": "新みなとターミナル",
        "public_transport": "station"
      }
    },
    {
      "id": "nagasaki_ferry_terminal_955160787",
      "osmId": 955160787,
      "osmType": "way",
      "prefectureId": "nagasaki",
      "type": "ferry_terminal",
      "subtype": null,
      "name": "鯨瀬ターミナル",
      "nameKana": null,
      "nameEn": null,
      "operator": null,
      "network": null,
      "ref": null,
      "latitude": 33.162604,
      "longitude": 129.7226458,
      "countryCode": "jp",
      "rawTags": {
        "amenity": "ferry_terminal",
        "building": "yes",
        "ferry": "yes",
        "name": "鯨瀬ターミナル",
        "public_transport": "station"
      }
    },
    {
      "id": "nagasaki_bus_terminal_987434463",
      "osmId": 987434463,
      "osmType": "way",
      "prefectureId": "nagasaki",
      "type": "bus_terminal",
      "subtype": null,
      "name": "上横尾バス停留所",
      "nameKana": null,
      "nameEn": null,
      "operator": "長崎バス",
      "network": null,
      "ref": null,
      "latitude": 32.8160273,
      "longitude": 129.8322617,
      "countryCode": "jp",
      "rawTags": {
        "amenity": "bus_station",
        "building": "yes",
        "bus": "yes",
        "name": "上横尾バス停留所",
        "operator": "長崎バス",
        "public_transport": "station"
      }
    },
    {
      "id": "nagasaki_ferry_terminal_1123056849",
      "osmId": 1123056849,
      "osmType": "way",
      "prefectureId": "nagasaki",
      "type": "ferry_terminal",
      "subtype": null,
      "name": "多比良港ターミナル",
      "nameKana": null,
      "nameEn": null,
      "operator": null,
      "network": null,
      "ref": null,
      "latitude": 32.8758353,
      "longitude": 130.3092598,
      "countryCode": "jp",
      "rawTags": {
        "addr:block_number": "2",
        "addr:city": "雲仙市",
        "addr:housenumber": "28",
        "addr:neighbourhood": "土黒甲",
        "addr:province": "長崎県",
        "addr:quarter": "国見町",
        "amenity": "ferry_terminal",
        "building": "yes",
        "ferry": "no",
        "name": "多比良港ターミナル",
        "public_transport": "station"
      }
    },
    {
      "id": "nagasaki_bus_terminal_1132154336",
      "osmId": 1132154336,
      "osmType": "way",
      "prefectureId": "nagasaki",
      "type": "bus_terminal",
      "subtype": null,
      "name": "島鉄バス小浜ターミナル",
      "nameKana": null,
      "nameEn": null,
      "operator": null,
      "network": null,
      "ref": null,
      "latitude": 32.7292876,
      "longitude": 130.2073102,
      "countryCode": "jp",
      "rawTags": {
        "amenity": "bus_station",
        "building": "yes",
        "name": "島鉄バス小浜ターミナル",
        "public_transport": "station"
      }
    },
    {
      "id": "nagasaki_ferry_terminal_1441604836",
      "osmId": 1441604836,
      "osmType": "way",
      "prefectureId": "nagasaki",
      "type": "ferry_terminal",
      "subtype": null,
      "name": "瀬戸港フェリーターミナル",
      "nameKana": null,
      "nameEn": null,
      "operator": null,
      "network": "松島瀬戸間（江崎海陸運送）松嶌池島佐世保間（西海沿岸商船）",
      "ref": null,
      "latitude": 32.9404517,
      "longitude": 129.6388691,
      "countryCode": "jp",
      "rawTags": {
        "air_conditioning": "yes",
        "amenity": "ferry_terminal",
        "ferry": "yes",
        "internet_access": "no",
        "name": "瀬戸港フェリーターミナル",
        "network": "松島瀬戸間（江崎海陸運送）松嶌池島佐世保間（西海沿岸商船）",
        "public_transport": "station"
      }
    }
  ]
}