{
  "fetchedAt": "2025-12-12T05:38:27.585Z",
  "prefectureId": "oita",
  "prefectureName": "大分県",
  "stats": {
    "station": 86,
    "airport": 4,
    "ferry_terminal": 17,
    "bus_terminal": 14,
    "total": 121
  },
  "data": [
    {
      "id": "oita_station_265839008",
      "osmId": 265839008,
      "osmType": "node",
      "prefectureId": "oita",
      "type": "station",
      "subtype": "jr",
      "name": "幸崎",
      "nameKana": null,
      "nameEn": "Kōzaki",
      "operator": "九州旅客鉄道",
      "network": "JR日豊線",
      "ref": null,
      "latitude": 33.2333543,
      "longitude": 131.7954093,
      "countryCode": "jp",
      "rawTags": {
        "KSJ2:LIN": "日豊線",
        "KSJ2:STN": "幸崎",
        "name": "幸崎",
        "name:en": "Kōzaki",
        "name:ja": "幸崎",
        "name:ko": "고자키",
        "network": "JR日豊線",
        "note": "National-Land Numerical Information (Railway) 2007, MLIT Japan",
        "note:ja": "国土数値情報（鉄道データ）平成19年　国土交通省",
        "operator": "九州旅客鉄道",
        "public_transport": "station",
        "railway": "station",
        "source": "KSJ2",
        "source_ref": "http://nlftp.mlit.go.jp/ksj/jpgis/datalist/KsjTmplt-N02-v1_1.html",
        "wikidata": "Q5359308",
        "wikipedia": "ja:幸崎駅"
      }
    },
    {
      "id": "oita_station_265839360",
      "osmId": 265839360,
      "osmType": "node",
      "prefectureId": "oita",
      "type": "station",
      "subtype": "jr",
      "name": "暘谷",
      "nameKana": null,
      "nameEn": "Yokoku",
      "operator": "九州旅客鉄道",
      "network": "JR日豊線",
      "ref": null,
      "latitude": 33.3701775,
      "longitude": 131.5304211,
      "countryCode": "jp",
      "rawTags": {
        "KSJ2:LIN": "日豊線",
        "KSJ2:STN": "暘谷",
        "name": "暘谷",
        "name:en": "Yokoku",
        "name:ja": "暘谷",
        "name:ko": "요코쿠",
        "network": "JR日豊線",
        "note": "National-Land Numerical Information (Railway) 2007, MLIT Japan",
        "note:ja": "国土数値情報（鉄道データ）平成19年　国土交通省",
        "operator": "九州旅客鉄道",
        "railway": "station",
        "source": "KSJ2",
        "source_ref": "http://nlftp.mlit.go.jp/ksj/jpgis/datalist/KsjTmplt-N02-v1_1.html",
        "wheelchair": "no",
        "wikidata": "Q5359777",
        "wikipedia": "ja:暘谷駅"
      }
    },
    {
      "id": "oita_station_265839380",
      "osmId": 265839380,
      "osmType": "node",
      "prefectureId": "oita",
      "type": "station",
      "subtype": "jr",
      "name": "別府大学",
      "nameKana": null,
      "nameEn": "Beppu Daigaku",
      "operator": "九州旅客鉄道",
      "network": "JR日豊線",
      "ref": null,
      "latitude": 33.3129131,
      "longitude": 131.4993918,
      "countryCode": "jp",
      "rawTags": {
        "KSJ2:LIN": "日豊線",
        "KSJ2:STN": "別府大学",
        "alt_name:ko": "벳푸다이가쿠",
        "name": "別府大学",
        "name:en": "Beppu Daigaku",
        "name:ja": "別府大学",
        "name:ko": "벳푸대학",
        "network": "JR日豊線",
        "note": "National-Land Numerical Information (Railway) 2007, MLIT Japan",
        "note:ja": "国土数値情報（鉄道データ）平成19年　国土交通省",
        "operator": "九州旅客鉄道",
        "public_transport": "station",
        "railway": "station",
        "source": "KSJ2",
        "source_ref": "http://nlftp.mlit.go.jp/ksj/jpgis/datalist/KsjTmplt-N02-v1_1.html",
        "wheelchair": "yes",
        "wikidata": "Q4890929",
        "wikipedia": "ja:別府大学駅"
      }
    },
    {
      "id": "oita_station_265839401",
      "osmId": 265839401,
      "osmType": "node",
      "prefectureId": "oita",
      "type": "station",
      "subtype": "jr",
      "name": "東別府",
      "nameKana": null,
      "nameEn": "Higashi-Beppu",
      "operator": "九州旅客鉄道",
      "network": "JR日豊線",
      "ref": null,
      "latitude": 33.2677425,
      "longitude": 131.5105748,
      "countryCode": "jp",
      "rawTags": {
        "KSJ2:LIN": "日豊線",
        "KSJ2:STN": "東別府",
        "name": "東別府",
        "name:en": "Higashi-Beppu",
        "name:ja": "東別府",
        "name:ko": "히가시벳푸",
        "network": "JR日豊線",
        "note": "National-Land Numerical Information (Railway) 2007, MLIT Japan",
        "note:ja": "国土数値情報（鉄道データ）平成19年　国土交通省",
        "operator": "九州旅客鉄道",
        "public_transport": "station",
        "railway": "station",
        "source": "KSJ2",
        "source_ref": "http://nlftp.mlit.go.jp/ksj/jpgis/datalist/KsjTmplt-N02-v1_1.html",
        "wikidata": "Q5359632",
        "wikipedia": "ja:東別府駅"
      }
    },
    {
      "id": "oita_station_265839409",
      "osmId": 265839409,
      "osmType": "node",
      "prefectureId": "oita",
      "type": "station",
      "subtype": "jr",
      "name": "東中津",
      "nameKana": null,
      "nameEn": "Higashi-Nakatsu",
      "operator": "九州旅客鉄道",
      "network": "JR日豊線",
      "ref": null,
      "latitude": 33.5874449,
      "longitude": 131.2392548,
      "countryCode": "jp",
      "rawTags": {
        "KSJ2:LIN": "日豊線",
        "KSJ2:STN": "東中津",
        "name": "東中津",
        "name:en": "Higashi-Nakatsu",
        "name:ja": "東中津",
        "name:ko": "히가시나카쓰",
        "network": "JR日豊線",
        "note": "National-Land Numerical Information (Railway) 2007, MLIT Japan",
        "note:ja": "国土数値情報（鉄道データ）平成19年　国土交通省",
        "operator": "九州旅客鉄道",
        "railway": "station",
        "source": "KSJ2",
        "source_ref": "http://nlftp.mlit.go.jp/ksj/jpgis/datalist/KsjTmplt-N02-v1_1.html",
        "wikidata": "Q5360365",
        "wikipedia": "ja:東中津駅"
      }
    },
    {
      "id": "oita_station_265839663",
      "osmId": 265839663,
      "osmType": "node",
      "prefectureId": "oita",
      "type": "station",
      "subtype": "jr",
      "name": "西屋敷",
      "nameKana": "にしやしき",
      "nameEn": "Nishiyashiki",
      "operator": "九州旅客鉄道",
      "network": "JR日豊線",
      "ref": null,
      "latitude": 33.5041614,
      "longitude": 131.4296929,
      "countryCode": "jp",
      "rawTags": {
        "KSJ2:LIN": "日豊線",
        "KSJ2:STN": "西屋敷",
        "name": "西屋敷",
        "name:en": "Nishiyashiki",
        "name:ja": "西屋敷",
        "name:ja-Hira": "にしやしき",
        "name:ko": "니시야시키",
        "network": "JR日豊線",
        "note": "National-Land Numerical Information (Railway) 2007, MLIT Japan",
        "note:ja": "国土数値情報（鉄道データ）平成19年　国土交通省",
        "operator": "九州旅客鉄道",
        "public_transport": "station",
        "railway": "station",
        "source": "KSJ2",
        "source_ref": "http://nlftp.mlit.go.jp/ksj/jpgis/datalist/KsjTmplt-N02-v1_1.html",
        "wheelchair": "limited",
        "wikidata": "Q5360362",
        "wikipedia": "ja:西屋敷駅"
      }
    },
    {
      "id": "oita_station_265839665",
      "osmId": 265839665,
      "osmType": "node",
      "prefectureId": "oita",
      "type": "station",
      "subtype": "jr",
      "name": "大神",
      "nameKana": null,
      "nameEn": "Ōga",
      "operator": "九州旅客鉄道",
      "network": "JR日豊線",
      "ref": null,
      "latitude": 33.3835617,
      "longitude": 131.5752631,
      "countryCode": "jp",
      "rawTags": {
        "KSJ2:LIN": "日豊線",
        "KSJ2:STN": "大神",
        "name": "大神",
        "name:en": "Ōga",
        "name:ja": "大神",
        "name:ko": "오가",
        "network": "JR日豊線",
        "note": "National-Land Numerical Information (Railway) 2007, MLIT Japan",
        "note:ja": "国土数値情報（鉄道データ）平成19年　国土交通省",
        "operator": "九州旅客鉄道",
        "railway": "station",
        "source": "KSJ2",
        "source_ref": "http://nlftp.mlit.go.jp/ksj/jpgis/datalist/KsjTmplt-N02-v1_1.html",
        "wikidata": "Q5360340",
        "wikipedia": "ja:大神駅"
      }
    },
    {
      "id": "oita_station_265839715",
      "osmId": 265839715,
      "osmType": "node",
      "prefectureId": "oita",
      "type": "station",
      "subtype": "jr",
      "name": "中津",
      "nameKana": null,
      "nameEn": "Nakatsu",
      "operator": "九州旅客鉄道",
      "network": "JR日豊線",
      "ref": null,
      "latitude": 33.5991951,
      "longitude": 131.1908891,
      "countryCode": "jp",
      "rawTags": {
        "KSJ2:LIN": "日豊線",
        "KSJ2:STN": "中津",
        "name": "中津",
        "name:de": "Nakatsu",
        "name:en": "Nakatsu",
        "name:ja": "中津",
        "name:ko": "나카쓰",
        "network": "JR日豊線",
        "note": "National-Land Numerical Information (Railway) 2007, MLIT Japan",
        "note:ja": "国土数値情報（鉄道データ）平成19年　国土交通省",
        "operator": "九州旅客鉄道",
        "railway": "station",
        "source": "KSJ2",
        "source_ref": "http://nlftp.mlit.go.jp/ksj/jpgis/datalist/KsjTmplt-N02-v1_1.html",
        "wheelchair": "yes",
        "wikidata": "Q5360376",
        "wikipedia": "ja:中津駅 (大分県)"
      }
    },
    {
      "id": "oita_station_265839812",
      "osmId": 265839812,
      "osmType": "node",
      "prefectureId": "oita",
      "type": "station",
      "subtype": "jr",
      "name": "豊後豊岡",
      "nameKana": null,
      "nameEn": "Bungo-Toyooka",
      "operator": "九州旅客鉄道",
      "network": "JR日豊線",
      "ref": null,
      "latitude": 33.3619628,
      "longitude": 131.5015479,
      "countryCode": "jp",
      "rawTags": {
        "KSJ2:LIN": "日豊線",
        "KSJ2:STN": "豊後豊岡",
        "name": "豊後豊岡",
        "name:en": "Bungo-Toyooka",
        "name:ja": "豊後豊岡",
        "name:ko": "분고토요오카",
        "network": "JR日豊線",
        "note": "National-Land Numerical Information (Railway) 2007, MLIT Japan",
        "note:ja": "国土数値情報（鉄道データ）平成19年　国土交通省",
        "operator": "九州旅客鉄道",
        "public_transport": "station",
        "railway": "station",
        "source": "KSJ2",
        "source_ref": "http://nlftp.mlit.go.jp/ksj/jpgis/datalist/KsjTmplt-N02-v1_1.html",
        "wheelchair": "limited",
        "wikidata": "Q4997671",
        "wikipedia": "ja:豊後豊岡駅"
      }
    },
    {
      "id": "oita_station_265839893",
      "osmId": 265839893,
      "osmType": "node",
      "prefectureId": "oita",
      "type": "station",
      "subtype": "jr",
      "name": "天津",
      "nameKana": null,
      "nameEn": "Amatsu",
      "operator": "九州旅客鉄道",
      "network": "JR日豊線",
      "ref": null,
      "latitude": 33.5646153,
      "longitude": 131.2924084,
      "countryCode": "jp",
      "rawTags": {
        "KSJ2:LIN": "日豊線",
        "KSJ2:STN": "天津",
        "name": "天津",
        "name:en": "Amatsu",
        "name:ja": "天津",
        "name:ko": "아마쓰",
        "network": "JR日豊線",
        "note": "National-Land Numerical Information (Railway) 2007, MLIT Japan",
        "note:ja": "国土数値情報（鉄道データ）平成19年　国土交通省",
        "operator": "九州旅客鉄道",
        "railway": "station",
        "source": "KSJ2",
        "source_ref": "http://nlftp.mlit.go.jp/ksj/jpgis/datalist/KsjTmplt-N02-v1_1.html",
        "wikidata": "Q870616",
        "wikipedia": "ja:天津駅"
      }
    },
    {
      "id": "oita_station_265840113",
      "osmId": 265840113,
      "osmType": "node",
      "prefectureId": "oita",
      "type": "station",
      "subtype": "jr",
      "name": "豊前善光寺",
      "nameKana": null,
      "nameEn": "Buzen-Zenkōji",
      "operator": "九州旅客鉄道",
      "network": "JR日豊線",
      "ref": null,
      "latitude": 33.5664233,
      "longitude": 131.3231626,
      "countryCode": "jp",
      "rawTags": {
        "KSJ2:LIN": "日豊線",
        "KSJ2:STN": "豊前善光寺",
        "name": "豊前善光寺",
        "name:en": "Buzen-Zenkōji",
        "name:ja": "豊前善光寺",
        "name:ko": "부젠젠코지",
        "network": "JR日豊線",
        "note": "National-Land Numerical Information (Railway) 2007, MLIT Japan",
        "note:ja": "国土数値情報（鉄道データ）平成19年　国土交通省",
        "operator": "九州旅客鉄道",
        "railway": "station",
        "source": "KSJ2",
        "source_ref": "http://nlftp.mlit.go.jp/ksj/jpgis/datalist/KsjTmplt-N02-v1_1.html",
        "wikidata": "Q5003445",
        "wikipedia": "ja:豊前善光寺駅"
      }
    },
    {
      "id": "oita_station_265840117",
      "osmId": 265840117,
      "osmType": "node",
      "prefectureId": "oita",
      "type": "station",
      "subtype": "jr",
      "name": "中山香",
      "nameKana": null,
      "nameEn": "Naka-Yamaga",
      "operator": "九州旅客鉄道",
      "network": "JR日豊線",
      "ref": null,
      "latitude": 33.4486757,
      "longitude": 131.5057609,
      "countryCode": "jp",
      "rawTags": {
        "KSJ2:LIN": "日豊線",
        "KSJ2:STN": "中山香",
        "name": "中山香",
        "name:en": "Naka-Yamaga",
        "name:ja": "中山香",
        "name:ko": "나카야마가",
        "network": "JR日豊線",
        "note": "National-Land Numerical Information (Railway) 2007, MLIT Japan",
        "note:ja": "国土数値情報（鉄道データ）平成19年　国土交通省",
        "operator": "九州旅客鉄道",
        "railway": "station",
        "source": "KSJ2",
        "source_ref": "http://nlftp.mlit.go.jp/ksj/jpgis/datalist/KsjTmplt-N02-v1_1.html",
        "wikidata": "Q5360294",
        "wikipedia": "ja:中山香駅"
      }
    },
    {
      "id": "oita_station_265840383",
      "osmId": 265840383,
      "osmType": "node",
      "prefectureId": "oita",
      "type": "station",
      "subtype": "jr",
      "name": "杵築",
      "nameKana": null,
      "nameEn": "Kitsuki",
      "operator": "九州旅客鉄道",
      "network": "JR日豊線",
      "ref": null,
      "latitude": 33.4111118,
      "longitude": 131.5755063,
      "countryCode": "jp",
      "rawTags": {
        "KSJ2:LIN": "日豊線",
        "KSJ2:STN": "杵築",
        "name": "杵築",
        "name:en": "Kitsuki",
        "name:ja": "杵築",
        "name:ko": "기쓰키",
        "network": "JR日豊線",
        "note": "National-Land Numerical Information (Railway) 2007, MLIT Japan",
        "note:ja": "国土数値情報（鉄道データ）平成19年　国土交通省",
        "operator": "九州旅客鉄道",
        "railway": "station",
        "source": "KSJ2",
        "source_ref": "http://nlftp.mlit.go.jp/ksj/jpgis/datalist/KsjTmplt-N02-v1_1.html",
        "wheelchair": "yes",
        "wikidata": "Q5360203",
        "wikipedia": "ja:杵築駅"
      }
    },
    {
      "id": "oita_station_265840415",
      "osmId": 265840415,
      "osmType": "node",
      "prefectureId": "oita",
      "type": "station",
      "subtype": "jr",
      "name": "日出",
      "nameKana": null,
      "nameEn": "Hiji",
      "operator": "九州旅客鉄道",
      "network": "JR日豊線",
      "ref": null,
      "latitude": 33.3691967,
      "longitude": 131.5424626,
      "countryCode": "jp",
      "rawTags": {
        "KSJ2:LIN": "日豊線",
        "KSJ2:STN": "日出",
        "name": "日出",
        "name:en": "Hiji",
        "name:ja": "日出",
        "name:ko": "히지",
        "network": "JR日豊線",
        "note": "National-Land Numerical Information (Railway) 2007, MLIT Japan",
        "note:ja": "国土数値情報（鉄道データ）平成19年　国土交通省",
        "operator": "九州旅客鉄道",
        "railway": "station",
        "source": "KSJ2",
        "source_ref": "http://nlftp.mlit.go.jp/ksj/jpgis/datalist/KsjTmplt-N02-v1_1.html",
        "wheelchair": "yes",
        "wikidata": "Q5359591",
        "wikipedia": "ja:日出駅"
      }
    },
    {
      "id": "oita_station_265840673",
      "osmId": 265840673,
      "osmType": "node",
      "prefectureId": "oita",
      "type": "station",
      "subtype": "jr",
      "name": "豊前長洲",
      "nameKana": null,
      "nameEn": "Buzen-Nagasu",
      "operator": "九州旅客鉄道",
      "network": "JR日豊線",
      "ref": null,
      "latitude": 33.5647911,
      "longitude": 131.3831447,
      "countryCode": "jp",
      "rawTags": {
        "KSJ2:LIN": "日豊線",
        "KSJ2:STN": "豊前長洲",
        "name": "豊前長洲",
        "name:en": "Buzen-Nagasu",
        "name:ja": "豊前長洲",
        "name:ko": "부젠나가스",
        "network": "JR日豊線",
        "note": "National-Land Numerical Information (Railway) 2007, MLIT Japan",
        "note:ja": "国土数値情報（鉄道データ）平成19年　国土交通省",
        "operator": "九州旅客鉄道",
        "railway": "station",
        "source": "KSJ2",
        "source_ref": "http://nlftp.mlit.go.jp/ksj/jpgis/datalist/KsjTmplt-N02-v1_1.html",
        "wikidata": "Q5003443",
        "wikipedia": "ja:豊前長洲駅"
      }
    },
    {
      "id": "oita_station_265841186",
      "osmId": 265841186,
      "osmType": "node",
      "prefectureId": "oita",
      "type": "station",
      "subtype": "jr",
      "name": "今津",
      "nameKana": null,
      "nameEn": "Imazu",
      "operator": "九州旅客鉄道",
      "network": "JR日豊線",
      "ref": null,
      "latitude": 33.5719398,
      "longitude": 131.2671258,
      "countryCode": "jp",
      "rawTags": {
        "KSJ2:LIN": "日豊線",
        "KSJ2:STN": "今津",
        "name": "今津",
        "name:en": "Imazu",
        "name:ja": "今津",
        "name:ko": "이마즈",
        "network": "JR日豊線",
        "note": "National-Land Numerical Information (Railway) 2007, MLIT Japan",
        "note:ja": "国土数値情報（鉄道データ）平成19年　国土交通省",
        "operator": "九州旅客鉄道",
        "railway": "station",
        "source": "KSJ2",
        "source_ref": "http://nlftp.mlit.go.jp/ksj/jpgis/datalist/KsjTmplt-N02-v1_1.html",
        "wikidata": "Q5360300",
        "wikipedia": "ja:今津駅 (大分県)"
      }
    },
    {
      "id": "oita_station_265841260",
      "osmId": 265841260,
      "osmType": "node",
      "prefectureId": "oita",
      "type": "station",
      "subtype": "jr",
      "name": "柳ヶ浦",
      "nameKana": null,
      "nameEn": "Yanagigaura",
      "operator": "九州旅客鉄道",
      "network": "JR日豊線",
      "ref": null,
      "latitude": 33.5650359,
      "longitude": 131.3625999,
      "countryCode": "jp",
      "rawTags": {
        "KSJ2:LIN": "日豊線",
        "KSJ2:STN": "柳ヶ浦",
        "name": "柳ヶ浦",
        "name:en": "Yanagigaura",
        "name:ja": "柳ヶ浦",
        "name:ko": "야나기가우라",
        "network": "JR日豊線",
        "note": "National-Land Numerical Information (Railway) 2007, MLIT Japan",
        "note:ja": "国土数値情報（鉄道データ）平成19年　国土交通省",
        "operator": "九州旅客鉄道",
        "railway": "station",
        "source": "KSJ2",
        "source_ref": "http://nlftp.mlit.go.jp/ksj/jpgis/datalist/KsjTmplt-N02-v1_1.html",
        "wheelchair": "yes",
        "wikidata": "Q5360192",
        "wikipedia": "ja:柳ケ浦駅"
      }
    },
    {
      "id": "oita_station_265841523",
      "osmId": 265841523,
      "osmType": "node",
      "prefectureId": "oita",
      "type": "station",
      "subtype": "jr",
      "name": "宇佐",
      "nameKana": null,
      "nameEn": "Usa",
      "operator": "九州旅客鉄道",
      "network": "JR日豊線",
      "ref": null,
      "latitude": 33.5321878,
      "longitude": 131.4120019,
      "countryCode": "jp",
      "rawTags": {
        "KSJ2:LIN": "日豊線",
        "KSJ2:STN": "宇佐",
        "name": "宇佐",
        "name:en": "Usa",
        "name:ja": "宇佐",
        "name:ko": "우사",
        "network": "JR日豊線",
        "note": "National-Land Numerical Information (Railway) 2007, MLIT Japan",
        "note:ja": "国土数値情報（鉄道データ）平成19年　国土交通省",
        "operator": "九州旅客鉄道",
        "railway": "station",
        "source": "KSJ2",
        "source_ref": "http://nlftp.mlit.go.jp/ksj/jpgis/datalist/KsjTmplt-N02-v1_1.html",
        "wikidata": "Q5360282",
        "wikipedia": "ja:宇佐駅"
      }
    },
    {
      "id": "oita_station_265844784",
      "osmId": 265844784,
      "osmType": "node",
      "prefectureId": "oita",
      "type": "station",
      "subtype": "jr",
      "name": "浅海井",
      "nameKana": null,
      "nameEn": "Azamui",
      "operator": "九州旅客鉄道",
      "network": "JR日豊線",
      "ref": null,
      "latitude": 33.0434766,
      "longitude": 131.9192001,
      "countryCode": "jp",
      "rawTags": {
        "KSJ2:LIN": "日豊線",
        "KSJ2:STN": "浅海井",
        "name": "浅海井",
        "name:en": "Azamui",
        "name:ja": "浅海井",
        "name:ko": "아자무이",
        "network": "JR日豊線",
        "note": "National-Land Numerical Information (Railway) 2007, MLIT Japan",
        "note:ja": "国土数値情報（鉄道データ）平成19年　国土交通省",
        "operator": "九州旅客鉄道",
        "public_transport": "station",
        "railway": "station",
        "source": "KSJ2",
        "source_ref": "http://nlftp.mlit.go.jp/ksj/jpgis/datalist/KsjTmplt-N02-v1_1.html",
        "wikidata": "Q873068",
        "wikipedia": "ja:浅海井駅"
      }
    },
    {
      "id": "oita_station_265844824",
      "osmId": 265844824,
      "osmType": "node",
      "prefectureId": "oita",
      "type": "station",
      "subtype": "jr",
      "name": "直見",
      "nameKana": null,
      "nameEn": "Naomi",
      "operator": "九州旅客鉄道",
      "network": "JR日豊線",
      "ref": null,
      "latitude": 32.9277635,
      "longitude": 131.8074068,
      "countryCode": "jp",
      "rawTags": {
        "KSJ2:LIN": "日豊線",
        "KSJ2:STN": "直見",
        "name": "直見",
        "name:en": "Naomi",
        "name:ja": "直見",
        "name:ko": "나오미",
        "network": "JR日豊線",
        "note": "National-Land Numerical Information (Railway) 2007, MLIT Japan",
        "note:ja": "国土数値情報（鉄道データ）平成19年　国土交通省",
        "operator": "九州旅客鉄道",
        "public_transport": "station",
        "railway": "station",
        "source": "KSJ2",
        "source_ref": "http://nlftp.mlit.go.jp/ksj/jpgis/datalist/KsjTmplt-N02-v1_1.html",
        "wikidata": "Q5357485",
        "wikipedia": "ja:直見駅"
      }
    },
    {
      "id": "oita_station_265845245",
      "osmId": 265845245,
      "osmType": "node",
      "prefectureId": "oita",
      "type": "station",
      "subtype": "jr",
      "name": "狩生",
      "nameKana": null,
      "nameEn": "Kariu",
      "operator": "九州旅客鉄道",
      "network": "JR日豊線",
      "ref": null,
      "latitude": 33.0149632,
      "longitude": 131.9043458,
      "countryCode": "jp",
      "rawTags": {
        "KSJ2:LIN": "日豊線",
        "KSJ2:STN": "狩生",
        "name": "狩生",
        "name:en": "Kariu",
        "name:ja": "狩生",
        "name:ko": "가리우",
        "network": "JR日豊線",
        "note": "National-Land Numerical Information (Railway) 2007, MLIT Japan",
        "note:ja": "国土数値情報（鉄道データ）平成19年　国土交通省",
        "operator": "九州旅客鉄道",
        "public_transport": "station",
        "railway": "station",
        "source": "KSJ2",
        "source_ref": "http://nlftp.mlit.go.jp/ksj/jpgis/datalist/KsjTmplt-N02-v1_1.html",
        "wikidata": "Q5358631",
        "wikipedia": "ja:狩生駅"
      }
    },
    {
      "id": "oita_station_265845566",
      "osmId": 265845566,
      "osmType": "node",
      "prefectureId": "oita",
      "type": "station",
      "subtype": "jr",
      "name": "直川",
      "nameKana": null,
      "nameEn": "Naokawa",
      "operator": "九州旅客鉄道",
      "network": "JR日豊線",
      "ref": null,
      "latitude": 32.8985989,
      "longitude": 131.7794331,
      "countryCode": "jp",
      "rawTags": {
        "KSJ2:LIN": "日豊線",
        "KSJ2:STN": "直川",
        "name": "直川",
        "name:en": "Naokawa",
        "name:ja": "直川",
        "name:ko": "나오카와",
        "network": "JR日豊線",
        "note": "National-Land Numerical Information (Railway) 2007, MLIT Japan",
        "note:ja": "国土数値情報（鉄道データ）平成19年　国土交通省",
        "operator": "九州旅客鉄道",
        "public_transport": "station",
        "railway": "station",
        "source": "KSJ2",
        "source_ref": "http://nlftp.mlit.go.jp/ksj/jpgis/datalist/KsjTmplt-N02-v1_1.html",
        "wikidata": "Q6964541",
        "wikipedia": "ja:直川駅"
      }
    },
    {
      "id": "oita_station_265846787",
      "osmId": 265846787,
      "osmType": "node",
      "prefectureId": "oita",
      "type": "station",
      "subtype": "jr",
      "name": "日代",
      "nameKana": null,
      "nameEn": "Hishiro",
      "operator": "九州旅客鉄道",
      "network": "JR日豊線",
      "ref": null,
      "latitude": 33.0660414,
      "longitude": 131.9183656,
      "countryCode": "jp",
      "rawTags": {
        "KSJ2:LIN": "日豊線",
        "KSJ2:STN": "日代",
        "name": "日代",
        "name:en": "Hishiro",
        "name:ja": "日代",
        "name:ko": "히시로",
        "network": "JR日豊線",
        "note": "National-Land Numerical Information (Railway) 2007, MLIT Japan",
        "note:ja": "国土数値情報（鉄道データ）平成19年　国土交通省",
        "operator": "九州旅客鉄道",
        "public_transport": "station",
        "railway": "station",
        "source": "KSJ2",
        "source_ref": "http://nlftp.mlit.go.jp/ksj/jpgis/datalist/KsjTmplt-N02-v1_1.html",
        "wikidata": "Q5358666",
        "wikipedia": "ja:日代駅"
      }
    },
    {
      "id": "oita_station_265847097",
      "osmId": 265847097,
      "osmType": "node",
      "prefectureId": "oita",
      "type": "station",
      "subtype": "jr",
      "name": "重岡",
      "nameKana": null,
      "nameEn": "Shigeoka",
      "operator": "九州旅客鉄道",
      "network": "JR日豊線",
      "ref": null,
      "latitude": 32.8404292,
      "longitude": 131.7156632,
      "countryCode": "jp",
      "rawTags": {
        "KSJ2:LIN": "日豊線",
        "KSJ2:STN": "重岡",
        "name": "重岡",
        "name:en": "Shigeoka",
        "name:ja": "重岡",
        "name:ko": "시게오카",
        "network": "JR日豊線",
        "note": "National-Land Numerical Information (Railway) 2007, MLIT Japan",
        "note:ja": "国土数値情報（鉄道データ）平成19年　国土交通省",
        "operator": "九州旅客鉄道",
        "public_transport": "station",
        "railway": "station",
        "source": "KSJ2",
        "source_ref": "http://nlftp.mlit.go.jp/ksj/jpgis/datalist/KsjTmplt-N02-v1_1.html",
        "wikidata": "Q5357673",
        "wikipedia": "ja:重岡駅"
      }
    },
    {
      "id": "oita_station_265854747",
      "osmId": 265854747,
      "osmType": "node",
      "prefectureId": "oita",
      "type": "station",
      "subtype": "jr",
      "name": "敷戸",
      "nameKana": null,
      "nameEn": "Shikido",
      "operator": "九州旅客鉄道",
      "network": "JR豊肥本線",
      "ref": null,
      "latitude": 33.187831,
      "longitude": 131.615276,
      "countryCode": "jp",
      "rawTags": {
        "KSJ2:LIN": "豊肥線",
        "KSJ2:STN": "敷戸",
        "name": "敷戸",
        "name:en": "Shikido",
        "name:ja": "敷戸",
        "name:ko": "시키도",
        "network": "JR豊肥本線",
        "note": "National-Land Numerical Information (Railway) 2007, MLIT Japan",
        "note:ja": "国土数値情報（鉄道データ）平成19年　国土交通省",
        "operator": "九州旅客鉄道",
        "public_transport": "station",
        "railway": "station",
        "source": "KSJ2",
        "source_ref": "http://nlftp.mlit.go.jp/ksj/jpgis/datalist/KsjTmplt-N02-v1_1.html",
        "wikidata": "Q7496590",
        "wikipedia": "ja:敷戸駅"
      }
    },
    {
      "id": "oita_station_265855237",
      "osmId": 265855237,
      "osmType": "node",
      "prefectureId": "oita",
      "type": "station",
      "subtype": "jr",
      "name": "大分大学前",
      "nameKana": null,
      "nameEn": "Ōita-Daigaku-mae",
      "operator": "九州旅客鉄道",
      "network": "JR豊肥本線",
      "ref": null,
      "latitude": 33.1769154,
      "longitude": 131.6191141,
      "countryCode": "jp",
      "rawTags": {
        "KSJ2:LIN": "豊肥線",
        "KSJ2:STN": "大分大学前",
        "alt_name:ko": "오이타다이가쿠마에",
        "name": "大分大学前",
        "name:en": "Ōita-Daigaku-mae",
        "name:ja": "大分大学前",
        "name:ko": "오이타대학앞",
        "network": "JR豊肥本線",
        "note": "National-Land Numerical Information (Railway) 2007, MLIT Japan",
        "note:ja": "国土数値情報（鉄道データ）平成19年　国土交通省",
        "operator": "九州旅客鉄道",
        "public_transport": "station",
        "railway": "station",
        "source": "KSJ2",
        "source_ref": "http://nlftp.mlit.go.jp/ksj/jpgis/datalist/KsjTmplt-N02-v1_1.html",
        "wikidata": "Q8081517",
        "wikipedia": "ja:大分大学前駅"
      }
    },
    {
      "id": "oita_station_265855482",
      "osmId": 265855482,
      "osmType": "node",
      "prefectureId": "oita",
      "type": "station",
      "subtype": "jr",
      "name": "豊後清川",
      "nameKana": null,
      "nameEn": "Bungo-Kiyokawa",
      "operator": "九州旅客鉄道",
      "network": "JR豊肥本線",
      "ref": null,
      "latitude": 32.9728125,
      "longitude": 131.5233734,
      "countryCode": "jp",
      "rawTags": {
        "KSJ2:LIN": "豊肥線",
        "KSJ2:STN": "豊後清川",
        "name": "豊後清川",
        "name:en": "Bungo-Kiyokawa",
        "name:ja": "豊後清川",
        "name:ko": "분고키요카와",
        "network": "JR豊肥本線",
        "note": "National-Land Numerical Information (Railway) 2007, MLIT Japan",
        "note:ja": "国土数値情報（鉄道データ）平成19年　国土交通省",
        "operator": "九州旅客鉄道",
        "public_transport": "station",
        "railway": "station",
        "source": "KSJ2",
        "source_ref": "http://nlftp.mlit.go.jp/ksj/jpgis/datalist/KsjTmplt-N02-v1_1.html",
        "train": "yes",
        "wikidata": "Q4997662",
        "wikipedia": "ja:豊後清川駅"
      }
    },
    {
      "id": "oita_station_265855619",
      "osmId": 265855619,
      "osmType": "node",
      "prefectureId": "oita",
      "type": "station",
      "subtype": "jr",
      "name": "緒方",
      "nameKana": null,
      "nameEn": "Ogata",
      "operator": "九州旅客鉄道",
      "network": "JR豊肥本線",
      "ref": null,
      "latitude": 32.9710592,
      "longitude": 131.4767689,
      "countryCode": "jp",
      "rawTags": {
        "KSJ2:LIN": "豊肥線",
        "KSJ2:STN": "緒方",
        "name": "緒方",
        "name:en": "Ogata",
        "name:ja": "緒方",
        "name:ko": "오가타",
        "network": "JR豊肥本線",
        "note": "National-Land Numerical Information (Railway) 2007, MLIT Japan",
        "note:ja": "国土数値情報（鉄道データ）平成19年　国土交通省",
        "operator": "九州旅客鉄道",
        "public_transport": "station",
        "railway": "station",
        "source": "KSJ2",
        "source_ref": "http://nlftp.mlit.go.jp/ksj/jpgis/datalist/KsjTmplt-N02-v1_1.html",
        "train": "yes",
        "wikidata": "Q7079847",
        "wikipedia": "ja:緒方駅"
      }
    },
    {
      "id": "oita_station_265855627",
      "osmId": 265855627,
      "osmType": "node",
      "prefectureId": "oita",
      "type": "station",
      "subtype": "jr",
      "name": "朝地",
      "nameKana": null,
      "nameEn": "Asaji",
      "operator": "九州旅客鉄道",
      "network": "JR豊肥本線",
      "ref": null,
      "latitude": 33.0042533,
      "longitude": 131.4323065,
      "countryCode": "jp",
      "rawTags": {
        "KSJ2:LIN": "豊肥線",
        "KSJ2:STN": "朝地",
        "name": "朝地",
        "name:en": "Asaji",
        "name:ja": "朝地",
        "name:ko": "아사지",
        "network": "JR豊肥本線",
        "note": "National-Land Numerical Information (Railway) 2007, MLIT Japan",
        "note:ja": "国土数値情報（鉄道データ）平成19年　国土交通省",
        "operator": "九州旅客鉄道",
        "public_transport": "station",
        "railway": "station",
        "source": "KSJ2",
        "source_ref": "http://nlftp.mlit.go.jp/ksj/jpgis/datalist/KsjTmplt-N02-v1_1.html",
        "wikidata": "Q4803411",
        "wikipedia": "ja:朝地駅"
      }
    },
    {
      "id": "oita_station_265857590",
      "osmId": 265857590,
      "osmType": "node",
      "prefectureId": "oita",
      "type": "station",
      "subtype": "jr",
      "name": "玉来",
      "nameKana": null,
      "nameEn": "Tamarai",
      "operator": "九州旅客鉄道",
      "network": "JR豊肥本線",
      "ref": null,
      "latitude": 32.9479505,
      "longitude": 131.3764367,
      "countryCode": "jp",
      "rawTags": {
        "KSJ2:LIN": "豊肥線",
        "KSJ2:STN": "玉来",
        "name": "玉来",
        "name:en": "Tamarai",
        "name:ja": "玉来",
        "name:ko": "다마라이",
        "network": "JR豊肥本線",
        "note": "National-Land Numerical Information (Railway) 2007, MLIT Japan",
        "note:ja": "国土数値情報（鉄道データ）平成19年　国土交通省",
        "operator": "九州旅客鉄道",
        "public_transport": "station",
        "railway": "station",
        "source": "KSJ2",
        "source_ref": "http://nlftp.mlit.go.jp/ksj/jpgis/datalist/KsjTmplt-N02-v1_1.html",
        "wikidata": "Q7680877",
        "wikipedia": "ja:玉来駅"
      }
    },
    {
      "id": "oita_station_265861911",
      "osmId": 265861911,
      "osmType": "node",
      "prefectureId": "oita",
      "type": "station",
      "subtype": "jr",
      "name": "豊後竹田",
      "nameKana": null,
      "nameEn": "Bungo-Taketa",
      "operator": "九州旅客鉄道",
      "network": "JR豊肥本線",
      "ref": null,
      "latitude": 32.9710455,
      "longitude": 131.3900138,
      "countryCode": "jp",
      "rawTags": {
        "KSJ2:LIN": "豊肥線",
        "KSJ2:STN": "豊後竹田",
        "internet_access": "wlan",
        "name": "豊後竹田",
        "name:en": "Bungo-Taketa",
        "name:ja": "豊後竹田",
        "name:ko": "분고타케타",
        "network": "JR豊肥本線",
        "note": "National-Land Numerical Information (Railway) 2007, MLIT Japan",
        "note:ja": "国土数値情報（鉄道データ）平成19年　国土交通省",
        "operator": "九州旅客鉄道",
        "public_transport": "station",
        "railway": "station",
        "source": "KSJ2",
        "source_ref": "http://nlftp.mlit.go.jp/ksj/jpgis/datalist/KsjTmplt-N02-v1_1.html",
        "wikidata": "Q4997670",
        "wikipedia": "ja:豊後竹田駅"
      }
    },
    {
      "id": "oita_station_265861917",
      "osmId": 265861917,
      "osmType": "node",
      "prefectureId": "oita",
      "type": "station",
      "subtype": "jr",
      "name": "豊後荻",
      "nameKana": null,
      "nameEn": "Bungo-Ogi",
      "operator": "九州旅客鉄道",
      "network": "JR豊肥本線",
      "ref": null,
      "latitude": 32.9267761,
      "longitude": 131.2978915,
      "countryCode": "jp",
      "rawTags": {
        "KSJ2:LIN": "豊肥線",
        "KSJ2:STN": "豊後荻",
        "name": "豊後荻",
        "name:en": "Bungo-Ogi",
        "name:ja": "豊後荻",
        "name:ko": "분고오기",
        "network": "JR豊肥本線",
        "note": "National-Land Numerical Information (Railway) 2007, MLIT Japan",
        "note:ja": "国土数値情報（鉄道データ）平成19年　国土交通省",
        "operator": "九州旅客鉄道",
        "public_transport": "station",
        "railway": "station",
        "source": "KSJ2",
        "source_ref": "http://nlftp.mlit.go.jp/ksj/jpgis/datalist/KsjTmplt-N02-v1_1.html",
        "wikidata": "Q4997668",
        "wikipedia": "ja:豊後荻駅"
      }
    },
    {
      "id": "oita_station_265879549",
      "osmId": 265879549,
      "osmType": "node",
      "prefectureId": "oita",
      "type": "station",
      "subtype": "jr",
      "name": "豊後中村",
      "nameKana": null,
      "nameEn": "Bungo-Nakamura",
      "operator": "九州旅客鉄道",
      "network": "JR久大線",
      "ref": null,
      "latitude": 33.2259082,
      "longitude": 131.2076595,
      "countryCode": "jp",
      "rawTags": {
        "KSJ2:LIN": "久大線",
        "KSJ2:STN": "豊後中村",
        "name": "豊後中村",
        "name:en": "Bungo-Nakamura",
        "name:ja": "豊後中村",
        "name:ko": "분고나카무라",
        "network": "JR久大線",
        "note": "National-Land Numerical Information (Railway) 2007, MLIT Japan",
        "note:ja": "国土数値情報（鉄道データ）平成19年　国土交通省",
        "operator": "九州旅客鉄道",
        "railway": "station",
        "source": "KSJ2",
        "source_ref": "http://nlftp.mlit.go.jp/ksj/jpgis/datalist/KsjTmplt-N02-v1_1.html",
        "wikidata": "Q251216",
        "wikipedia": "ja:豊後中村駅"
      }
    },
    {
      "id": "oita_station_265879882",
      "osmId": 265879882,
      "osmType": "node",
      "prefectureId": "oita",
      "type": "station",
      "subtype": "jr",
      "name": "南由布",
      "nameKana": null,
      "nameEn": "Minami-Yufu",
      "operator": "九州旅客鉄道",
      "network": "JR久大線",
      "ref": null,
      "latitude": 33.2422195,
      "longitude": 131.3334572,
      "countryCode": "jp",
      "rawTags": {
        "KSJ2:LIN": "久大線",
        "KSJ2:STN": "南由布",
        "name": "南由布",
        "name:en": "Minami-Yufu",
        "name:ja": "南由布",
        "name:ko": "미나미유후",
        "network": "JR久大線",
        "note": "National-Land Numerical Information (Railway) 2007, MLIT Japan",
        "note:ja": "国土数値情報（鉄道データ）平成19年　国土交通省",
        "operator": "九州旅客鉄道",
        "railway": "station",
        "source": "KSJ2",
        "source_ref": "http://nlftp.mlit.go.jp/ksj/jpgis/datalist/KsjTmplt-N02-v1_1.html",
        "wikidata": "Q6862994",
        "wikipedia": "ja:南由布駅"
      }
    },
    {
      "id": "oita_station_265879937",
      "osmId": 265879937,
      "osmType": "node",
      "prefectureId": "oita",
      "type": "station",
      "subtype": "jr",
      "name": "引治",
      "nameKana": null,
      "nameEn": "Hijiki",
      "operator": "九州旅客鉄道",
      "network": "JR久大線",
      "ref": null,
      "latitude": 33.2292736,
      "longitude": 131.1837895,
      "countryCode": "jp",
      "rawTags": {
        "KSJ2:LIN": "久大線",
        "KSJ2:STN": "引治",
        "name": "引治",
        "name:en": "Hijiki",
        "name:ja": "引治",
        "name:ko": "히키지",
        "network": "JR久大線",
        "note": "National-Land Numerical Information (Railway) 2007, MLIT Japan",
        "note:ja": "国土数値情報（鉄道データ）平成19年　国土交通省",
        "operator": "九州旅客鉄道",
        "railway": "station",
        "source": "KSJ2",
        "source_ref": "http://nlftp.mlit.go.jp/ksj/jpgis/datalist/KsjTmplt-N02-v1_1.html",
        "wikidata": "Q10980626",
        "wikipedia": "ja:引治駅"
      }
    },
    {
      "id": "oita_station_265880006",
      "osmId": 265880006,
      "osmType": "node",
      "prefectureId": "oita",
      "type": "station",
      "subtype": "jr",
      "name": "天神山",
      "nameKana": null,
      "nameEn": "Tenjinyama",
      "operator": "九州旅客鉄道",
      "network": "JR久大線",
      "ref": null,
      "latitude": 33.1872851,
      "longitude": 131.438453,
      "countryCode": "jp",
      "rawTags": {
        "KSJ2:LIN": "久大線",
        "KSJ2:STN": "天神山",
        "name": "天神山",
        "name:en": "Tenjinyama",
        "name:ja": "天神山",
        "name:ko": "덴진야마",
        "network": "JR久大線",
        "note": "National-Land Numerical Information (Railway) 2007, MLIT Japan",
        "note:ja": "国土数値情報（鉄道データ）平成19年　国土交通省",
        "operator": "九州旅客鉄道",
        "public_transport": "station",
        "railway": "station",
        "source": "KSJ2",
        "source_ref": "http://nlftp.mlit.go.jp/ksj/jpgis/datalist/KsjTmplt-N02-v1_1.html",
        "wikidata": "Q7699888",
        "wikipedia": "ja:天神山駅"
      }
    },
    {
      "id": "oita_station_265880142",
      "osmId": 265880142,
      "osmType": "node",
      "prefectureId": "oita",
      "type": "station",
      "subtype": "jr",
      "name": "野矢",
      "nameKana": null,
      "nameEn": "Noya",
      "operator": "九州旅客鉄道",
      "network": "JR久大線",
      "ref": null,
      "latitude": 33.2404842,
      "longitude": 131.2518509,
      "countryCode": "jp",
      "rawTags": {
        "KSJ2:LIN": "久大線",
        "KSJ2:STN": "野矢",
        "name": "野矢",
        "name:en": "Noya",
        "name:ja": "野矢",
        "name:ko": "노야",
        "network": "JR久大線",
        "note": "National-Land Numerical Information (Railway) 2007, MLIT Japan",
        "note:ja": "国土数値情報（鉄道データ）平成19年　国土交通省",
        "operator": "九州旅客鉄道",
        "public_transport": "station",
        "railway": "station",
        "source": "KSJ2",
        "source_ref": "http://nlftp.mlit.go.jp/ksj/jpgis/datalist/KsjTmplt-N02-v1_1.html",
        "wikidata": "Q10957062",
        "wikipedia": "ja:野矢駅"
      }
    },
    {
      "id": "oita_station_265880224",
      "osmId": 265880224,
      "osmType": "node",
      "prefectureId": "oita",
      "type": "station",
      "subtype": "jr",
      "name": "恵良",
      "nameKana": null,
      "nameEn": "Era",
      "operator": "九州旅客鉄道",
      "network": "JR久大線",
      "ref": null,
      "latitude": 33.2550479,
      "longitude": 131.1743422,
      "countryCode": "jp",
      "rawTags": {
        "KSJ2:LIN": "久大線",
        "KSJ2:STN": "恵良",
        "name": "恵良",
        "name:en": "Era",
        "name:ja": "恵良",
        "name:ko": "에라",
        "network": "JR久大線",
        "note": "National-Land Numerical Information (Railway) 2007, MLIT Japan",
        "note:ja": "国土数値情報（鉄道データ）平成19年　国土交通省",
        "operator": "九州旅客鉄道",
        "railway": "station",
        "source": "KSJ2",
        "source_ref": "http://nlftp.mlit.go.jp/ksj/jpgis/datalist/KsjTmplt-N02-v1_1.html",
        "wikidata": "Q5384789",
        "wikipedia": "ja:恵良駅"
      }
    },
    {
      "id": "oita_station_265880299",
      "osmId": 265880299,
      "osmType": "node",
      "prefectureId": "oita",
      "type": "station",
      "subtype": "jr",
      "name": "豊後森",
      "nameKana": null,
      "nameEn": "Bungo-Mori",
      "operator": "九州旅客鉄道",
      "network": "JR久大線",
      "ref": null,
      "latitude": 33.2828411,
      "longitude": 131.1551397,
      "countryCode": "jp",
      "rawTags": {
        "KSJ2:LIN": "久大線",
        "KSJ2:STN": "豊後森",
        "name": "豊後森",
        "name:en": "Bungo-Mori",
        "name:ja": "豊後森",
        "name:ko": "분고모리",
        "network": "JR久大線",
        "note": "National-Land Numerical Information (Railway) 2007, MLIT Japan",
        "note:ja": "国土数値情報（鉄道データ）平成19年　国土交通省",
        "operator": "九州旅客鉄道",
        "public_transport": "station",
        "railway": "station",
        "source": "KSJ2",
        "source_ref": "http://nlftp.mlit.go.jp/ksj/jpgis/datalist/KsjTmplt-N02-v1_1.html",
        "wikidata": "Q4997666",
        "wikipedia": "ja:豊後森駅"
      }
    },
    {
      "id": "oita_station_265882060",
      "osmId": 265882060,
      "osmType": "node",
      "prefectureId": "oita",
      "type": "station",
      "subtype": "jr",
      "name": "湯平",
      "nameKana": null,
      "nameEn": "Yunohira",
      "operator": "九州旅客鉄道",
      "network": "JR久大線",
      "ref": null,
      "latitude": 33.1974758,
      "longitude": 131.3539481,
      "countryCode": "jp",
      "rawTags": {
        "KSJ2:LIN": "久大線",
        "KSJ2:STN": "湯平",
        "name": "湯平",
        "name:en": "Yunohira",
        "name:ja": "湯平",
        "name:ko": "유노히라",
        "network": "JR久大線",
        "note": "National-Land Numerical Information (Railway) 2007, MLIT Japan",
        "note:ja": "国土数値情報（鉄道データ）平成19年　国土交通省",
        "operator": "九州旅客鉄道",
        "public_transport": "station",
        "railway": "station",
        "source": "KSJ2",
        "source_ref": "http://nlftp.mlit.go.jp/ksj/jpgis/datalist/KsjTmplt-N02-v1_1.html",
        "wikidata": "Q8061354",
        "wikipedia": "ja:湯平駅"
      }
    },
    {
      "id": "oita_station_265882492",
      "osmId": 265882492,
      "osmType": "node",
      "prefectureId": "oita",
      "type": "station",
      "subtype": "jr",
      "name": "庄内",
      "nameKana": null,
      "nameEn": "Shōnai",
      "operator": "九州旅客鉄道",
      "network": "JR久大線",
      "ref": null,
      "latitude": 33.1850947,
      "longitude": 131.4018344,
      "countryCode": "jp",
      "rawTags": {
        "KSJ2:LIN": "久大線",
        "KSJ2:STN": "庄内",
        "name": "庄内",
        "name:en": "Shōnai",
        "name:ja": "庄内",
        "name:ko": "쇼나이",
        "network": "JR久大線",
        "note": "National-Land Numerical Information (Railway) 2007, MLIT Japan",
        "note:ja": "国土数値情報（鉄道データ）平成19年　国土交通省",
        "operator": "九州旅客鉄道",
        "public_transport": "station",
        "railway": "station",
        "source": "KSJ2",
        "source_ref": "http://nlftp.mlit.go.jp/ksj/jpgis/datalist/KsjTmplt-N02-v1_1.html",
        "wikidata": "Q7506186",
        "wikipedia": "ja:庄内駅 (大分県)"
      }
    },
    {
      "id": "oita_station_265883552",
      "osmId": 265883552,
      "osmType": "node",
      "prefectureId": "oita",
      "type": "station",
      "subtype": "jr",
      "name": "日田",
      "nameKana": null,
      "nameEn": "Hita",
      "operator": "九州旅客鉄道",
      "network": "JR久大線",
      "ref": null,
      "latitude": 33.3172406,
      "longitude": 130.9386819,
      "countryCode": "jp",
      "rawTags": {
        "KSJ2:LIN": "久大線",
        "KSJ2:STN": "日田",
        "name": "日田",
        "name:en": "Hita",
        "name:ja": "日田",
        "name:ko": "히타",
        "network": "JR久大線",
        "note": "National-Land Numerical Information (Railway) 2007, MLIT Japan",
        "note:ja": "国土数値情報（鉄道データ）平成19年　国土交通省",
        "operator": "九州旅客鉄道",
        "railway": "station",
        "source": "KSJ2",
        "source_ref": "http://nlftp.mlit.go.jp/ksj/jpgis/datalist/KsjTmplt-N02-v1_1.html",
        "wikidata": "Q5871577",
        "wikipedia": "ja:日田駅"
      }
    },
    {
      "id": "oita_station_265884025",
      "osmId": 265884025,
      "osmType": "node",
      "prefectureId": "oita",
      "type": "station",
      "subtype": "jr",
      "name": "夜明",
      "nameKana": null,
      "nameEn": "Yoake",
      "operator": "九州旅客鉄道",
      "network": null,
      "ref": null,
      "latitude": 33.3199378,
      "longitude": 130.866061,
      "countryCode": "jp",
      "rawTags": {
        "KSJ2:STN": "夜明",
        "name": "夜明",
        "name:en": "Yoake",
        "name:ja": "夜明",
        "name:ko": "요아케",
        "operator": "九州旅客鉄道",
        "operator:en": "Kyushu Railway Company",
        "public_transport": "station",
        "railway": "station",
        "train": "yes",
        "wikidata": "Q4898235",
        "wikipedia": "ja:夜明駅"
      }
    },
    {
      "id": "oita_station_265884550",
      "osmId": 265884550,
      "osmType": "node",
      "prefectureId": "oita",
      "type": "station",
      "subtype": "jr",
      "name": "北山田",
      "nameKana": null,
      "nameEn": "Kita-Yamada",
      "operator": "九州旅客鉄道",
      "network": "JR久大線",
      "ref": null,
      "latitude": 33.282078,
      "longitude": 131.101329,
      "countryCode": "jp",
      "rawTags": {
        "KSJ2:LIN": "久大線",
        "KSJ2:STN": "北山田",
        "name": "北山田",
        "name:en": "Kita-Yamada",
        "name:ja": "北山田",
        "name:ko": "기타야마다",
        "network": "JR久大線",
        "note": "National-Land Numerical Information (Railway) 2007, MLIT Japan",
        "note:ja": "国土数値情報（鉄道データ）平成19年　国土交通省",
        "operator": "九州旅客鉄道",
        "railway": "station",
        "source": "KSJ2",
        "source_ref": "http://nlftp.mlit.go.jp/ksj/jpgis/datalist/KsjTmplt-N02-v1_1.html",
        "wikidata": "Q6417616",
        "wikipedia": "ja:北山田駅 (大分県)"
      }
    },
    {
      "id": "oita_station_265884552",
      "osmId": 265884552,
      "osmType": "node",
      "prefectureId": "oita",
      "type": "station",
      "subtype": "jr",
      "name": "光岡",
      "nameKana": null,
      "nameEn": "Teruoka",
      "operator": "九州旅客鉄道",
      "network": "JR久大線",
      "ref": null,
      "latitude": 33.3276225,
      "longitude": 130.9194994,
      "countryCode": "jp",
      "rawTags": {
        "KSJ2:LIN": "久大線",
        "KSJ2:STN": "光岡",
        "name": "光岡",
        "name:en": "Teruoka",
        "name:ja": "光岡",
        "name:ko": "데루오카",
        "network": "JR久大線",
        "note": "National-Land Numerical Information (Railway) 2007, MLIT Japan",
        "note:ja": "国土数値情報（鉄道データ）平成19年　国土交通省",
        "operator": "九州旅客鉄道",
        "public_transport": "station",
        "railway": "station",
        "source": "KSJ2",
        "source_ref": "http://nlftp.mlit.go.jp/ksj/jpgis/datalist/KsjTmplt-N02-v1_1.html",
        "wikidata": "Q7705341",
        "wikipedia": "ja:光岡駅"
      }
    },
    {
      "id": "oita_station_265884579",
      "osmId": 265884579,
      "osmType": "node",
      "prefectureId": "oita",
      "type": "station",
      "subtype": "jr",
      "name": "豊後三芳",
      "nameKana": null,
      "nameEn": "Bungo-Miyoshi",
      "operator": "九州旅客鉄道",
      "network": "JR久大線",
      "ref": null,
      "latitude": 33.305623,
      "longitude": 130.951884,
      "countryCode": "jp",
      "rawTags": {
        "KSJ2:LIN": "久大線",
        "KSJ2:STN": "豊後三芳",
        "name": "豊後三芳",
        "name:en": "Bungo-Miyoshi",
        "name:ja": "豊後三芳",
        "name:ko": "분고미요시",
        "network": "JR久大線",
        "note": "National-Land Numerical Information (Railway) 2007, MLIT Japan",
        "note:ja": "国土数値情報（鉄道データ）平成19年　国土交通省",
        "operator": "九州旅客鉄道",
        "railway": "station",
        "source": "KSJ2",
        "source_ref": "http://nlftp.mlit.go.jp/ksj/jpgis/datalist/KsjTmplt-N02-v1_1.html",
        "wikidata": "Q4997665",
        "wikipedia": "ja:豊後三芳駅"
      }
    },
    {
      "id": "oita_station_265884782",
      "osmId": 265884782,
      "osmType": "node",
      "prefectureId": "oita",
      "type": "station",
      "subtype": "jr",
      "name": "杉河内",
      "nameKana": null,
      "nameEn": "Sugikawachi",
      "operator": "九州旅客鉄道",
      "network": "JR久大線",
      "ref": null,
      "latitude": 33.2644093,
      "longitude": 131.0657798,
      "countryCode": "jp",
      "rawTags": {
        "KSJ2:LIN": "久大線",
        "KSJ2:STN": "杉河内",
        "name": "杉河内",
        "name:en": "Sugikawachi",
        "name:ja": "杉河内",
        "name:ko": "스기카와치",
        "network": "JR久大線",
        "note": "National-Land Numerical Information (Railway) 2007, MLIT Japan",
        "note:ja": "国土数値情報（鉄道データ）平成19年　国土交通省",
        "operator": "九州旅客鉄道",
        "railway": "station",
        "source": "KSJ2",
        "source_ref": "http://nlftp.mlit.go.jp/ksj/jpgis/datalist/KsjTmplt-N02-v1_1.html",
        "wikidata": "Q7635117",
        "wikipedia": "ja:杉河内駅"
      }
    },
    {
      "id": "oita_station_265887997",
      "osmId": 265887997,
      "osmType": "node",
      "prefectureId": "oita",
      "type": "station",
      "subtype": "jr",
      "name": "天ヶ瀬",
      "nameKana": null,
      "nameEn": "Amagase",
      "operator": "九州旅客鉄道",
      "network": "JR久大線",
      "ref": null,
      "latitude": 33.2549423,
      "longitude": 131.0238456,
      "countryCode": "jp",
      "rawTags": {
        "KSJ2:LIN": "久大線",
        "KSJ2:STN": "天ヶ瀬",
        "name": "天ヶ瀬",
        "name:en": "Amagase",
        "name:ja": "天ヶ瀬",
        "name:ko": "아마가세",
        "network": "JR久大線",
        "note": "National-Land Numerical Information (Railway) 2007, MLIT Japan",
        "note:ja": "国土数値情報（鉄道データ）平成19年　国土交通省",
        "operator": "九州旅客鉄道",
        "public_transport": "station",
        "railway": "station",
        "source": "KSJ2",
        "source_ref": "http://nlftp.mlit.go.jp/ksj/jpgis/datalist/KsjTmplt-N02-v1_1.html",
        "wikidata": "Q4739122",
        "wikipedia": "ja:天ケ瀬駅"
      }
    },
    {
      "id": "oita_station_265887999",
      "osmId": 265887999,
      "osmType": "node",
      "prefectureId": "oita",
      "type": "station",
      "subtype": "jr",
      "name": "豊後中川",
      "nameKana": null,
      "nameEn": "Bungo-Nakagawa",
      "operator": "九州旅客鉄道",
      "network": "JR久大線",
      "ref": null,
      "latitude": 33.284763,
      "longitude": 131.005677,
      "countryCode": "jp",
      "rawTags": {
        "KSJ2:LIN": "久大線",
        "KSJ2:STN": "豊後中川",
        "name": "豊後中川",
        "name:en": "Bungo-Nakagawa",
        "name:ja": "豊後中川",
        "name:ko": "분고나카가와",
        "network": "JR久大線",
        "note": "National-Land Numerical Information (Railway) 2007, MLIT Japan",
        "note:ja": "国土数値情報（鉄道データ）平成19年　国土交通省",
        "operator": "九州旅客鉄道",
        "railway": "station",
        "source": "KSJ2",
        "source_ref": "http://nlftp.mlit.go.jp/ksj/jpgis/datalist/KsjTmplt-N02-v1_1.html",
        "wikidata": "Q4997667",
        "wikipedia": "ja:豊後中川駅"
      }
    },
    {
      "id": "oita_ferry_terminal_622781498",
      "osmId": 622781498,
      "osmType": "node",
      "prefectureId": "oita",
      "type": "ferry_terminal",
      "subtype": null,
      "name": "大分ホーバーターミナル 跡",
      "nameKana": null,
      "nameEn": null,
      "operator": null,
      "network": null,
      "ref": null,
      "latitude": 33.254874,
      "longitude": 131.6204121,
      "countryCode": "jp",
      "rawTags": {
        "amenity": "ferry_terminal",
        "ferry": "yes",
        "historic": "yes",
        "name": "大分ホーバーターミナル 跡",
        "note": "Closed on 2009/11",
        "public_transport": "station"
      }
    },
    {
      "id": "oita_airport_711608508",
      "osmId": 711608508,
      "osmType": "node",
      "prefectureId": "oita",
      "type": "airport",
      "subtype": "domestic",
      "name": "大分県央空港",
      "nameKana": null,
      "nameEn": "Oita-Kenou Airport",
      "operator": null,
      "network": null,
      "ref": null,
      "latitude": 33.0265695,
      "longitude": 131.5054495,
      "countryCode": "jp",
      "rawTags": {
        "KSJ2:AAC": "44212",
        "KSJ2:AAC_label": "大分県, *",
        "KSJ2:AD2": "5",
        "KSJ2:AD2_label": "都道府県",
        "KSJ2:ARP": "33.0261111111 131.5055555556",
        "KSJ2:ATB": "33.0277777800 131.5024958000",
        "KSJ2:CLT": "16 30",
        "KSJ2:COA": "その他の公共飛行場",
        "KSJ2:CompositeCurve": "cv72Airport",
        "KSJ2:DSA": "特定飛行場以外",
        "KSJ2:INP": "5",
        "KSJ2:INP_label": "都道府県",
        "KSJ2:IUC": "供用中",
        "KSJ2:NA3": "大分県央飛行場",
        "KSJ2:OPT": "09 00",
        "KSJ2:REF": "3",
        "KSJ2:REF_label": "定期便が就航していない場合",
        "KSJ2:airport_id": "cf02_50",
        "KSJ2:runways": "800 25",
        "KSJ2:survey_year_LFD_NPD": "1981 0 3,1982 0 3,1983 0 0,1984 0 0,1985 0 0,1986 0 0,1987 0 0,1988 0 0,1989 0 0,1990 0 0,1991 0 0,1992 0 0,1993 0 0,1994 0 0,1995 0 0,1996 0 0,1997 2 0,1998 3 0,1999 4 0,2000 3 0,2001 3 0,2002 3 0,2003 3 0,2004 3 0,2005 3 0",
        "aeroway": "aerodrome",
        "layer": "1",
        "name": "大分県央空港",
        "name:en": "Oita-Kenou Airport",
        "name:ja": "大分県央空港",
        "name:ja_rm": "Oita-Kenou Hikojo",
        "note": "National-Land Numerical Information (Airport) 2007, MLIT Japan",
        "note:ja": "国土数値情報（空港データ）平成19年　国土交通省",
        "source": "KSJ2",
        "source_ref": "http://nlftp.mlit.go.jp/ksj/jpgis/datalist/KsjTmplt-C28-v1_1.html",
        "wikidata": "Q10933743"
      }
    },
    {
      "id": "oita_ferry_terminal_929957135",
      "osmId": 929957135,
      "osmType": "node",
      "prefectureId": "oita",
      "type": "ferry_terminal",
      "subtype": null,
      "name": "国道九四フェリー",
      "nameKana": null,
      "nameEn": null,
      "operator": null,
      "network": null,
      "ref": null,
      "latitude": 33.2499489,
      "longitude": 131.8652583,
      "countryCode": "jp",
      "rawTags": {
        "amenity": "ferry_terminal",
        "name": "国道九四フェリー"
      }
    },
    {
      "id": "oita_station_1058466623",
      "osmId": 1058466623,
      "osmType": "node",
      "prefectureId": "oita",
      "type": "station",
      "subtype": "private",
      "name": "乙原",
      "nameKana": "おとばる",
      "nameEn": null,
      "operator": null,
      "network": null,
      "ref": null,
      "latitude": 33.2746865,
      "longitude": 131.4830977,
      "countryCode": "jp",
      "rawTags": {
        "KSJ2:LIN": "別府ラクテンチケーブル線",
        "KSJ2:RAS": "eb03_526",
        "KSJ2:STN": "乙原",
        "KSJ2:segment": "eb02_974",
        "name": "乙原",
        "name:ja": "乙原",
        "name:ja-Hira": "おとばる",
        "name:ko": "오토바루",
        "note": "National-Land Numerical Information (Railway) 2007, MLIT Japan",
        "note:ja": "国土数値情報（鉄道データ）平成19年　国土交通省",
        "public_transport": "station",
        "railway": "station",
        "source": "KSJ2",
        "source_ref": "http://nlftp.mlit.go.jp/ksj/jpgis/datalist/KsjTmplt-N02-v1_1.html",
        "wikidata": "Q4890933",
        "wikipedia": "ja:別府ラクテンチケーブル線"
      }
    },
    {
      "id": "oita_station_1058466677",
      "osmId": 1058466677,
      "osmType": "node",
      "prefectureId": "oita",
      "type": "station",
      "subtype": "private",
      "name": "雲泉寺",
      "nameKana": "うんせんじ",
      "nameEn": null,
      "operator": null,
      "network": null,
      "ref": null,
      "latitude": 33.2748884,
      "longitude": 131.4856133,
      "countryCode": "jp",
      "rawTags": {
        "KSJ2:LIN": "別府ラクテンチケーブル線",
        "KSJ2:RAS": "eb03_527",
        "KSJ2:STN": "雲泉寺",
        "KSJ2:segment": "eb02_976",
        "name": "雲泉寺",
        "name:ja": "雲泉寺",
        "name:ja-Hira": "うんせんじ",
        "name:ko": "운센지",
        "note": "National-Land Numerical Information (Railway) 2007, MLIT Japan",
        "note:ja": "国土数値情報（鉄道データ）平成19年　国土交通省",
        "public_transport": "station",
        "railway": "station",
        "source": "KSJ2",
        "source_ref": "http://nlftp.mlit.go.jp/ksj/jpgis/datalist/KsjTmplt-N02-v1_1.html",
        "wikidata": "Q4890933",
        "wikipedia": "ja:別府ラクテンチケーブル線"
      }
    },
    {
      "id": "oita_ferry_terminal_1441444630",
      "osmId": 1441444630,
      "osmType": "node",
      "prefectureId": "oita",
      "type": "ferry_terminal",
      "subtype": null,
      "name": "別府港",
      "nameKana": null,
      "nameEn": "Beppu Port",
      "operator": null,
      "network": null,
      "ref": null,
      "latitude": 33.30014,
      "longitude": 131.5035995,
      "countryCode": "jp",
      "rawTags": {
        "amenity": "ferry_terminal",
        "ferry": "yes",
        "local_ref": "2",
        "name": "別府港",
        "name:en": "Beppu Port",
        "name:ja-Latn": "Beppu-ko",
        "public_transport": "stop_position"
      }
    },
    {
      "id": "oita_ferry_terminal_1891313095",
      "osmId": 1891313095,
      "osmType": "node",
      "prefectureId": "oita",
      "type": "ferry_terminal",
      "subtype": null,
      "name": "臼杵港",
      "nameKana": null,
      "nameEn": "Usuki Port",
      "operator": null,
      "network": null,
      "ref": null,
      "latitude": 33.1264865,
      "longitude": 131.8105296,
      "countryCode": "jp",
      "rawTags": {
        "amenity": "ferry_terminal",
        "ferry": "yes",
        "name": "臼杵港",
        "name:en": "Usuki Port",
        "name:ja-Latn": "Usuki-ko",
        "public_transport": "stop_position",
        "wikidata": "Q11613278",
        "wikipedia": "ja:臼杵港"
      }
    },
    {
      "id": "oita_bus_terminal_2518355698",
      "osmId": 2518355698,
      "osmType": "node",
      "prefectureId": "oita",
      "type": "bus_terminal",
      "subtype": null,
      "name": "別府",
      "nameKana": null,
      "nameEn": "Beppu",
      "operator": null,
      "network": null,
      "ref": null,
      "latitude": 33.2797476,
      "longitude": 131.4999612,
      "countryCode": "jp",
      "rawTags": {
        "amenity": "bus_station",
        "bus": "yes",
        "name": "別府",
        "name:en": "Beppu",
        "name:ja": "別府",
        "name:ko": "벳푸 역",
        "public_transport": "station",
        "wheelchair": "yes"
      }
    },
    {
      "id": "oita_ferry_terminal_3804552957",
      "osmId": 3804552957,
      "osmType": "node",
      "prefectureId": "oita",
      "type": "ferry_terminal",
      "subtype": null,
      "name": "竹田津港FT",
      "nameKana": null,
      "nameEn": null,
      "operator": null,
      "network": null,
      "ref": null,
      "latitude": 33.6787434,
      "longitude": 131.5654431,
      "countryCode": "jp",
      "rawTags": {
        "amenity": "ferry_terminal",
        "ferry": "yes",
        "name": "竹田津港FT",
        "public_transport": "station"
      }
    },
    {
      "id": "oita_ferry_terminal_4148611529",
      "osmId": 4148611529,
      "osmType": "node",
      "prefectureId": "oita",
      "type": "ferry_terminal",
      "subtype": null,
      "name": "西大分港フェリーターミナル",
      "nameKana": null,
      "nameEn": "Oita Port Ferry Terminal",
      "operator": null,
      "network": null,
      "ref": null,
      "latitude": 33.2461578,
      "longitude": 131.5885865,
      "countryCode": "jp",
      "rawTags": {
        "amenity": "ferry_terminal",
        "ferry": "yes",
        "name": "西大分港フェリーターミナル",
        "name:en": "Oita Port Ferry Terminal",
        "public_transport": "station",
        "source": "Bing"
      }
    },
    {
      "id": "oita_bus_terminal_4370542889",
      "osmId": 4370542889,
      "osmType": "node",
      "prefectureId": "oita",
      "type": "bus_terminal",
      "subtype": null,
      "name": "Bugotakada Bus Station",
      "nameKana": null,
      "nameEn": null,
      "operator": null,
      "network": null,
      "ref": null,
      "latitude": 33.5565395,
      "longitude": 131.4376412,
      "countryCode": "jp",
      "rawTags": {
        "amenity": "bus_station",
        "name": "Bugotakada Bus Station"
      }
    },
    {
      "id": "oita_bus_terminal_4646487189",
      "osmId": 4646487189,
      "osmType": "node",
      "prefectureId": "oita",
      "type": "bus_terminal",
      "subtype": null,
      "name": "由布院駅前バスセンター",
      "nameKana": null,
      "nameEn": "Yufuin Bus Center",
      "operator": "亀の井バス",
      "network": null,
      "ref": null,
      "latitude": 33.262957,
      "longitude": 131.3555458,
      "countryCode": "jp",
      "rawTags": {
        "amenity": "bus_station",
        "bus": "yes",
        "name": "由布院駅前バスセンター",
        "name:en": "Yufuin Bus Center",
        "name:ko": "유후인 버스 정류장",
        "operator": "亀の井バス",
        "public_transport": "station"
      }
    },
    {
      "id": "oita_ferry_terminal_5704353121",
      "osmId": 5704353121,
      "osmType": "node",
      "prefectureId": "oita",
      "type": "ferry_terminal",
      "subtype": null,
      "name": "姫島港フェリー乗り場",
      "nameKana": null,
      "nameEn": "Himeshima Port Ferry Terminal",
      "operator": null,
      "network": null,
      "ref": null,
      "latitude": 33.7217697,
      "longitude": 131.6489599,
      "countryCode": "jp",
      "rawTags": {
        "addr:city": "Himeshima",
        "addr:postcode": "872-1501",
        "amenity": "ferry_terminal",
        "ferry": "yes",
        "name": "姫島港フェリー乗り場",
        "name:en": "Himeshima Port Ferry Terminal",
        "public_transport": "station",
        "toilets:wheelchair": "yes",
        "wheelchair": "limited",
        "wheelchair:description": "２階建。ＥＶは無く、階段のみ。"
      }
    },
    {
      "id": "oita_bus_terminal_5720891321",
      "osmId": 5720891321,
      "osmType": "node",
      "prefectureId": "oita",
      "type": "bus_terminal",
      "subtype": null,
      "name": "日田バスセンター",
      "nameKana": null,
      "nameEn": "Hita Bus Center",
      "operator": null,
      "network": null,
      "ref": null,
      "latitude": 33.3163097,
      "longitude": 130.9380027,
      "countryCode": "jp",
      "rawTags": {
        "amenity": "bus_station",
        "name": "日田バスセンター",
        "name:en": "Hita Bus Center"
      }
    },
    {
      "id": "oita_station_6063546666",
      "osmId": 6063546666,
      "osmType": "node",
      "prefectureId": "oita",
      "type": "station",
      "subtype": "jr",
      "name": "大分",
      "nameKana": null,
      "nameEn": "Ōita",
      "operator": "九州旅客鉄道",
      "network": null,
      "ref": null,
      "latitude": 33.2326262,
      "longitude": 131.6060258,
      "countryCode": "jp",
      "rawTags": {
        "name": "大分",
        "name:de": "Ōita",
        "name:en": "Ōita",
        "name:ja": "大分",
        "name:ko": "오이타",
        "note": "National-Land Numerical Information (Railway) 2007, MLIT Japan",
        "operator": "九州旅客鉄道",
        "operator:ja": "九州旅客鉄道",
        "public_transport": "station",
        "railway": "station",
        "source": "KSJ2",
        "source_ref": "http://nlftp.mlit.go.jp/ksj/jpgis/datalist/KsjTmplt-N02-v1_1.html",
        "wikidata": "Q861542",
        "wikipedia": "ja:大分駅"
      }
    },
    {
      "id": "oita_station_6374733138",
      "osmId": 6374733138,
      "osmType": "node",
      "prefectureId": "oita",
      "type": "station",
      "subtype": "jr",
      "name": "立石",
      "nameKana": null,
      "nameEn": "Tateishi",
      "operator": "九州旅客鉄道",
      "network": "JR日豊線",
      "ref": null,
      "latitude": 33.4817913,
      "longitude": 131.4781536,
      "countryCode": "jp",
      "rawTags": {
        "KSJ2:LIN": "日豊線",
        "KSJ2:STN": "立石",
        "name": "立石",
        "name:en": "Tateishi",
        "name:ja": "立石",
        "name:ko": "다테이시",
        "network": "JR日豊線",
        "note": "National-Land Numerical Information (Railway) 2007, MLIT Japan",
        "note:ja": "国土数値情報（鉄道データ）平成19年　国土交通省",
        "operator": "九州旅客鉄道",
        "railway": "station",
        "source": "KSJ2",
        "source_ref": "http://nlftp.mlit.go.jp/ksj/jpgis/datalist/KsjTmplt-N02-v1_1.html",
        "wikidata": "Q5360312",
        "wikipedia": "ja:立石駅"
      }
    },
    {
      "id": "oita_ferry_terminal_6616474269",
      "osmId": 6616474269,
      "osmType": "node",
      "prefectureId": "oita",
      "type": "ferry_terminal",
      "subtype": null,
      "name": "姫島港FT",
      "nameKana": null,
      "nameEn": null,
      "operator": null,
      "network": null,
      "ref": null,
      "latitude": 33.722032,
      "longitude": 131.6485945,
      "countryCode": "jp",
      "rawTags": {
        "amenity": "ferry_terminal",
        "ferry": "yes",
        "name": "姫島港FT",
        "public_transport": "stop_position"
      }
    },
    {
      "id": "oita_ferry_terminal_6616474271",
      "osmId": 6616474271,
      "osmType": "node",
      "prefectureId": "oita",
      "type": "ferry_terminal",
      "subtype": null,
      "name": "伊美港FT",
      "nameKana": null,
      "nameEn": null,
      "operator": null,
      "network": null,
      "ref": null,
      "latitude": 33.6871865,
      "longitude": 131.6001413,
      "countryCode": "jp",
      "rawTags": {
        "amenity": "ferry_terminal",
        "name": "伊美港FT"
      }
    },
    {
      "id": "oita_station_6844928678",
      "osmId": 6844928678,
      "osmType": "node",
      "prefectureId": "oita",
      "type": "station",
      "subtype": "jr",
      "name": "西大分",
      "nameKana": "にしおおいた",
      "nameEn": "Nishi-Ōita",
      "operator": "九州旅客鉄道",
      "network": "JR日豊線",
      "ref": null,
      "latitude": 33.2448196,
      "longitude": 131.5830897,
      "countryCode": "jp",
      "rawTags": {
        "KSJ2:LIN": "日豊線",
        "KSJ2:STN": "西大分",
        "name": "西大分",
        "name:en": "Nishi-Ōita",
        "name:ja": "西大分",
        "name:ja-Hira": "にしおおいた",
        "name:ko": "니시오이타",
        "network": "JR日豊線",
        "note": "National-Land Numerical Information (Railway) 2007, MLIT Japan",
        "note:ja": "国土数値情報（鉄道データ）平成19年 国土交通省",
        "operator": "九州旅客鉄道",
        "operator:ja": "九州旅客鉄道",
        "public_transport": "station",
        "railway": "station",
        "source": "KSJ2",
        "source_ref": "http://nlftp.mlit.go.jp/ksj/jpgis/datalist/KsjTmplt-N02-v1_1.html",
        "wikidata": "Q5359608",
        "wikipedia": "ja:西大分駅"
      }
    },
    {
      "id": "oita_station_6848959287",
      "osmId": 6848959287,
      "osmType": "node",
      "prefectureId": "oita",
      "type": "station",
      "subtype": "jr",
      "name": "高城",
      "nameKana": null,
      "nameEn": "Takajō",
      "operator": "九州旅客鉄道",
      "network": "JR日豊線",
      "ref": null,
      "latitude": 33.2428669,
      "longitude": 131.6558164,
      "countryCode": "jp",
      "rawTags": {
        "KSJ2:LIN": "日豊線",
        "KSJ2:STN": "高城",
        "addr:block_number": "219",
        "addr:city": "大分市",
        "addr:province": "大分県",
        "addr:quarter": "高城新町",
        "name": "高城",
        "name:en": "Takajō",
        "name:ja": "高城",
        "name:ko": "다카조",
        "network": "JR日豊線",
        "note": "National-Land Numerical Information (Railway) 2007, MLIT Japan",
        "note:ja": "国土数値情報（鉄道データ）平成19年　国土交通省",
        "operator": "九州旅客鉄道",
        "public_transport": "station",
        "railway": "station",
        "source": "KSJ2;survey",
        "source_ref": "http://nlftp.mlit.go.jp/ksj/jpgis/datalist/KsjTmplt-N02-v1_1.html",
        "train": "yes",
        "wheelchair": "no",
        "wikidata": "Q5359485",
        "wikipedia": "ja:高城駅"
      }
    },
    {
      "id": "oita_station_6851303346",
      "osmId": 6851303346,
      "osmType": "node",
      "prefectureId": "oita",
      "type": "station",
      "subtype": "jr",
      "name": "津久見",
      "nameKana": null,
      "nameEn": "Tsukumi",
      "operator": "九州旅客鉄道",
      "network": "JR日豊線",
      "ref": null,
      "latitude": 33.0728567,
      "longitude": 131.8634127,
      "countryCode": "jp",
      "rawTags": {
        "KSJ2:LIN": "日豊線",
        "KSJ2:STN": "津久見",
        "name": "津久見",
        "name:en": "Tsukumi",
        "name:ja": "津久見",
        "name:ko": "쓰쿠미",
        "network": "JR日豊線",
        "note": "National-Land Numerical Information (Railway) 2007, MLIT Japan",
        "note:ja": "国土数値情報（鉄道データ）平成19年　国土交通省",
        "operator": "九州旅客鉄道",
        "public_transport": "station",
        "railway": "station",
        "source": "KSJ2",
        "source_ref": "http://nlftp.mlit.go.jp/ksj/jpgis/datalist/KsjTmplt-N02-v1_1.html",
        "wikidata": "Q5359003",
        "wikipedia": "ja:津久見駅"
      }
    },
    {
      "id": "oita_station_6868349274",
      "osmId": 6868349274,
      "osmType": "node",
      "prefectureId": "oita",
      "type": "station",
      "subtype": "jr",
      "name": "亀川",
      "nameKana": null,
      "nameEn": "Kamegawa",
      "operator": "九州旅客鉄道",
      "network": "JR日豊線",
      "ref": null,
      "latitude": 33.3314568,
      "longitude": 131.4929667,
      "countryCode": "jp",
      "rawTags": {
        "KSJ2:LIN": "日豊線",
        "KSJ2:STN": "亀川",
        "name": "亀川",
        "name:en": "Kamegawa",
        "name:ja": "亀川",
        "name:ko": "가메가와",
        "network": "JR日豊線",
        "note": "National-Land Numerical Information (Railway) 2007, MLIT Japan",
        "note:ja": "国土数値情報（鉄道データ）平成19年 国土交通省",
        "operator": "九州旅客鉄道",
        "public_transport": "station",
        "railway": "station",
        "source": "KSJ2",
        "source_ref": "http://nlftp.mlit.go.jp/ksj/jpgis/datalist/KsjTmplt-N02-v1_1.html",
        "wheelchair": "yes",
        "wikidata": "Q5359653",
        "wikipedia": "ja:亀川駅"
      }
    },
    {
      "id": "oita_station_7005135171",
      "osmId": 7005135171,
      "osmType": "node",
      "prefectureId": "oita",
      "type": "station",
      "subtype": "jr",
      "name": "臼杵",
      "nameKana": null,
      "nameEn": "Usuki",
      "operator": "九州旅客鉄道",
      "network": "JR日豊線",
      "ref": null,
      "latitude": 33.1186021,
      "longitude": 131.807899,
      "countryCode": "jp",
      "rawTags": {
        "KSJ2:LIN": "日豊線",
        "KSJ2:STN": "臼杵",
        "name": "臼杵",
        "name:en": "Usuki",
        "name:ja": "臼杵",
        "name:ko": "우스키",
        "network": "JR日豊線",
        "operator": "九州旅客鉄道",
        "operator:ja": "九州旅客鉄道",
        "public_transport": "station",
        "railway": "station",
        "wikidata": "Q5358999",
        "wikipedia": "ja:臼杵駅"
      }
    },
    {
      "id": "oita_station_7005170517",
      "osmId": 7005170517,
      "osmType": "node",
      "prefectureId": "oita",
      "type": "station",
      "subtype": "jr",
      "name": "熊崎",
      "nameKana": null,
      "nameEn": "Kumasaki",
      "operator": "九州旅客鉄道",
      "network": "JR日豊線",
      "ref": null,
      "latitude": 33.1360879,
      "longitude": 131.7875907,
      "countryCode": "jp",
      "rawTags": {
        "KSJ2:LIN": "日豊線",
        "KSJ2:STN": "熊崎",
        "name": "熊崎",
        "name:en": "Kumasaki",
        "name:ja": "熊崎",
        "name:ko": "구마사키",
        "network": "JR日豊線",
        "operator": "九州旅客鉄道",
        "operator:ja": "九州旅客鉄道",
        "public_transport": "station",
        "railway": "station",
        "wikidata": "Q5358533",
        "wikipedia": "ja:熊崎駅"
      }
    },
    {
      "id": "oita_station_7005172286",
      "osmId": 7005172286,
      "osmType": "node",
      "prefectureId": "oita",
      "type": "station",
      "subtype": "jr",
      "name": "坂ノ市",
      "nameKana": null,
      "nameEn": "Sakanoichi",
      "operator": "九州旅客鉄道",
      "network": null,
      "ref": null,
      "latitude": 33.2367537,
      "longitude": 131.7519522,
      "countryCode": "jp",
      "rawTags": {
        "KSJ2:LIN": "日豊線",
        "KSJ2:STN": "坂ノ市",
        "addr:block_number": "9",
        "addr:city": "大分市",
        "addr:housenumber": "34",
        "addr:neighbourhood": "一丁目",
        "addr:province": "大分県",
        "addr:quarter": "坂ノ市中央",
        "internet_access": "no",
        "name": "坂ノ市",
        "name:en": "Sakanoichi",
        "name:ja": "坂ノ市",
        "name:ko": "사카노이치",
        "operator": "九州旅客鉄道",
        "public_transport": "station",
        "railway": "station",
        "train": "yes",
        "wikidata": "Q5359526",
        "wikipedia": "ja:坂ノ市駅"
      }
    },
    {
      "id": "oita_bus_terminal_7076591294",
      "osmId": 7076591294,
      "osmType": "node",
      "prefectureId": "oita",
      "type": "bus_terminal",
      "subtype": null,
      "name": "亀の井 北浜バスセンター",
      "nameKana": null,
      "nameEn": "Kamenoi Kitahama Bus Center",
      "operator": null,
      "network": null,
      "ref": null,
      "latitude": 33.2803089,
      "longitude": 131.5063187,
      "countryCode": "jp",
      "rawTags": {
        "amenity": "bus_station",
        "bus": "yes",
        "name": "亀の井 北浜バスセンター",
        "name:en": "Kamenoi Kitahama Bus Center",
        "name:ja_rm": "Kamenoi Kitahama Basu Sentā",
        "public_transport": "station",
        "wheelchair": "yes"
      }
    },
    {
      "id": "oita_station_7089994866",
      "osmId": 7089994866,
      "osmType": "node",
      "prefectureId": "oita",
      "type": "station",
      "subtype": "jr",
      "name": "上臼杵",
      "nameKana": null,
      "nameEn": "Kami-Usuki",
      "operator": "九州旅客鉄道",
      "network": null,
      "ref": null,
      "latitude": 33.1125465,
      "longitude": 131.7929256,
      "countryCode": "jp",
      "rawTags": {
        "KSJ2:LIN": "日豊線",
        "KSJ2:STN": "上臼杵",
        "name": "上臼杵",
        "name:en": "Kami-Usuki",
        "name:ja": "上臼杵",
        "name:ko": "가미우스키",
        "operator": "九州旅客鉄道",
        "public_transport": "station",
        "railway": "station",
        "wikidata": "Q6357203",
        "wikipedia": "ja:上臼杵駅"
      }
    },
    {
      "id": "oita_station_7094116654",
      "osmId": 7094116654,
      "osmType": "node",
      "prefectureId": "oita",
      "type": "station",
      "subtype": "jr",
      "name": "牧",
      "nameKana": null,
      "nameEn": "Maki",
      "operator": "九州旅客鉄道",
      "network": "JR日豊線",
      "ref": null,
      "latitude": 33.2370756,
      "longitude": 131.6377169,
      "countryCode": "jp",
      "rawTags": {
        "KSJ2:LIN": "日豊線",
        "KSJ2:STN": "牧",
        "name": "牧",
        "name:en": "Maki",
        "name:ja": "牧",
        "name:ko": "마키",
        "network": "JR日豊線",
        "operator": "九州旅客鉄道",
        "public_transport": "station",
        "railway": "station",
        "wikidata": "Q5359391",
        "wikipedia": "ja:牧駅 (大分県)"
      }
    },
    {
      "id": "oita_station_7096755047",
      "osmId": 7096755047,
      "osmType": "node",
      "prefectureId": "oita",
      "type": "station",
      "subtype": "jr",
      "name": "鶴崎",
      "nameKana": null,
      "nameEn": "Tsurusaki",
      "operator": "九州旅客鉄道",
      "network": "JR日豊線",
      "ref": null,
      "latitude": 33.2427592,
      "longitude": 131.6869622,
      "countryCode": "jp",
      "rawTags": {
        "KSJ2:LIN": "日豊線",
        "KSJ2:STN": "鶴崎",
        "name": "鶴崎",
        "name:en": "Tsurusaki",
        "name:ja": "鶴崎",
        "name:ko": "쓰루사키",
        "network": "JR日豊線",
        "note": "National-Land Numerical Information (Railway) 2007, MLIT Japan",
        "note:ja": "国土数値情報（鉄道データ）平成19年　国土交通省",
        "operator": "九州旅客鉄道",
        "public_transport": "station",
        "railway": "station",
        "source": "KSJ2",
        "source_ref": "http://nlftp.mlit.go.jp/ksj/jpgis/datalist/KsjTmplt-N02-v1_1.html",
        "wikidata": "Q5359663",
        "wikipedia": "ja:鶴崎駅"
      }
    },
    {
      "id": "oita_station_7678419561",
      "osmId": 7678419561,
      "osmType": "node",
      "prefectureId": "oita",
      "type": "station",
      "subtype": "jr",
      "name": "大在",
      "nameKana": null,
      "nameEn": "Ōzai",
      "operator": "九州旅客鉄道",
      "network": "JR日豊線",
      "ref": null,
      "latitude": 33.2439896,
      "longitude": 131.7203075,
      "countryCode": "jp",
      "rawTags": {
        "KSJ2:LIN": "日豊線",
        "KSJ2:STN": "大在",
        "name": "大在",
        "name:en": "Ōzai",
        "name:ja": "大在",
        "name:ko": "오자이",
        "network": "JR日豊線",
        "note": "National-Land Numerical Information (Railway) 2007, MLIT Japan",
        "note:ja": "国土数値情報（鉄道データ）平成19年　国土交通省",
        "operator": "九州旅客鉄道",
        "public_transport": "station",
        "railway": "station",
        "source": "KSJ2",
        "source_ref": "http://nlftp.mlit.go.jp/ksj/jpgis/datalist/KsjTmplt-N02-v1_1.html",
        "wikidata": "Q5359540",
        "wikipedia": "ja:大在駅"
      }
    },
    {
      "id": "oita_airport_7875569714",
      "osmId": 7875569714,
      "osmType": "node",
      "prefectureId": "oita",
      "type": "airport",
      "subtype": "domestic",
      "name": "久住滑空場",
      "nameKana": null,
      "nameEn": null,
      "operator": "特定非営利活動法人九州グライダースポーツ連盟",
      "network": null,
      "ref": null,
      "latitude": 33.0345084,
      "longitude": 131.2336315,
      "countryCode": "jp",
      "rawTags": {
        "aeroway": "aerodrome",
        "name": "久住滑空場",
        "operator": "特定非営利活動法人九州グライダースポーツ連盟",
        "operator:type": "community"
      }
    },
    {
      "id": "oita_station_8079817410",
      "osmId": 8079817410,
      "osmType": "node",
      "prefectureId": "oita",
      "type": "station",
      "subtype": "jr",
      "name": "小野屋",
      "nameKana": null,
      "nameEn": "Onoya",
      "operator": "九州旅客鉄道",
      "network": "JR久大線",
      "ref": null,
      "latitude": 33.1852181,
      "longitude": 131.4524125,
      "countryCode": "jp",
      "rawTags": {
        "KSJ2:LIN": "久大線",
        "KSJ2:STN": "小野屋",
        "name": "小野屋",
        "name:en": "Onoya",
        "name:ja": "小野屋",
        "name:ko": "오노야",
        "network": "JR久大線",
        "note": "National-Land Numerical Information (Railway) 2007, MLIT Japan",
        "note:ja": "国土数値情報（鉄道データ）平成19年　国土交通省",
        "operator": "九州旅客鉄道",
        "public_transport": "station",
        "railway": "station",
        "source": "KSJ2",
        "source_ref": "http://nlftp.mlit.go.jp/ksj/jpgis/datalist/KsjTmplt-N02-v1_1.html",
        "wikidata": "Q7094525",
        "wikipedia": "ja:小野屋駅"
      }
    },
    {
      "id": "oita_station_8079939850",
      "osmId": 8079939850,
      "osmType": "node",
      "prefectureId": "oita",
      "type": "station",
      "subtype": "jr",
      "name": "豊後国分",
      "nameKana": null,
      "nameEn": "Bungo-Kobuku",
      "operator": "九州旅客鉄道",
      "network": "JR久大線",
      "ref": null,
      "latitude": 33.1947847,
      "longitude": 131.5509582,
      "countryCode": "jp",
      "rawTags": {
        "KSJ2:LIN": "久大線",
        "KSJ2:STN": "豊後国分",
        "name": "豊後国分",
        "name:en": "Bungo-Kobuku",
        "name:ja": "豊後国分",
        "name:ko": "분고코쿠부",
        "network": "JR久大線",
        "note": "National-Land Numerical Information (Railway) 2007, MLIT Japan",
        "note:ja": "国土数値情報（鉄道データ）平成19年　国土交通省",
        "operator": "九州旅客鉄道",
        "public_transport": "station",
        "railway": "station",
        "source": "KSJ2",
        "source_ref": "http://nlftp.mlit.go.jp/ksj/jpgis/datalist/KsjTmplt-N02-v1_1.html",
        "wikidata": "Q4997663",
        "wikipedia": "ja:豊後国分駅"
      }
    },
    {
      "id": "oita_station_8079939858",
      "osmId": 8079939858,
      "osmType": "node",
      "prefectureId": "oita",
      "type": "station",
      "subtype": "jr",
      "name": "向之原",
      "nameKana": null,
      "nameEn": "Mukainoharu",
      "operator": "九州旅客鉄道",
      "network": "JR久大線",
      "ref": null,
      "latitude": 33.1966802,
      "longitude": 131.5140831,
      "countryCode": "jp",
      "rawTags": {
        "KSJ2:LIN": "久大線",
        "KSJ2:STN": "向之原",
        "name": "向之原",
        "name:en": "Mukainoharu",
        "name:ja": "向之原",
        "name:ko": "무카이노하루",
        "network": "JR久大線",
        "note": "National-Land Numerical Information (Railway) 2007, MLIT Japan",
        "note:ja": "国土数値情報（鉄道データ）平成19年　国土交通省",
        "operator": "九州旅客鉄道",
        "public_transport": "station",
        "railway": "station",
        "source": "KSJ2",
        "source_ref": "http://nlftp.mlit.go.jp/ksj/jpgis/datalist/KsjTmplt-N02-v1_1.html",
        "wikidata": "Q6933389",
        "wikipedia": "ja:向之原駅"
      }
    },
    {
      "id": "oita_station_8079939863",
      "osmId": 8079939863,
      "osmType": "node",
      "prefectureId": "oita",
      "type": "station",
      "subtype": "jr",
      "name": "鬼瀬",
      "nameKana": null,
      "nameEn": "Onigase",
      "operator": "九州旅客鉄道",
      "network": "JR久大線",
      "ref": null,
      "latitude": 33.1953862,
      "longitude": 131.4858824,
      "countryCode": "jp",
      "rawTags": {
        "KSJ2:LIN": "久大線",
        "KSJ2:STN": "鬼瀬",
        "name": "鬼瀬",
        "name:en": "Onigase",
        "name:ja": "鬼瀬",
        "name:ko": "오니가세",
        "network": "JR久大線",
        "note": "National-Land Numerical Information (Railway) 2007, MLIT Japan",
        "note:ja": "国土数値情報（鉄道データ）平成19年　国土交通省",
        "operator": "九州旅客鉄道",
        "public_transport": "station",
        "railway": "station",
        "source": "KSJ2",
        "source_ref": "http://nlftp.mlit.go.jp/ksj/jpgis/datalist/KsjTmplt-N02-v1_1.html",
        "wikidata": "Q7093897",
        "wikipedia": "ja:鬼瀬駅"
      }
    },
    {
      "id": "oita_station_8079987242",
      "osmId": 8079987242,
      "osmType": "node",
      "prefectureId": "oita",
      "type": "station",
      "subtype": "jr",
      "name": "賀来",
      "nameKana": null,
      "nameEn": "Kaku",
      "operator": "九州旅客鉄道",
      "network": "JR久大線",
      "ref": null,
      "latitude": 33.212969,
      "longitude": 131.5622885,
      "countryCode": "jp",
      "rawTags": {
        "KSJ2:LIN": "久大線",
        "KSJ2:STN": "賀来",
        "name": "賀来",
        "name:en": "Kaku",
        "name:ja": "賀来",
        "name:ko": "가쿠",
        "network": "JR久大線",
        "note": "National-Land Numerical Information (Railway) 2007, MLIT Japan",
        "note:ja": "国土数値情報（鉄道データ）平成19年　国土交通省",
        "operator": "九州旅客鉄道",
        "public_transport": "station",
        "railway": "station",
        "source": "KSJ2",
        "source_ref": "http://nlftp.mlit.go.jp/ksj/jpgis/datalist/KsjTmplt-N02-v1_1.html",
        "wikidata": "Q6349670",
        "wikipedia": "ja:賀来駅"
      }
    },
    {
      "id": "oita_station_8079987243",
      "osmId": 8079987243,
      "osmType": "node",
      "prefectureId": "oita",
      "type": "station",
      "subtype": "jr",
      "name": "古国府",
      "nameKana": null,
      "nameEn": "Furugō",
      "operator": "九州旅客鉄道",
      "network": "JR久大線",
      "ref": null,
      "latitude": 33.2207414,
      "longitude": 131.6079048,
      "countryCode": "jp",
      "rawTags": {
        "KSJ2:LIN": "久大線",
        "KSJ2:STN": "古国府",
        "building": "yes",
        "name": "古国府",
        "name:en": "Furugō",
        "name:ja": "古国府",
        "name:ko": "후루고",
        "network": "JR久大線",
        "note": "National-Land Numerical Information (Railway) 2007, MLIT Japan",
        "note:ja": "国土数値情報（鉄道データ）平成19年　国土交通省",
        "operator": "九州旅客鉄道",
        "public_transport": "station",
        "railway": "station",
        "source": "KSJ2",
        "source_ref": "http://nlftp.mlit.go.jp/ksj/jpgis/datalist/KsjTmplt-N02-v1_1.html",
        "wikidata": "Q5509791",
        "wikipedia": "ja:古国府駅"
      }
    },
    {
      "id": "oita_station_8079991983",
      "osmId": 8079991983,
      "osmType": "node",
      "prefectureId": "oita",
      "type": "station",
      "subtype": "jr",
      "name": "南大分",
      "nameKana": null,
      "nameEn": "Minami-Ōita",
      "operator": "九州旅客鉄道",
      "network": "JR久大線",
      "ref": null,
      "latitude": 33.2141572,
      "longitude": 131.5858537,
      "countryCode": "jp",
      "rawTags": {
        "KSJ2:LIN": "久大線",
        "KSJ2:STN": "南大分",
        "name": "南大分",
        "name:en": "Minami-Ōita",
        "name:ja": "南大分",
        "name:ko": "미나미오이타",
        "network": "JR久大線",
        "note": "National-Land Numerical Information (Railway) 2007, MLIT Japan",
        "note:ja": "国土数値情報（鉄道データ）平成19年　国土交通省",
        "operator": "九州旅客鉄道",
        "public_transport": "station",
        "railway": "station",
        "source": "KSJ2",
        "source_ref": "http://nlftp.mlit.go.jp/ksj/jpgis/datalist/KsjTmplt-N02-v1_1.html",
        "wikidata": "Q6863029",
        "wikipedia": "ja:南大分駅"
      }
    },
    {
      "id": "oita_station_8140164730",
      "osmId": 8140164730,
      "osmType": "node",
      "prefectureId": "oita",
      "type": "station",
      "subtype": "jr",
      "name": "犬飼",
      "nameKana": null,
      "nameEn": "Inukai",
      "operator": "九州旅客鉄道",
      "network": "JR豊肥本線",
      "ref": null,
      "latitude": 33.0781457,
      "longitude": 131.636591,
      "countryCode": "jp",
      "rawTags": {
        "KSJ2:LIN": "豊肥線",
        "KSJ2:STN": "犬飼",
        "name": "犬飼",
        "name:en": "Inukai",
        "name:ja": "犬飼",
        "name:ko": "이누카이",
        "network": "JR豊肥本線",
        "note": "National-Land Numerical Information (Railway) 2007, MLIT Japan",
        "note:ja": "国土数値情報（鉄道データ）平成19年　国土交通省",
        "operator": "九州旅客鉄道",
        "public_transport": "station",
        "railway": "station",
        "source": "KSJ2",
        "source_ref": "http://nlftp.mlit.go.jp/ksj/jpgis/datalist/KsjTmplt-N02-v1_1.html",
        "wikidata": "Q6059273",
        "wikipedia": "ja:犬飼駅"
      }
    },
    {
      "id": "oita_station_8140164735",
      "osmId": 8140164735,
      "osmType": "node",
      "prefectureId": "oita",
      "type": "station",
      "subtype": "jr",
      "name": "竹中",
      "nameKana": null,
      "nameEn": "Takenaka",
      "operator": "九州旅客鉄道",
      "network": "JR豊肥本線",
      "ref": null,
      "latitude": 33.1213023,
      "longitude": 131.6494676,
      "countryCode": "jp",
      "rawTags": {
        "KSJ2:LIN": "豊肥線",
        "KSJ2:STN": "竹中",
        "name": "竹中",
        "name:en": "Takenaka",
        "name:ja": "竹中",
        "name:ko": "다케나카",
        "network": "JR豊肥本線",
        "note": "National-Land Numerical Information (Railway) 2007, MLIT Japan",
        "note:ja": "国土数値情報（鉄道データ）平成19年　国土交通省",
        "operator": "九州旅客鉄道",
        "public_transport": "station",
        "railway": "station",
        "source": "KSJ2",
        "source_ref": "http://nlftp.mlit.go.jp/ksj/jpgis/datalist/KsjTmplt-N02-v1_1.html",
        "wikidata": "Q7678031",
        "wikipedia": "ja:竹中駅"
      }
    },
    {
      "id": "oita_station_8140164740",
      "osmId": 8140164740,
      "osmType": "node",
      "prefectureId": "oita",
      "type": "station",
      "subtype": "jr",
      "name": "中判田",
      "nameKana": null,
      "nameEn": "Nakahanda",
      "operator": "九州旅客鉄道",
      "network": "JR豊肥本線",
      "ref": null,
      "latitude": 33.1641047,
      "longitude": 131.6388139,
      "countryCode": "jp",
      "rawTags": {
        "KSJ2:LIN": "豊肥線",
        "KSJ2:STN": "中判田",
        "name": "中判田",
        "name:en": "Nakahanda",
        "name:ja": "中判田",
        "name:ko": "나카한다",
        "network": "JR豊肥本線",
        "note": "National-Land Numerical Information (Railway) 2007, MLIT Japan",
        "note:ja": "国土数値情報（鉄道データ）平成19年　国土交通省",
        "operator": "九州旅客鉄道",
        "public_transport": "station",
        "railway": "station",
        "source": "KSJ2",
        "source_ref": "http://nlftp.mlit.go.jp/ksj/jpgis/datalist/KsjTmplt-N02-v1_1.html",
        "wikidata": "Q6960160",
        "wikipedia": "ja:中判田駅"
      }
    },
    {
      "id": "oita_station_8140164747",
      "osmId": 8140164747,
      "osmType": "node",
      "prefectureId": "oita",
      "type": "station",
      "subtype": "jr",
      "name": "滝尾",
      "nameKana": null,
      "nameEn": "Takio",
      "operator": "九州旅客鉄道",
      "network": "JR豊肥本線",
      "ref": null,
      "latitude": 33.209292,
      "longitude": 131.6231605,
      "countryCode": "jp",
      "rawTags": {
        "KSJ2:LIN": "豊肥線",
        "KSJ2:STN": "滝尾",
        "name": "滝尾",
        "name:en": "Takio",
        "name:ja": "滝尾",
        "name:ko": "다키오",
        "network": "JR豊肥本線",
        "note": "National-Land Numerical Information (Railway) 2007, MLIT Japan",
        "note:ja": "国土数値情報（鉄道データ）平成19年　国土交通省",
        "operator": "九州旅客鉄道",
        "public_transport": "station",
        "railway": "station",
        "source": "KSJ2",
        "source_ref": "http://nlftp.mlit.go.jp/ksj/jpgis/datalist/KsjTmplt-N02-v1_1.html",
        "wikidata": "Q7678391",
        "wikipedia": "ja:滝尾駅"
      }
    },
    {
      "id": "oita_station_8141291222",
      "osmId": 8141291222,
      "osmType": "node",
      "prefectureId": "oita",
      "type": "station",
      "subtype": "jr",
      "name": "三重町",
      "nameKana": null,
      "nameEn": "Miemachi",
      "operator": "九州旅客鉄道",
      "network": "JR豊肥本線",
      "ref": null,
      "latitude": 32.9837808,
      "longitude": 131.5842766,
      "countryCode": "jp",
      "rawTags": {
        "KSJ2:LIN": "豊肥線",
        "KSJ2:STN": "三重町",
        "name": "三重町",
        "name:en": "Miemachi",
        "name:ja": "三重町",
        "name:ko": "미에마치",
        "network": "JR豊肥本線",
        "note": "National-Land Numerical Information (Railway) 2007, MLIT Japan",
        "note:ja": "国土数値情報（鉄道データ）平成19年　国土交通省",
        "operator": "九州旅客鉄道",
        "public_transport": "station",
        "railway": "station",
        "source": "KSJ2",
        "source_ref": "http://nlftp.mlit.go.jp/ksj/jpgis/datalist/KsjTmplt-N02-v1_1.html",
        "wikidata": "Q11357714",
        "wikipedia": "ja:三重町駅"
      }
    },
    {
      "id": "oita_station_8141291225",
      "osmId": 8141291225,
      "osmType": "node",
      "prefectureId": "oita",
      "type": "station",
      "subtype": "jr",
      "name": "菅尾",
      "nameKana": null,
      "nameEn": "Sugao",
      "operator": "九州旅客鉄道",
      "network": "JR豊肥本線",
      "ref": null,
      "latitude": 33.0148465,
      "longitude": 131.6167688,
      "countryCode": "jp",
      "rawTags": {
        "KSJ2:LIN": "豊肥線",
        "KSJ2:STN": "菅尾",
        "name": "菅尾",
        "name:en": "Sugao",
        "name:ja": "菅尾",
        "name:ko": "스가오",
        "network": "JR豊肥本線",
        "note": "National-Land Numerical Information (Railway) 2007, MLIT Japan",
        "note:ja": "国土数値情報（鉄道データ）平成19年　国土交通省",
        "operator": "九州旅客鉄道",
        "public_transport": "station",
        "railway": "station",
        "source": "KSJ2",
        "source_ref": "http://nlftp.mlit.go.jp/ksj/jpgis/datalist/KsjTmplt-N02-v1_1.html",
        "wikidata": "Q7634716",
        "wikipedia": "ja:菅尾駅"
      }
    },
    {
      "id": "oita_station_8269550065",
      "osmId": 8269550065,
      "osmType": "node",
      "prefectureId": "oita",
      "type": "station",
      "subtype": "jr",
      "name": "宗太郎",
      "nameKana": null,
      "nameEn": "Sotaro",
      "operator": "九州旅客鉄道",
      "network": "JR日豊線",
      "ref": null,
      "latitude": 32.7860056,
      "longitude": 131.7068807,
      "countryCode": "jp",
      "rawTags": {
        "KSJ2:STN": "宗太郎",
        "addr:city": "佐伯市",
        "addr:province": "大分県",
        "addr:quarter": "宇目大字重岡",
        "internet_access": "no",
        "name": "宗太郎",
        "name:en": "Sotaro",
        "name:ja_rm": "Sōtarō",
        "name:ko": "소타로",
        "network": "JR日豊線",
        "note": "National-Land Numerical Information (Railway) 2007, MLIT Japan",
        "note:ja": "国土数値情報（鉄道データ）平成19年　国土交通省",
        "operator": "九州旅客鉄道",
        "public_transport": "station",
        "railway": "station",
        "source": "KSJ2;local knowledge;aerial imagery",
        "source_ref": "http://nlftp.mlit.go.jp/ksj/jpgis/datalist/KsjTmplt-N02-v1_1.html",
        "train": "yes",
        "wikidata": "Q5358009",
        "wikipedia": "ja:宗太郎駅"
      }
    },
    {
      "id": "oita_station_8269550070",
      "osmId": 8269550070,
      "osmType": "node",
      "prefectureId": "oita",
      "type": "station",
      "subtype": "jr",
      "name": "別府",
      "nameKana": null,
      "nameEn": "Beppu",
      "operator": "九州旅客鉄道",
      "network": null,
      "ref": null,
      "latitude": 33.2796163,
      "longitude": 131.5003073,
      "countryCode": "jp",
      "rawTags": {
        "name": "別府",
        "name:en": "Beppu",
        "name:ja": "別府",
        "name:ko": "벳푸 역",
        "operator": "九州旅客鉄道",
        "operator:ja": "九州旅客鉄道",
        "public_transport": "station",
        "railway": "station",
        "source": "KSJ2",
        "website": "https://www.jrkyushu.co.jp/railway/station/1191859_1601.html",
        "wheelchair": "yes",
        "wikidata": "Q4890935",
        "wikipedia": "ja:別府駅 (大分県)"
      }
    },
    {
      "id": "oita_station_8840387819",
      "osmId": 8840387819,
      "osmType": "node",
      "prefectureId": "oita",
      "type": "station",
      "subtype": "jr",
      "name": "佐志生",
      "nameKana": null,
      "nameEn": "Sashiu",
      "operator": "九州旅客鉄道",
      "network": "JR日豊線",
      "ref": null,
      "latitude": 33.1747647,
      "longitude": 131.817677,
      "countryCode": "jp",
      "rawTags": {
        "KSJ2:LIN": "日豊線",
        "KSJ2:STN": "佐志生",
        "name": "佐志生",
        "name:en": "Sashiu",
        "name:ja": "佐志生",
        "name:ko": "사시우",
        "network": "JR日豊線",
        "note": "National-Land Numerical Information (Railway) 2007, MLIT Japan",
        "note:ja": "国土数値情報（鉄道データ）平成19年　国土交通省",
        "operator": "九州旅客鉄道",
        "operator:ja": "九州旅客鉄道",
        "public_transport": "station",
        "railway": "station",
        "source": "KSJ2",
        "source_ref": "http://nlftp.mlit.go.jp/ksj/jpgis/datalist/KsjTmplt-N02-v1_1.html",
        "wikidata": "Q5359647",
        "wikipedia": "ja:佐志生駅"
      }
    },
    {
      "id": "oita_station_9342179151",
      "osmId": 9342179151,
      "osmType": "node",
      "prefectureId": "oita",
      "type": "station",
      "subtype": "jr",
      "name": "佐伯",
      "nameKana": null,
      "nameEn": "Saiki",
      "operator": "九州旅客鉄道",
      "network": "JR日豊線",
      "ref": null,
      "latitude": 32.9724755,
      "longitude": 131.9018836,
      "countryCode": "jp",
      "rawTags": {
        "KSJ2:LIN": "日豊線",
        "KSJ2:STN": "佐伯",
        "name": "佐伯",
        "name:en": "Saiki",
        "name:ja": "佐伯",
        "name:ko": "사이키",
        "network": "JR日豊線",
        "operator": "九州旅客鉄道",
        "public_transport": "station",
        "railway": "station",
        "train": "yes",
        "wikidata": "Q5358770",
        "wikipedia": "ja:佐伯駅"
      }
    },
    {
      "id": "oita_station_9364617572",
      "osmId": 9364617572,
      "osmType": "node",
      "prefectureId": "oita",
      "type": "station",
      "subtype": "jr",
      "name": "上岡",
      "nameKana": null,
      "nameEn": "Kamioka",
      "operator": "九州旅客鉄道",
      "network": "JR日豊線",
      "ref": null,
      "latitude": 32.95646,
      "longitude": 131.8621769,
      "countryCode": "jp",
      "rawTags": {
        "KSJ2:LIN": "日豊線",
        "KSJ2:STN": "上岡",
        "name": "上岡",
        "name:en": "Kamioka",
        "name:ja": "上岡",
        "name:ko": "가미오카",
        "network": "JR日豊線",
        "note": "National-Land Numerical Information (Railway) 2007, MLIT Japan",
        "note:ja": "国土数値情報（鉄道データ）平成19年　国土交通省",
        "operator": "九州旅客鉄道",
        "public_transport": "station",
        "railway": "station",
        "wikidata": "Q5357786",
        "wikipedia": "ja:上岡駅"
      }
    },
    {
      "id": "oita_station_9382924618",
      "osmId": 9382924618,
      "osmType": "node",
      "prefectureId": "oita",
      "type": "station",
      "subtype": "jr",
      "name": "海崎",
      "nameKana": null,
      "nameEn": "Kaizaki",
      "operator": "九州旅客鉄道",
      "network": "JR日豊線",
      "ref": null,
      "latitude": 32.995921,
      "longitude": 131.8879938,
      "countryCode": "jp",
      "rawTags": {
        "KSJ2:LIN": "日豊線",
        "KSJ2:STN": "海崎",
        "name": "海崎",
        "name:en": "Kaizaki",
        "name:ja": "海崎",
        "name:ko": "가이자키",
        "network": "JR日豊線",
        "operator": "九州旅客鉄道",
        "public_transport": "station",
        "railway": "station",
        "train": "yes",
        "wikidata": "Q8011073",
        "wikipedia": "ja:海崎駅"
      }
    },
    {
      "id": "oita_bus_terminal_9712922217",
      "osmId": 9712922217,
      "osmType": "node",
      "prefectureId": "oita",
      "type": "bus_terminal",
      "subtype": null,
      "name": "鉄輪",
      "nameKana": null,
      "nameEn": null,
      "operator": null,
      "network": null,
      "ref": null,
      "latitude": 33.3157316,
      "longitude": 131.4757741,
      "countryCode": "jp",
      "rawTags": {
        "amenity": "bus_station",
        "name": "鉄輪",
        "survey:date": "2022-05-04"
      }
    },
    {
      "id": "oita_airport_10295240024",
      "osmId": 10295240024,
      "osmType": "node",
      "prefectureId": "oita",
      "type": "airport",
      "subtype": "domestic",
      "name": "日出生台飛行場跡地",
      "nameKana": null,
      "nameEn": "Hijudai Airfield (historical)",
      "operator": null,
      "network": null,
      "ref": null,
      "latitude": 33.2913905,
      "longitude": 131.3364325,
      "countryCode": "jp",
      "rawTags": {
        "aeroway": "aerodrome",
        "name": "日出生台飛行場跡地",
        "name:en": "Hijudai Airfield (historical)"
      }
    },
    {
      "id": "oita_station_11889150036",
      "osmId": 11889150036,
      "osmType": "node",
      "prefectureId": "oita",
      "type": "station",
      "subtype": "jr",
      "name": "由布院",
      "nameKana": null,
      "nameEn": "Yufuin",
      "operator": "九州旅客鉄道",
      "network": null,
      "ref": null,
      "latitude": 33.2624524,
      "longitude": 131.3550013,
      "countryCode": "jp",
      "rawTags": {
        "name": "由布院",
        "name:en": "Yufuin",
        "name:ja": "由布院",
        "name:zh-Hans": "由布院",
        "name:zh-Hant": "由布院",
        "operator": "九州旅客鉄道",
        "public_transport": "station",
        "railway": "station",
        "train": "yes",
        "wikidata": "Q8060317",
        "wikipedia": "ja:由布院駅"
      }
    },
    {
      "id": "oita_ferry_terminal_12593107855",
      "osmId": 12593107855,
      "osmType": "node",
      "prefectureId": "oita",
      "type": "ferry_terminal",
      "subtype": null,
      "name": "さんふらわあターミナル（別府）",
      "nameKana": null,
      "nameEn": "Beppu Port Sunflower Terminal",
      "operator": null,
      "network": null,
      "ref": null,
      "latitude": 33.3053086,
      "longitude": 131.5039498,
      "countryCode": "jp",
      "rawTags": {
        "amenity": "ferry_terminal",
        "ferry": "yes",
        "name": "さんふらわあターミナル（別府）",
        "name:en": "Beppu Port Sunflower Terminal",
        "public_transport": "station"
      }
    },
    {
      "id": "oita_ferry_terminal_12593107879",
      "osmId": 12593107879,
      "osmType": "node",
      "prefectureId": "oita",
      "type": "ferry_terminal",
      "subtype": null,
      "name": "別府国際観光港第4埠頭",
      "nameKana": null,
      "nameEn": "Beppu Port Pier4",
      "operator": null,
      "network": null,
      "ref": null,
      "latitude": 33.3086335,
      "longitude": 131.5038505,
      "countryCode": "jp",
      "rawTags": {
        "amenity": "ferry_terminal",
        "name": "別府国際観光港第4埠頭",
        "name:en": "Beppu Port Pier4"
      }
    },
    {
      "id": "oita_bus_terminal_12607091711",
      "osmId": 12607091711,
      "osmType": "node",
      "prefectureId": "oita",
      "type": "bus_terminal",
      "subtype": null,
      "name": "佐賀関",
      "nameKana": null,
      "nameEn": "Saganoseki",
      "operator": null,
      "network": null,
      "ref": null,
      "latitude": 33.2490289,
      "longitude": 131.8736929,
      "countryCode": "jp",
      "rawTags": {
        "amenity": "bus_station",
        "highway": "platform",
        "name": "佐賀関",
        "name:en": "Saganoseki",
        "public_transport": "platform"
      }
    },
    {
      "id": "oita_ferry_terminal_13047569761",
      "osmId": 13047569761,
      "osmType": "node",
      "prefectureId": "oita",
      "type": "ferry_terminal",
      "subtype": null,
      "name": "ホーバーターミナルおおいた（大分空港）",
      "nameKana": null,
      "nameEn": null,
      "operator": null,
      "network": null,
      "ref": null,
      "latitude": 33.4706337,
      "longitude": 131.7341587,
      "countryCode": "jp",
      "rawTags": {
        "amenity": "ferry_terminal",
        "name": "ホーバーターミナルおおいた（大分空港）"
      }
    },
    {
      "id": "oita_station_13196884407",
      "osmId": 13196884407,
      "osmType": "node",
      "prefectureId": "oita",
      "type": "station",
      "subtype": "jr",
      "name": "下ノ江",
      "nameKana": null,
      "nameEn": null,
      "operator": "九州旅客鉄道",
      "network": "JR日豊本線",
      "ref": null,
      "latitude": 33.1584879,
      "longitude": 131.8111324,
      "countryCode": "jp",
      "rawTags": {
        "building": "train_station",
        "ele": "7.3",
        "height": "3",
        "name": "下ノ江",
        "network": "JR日豊本線",
        "operator": "九州旅客鉄道",
        "public_transport": "station",
        "railway": "station",
        "train": "yes"
      }
    },
    {
      "id": "oita_bus_terminal_92569815",
      "osmId": 92569815,
      "osmType": "way",
      "prefectureId": "oita",
      "type": "bus_terminal",
      "subtype": null,
      "name": "杵築バスターミナル",
      "nameKana": null,
      "nameEn": null,
      "operator": null,
      "network": null,
      "ref": null,
      "latitude": 33.4187109,
      "longitude": 131.622739,
      "countryCode": "jp",
      "rawTags": {
        "amenity": "bus_station",
        "bus": "yes",
        "name": "杵築バスターミナル",
        "public_transport": "station",
        "source": "Bing"
      }
    },
    {
      "id": "oita_ferry_terminal_156276742",
      "osmId": 156276742,
      "osmType": "way",
      "prefectureId": "oita",
      "type": "ferry_terminal",
      "subtype": null,
      "name": "別府港 第2フェリーターミナル (Beppu Port Ferry Terminal 2)",
      "nameKana": null,
      "nameEn": "Beppu Port Ferry Terminal 2",
      "operator": null,
      "network": null,
      "ref": null,
      "latitude": 33.2996327,
      "longitude": 131.5037911,
      "countryCode": "jp",
      "rawTags": {
        "amenity": "ferry_terminal",
        "building": "yes",
        "cargo": "passengers;vehicle",
        "ferry": "yes",
        "name": "別府港 第2フェリーターミナル (Beppu Port Ferry Terminal 2)",
        "name:en": "Beppu Port Ferry Terminal 2",
        "name:ja": "別府港 第2フェリーターミナル",
        "public_transport": "station",
        "source": "Bing",
        "wikipedia": "ja:別府港"
      }
    },
    {
      "id": "oita_bus_terminal_364659166",
      "osmId": 364659166,
      "osmType": "way",
      "prefectureId": "oita",
      "type": "bus_terminal",
      "subtype": null,
      "name": "亀の井バス待合所",
      "nameKana": null,
      "nameEn": null,
      "operator": null,
      "network": null,
      "ref": null,
      "latitude": 33.3157864,
      "longitude": 131.4758255,
      "countryCode": "jp",
      "rawTags": {
        "addr:city": "大分県別府市",
        "addr:housenumber": "３１１−２",
        "addr:postcode": "874-0045",
        "addr:street": "御幸",
        "amenity": "bus_station",
        "building": "yes",
        "name": "亀の井バス待合所"
      }
    },
    {
      "id": "oita_ferry_terminal_566375496",
      "osmId": 566375496,
      "osmType": "way",
      "prefectureId": "oita",
      "type": "ferry_terminal",
      "subtype": null,
      "name": "国道九四フェリー 佐賀関港",
      "nameKana": null,
      "nameEn": null,
      "operator": null,
      "network": null,
      "ref": null,
      "latitude": 33.249969,
      "longitude": 131.864958,
      "countryCode": "jp",
      "rawTags": {
        "amenity": "ferry_terminal",
        "building": "yes",
        "ferry": "yes",
        "name": "国道九四フェリー 佐賀関港",
        "note": "2019年に改築。bing画像は古い。",
        "public_transport": "station"
      }
    },
    {
      "id": "oita_ferry_terminal_744390540",
      "osmId": 744390540,
      "osmType": "way",
      "prefectureId": "oita",
      "type": "ferry_terminal",
      "subtype": null,
      "name": "臼杵港フェリーセンター",
      "nameKana": null,
      "nameEn": "Usuki Port Ferry Center",
      "operator": null,
      "network": null,
      "ref": null,
      "latitude": 33.1261447,
      "longitude": 131.8104424,
      "countryCode": "jp",
      "rawTags": {
        "amenity": "ferry_terminal",
        "building": "public",
        "ele": "1.9",
        "ferry": "yes",
        "height": "5.8",
        "name": "臼杵港フェリーセンター",
        "name:en": "Usuki Port Ferry Center",
        "name:ja": "臼杵港フェリーセンター",
        "public_transport": "station",
        "source": "MLIT_PLATEAU 44206-bldg-10933"
      }
    },
    {
      "id": "oita_bus_terminal_753525971",
      "osmId": 753525971,
      "osmType": "way",
      "prefectureId": "oita",
      "type": "bus_terminal",
      "subtype": null,
      "name": "宇佐駅前バスのりば",
      "nameKana": null,
      "nameEn": null,
      "operator": null,
      "network": null,
      "ref": null,
      "latitude": 33.5318172,
      "longitude": 131.4114994,
      "countryCode": "jp",
      "rawTags": {
        "amenity": "bus_station",
        "building": "transportation",
        "name": "宇佐駅前バスのりば"
      }
    },
    {
      "id": "oita_airport_866690235",
      "osmId": 866690235,
      "osmType": "way",
      "prefectureId": "oita",
      "type": "airport",
      "subtype": "domestic",
      "name": "大分空港",
      "nameKana": null,
      "nameEn": "Oita Airport",
      "operator": null,
      "network": null,
      "ref": "OIT",
      "latitude": 33.4801199,
      "longitude": 131.7352182,
      "countryCode": "jp",
      "rawTags": {
        "KSJ2:AAC": "44214",
        "KSJ2:AAC_label": "大分県, *",
        "KSJ2:AD2": "1",
        "KSJ2:AD2_label": "国土交通大臣",
        "KSJ2:ARP": "33.4794444444 131.7372222222",
        "KSJ2:ATB": "33.4773611100 131.7327222000",
        "KSJ2:CLT": "21 30",
        "KSJ2:COA": "空港整備法に基づく第二種空港",
        "KSJ2:CompositeCurve": "cv68Airport",
        "KSJ2:DSA": "周辺整備空港に指定されていない特定飛行場",
        "KSJ2:INP": "1",
        "KSJ2:INP_label": "国土交通大臣",
        "KSJ2:IUC": "供用中",
        "KSJ2:NA3": "大分空港",
        "KSJ2:OPT": "07 30",
        "KSJ2:REF": "1",
        "KSJ2:REF_label": "ジェット定期便が就航している場合",
        "KSJ2:airport_id": "cf02_95",
        "KSJ2:runways": "3000 45",
        "aeroway": "aerodrome",
        "iata": "OIT",
        "icao": "RJFO",
        "name": "大分空港",
        "name:en": "Oita Airport",
        "name:it": "Aeroporto di Oita",
        "name:ja": "大分空港",
        "name:ja_rm": "Oita Kuko",
        "note": "National-Land Numerical Information (Airport) 2007, MLIT Japan",
        "note:ja": "国土数値情報（空港データ）平成19年　国土交通省",
        "source": "KSJ2",
        "source_ref": "http://nlftp.mlit.go.jp/ksj/jpgis/datalist/KsjTmplt-C28-v1_1.html",
        "wikidata": "Q1334587",
        "wikipedia": "ja:大分空港"
      }
    },
    {
      "id": "oita_bus_terminal_914939814",
      "osmId": 914939814,
      "osmType": "way",
      "prefectureId": "oita",
      "type": "bus_terminal",
      "subtype": null,
      "name": "大手前",
      "nameKana": "おおてまえ",
      "nameEn": "Ôtemae Bus Station",
      "operator": null,
      "network": null,
      "ref": null,
      "latitude": 32.9559122,
      "longitude": 131.8933473,
      "countryCode": "jp",
      "rawTags": {
        "amenity": "bus_station",
        "building": "yes",
        "building:use": "shelter",
        "bus": "yes",
        "name": "大手前",
        "name:en": "Ôtemae Bus Station",
        "name:ja-Hira": "おおてまえ",
        "name:ja-Latn": "Ôtemae",
        "name:zh": "大手前",
        "public_transport": "station"
      }
    },
    {
      "id": "oita_bus_terminal_920638594",
      "osmId": 920638594,
      "osmType": "way",
      "prefectureId": "oita",
      "type": "bus_terminal",
      "subtype": null,
      "name": "梶寄",
      "nameKana": null,
      "nameEn": null,
      "operator": "佐伯市",
      "network": "佐伯市コミュニティバス",
      "ref": null,
      "latitude": 32.9448,
      "longitude": 132.0673074,
      "countryCode": "jp",
      "rawTags": {
        "amenity": "bus_station",
        "building": "yes",
        "building:colour": "white",
        "building:levels": "1",
        "building:material": "wood",
        "building:use": "shelter",
        "bus": "yes",
        "height": "4",
        "internet_access": "no",
        "name": "梶寄",
        "network": "佐伯市コミュニティバス",
        "operator": "佐伯市",
        "public_transport": "station",
        "roof:colour": "black",
        "roof:levels": "2",
        "roof:material": "gravel",
        "roof:orientation": "across",
        "roof:shape": "flat"
      }
    },
    {
      "id": "oita_bus_terminal_932432923",
      "osmId": 932432923,
      "osmType": "way",
      "prefectureId": "oita",
      "type": "bus_terminal",
      "subtype": null,
      "name": "佐伯駅前停留所",
      "nameKana": null,
      "nameEn": null,
      "operator": "大分バス",
      "network": "大分バス;佐伯市コミュニティバス",
      "ref": null,
      "latitude": 32.9727356,
      "longitude": 131.9025469,
      "countryCode": "jp",
      "rawTags": {
        "amenity": "bus_station",
        "building": "yes",
        "bus": "yes",
        "internet_access": "no",
        "layer": "1",
        "name": "佐伯駅前停留所",
        "network": "大分バス;佐伯市コミュニティバス",
        "operator": "大分バス",
        "public_transport": "station"
      }
    },
    {
      "id": "oita_bus_terminal_958575702",
      "osmId": 958575702,
      "osmType": "way",
      "prefectureId": "oita",
      "type": "bus_terminal",
      "subtype": null,
      "name": "大分交通新川バスセンター",
      "nameKana": null,
      "nameEn": null,
      "operator": "大分交通株式会社",
      "network": null,
      "ref": null,
      "latitude": 33.2458849,
      "longitude": 131.6056205,
      "countryCode": "jp",
      "rawTags": {
        "addr:city": "大分市",
        "addr:province": "大分県",
        "amenity": "bus_station",
        "building": "yes",
        "bus": "yes",
        "name": "大分交通新川バスセンター",
        "operator": "大分交通株式会社",
        "public_transport": "station"
      }
    },
    {
      "id": "oita_station_1112169627",
      "osmId": 1112169627,
      "osmType": "way",
      "prefectureId": "oita",
      "type": "station",
      "subtype": "jr",
      "name": "大分大学前駅",
      "nameKana": null,
      "nameEn": null,
      "operator": "JR",
      "network": null,
      "ref": null,
      "latitude": 33.177217,
      "longitude": 131.6185558,
      "countryCode": "jp",
      "rawTags": {
        "name": "大分大学前駅",
        "operator": "JR",
        "public_transport": "station",
        "railway": "station",
        "train": "yes"
      }
    },
    {
      "id": "oita_ferry_terminal_1247957877",
      "osmId": 1247957877,
      "osmType": "way",
      "prefectureId": "oita",
      "type": "ferry_terminal",
      "subtype": null,
      "name": "ホーバーターミナルおおいた（西大分）",
      "nameKana": null,
      "nameEn": null,
      "operator": null,
      "network": null,
      "ref": null,
      "latitude": 33.248675,
      "longitude": 131.593593,
      "countryCode": "jp",
      "rawTags": {
        "amenity": "ferry_terminal",
        "ferry": "yes",
        "landuse": "commercial",
        "name": "ホーバーターミナルおおいた（西大分）",
        "opening_date": "2024-03",
        "public_transport": "station"
      }
    },
    {
      "id": "oita_ferry_terminal_1456412626",
      "osmId": 1456412626,
      "osmType": "way",
      "prefectureId": "oita",
      "type": "ferry_terminal",
      "subtype": null,
      "name": "竹田津港",
      "nameKana": null,
      "nameEn": null,
      "operator": null,
      "network": null,
      "ref": null,
      "latitude": 33.6790785,
      "longitude": 131.56522,
      "countryCode": "jp",
      "rawTags": {
        "amenity": "ferry_terminal",
        "ferry": "yes",
        "name": "竹田津港",
        "public_transport": "station"
      }
    }
  ]
}