{
  "fetchedAt": "2025-12-12T05:33:10.013Z",
  "prefectureId": "okayama",
  "prefectureName": "岡山県",
  "stats": {
    "station": 149,
    "airport": 3,
    "ferry_terminal": 12,
    "bus_terminal": 16,
    "total": 180
  },
  "data": [
    {
      "id": "okayama_station_265912275",
      "osmId": 265912275,
      "osmType": "node",
      "prefectureId": "okayama",
      "type": "station",
      "subtype": "jr",
      "name": "上道",
      "nameKana": null,
      "nameEn": "Jyoto",
      "operator": "西日本旅客鉄道",
      "network": null,
      "ref": null,
      "latitude": 34.6994525,
      "longitude": 134.0205696,
      "countryCode": "jp",
      "rawTags": {
        "KSJ2:LIN": "山陽線",
        "KSJ2:STN": "上道",
        "name": "上道",
        "name:en": "Jyoto",
        "name:ja": "上道",
        "name:ko": "조토",
        "note": "National-Land Numerical Information (Railway) 2007, MLIT Japan",
        "note:ja": "国土数値情報（鉄道データ）平成19年　国土交通省",
        "operator": "西日本旅客鉄道",
        "operator:en": "West Japan Railway Company",
        "railway": "station",
        "source": "KSJ2",
        "source_ref": "http://nlftp.mlit.go.jp/ksj/jpgis/datalist/KsjTmplt-N02-v1_1.html",
        "wikidata": "Q3611216",
        "wikipedia": "ja:上道駅 (岡山県)"
      }
    },
    {
      "id": "okayama_station_265917572",
      "osmId": 265917572,
      "osmType": "node",
      "prefectureId": "okayama",
      "type": "station",
      "subtype": "private",
      "name": "西阿知",
      "nameKana": null,
      "nameEn": "Nishiachi",
      "operator": null,
      "network": null,
      "ref": null,
      "latitude": 34.5858865,
      "longitude": 133.7277106,
      "countryCode": "jp",
      "rawTags": {
        "KSJ2:LIN": "山陽線",
        "KSJ2:STN": "西阿知",
        "name": "西阿知",
        "name:en": "Nishiachi",
        "name:ja": "西阿知",
        "name:ko": "니시아치",
        "note": "National-Land Numerical Information (Railway) 2007, MLIT Japan",
        "note:ja": "国土数値情報（鉄道データ）平成19年　国土交通省",
        "public_transport": "station",
        "railway": "station",
        "source": "KSJ2",
        "source_ref": "http://nlftp.mlit.go.jp/ksj/jpgis/datalist/KsjTmplt-N02-v1_1.html",
        "wikidata": "Q7040502",
        "wikipedia": "ja:西阿知駅"
      }
    },
    {
      "id": "okayama_station_266045429",
      "osmId": 266045429,
      "osmType": "node",
      "prefectureId": "okayama",
      "type": "station",
      "subtype": "private",
      "name": "矢神",
      "nameKana": null,
      "nameEn": "Yagami",
      "operator": null,
      "network": null,
      "ref": null,
      "latitude": 34.9431902,
      "longitude": 133.3326139,
      "countryCode": "jp",
      "rawTags": {
        "KSJ2:LIN": "芸備線",
        "KSJ2:STN": "矢神",
        "name": "矢神",
        "name:en": "Yagami",
        "name:ja": "矢神",
        "name:ko": "야가미",
        "note": "National-Land Numerical Information (Railway) 2007, MLIT Japan",
        "note:ja": "国土数値情報（鉄道データ）平成19年　国土交通省",
        "public_transport": "station",
        "railway": "station",
        "source": "KSJ2",
        "source_ref": "http://nlftp.mlit.go.jp/ksj/jpgis/datalist/KsjTmplt-N02-v1_1.html",
        "wikidata": "Q8046683",
        "wikipedia": "ja:矢神駅"
      }
    },
    {
      "id": "okayama_station_266045472",
      "osmId": 266045472,
      "osmType": "node",
      "prefectureId": "okayama",
      "type": "station",
      "subtype": "private",
      "name": "市岡",
      "nameKana": null,
      "nameEn": "Ichioka",
      "operator": null,
      "network": null,
      "ref": null,
      "latitude": 34.9663099,
      "longitude": 133.34677,
      "countryCode": "jp",
      "rawTags": {
        "KSJ2:LIN": "芸備線",
        "KSJ2:STN": "市岡",
        "name": "市岡",
        "name:en": "Ichioka",
        "name:ja": "市岡",
        "name:ko": "이치오카",
        "note": "National-Land Numerical Information (Railway) 2007, MLIT Japan",
        "note:ja": "国土数値情報（鉄道データ）平成19年　国土交通省",
        "railway": "station",
        "source": "KSJ2",
        "source_ref": "http://nlftp.mlit.go.jp/ksj/jpgis/datalist/KsjTmplt-N02-v1_1.html",
        "wikidata": "Q5986277",
        "wikipedia": "ja:市岡駅"
      }
    },
    {
      "id": "okayama_station_266045474",
      "osmId": 266045474,
      "osmType": "node",
      "prefectureId": "okayama",
      "type": "station",
      "subtype": "private",
      "name": "野馳",
      "nameKana": null,
      "nameEn": "Nochi",
      "operator": null,
      "network": null,
      "ref": null,
      "latitude": 34.9149754,
      "longitude": 133.3167741,
      "countryCode": "jp",
      "rawTags": {
        "KSJ2:LIN": "芸備線",
        "KSJ2:STN": "野馳",
        "name": "野馳",
        "name:en": "Nochi",
        "name:ja": "野馳",
        "name:ko": "노치",
        "note": "National-Land Numerical Information (Railway) 2007, MLIT Japan",
        "note:ja": "国土数値情報（鉄道データ）平成19年　国土交通省",
        "public_transport": "station",
        "railway": "station",
        "source": "KSJ2",
        "source_ref": "http://nlftp.mlit.go.jp/ksj/jpgis/datalist/KsjTmplt-N02-v1_1.html",
        "wikidata": "Q3610922",
        "wikipedia": "ja:野馳駅"
      }
    },
    {
      "id": "okayama_station_266045671",
      "osmId": 266045671,
      "osmType": "node",
      "prefectureId": "okayama",
      "type": "station",
      "subtype": "private",
      "name": "坂根",
      "nameKana": null,
      "nameEn": "Sakane",
      "operator": null,
      "network": null,
      "ref": null,
      "latitude": 34.9729672,
      "longitude": 133.3707349,
      "countryCode": "jp",
      "rawTags": {
        "KSJ2:LIN": "芸備線",
        "KSJ2:STN": "坂根",
        "name": "坂根",
        "name:en": "Sakane",
        "name:ja": "坂根",
        "name:ko": "사카네",
        "note": "National-Land Numerical Information (Railway) 2007, MLIT Japan",
        "note:ja": "国土数値情報（鉄道データ）平成19年　国土交通省",
        "railway": "station",
        "source": "KSJ2",
        "source_ref": "http://nlftp.mlit.go.jp/ksj/jpgis/datalist/KsjTmplt-N02-v1_1.html",
        "wikidata": "Q7402819",
        "wikipedia": "ja:坂根駅"
      }
    },
    {
      "id": "okayama_station_266088575",
      "osmId": 266088575,
      "osmType": "node",
      "prefectureId": "okayama",
      "type": "station",
      "subtype": "private",
      "name": "足立",
      "nameKana": null,
      "nameEn": "Ashidachi",
      "operator": null,
      "network": null,
      "ref": null,
      "latitude": 35.038904,
      "longitude": 133.383559,
      "countryCode": "jp",
      "rawTags": {
        "KSJ2:LIN": "伯備線",
        "KSJ2:STN": "足立",
        "name": "足立",
        "name:en": "Ashidachi",
        "name:ja": "足立",
        "name:ko": "아시다치",
        "note": "National-Land Numerical Information (Railway) 2007, MLIT Japan",
        "note:ja": "国土数値情報（鉄道データ）平成19年　国土交通省",
        "railway": "station",
        "source": "KSJ2",
        "source_ref": "http://nlftp.mlit.go.jp/ksj/jpgis/datalist/KsjTmplt-N02-v1_1.html",
        "wikidata": "Q3661687",
        "wikipedia": "ja:足立駅"
      }
    },
    {
      "id": "okayama_station_266089373",
      "osmId": 266089373,
      "osmType": "node",
      "prefectureId": "okayama",
      "type": "station",
      "subtype": "private",
      "name": "備中神代",
      "nameKana": null,
      "nameEn": "Bitchū-Kōjiro",
      "operator": null,
      "network": null,
      "ref": null,
      "latitude": 34.9944566,
      "longitude": 133.4006497,
      "countryCode": "jp",
      "rawTags": {
        "KSJ2:LIN": "伯備線;芸備線",
        "KSJ2:STN": "備中神代",
        "name": "備中神代",
        "name:en": "Bitchū-Kōjiro",
        "name:ja": "備中神代",
        "name:ko": "빗추코지로",
        "note": "National-Land Numerical Information (Railway) 2007, MLIT Japan",
        "note:ja": "国土数値情報（鉄道データ）平成19年　国土交通省",
        "public_transport": "station",
        "railway": "station",
        "source": "KSJ2",
        "source_ref": "http://nlftp.mlit.go.jp/ksj/jpgis/datalist/KsjTmplt-N02-v1_1.html",
        "train": "yes",
        "wikidata": "Q3610943",
        "wikipedia": "ja:備中神代駅"
      }
    },
    {
      "id": "okayama_station_266090323",
      "osmId": 266090323,
      "osmType": "node",
      "prefectureId": "okayama",
      "type": "station",
      "subtype": "private",
      "name": "井倉",
      "nameKana": null,
      "nameEn": "Ikura",
      "operator": null,
      "network": null,
      "ref": null,
      "latitude": 34.9316454,
      "longitude": 133.5148576,
      "countryCode": "jp",
      "rawTags": {
        "KSJ2:LIN": "伯備線",
        "KSJ2:STN": "井倉",
        "name": "井倉",
        "name:en": "Ikura",
        "name:ja": "井倉",
        "name:ko": "이쿠라",
        "note": "National-Land Numerical Information (Railway) 2007, MLIT Japan",
        "note:ja": "国土数値情報（鉄道データ）平成19年　国土交通省",
        "public_transport": "station",
        "railway": "station",
        "source": "KSJ2",
        "source_ref": "http://nlftp.mlit.go.jp/ksj/jpgis/datalist/KsjTmplt-N02-v1_1.html",
        "train": "yes",
        "wikidata": "Q5996374",
        "wikipedia": "ja:井倉駅"
      }
    },
    {
      "id": "okayama_station_266108702",
      "osmId": 266108702,
      "osmType": "node",
      "prefectureId": "okayama",
      "type": "station",
      "subtype": "private",
      "name": "布原",
      "nameKana": null,
      "nameEn": "Nunohara",
      "operator": null,
      "network": null,
      "ref": null,
      "latitude": 34.9876155,
      "longitude": 133.4213819,
      "countryCode": "jp",
      "rawTags": {
        "KSJ2:LIN": "伯備線",
        "KSJ2:STN": "布原",
        "name": "布原",
        "name:en": "Nunohara",
        "name:ja": "布原",
        "name:ko": "누노하라",
        "note": "National-Land Numerical Information (Railway) 2007, MLIT Japan",
        "note:ja": "国土数値情報（鉄道データ）平成19年　国土交通省",
        "public_transport": "station",
        "railway": "station",
        "source": "KSJ2",
        "source_ref": "http://nlftp.mlit.go.jp/ksj/jpgis/datalist/KsjTmplt-N02-v1_1.html",
        "wikidata": "Q7069904",
        "wikipedia": "ja:布原駅"
      }
    },
    {
      "id": "okayama_station_266108795",
      "osmId": 266108795,
      "osmType": "node",
      "prefectureId": "okayama",
      "type": "station",
      "subtype": "private",
      "name": "新郷",
      "nameKana": null,
      "nameEn": "Niizato",
      "operator": null,
      "network": null,
      "ref": null,
      "latitude": 35.0825514,
      "longitude": 133.3677881,
      "countryCode": "jp",
      "rawTags": {
        "KSJ2:LIN": "伯備線",
        "KSJ2:STN": "新郷",
        "name": "新郷",
        "name:en": "Niizato",
        "name:ja": "新郷",
        "name:ko": "니자토",
        "note": "National-Land Numerical Information (Railway) 2007, MLIT Japan",
        "note:ja": "国土数値情報（鉄道データ）平成19年　国土交通省",
        "railway": "station",
        "source": "KSJ2",
        "source_ref": "http://nlftp.mlit.go.jp/ksj/jpgis/datalist/KsjTmplt-N02-v1_1.html",
        "train": "yes",
        "wikidata": "Q7034513",
        "wikipedia": "ja:新郷駅 (岡山県)"
      }
    },
    {
      "id": "okayama_station_266922046",
      "osmId": 266922046,
      "osmType": "node",
      "prefectureId": "okayama",
      "type": "station",
      "subtype": "jr",
      "name": "楢原",
      "nameKana": "ならはら",
      "nameEn": "Narahara",
      "operator": "西日本旅客鉄道",
      "network": null,
      "ref": null,
      "latitude": 35.0197024,
      "longitude": 134.1894466,
      "countryCode": "jp",
      "rawTags": {
        "KSJ2:LIN": "姫新線",
        "KSJ2:STN": "楢原",
        "name": "楢原",
        "name:en": "Narahara",
        "name:ja": "楢原",
        "name:ja-Hira": "ならはら",
        "name:ko": "나라하라",
        "note": "National-Land Numerical Information (Railway) 2007, MLIT Japan",
        "note:ja": "国土数値情報（鉄道データ）平成19年　国土交通省",
        "operator": "西日本旅客鉄道",
        "public_transport": "station",
        "railway": "station",
        "source": "KSJ2",
        "source_ref": "http://nlftp.mlit.go.jp/ksj/jpgis/datalist/KsjTmplt-N02-v1_1.html",
        "wikidata": "Q6965278",
        "wikipedia": "ja:楢原駅"
      }
    },
    {
      "id": "okayama_station_266922446",
      "osmId": 266922446,
      "osmType": "node",
      "prefectureId": "okayama",
      "type": "station",
      "subtype": "private",
      "name": "美作江見",
      "nameKana": null,
      "nameEn": "Mimasaka-Emi",
      "operator": null,
      "network": null,
      "ref": null,
      "latitude": 35.0134263,
      "longitude": 134.2197632,
      "countryCode": "jp",
      "rawTags": {
        "KSJ2:LIN": "姫新線",
        "KSJ2:STN": "美作江見",
        "name": "美作江見",
        "name:en": "Mimasaka-Emi",
        "name:ja": "美作江見",
        "name:ko": "미마사카에미",
        "note": "National-Land Numerical Information (Railway) 2007, MLIT Japan",
        "note:ja": "国土数値情報（鉄道データ）平成19年　国土交通省",
        "public_transport": "station",
        "railway": "station",
        "source": "KSJ2",
        "source_ref": "http://nlftp.mlit.go.jp/ksj/jpgis/datalist/KsjTmplt-N02-v1_1.html",
        "wikidata": "Q6862009",
        "wikipedia": "ja:美作江見駅"
      }
    },
    {
      "id": "okayama_station_266922646",
      "osmId": 266922646,
      "osmType": "node",
      "prefectureId": "okayama",
      "type": "station",
      "subtype": "jr",
      "name": "美作土居",
      "nameKana": null,
      "nameEn": "Mimasaka-Doi",
      "operator": "西日本旅客鉄道",
      "network": null,
      "ref": null,
      "latitude": 34.9950742,
      "longitude": 134.259908,
      "countryCode": "jp",
      "rawTags": {
        "KSJ2:LIN": "姫新線",
        "KSJ2:STN": "美作土居",
        "name": "美作土居",
        "name:en": "Mimasaka-Doi",
        "name:ja": "美作土居",
        "name:ko": "미마사카도이",
        "note": "National-Land Numerical Information (Railway) 2007, MLIT Japan",
        "note:ja": "国土数値情報（鉄道データ）平成19年　国土交通省",
        "operator": "西日本旅客鉄道",
        "public_transport": "station",
        "railway": "station",
        "source": "KSJ2",
        "source_ref": "http://nlftp.mlit.go.jp/ksj/jpgis/datalist/KsjTmplt-N02-v1_1.html",
        "wikidata": "Q6862011",
        "wikipedia": "ja:美作土居駅"
      }
    },
    {
      "id": "okayama_station_266922787",
      "osmId": 266922787,
      "osmType": "node",
      "prefectureId": "okayama",
      "type": "station",
      "subtype": "jr",
      "name": "美作大崎",
      "nameKana": null,
      "nameEn": "Mimasaka-Ōsaki",
      "operator": "西日本旅客鉄道",
      "network": null,
      "ref": null,
      "latitude": 35.0453349,
      "longitude": 134.0675002,
      "countryCode": "jp",
      "rawTags": {
        "KSJ2:LIN": "姫新線",
        "KSJ2:STN": "美作大崎",
        "name": "美作大崎",
        "name:en": "Mimasaka-Ōsaki",
        "name:ja": "美作大崎",
        "name:ko": "미마사카오사키",
        "note": "National-Land Numerical Information (Railway) 2007, MLIT Japan",
        "note:ja": "国土数値情報（鉄道データ）平成19年　国土交通省",
        "operator": "西日本旅客鉄道",
        "public_transport": "station",
        "railway": "station",
        "source": "KSJ2",
        "source_ref": "http://nlftp.mlit.go.jp/ksj/jpgis/datalist/KsjTmplt-N02-v1_1.html",
        "train": "yes",
        "wikidata": "Q3661912",
        "wikipedia": "ja:美作大崎駅"
      }
    },
    {
      "id": "okayama_station_266923670",
      "osmId": 266923670,
      "osmType": "node",
      "prefectureId": "okayama",
      "type": "station",
      "subtype": "jr",
      "name": "西勝間田",
      "nameKana": "にしかつまだ",
      "nameEn": "Nishi-Katsumada",
      "operator": "西日本旅客鉄道",
      "network": null,
      "ref": null,
      "latitude": 35.0435938,
      "longitude": 134.0892774,
      "countryCode": "jp",
      "rawTags": {
        "KSJ2:LIN": "姫新線",
        "KSJ2:STN": "西勝間田",
        "name": "西勝間田",
        "name:en": "Nishi-Katsumada",
        "name:ja": "西勝間田",
        "name:ja-Hira": "にしかつまだ",
        "name:ko": "니시카쓰마다",
        "note": "National-Land Numerical Information (Railway) 2007, MLIT Japan",
        "note:ja": "国土数値情報（鉄道データ）平成19年　国土交通省",
        "operator": "西日本旅客鉄道",
        "public_transport": "station",
        "railway": "station",
        "source": "KSJ2",
        "source_ref": "http://nlftp.mlit.go.jp/ksj/jpgis/datalist/KsjTmplt-N02-v1_1.html",
        "train": "yes",
        "wikidata": "Q3661731",
        "wikipedia": "ja:西勝間田駅"
      }
    },
    {
      "id": "okayama_station_266923831",
      "osmId": 266923831,
      "osmType": "node",
      "prefectureId": "okayama",
      "type": "station",
      "subtype": "jr",
      "name": "院庄",
      "nameKana": null,
      "nameEn": "Innosho",
      "operator": "西日本旅客鉄道",
      "network": null,
      "ref": null,
      "latitude": 35.0590442,
      "longitude": 133.9573718,
      "countryCode": "jp",
      "rawTags": {
        "KSJ2:LIN": "姫新線",
        "KSJ2:STN": "院庄",
        "name": "院庄",
        "name:en": "Innosho",
        "name:ja": "院庄",
        "name:ko": "인노쇼",
        "note": "National-Land Numerical Information (Railway) 2007, MLIT Japan",
        "note:ja": "国土数値情報（鉄道データ）平成19年　国土交通省",
        "operator": "西日本旅客鉄道",
        "operator:en": "West Japan Railway Company",
        "operator:ja": "西日本旅客鉄道",
        "public_transport": "station",
        "railway": "station",
        "source": "KSJ2",
        "source_ref": "http://nlftp.mlit.go.jp/ksj/jpgis/datalist/KsjTmplt-N02-v1_1.html",
        "train": "yes",
        "wikidata": "Q3661623",
        "wikipedia": "ja:院庄駅"
      }
    },
    {
      "id": "okayama_station_266924919",
      "osmId": 266924919,
      "osmType": "node",
      "prefectureId": "okayama",
      "type": "station",
      "subtype": "jr",
      "name": "勝間田",
      "nameKana": null,
      "nameEn": "Katsumada",
      "operator": "西日本旅客鉄道",
      "network": null,
      "ref": null,
      "latitude": 35.0357716,
      "longitude": 134.1189305,
      "countryCode": "jp",
      "rawTags": {
        "KSJ2:LIN": "姫新線",
        "KSJ2:STN": "勝間田",
        "name": "勝間田",
        "name:en": "Katsumada",
        "name:ja": "勝間田",
        "name:ko": "가쓰마다",
        "note": "National-Land Numerical Information (Railway) 2007, MLIT Japan",
        "note:ja": "国土数値情報（鉄道データ）平成19年　国土交通省",
        "operator": "西日本旅客鉄道",
        "public_transport": "station",
        "railway": "station",
        "source": "KSJ2",
        "source_ref": "http://nlftp.mlit.go.jp/ksj/jpgis/datalist/KsjTmplt-N02-v1_1.html",
        "train": "yes",
        "wikidata": "Q3661626",
        "wikipedia": "ja:勝間田駅"
      }
    },
    {
      "id": "okayama_station_266925222",
      "osmId": 266925222,
      "osmType": "node",
      "prefectureId": "okayama",
      "type": "station",
      "subtype": "jr",
      "name": "林野",
      "nameKana": null,
      "nameEn": "Hayashino",
      "operator": "西日本旅客鉄道",
      "network": null,
      "ref": null,
      "latitude": 35.0139324,
      "longitude": 134.1521491,
      "countryCode": "jp",
      "rawTags": {
        "KSJ2:LIN": "姫新線",
        "KSJ2:STN": "林野",
        "name": "林野",
        "name:en": "Hayashino",
        "name:ja": "林野",
        "name:ko": "하야시노",
        "note": "National-Land Numerical Information (Railway) 2007, MLIT Japan",
        "note:ja": "国土数値情報（鉄道データ）平成19年　国土交通省",
        "operator": "西日本旅客鉄道",
        "public_transport": "station",
        "railway": "station",
        "source": "KSJ2",
        "source_ref": "http://nlftp.mlit.go.jp/ksj/jpgis/datalist/KsjTmplt-N02-v1_1.html",
        "train": "yes",
        "wikidata": "Q3661736",
        "wikipedia": "ja:林野駅"
      }
    },
    {
      "id": "okayama_station_266925879",
      "osmId": 266925879,
      "osmType": "node",
      "prefectureId": "okayama",
      "type": "station",
      "subtype": "jr",
      "name": "刑部",
      "nameKana": null,
      "nameEn": "Osakabe",
      "operator": "西日本旅客鉄道",
      "network": null,
      "ref": null,
      "latitude": 35.0762602,
      "longitude": 133.5659802,
      "countryCode": "jp",
      "rawTags": {
        "KSJ2:LIN": "姫新線",
        "KSJ2:STN": "刑部",
        "name": "刑部",
        "name:en": "Osakabe",
        "name:ja": "刑部",
        "name:ko": "오사카베",
        "note": "National-Land Numerical Information (Railway) 2007, MLIT Japan",
        "note:ja": "国土数値情報（鉄道データ）平成19年　国土交通省",
        "operator": "西日本旅客鉄道",
        "public_transport": "station",
        "railway": "station",
        "source": "KSJ2",
        "source_ref": "http://nlftp.mlit.go.jp/ksj/jpgis/datalist/KsjTmplt-N02-v1_1.html",
        "train": "yes",
        "wikidata": "Q7105635",
        "wikipedia": "ja:刑部駅"
      }
    },
    {
      "id": "okayama_station_266926400",
      "osmId": 266926400,
      "osmType": "node",
      "prefectureId": "okayama",
      "type": "station",
      "subtype": "jr",
      "name": "岩山",
      "nameKana": null,
      "nameEn": "Iwayama",
      "operator": "西日本旅客鉄道",
      "network": null,
      "ref": null,
      "latitude": 35.0228418,
      "longitude": 133.5127736,
      "countryCode": "jp",
      "rawTags": {
        "KSJ2:LIN": "姫新線",
        "KSJ2:STN": "岩山",
        "name": "岩山",
        "name:en": "Iwayama",
        "name:ja": "岩山",
        "name:ko": "이와야마",
        "note": "National-Land Numerical Information (Railway) 2007, MLIT Japan",
        "note:ja": "国土数値情報（鉄道データ）平成19年　国土交通省",
        "operator": "西日本旅客鉄道",
        "operator:en": "West Japan Railway Company",
        "operator:ja": "西日本旅客鉄道",
        "public_transport": "station",
        "railway": "station",
        "source": "KSJ2",
        "source_ref": "http://nlftp.mlit.go.jp/ksj/jpgis/datalist/KsjTmplt-N02-v1_1.html",
        "train": "yes",
        "wikidata": "Q6100866",
        "wikipedia": "ja:岩山駅"
      }
    },
    {
      "id": "okayama_station_266926506",
      "osmId": 266926506,
      "osmType": "node",
      "prefectureId": "okayama",
      "type": "station",
      "subtype": "jr",
      "name": "美作千代",
      "nameKana": null,
      "nameEn": "Mimasaka-Sendai",
      "operator": "西日本旅客鉄道",
      "network": null,
      "ref": null,
      "latitude": 35.0584386,
      "longitude": 133.9061711,
      "countryCode": "jp",
      "rawTags": {
        "KSJ2:LIN": "姫新線",
        "KSJ2:STN": "美作千代",
        "name": "美作千代",
        "name:en": "Mimasaka-Sendai",
        "name:ja": "美作千代",
        "name:ko": "미마사카센다이",
        "note": "National-Land Numerical Information (Railway) 2007, MLIT Japan",
        "note:ja": "国土数値情報（鉄道データ）平成19年　国土交通省",
        "operator": "西日本旅客鉄道",
        "operator:en": "West Japan Railway Company",
        "operator:ja": "西日本旅客鉄道",
        "public_transport": "station",
        "railway": "station",
        "source": "KSJ2",
        "source_ref": "http://nlftp.mlit.go.jp/ksj/jpgis/datalist/KsjTmplt-N02-v1_1.html",
        "train": "yes",
        "wikidata": "Q3661695",
        "wikipedia": "ja:美作千代駅"
      }
    },
    {
      "id": "okayama_station_266930117",
      "osmId": 266930117,
      "osmType": "node",
      "prefectureId": "okayama",
      "type": "station",
      "subtype": "jr",
      "name": "美作追分",
      "nameKana": null,
      "nameEn": "Mimasaka-Oiwake",
      "operator": "西日本旅客鉄道",
      "network": null,
      "ref": null,
      "latitude": 35.0589005,
      "longitude": 133.8201161,
      "countryCode": "jp",
      "rawTags": {
        "KSJ2:LIN": "姫新線",
        "KSJ2:STN": "美作追分",
        "name": "美作追分",
        "name:en": "Mimasaka-Oiwake",
        "name:ja": "美作追分",
        "name:ko": "미마사카오이와케",
        "note": "National-Land Numerical Information (Railway) 2007, MLIT Japan",
        "note:ja": "国土数値情報（鉄道データ）平成19年　国土交通省",
        "operator": "西日本旅客鉄道",
        "public_transport": "station",
        "railway": "station",
        "source": "KSJ2",
        "source_ref": "http://nlftp.mlit.go.jp/ksj/jpgis/datalist/KsjTmplt-N02-v1_1.html",
        "train": "yes",
        "wikidata": "Q3611157",
        "wikipedia": "ja:美作追分駅"
      }
    },
    {
      "id": "okayama_station_266930260",
      "osmId": 266930260,
      "osmType": "node",
      "prefectureId": "okayama",
      "type": "station",
      "subtype": "jr",
      "name": "中国勝山",
      "nameKana": "ちゅうごくかつやま",
      "nameEn": "Chugoku-Katsuyama",
      "operator": "西日本旅客鉄道",
      "network": null,
      "ref": null,
      "latitude": 35.0804497,
      "longitude": 133.6946943,
      "countryCode": "jp",
      "rawTags": {
        "KSJ2:LIN": "姫新線",
        "KSJ2:STN": "中国勝山",
        "name": "中国勝山",
        "name:en": "Chugoku-Katsuyama",
        "name:ja": "中国勝山",
        "name:ja_kana": "ちゅうごくかつやま",
        "name:ja_rm": "Chūgoku-Katsuyama",
        "name:ko": "주고쿠카쓰야마",
        "note": "National-Land Numerical Information (Railway) 2007, MLIT Japan",
        "note:ja": "国土数値情報（鉄道データ）平成19年　国土交通省",
        "operator": "西日本旅客鉄道",
        "public_transport": "station",
        "railway": "station",
        "source": "KSJ2",
        "source_ref": "http://nlftp.mlit.go.jp/ksj/jpgis/datalist/KsjTmplt-N02-v1_1.html",
        "train": "yes",
        "wikidata": "Q3661646",
        "wikipedia": "ja:中国勝山駅"
      }
    },
    {
      "id": "okayama_station_266930290",
      "osmId": 266930290,
      "osmType": "node",
      "prefectureId": "okayama",
      "type": "station",
      "subtype": "jr",
      "name": "月田",
      "nameKana": null,
      "nameEn": "Tsukida",
      "operator": "西日本旅客鉄道",
      "network": null,
      "ref": null,
      "latitude": 35.048216,
      "longitude": 133.6667587,
      "countryCode": "jp",
      "rawTags": {
        "KSJ2:LIN": "姫新線",
        "KSJ2:STN": "月田",
        "name": "月田",
        "name:en": "Tsukida",
        "name:ja": "月田",
        "name:ko": "쓰키다",
        "note": "National-Land Numerical Information (Railway) 2007, MLIT Japan",
        "note:ja": "国土数値情報（鉄道データ）平成19年　国土交通省",
        "operator": "西日本旅客鉄道",
        "public_transport": "station",
        "railway": "station",
        "source": "KSJ2",
        "source_ref": "http://nlftp.mlit.go.jp/ksj/jpgis/datalist/KsjTmplt-N02-v1_1.html",
        "train": "yes",
        "wikidata": "Q3611185",
        "wikipedia": "ja:月田駅"
      }
    },
    {
      "id": "okayama_station_266930293",
      "osmId": 266930293,
      "osmType": "node",
      "prefectureId": "okayama",
      "type": "station",
      "subtype": "private",
      "name": "久世",
      "nameKana": "くせ",
      "nameEn": "Kuse",
      "operator": null,
      "network": null,
      "ref": null,
      "latitude": 35.0809912,
      "longitude": 133.7452808,
      "countryCode": "jp",
      "rawTags": {
        "KSJ2:LIN": "姫新線",
        "KSJ2:STN": "久世",
        "name": "久世",
        "name:en": "Kuse",
        "name:ja": "久世",
        "name:ja_kana": "くせ",
        "name:ja_rm": "Kuse",
        "name:ko": "구세",
        "note": "National-Land Numerical Information (Railway) 2007, MLIT Japan",
        "note:ja": "国土数値情報（鉄道データ）平成19年　国土交通省",
        "public_transport": "station",
        "railway": "station",
        "source": "KSJ2",
        "source_ref": "http://nlftp.mlit.go.jp/ksj/jpgis/datalist/KsjTmplt-N02-v1_1.html",
        "wikidata": "Q6447828",
        "wikipedia": "ja:久世駅"
      }
    },
    {
      "id": "okayama_station_266930334",
      "osmId": 266930334,
      "osmType": "node",
      "prefectureId": "okayama",
      "type": "station",
      "subtype": "jr",
      "name": "美作落合",
      "nameKana": null,
      "nameEn": "Mimasaka-Ochiai",
      "operator": "西日本旅客鉄道",
      "network": null,
      "ref": null,
      "latitude": 35.0231695,
      "longitude": 133.7596564,
      "countryCode": "jp",
      "rawTags": {
        "KSJ2:LIN": "姫新線",
        "KSJ2:STN": "美作落合",
        "name": "美作落合",
        "name:en": "Mimasaka-Ochiai",
        "name:ja": "美作落合",
        "name:ko": "미마사카오치아이",
        "note": "National-Land Numerical Information (Railway) 2007, MLIT Japan",
        "note:ja": "国土数値情報（鉄道データ）平成19年　国土交通省",
        "operator": "西日本旅客鉄道",
        "public_transport": "station",
        "railway": "station",
        "source": "KSJ2",
        "source_ref": "http://nlftp.mlit.go.jp/ksj/jpgis/datalist/KsjTmplt-N02-v1_1.html",
        "train": "yes",
        "wikidata": "Q3611001",
        "wikipedia": "ja:美作落合駅"
      }
    },
    {
      "id": "okayama_station_266930335",
      "osmId": 266930335,
      "osmType": "node",
      "prefectureId": "okayama",
      "type": "station",
      "subtype": "jr",
      "name": "坪井",
      "nameKana": null,
      "nameEn": "Tsuboi",
      "operator": "西日本旅客鉄道",
      "network": null,
      "ref": null,
      "latitude": 35.0621337,
      "longitude": 133.8773469,
      "countryCode": "jp",
      "rawTags": {
        "KSJ2:LIN": "姫新線",
        "KSJ2:STN": "坪井",
        "name": "坪井",
        "name:en": "Tsuboi",
        "name:ja": "坪井",
        "name:ko": "쓰보이",
        "note": "National-Land Numerical Information (Railway) 2007, MLIT Japan",
        "note:ja": "国土数値情報（鉄道データ）平成19年　国土交通省",
        "operator": "西日本旅客鉄道",
        "operator:en": "West Japan Railway Company",
        "operator:ja": "西日本旅客鉄道",
        "public_transport": "station",
        "railway": "station",
        "source": "KSJ2",
        "source_ref": "http://nlftp.mlit.go.jp/ksj/jpgis/datalist/KsjTmplt-N02-v1_1.html",
        "train": "yes",
        "wikidata": "Q3611011",
        "wikipedia": "ja:坪井駅"
      }
    },
    {
      "id": "okayama_station_266930340",
      "osmId": 266930340,
      "osmType": "node",
      "prefectureId": "okayama",
      "type": "station",
      "subtype": "jr",
      "name": "古見",
      "nameKana": "こみ",
      "nameEn": "Komi",
      "operator": "西日本旅客鉄道",
      "network": null,
      "ref": null,
      "latitude": 35.0491459,
      "longitude": 133.7606253,
      "countryCode": "jp",
      "rawTags": {
        "KSJ2:LIN": "姫新線",
        "KSJ2:STN": "古見",
        "name": "古見",
        "name:en": "Komi",
        "name:ja": "古見",
        "name:ja_kana": "こみ",
        "name:ja_rm": "Komi",
        "name:ko": "고미",
        "note": "National-Land Numerical Information (Railway) 2007, MLIT Japan",
        "note:ja": "国土数値情報（鉄道データ）平成19年　国土交通省",
        "operator": "西日本旅客鉄道",
        "public_transport": "station",
        "railway": "station",
        "source": "KSJ2",
        "source_ref": "http://nlftp.mlit.go.jp/ksj/jpgis/datalist/KsjTmplt-N02-v1_1.html",
        "wikidata": "Q3610911",
        "wikipedia": "ja:古見駅 (岡山県)"
      }
    },
    {
      "id": "okayama_station_266931136",
      "osmId": 266931136,
      "osmType": "node",
      "prefectureId": "okayama",
      "type": "station",
      "subtype": "jr",
      "name": "富原",
      "nameKana": null,
      "nameEn": "Tomihara",
      "operator": "西日本旅客鉄道",
      "network": null,
      "ref": null,
      "latitude": 35.0549302,
      "longitude": 133.6122002,
      "countryCode": "jp",
      "rawTags": {
        "KSJ2:LIN": "姫新線",
        "KSJ2:STN": "富原",
        "name": "富原",
        "name:en": "Tomihara",
        "name:ja": "富原",
        "name:ko": "도미하라",
        "note": "National-Land Numerical Information (Railway) 2007, MLIT Japan",
        "note:ja": "国土数値情報（鉄道データ）平成19年　国土交通省",
        "operator": "西日本旅客鉄道",
        "public_transport": "station",
        "railway": "station",
        "source": "KSJ2",
        "source_ref": "http://nlftp.mlit.go.jp/ksj/jpgis/datalist/KsjTmplt-N02-v1_1.html",
        "train": "yes",
        "wikidata": "Q7818894",
        "wikipedia": "ja:富原駅"
      }
    },
    {
      "id": "okayama_station_266931199",
      "osmId": 266931199,
      "osmType": "node",
      "prefectureId": "okayama",
      "type": "station",
      "subtype": "jr",
      "name": "丹治部",
      "nameKana": null,
      "nameEn": "Tajibe",
      "operator": "西日本旅客鉄道",
      "network": null,
      "ref": null,
      "latitude": 35.0461768,
      "longitude": 133.5535158,
      "countryCode": "jp",
      "rawTags": {
        "KSJ2:LIN": "姫新線",
        "KSJ2:STN": "丹治部",
        "name": "丹治部",
        "name:en": "Tajibe",
        "name:ja": "丹治部",
        "name:ko": "다지베",
        "note": "National-Land Numerical Information (Railway) 2007, MLIT Japan",
        "note:ja": "国土数値情報（鉄道データ）平成19年　国土交通省",
        "operator": "西日本旅客鉄道",
        "public_transport": "station",
        "railway": "station",
        "source": "KSJ2",
        "source_ref": "http://nlftp.mlit.go.jp/ksj/jpgis/datalist/KsjTmplt-N02-v1_1.html",
        "train": "yes",
        "wikidata": "Q3611240",
        "wikipedia": "ja:丹治部駅"
      }
    },
    {
      "id": "okayama_station_267054639",
      "osmId": 267054639,
      "osmType": "node",
      "prefectureId": "okayama",
      "type": "station",
      "subtype": "private",
      "name": "亀甲",
      "nameKana": null,
      "nameEn": "Kamenoko",
      "operator": null,
      "network": null,
      "ref": null,
      "latitude": 34.9987946,
      "longitude": 133.9591509,
      "countryCode": "jp",
      "rawTags": {
        "KSJ2:LIN": "津山線",
        "KSJ2:STN": "亀甲",
        "name": "亀甲",
        "name:en": "Kamenoko",
        "name:ja": "亀甲",
        "name:ko": "가메노코",
        "note": "National-Land Numerical Information (Railway) 2007, MLIT Japan",
        "note:ja": "国土数値情報（鉄道データ）平成19年　国土交通省",
        "public_transport": "station",
        "railway": "station",
        "source": "KSJ2",
        "source_ref": "http://nlftp.mlit.go.jp/ksj/jpgis/datalist/KsjTmplt-N02-v1_1.html",
        "wikidata": "Q6356927",
        "wikipedia": "ja:亀甲駅"
      }
    },
    {
      "id": "okayama_station_267054644",
      "osmId": 267054644,
      "osmType": "node",
      "prefectureId": "okayama",
      "type": "station",
      "subtype": "private",
      "name": "金川",
      "nameKana": null,
      "nameEn": "Kanagawa",
      "operator": null,
      "network": null,
      "ref": null,
      "latitude": 34.7920571,
      "longitude": 133.9337335,
      "countryCode": "jp",
      "rawTags": {
        "KSJ2:LIN": "津山線",
        "KSJ2:STN": "金川",
        "name": "金川",
        "name:en": "Kanagawa",
        "name:ja": "金川",
        "name:ko": "가나가와",
        "note": "National-Land Numerical Information (Railway) 2007, MLIT Japan",
        "note:ja": "国土数値情報（鉄道データ）平成19年　国土交通省",
        "public_transport": "station",
        "railway": "station",
        "source": "KSJ2",
        "source_ref": "http://nlftp.mlit.go.jp/ksj/jpgis/datalist/KsjTmplt-N02-v1_1.html",
        "wikidata": "Q11647060",
        "wikipedia": "ja:金川駅"
      }
    },
    {
      "id": "okayama_station_267054744",
      "osmId": 267054744,
      "osmType": "node",
      "prefectureId": "okayama",
      "type": "station",
      "subtype": "private",
      "name": "玉柏",
      "nameKana": null,
      "nameEn": "Tamagashi",
      "operator": null,
      "network": null,
      "ref": null,
      "latitude": 34.7169327,
      "longitude": 133.9644626,
      "countryCode": "jp",
      "rawTags": {
        "KSJ2:LIN": "津山線",
        "KSJ2:STN": "玉柏",
        "name": "玉柏",
        "name:en": "Tamagashi",
        "name:ja": "玉柏",
        "name:ko": "다마가시",
        "note": "National-Land Numerical Information (Railway) 2007, MLIT Japan",
        "note:ja": "国土数値情報（鉄道データ）平成19年　国土交通省",
        "public_transport": "station",
        "railway": "station",
        "source": "KSJ2",
        "source_ref": "http://nlftp.mlit.go.jp/ksj/jpgis/datalist/KsjTmplt-N02-v1_1.html",
        "wikidata": "Q7680532",
        "wikipedia": "ja:玉柏駅"
      }
    },
    {
      "id": "okayama_station_267054914",
      "osmId": 267054914,
      "osmType": "node",
      "prefectureId": "okayama",
      "type": "station",
      "subtype": "private",
      "name": "神目",
      "nameKana": null,
      "nameEn": "Kome",
      "operator": null,
      "network": null,
      "ref": null,
      "latitude": 34.8961727,
      "longitude": 133.9351998,
      "countryCode": "jp",
      "rawTags": {
        "KSJ2:LIN": "津山線",
        "KSJ2:STN": "神目",
        "name": "神目",
        "name:en": "Kome",
        "name:ja": "神目",
        "name:ja_rm": "Kōme",
        "name:ko": "고우메",
        "note": "National-Land Numerical Information (Railway) 2007, MLIT Japan",
        "note:ja": "国土数値情報（鉄道データ）平成19年　国土交通省",
        "public_transport": "station",
        "railway": "station",
        "source": "KSJ2",
        "source_ref": "http://nlftp.mlit.go.jp/ksj/jpgis/datalist/KsjTmplt-N02-v1_1.html",
        "wikidata": "Q6455209",
        "wikipedia": "ja:神目駅"
      }
    },
    {
      "id": "okayama_station_267054922",
      "osmId": 267054922,
      "osmType": "node",
      "prefectureId": "okayama",
      "type": "station",
      "subtype": "private",
      "name": "津山口",
      "nameKana": null,
      "nameEn": "Tsuyamaguchi",
      "operator": null,
      "network": null,
      "ref": null,
      "latitude": 35.0545867,
      "longitude": 133.9828585,
      "countryCode": "jp",
      "rawTags": {
        "KSJ2:LIN": "津山線",
        "KSJ2:STN": "津山口",
        "name": "津山口",
        "name:en": "Tsuyamaguchi",
        "name:ja": "津山口",
        "name:ko": "쓰야마구치",
        "note": "National-Land Numerical Information (Railway) 2007, MLIT Japan",
        "note:ja": "国土数値情報（鉄道データ）平成19年　国土交通省",
        "public_transport": "station",
        "railway": "station",
        "source": "KSJ2",
        "source_ref": "http://nlftp.mlit.go.jp/ksj/jpgis/datalist/KsjTmplt-N02-v1_1.html",
        "train": "yes",
        "wikidata": "Q7850364",
        "wikipedia": "ja:津山口駅"
      }
    },
    {
      "id": "okayama_station_267055003",
      "osmId": 267055003,
      "osmType": "node",
      "prefectureId": "okayama",
      "type": "station",
      "subtype": "private",
      "name": "弓削",
      "nameKana": null,
      "nameEn": "Yuge",
      "operator": null,
      "network": null,
      "ref": null,
      "latitude": 34.9255556,
      "longitude": 133.957848,
      "countryCode": "jp",
      "rawTags": {
        "KSJ2:LIN": "津山線",
        "KSJ2:STN": "弓削",
        "name": "弓削",
        "name:en": "Yuge",
        "name:ja": "弓削",
        "name:ko": "유게",
        "note": "National-Land Numerical Information (Railway) 2007, MLIT Japan",
        "note:ja": "国土数値情報（鉄道データ）平成19年　国土交通省",
        "public_transport": "station",
        "railway": "station",
        "source": "KSJ2",
        "source_ref": "http://nlftp.mlit.go.jp/ksj/jpgis/datalist/KsjTmplt-N02-v1_1.html",
        "wikidata": "Q8060347",
        "wikipedia": "ja:弓削駅"
      }
    },
    {
      "id": "okayama_station_267055010",
      "osmId": 267055010,
      "osmType": "node",
      "prefectureId": "okayama",
      "type": "station",
      "subtype": "jr",
      "name": "備前原",
      "nameKana": null,
      "nameEn": "Bizen-Hara",
      "operator": "西日本旅客鉄道",
      "network": null,
      "ref": null,
      "latitude": 34.7049705,
      "longitude": 133.9448882,
      "countryCode": "jp",
      "rawTags": {
        "KSJ2:LIN": "津山線",
        "KSJ2:STN": "備前原",
        "name": "備前原",
        "name:en": "Bizen-Hara",
        "name:ja": "備前原",
        "name:ko": "비젠하라",
        "note": "National-Land Numerical Information (Railway) 2007, MLIT Japan",
        "note:ja": "国土数値情報（鉄道データ）平成19年　国土交通省",
        "operator": "西日本旅客鉄道",
        "public_transport": "station",
        "railway": "station",
        "source": "KSJ2",
        "source_ref": "http://nlftp.mlit.go.jp/ksj/jpgis/datalist/KsjTmplt-N02-v1_1.html",
        "wikidata": "Q4919388",
        "wikipedia": "ja:備前原駅"
      }
    },
    {
      "id": "okayama_station_267055051",
      "osmId": 267055051,
      "osmType": "node",
      "prefectureId": "okayama",
      "type": "station",
      "subtype": "private",
      "name": "牧山",
      "nameKana": null,
      "nameEn": "Makiyama",
      "operator": null,
      "network": null,
      "ref": null,
      "latitude": 34.7410383,
      "longitude": 133.9606731,
      "countryCode": "jp",
      "rawTags": {
        "KSJ2:LIN": "津山線",
        "KSJ2:STN": "牧山",
        "name": "牧山",
        "name:en": "Makiyama",
        "name:ja": "牧山",
        "name:ko": "마키야마",
        "note": "National-Land Numerical Information (Railway) 2007, MLIT Japan",
        "note:ja": "国土数値情報（鉄道データ）平成19年　国土交通省",
        "public_transport": "station",
        "railway": "station",
        "source": "KSJ2",
        "source_ref": "http://nlftp.mlit.go.jp/ksj/jpgis/datalist/KsjTmplt-N02-v1_1.html",
        "wikidata": "Q6739769",
        "wikipedia": "ja:牧山駅"
      }
    },
    {
      "id": "okayama_station_267055382",
      "osmId": 267055382,
      "osmType": "node",
      "prefectureId": "okayama",
      "type": "station",
      "subtype": "private",
      "name": "誕生寺",
      "nameKana": null,
      "nameEn": "Tanjoji",
      "operator": null,
      "network": null,
      "ref": null,
      "latitude": 34.9514682,
      "longitude": 133.9593952,
      "countryCode": "jp",
      "rawTags": {
        "KSJ2:LIN": "津山線",
        "KSJ2:STN": "誕生寺",
        "name": "誕生寺",
        "name:en": "Tanjoji",
        "name:ja": "誕生寺",
        "name:ja_rm": "Tanjōji",
        "name:ko": "단조지",
        "note": "National-Land Numerical Information (Railway) 2007, MLIT Japan",
        "note:ja": "国土数値情報（鉄道データ）平成19年　国土交通省",
        "public_transport": "station",
        "railway": "station",
        "source": "KSJ2",
        "source_ref": "http://nlftp.mlit.go.jp/ksj/jpgis/datalist/KsjTmplt-N02-v1_1.html",
        "wikidata": "Q7683449",
        "wikipedia": "ja:誕生寺駅"
      }
    },
    {
      "id": "okayama_station_267055383",
      "osmId": 267055383,
      "osmType": "node",
      "prefectureId": "okayama",
      "type": "station",
      "subtype": "private",
      "name": "小原",
      "nameKana": null,
      "nameEn": "Obara",
      "operator": null,
      "network": null,
      "ref": null,
      "latitude": 34.968556,
      "longitude": 133.9620004,
      "countryCode": "jp",
      "rawTags": {
        "KSJ2:LIN": "津山線",
        "KSJ2:STN": "小原",
        "name": "小原",
        "name:en": "Obara",
        "name:ja": "小原",
        "name:ko": "오바라",
        "note": "National-Land Numerical Information (Railway) 2007, MLIT Japan",
        "note:ja": "国土数値情報（鉄道データ）平成19年　国土交通省",
        "public_transport": "station",
        "railway": "station",
        "source": "KSJ2",
        "source_ref": "http://nlftp.mlit.go.jp/ksj/jpgis/datalist/KsjTmplt-N02-v1_1.html",
        "wikidata": "Q7074633",
        "wikipedia": "ja:小原駅"
      }
    },
    {
      "id": "okayama_station_267055390",
      "osmId": 267055390,
      "osmType": "node",
      "prefectureId": "okayama",
      "type": "station",
      "subtype": "private",
      "name": "野々口",
      "nameKana": null,
      "nameEn": "Nonokuchi",
      "operator": null,
      "network": null,
      "ref": null,
      "latitude": 34.7712833,
      "longitude": 133.9325249,
      "countryCode": "jp",
      "rawTags": {
        "KSJ2:LIN": "津山線",
        "KSJ2:STN": "野々口",
        "name": "野々口",
        "name:en": "Nonokuchi",
        "name:ja": "野々口",
        "name:ko": "노노쿠치",
        "note": "National-Land Numerical Information (Railway) 2007, MLIT Japan",
        "note:ja": "国土数値情報（鉄道データ）平成19年　国土交通省",
        "public_transport": "station",
        "railway": "station",
        "source": "KSJ2",
        "source_ref": "http://nlftp.mlit.go.jp/ksj/jpgis/datalist/KsjTmplt-N02-v1_1.html",
        "wikidata": "Q11644895",
        "wikipedia": "ja:野々口駅"
      }
    },
    {
      "id": "okayama_station_267055539",
      "osmId": 267055539,
      "osmType": "node",
      "prefectureId": "okayama",
      "type": "station",
      "subtype": "private",
      "name": "佐良山",
      "nameKana": null,
      "nameEn": "Sarayama",
      "operator": null,
      "network": null,
      "ref": null,
      "latitude": 35.0320527,
      "longitude": 133.9607861,
      "countryCode": "jp",
      "rawTags": {
        "KSJ2:LIN": "津山線",
        "KSJ2:STN": "佐良山",
        "name": "佐良山",
        "name:en": "Sarayama",
        "name:ja": "佐良山",
        "name:ko": "사라야마",
        "note": "National-Land Numerical Information (Railway) 2007, MLIT Japan",
        "note:ja": "国土数値情報（鉄道データ）平成19年　国土交通省",
        "public_transport": "station",
        "railway": "station",
        "source": "KSJ2",
        "source_ref": "http://nlftp.mlit.go.jp/ksj/jpgis/datalist/KsjTmplt-N02-v1_1.html",
        "wikidata": "Q7423458",
        "wikipedia": "ja:佐良山駅"
      }
    },
    {
      "id": "okayama_station_267055795",
      "osmId": 267055795,
      "osmType": "node",
      "prefectureId": "okayama",
      "type": "station",
      "subtype": "private",
      "name": "福渡",
      "nameKana": null,
      "nameEn": "Fukuwatari",
      "operator": null,
      "network": null,
      "ref": null,
      "latitude": 34.8704336,
      "longitude": 133.9039797,
      "countryCode": "jp",
      "rawTags": {
        "KSJ2:LIN": "津山線",
        "KSJ2:STN": "福渡",
        "name": "福渡",
        "name:en": "Fukuwatari",
        "name:ja": "福渡",
        "name:ko": "후쿠와타리",
        "note": "National-Land Numerical Information (Railway) 2007, MLIT Japan",
        "note:ja": "国土数値情報（鉄道データ）平成19年　国土交通省",
        "public_transport": "station",
        "railway": "station",
        "source": "KSJ2",
        "source_ref": "http://nlftp.mlit.go.jp/ksj/jpgis/datalist/KsjTmplt-N02-v1_1.html",
        "wikidata": "Q5507752",
        "wikipedia": "ja:福渡駅"
      }
    },
    {
      "id": "okayama_station_267057667",
      "osmId": 267057667,
      "osmType": "node",
      "prefectureId": "okayama",
      "type": "station",
      "subtype": "private",
      "name": "建部",
      "nameKana": null,
      "nameEn": "Takebe",
      "operator": null,
      "network": null,
      "ref": null,
      "latitude": 34.8422745,
      "longitude": 133.8991477,
      "countryCode": "jp",
      "rawTags": {
        "KSJ2:LIN": "津山線",
        "KSJ2:STN": "建部",
        "name": "建部",
        "name:en": "Takebe",
        "name:ja": "建部",
        "name:ko": "다케베",
        "note": "National-Land Numerical Information (Railway) 2007, MLIT Japan",
        "note:ja": "国土数値情報（鉄道データ）平成19年　国土交通省",
        "public_transport": "station",
        "railway": "station",
        "source": "KSJ2",
        "source_ref": "http://nlftp.mlit.go.jp/ksj/jpgis/datalist/KsjTmplt-N02-v1_1.html",
        "wikidata": "Q7677955",
        "wikipedia": "ja:建部駅"
      }
    },
    {
      "id": "okayama_station_267057849",
      "osmId": 267057849,
      "osmType": "node",
      "prefectureId": "okayama",
      "type": "station",
      "subtype": "jr",
      "name": "法界院",
      "nameKana": null,
      "nameEn": "Hōkaiin",
      "operator": "西日本旅客鉄道",
      "network": null,
      "ref": null,
      "latitude": 34.684794,
      "longitude": 133.9274864,
      "countryCode": "jp",
      "rawTags": {
        "KSJ2:LIN": "津山線",
        "KSJ2:STN": "法界院",
        "name": "法界院",
        "name:en": "Hōkaiin",
        "name:ja": "法界院",
        "name:ja_rm": "Hōkaiin",
        "name:ko": "호카이인",
        "note": "National-Land Numerical Information (Railway) 2007, MLIT Japan",
        "note:ja": "国土数値情報（鉄道データ）平成19年　国土交通省",
        "operator": "西日本旅客鉄道",
        "public_transport": "station",
        "railway": "station",
        "source": "KSJ2",
        "source_ref": "http://nlftp.mlit.go.jp/ksj/jpgis/datalist/KsjTmplt-N02-v1_1.html",
        "wikidata": "Q5965215",
        "wikipedia": "ja:法界院駅"
      }
    },
    {
      "id": "okayama_station_267058713",
      "osmId": 267058713,
      "osmType": "node",
      "prefectureId": "okayama",
      "type": "station",
      "subtype": "jr",
      "name": "東岡山",
      "nameKana": null,
      "nameEn": "Higashi-Okayama",
      "operator": "西日本旅客鉄道",
      "network": null,
      "ref": "JR-S04;JR-N04",
      "latitude": 34.6856636,
      "longitude": 133.9881595,
      "countryCode": "jp",
      "rawTags": {
        "KSJ2:LIN": "山陽線",
        "KSJ2:STN": "東岡山",
        "name": "東岡山",
        "name:en": "Higashi-Okayama",
        "name:ja": "東岡山",
        "name:ko": "히가시오카야마",
        "note": "National-Land Numerical Information (Railway) 2007, MLIT Japan",
        "note:ja": "国土数値情報（鉄道データ）平成19年　国土交通省",
        "operator": "西日本旅客鉄道",
        "operator:en": "West Japan Railway Company",
        "public_transport": "station",
        "railway": "station",
        "ref": "JR-S04;JR-N04",
        "source": "KSJ2",
        "source_ref": "http://nlftp.mlit.go.jp/ksj/jpgis/datalist/KsjTmplt-N02-v1_1.html",
        "train": "yes",
        "wikidata": "Q3661769",
        "wikipedia": "ja:東岡山駅"
      }
    },
    {
      "id": "okayama_station_267059821",
      "osmId": 267059821,
      "osmType": "node",
      "prefectureId": "okayama",
      "type": "station",
      "subtype": "private",
      "name": "美作河井",
      "nameKana": "みまさかかわい",
      "nameEn": "Mimasaka-Kawai",
      "operator": null,
      "network": null,
      "ref": null,
      "latitude": 35.2053071,
      "longitude": 134.1070101,
      "countryCode": "jp",
      "rawTags": {
        "KSJ2:LIN": "因美線",
        "KSJ2:STN": "美作河井",
        "name": "美作河井",
        "name:en": "Mimasaka-Kawai",
        "name:ja": "美作河井",
        "name:ja-Hira": "みまさかかわい",
        "name:ko": "미마사카카와이",
        "note": "National-Land Numerical Information (Railway) 2007, MLIT Japan",
        "note:ja": "国土数値情報（鉄道データ）平成19年　国土交通省",
        "public_transport": "station",
        "railway": "station",
        "source": "KSJ2",
        "source_ref": "http://nlftp.mlit.go.jp/ksj/jpgis/datalist/KsjTmplt-N02-v1_1.html",
        "wikidata": "Q3610987",
        "wikipedia": "ja:美作河井駅"
      }
    },
    {
      "id": "okayama_station_267059830",
      "osmId": 267059830,
      "osmType": "node",
      "prefectureId": "okayama",
      "type": "station",
      "subtype": "private",
      "name": "美作滝尾",
      "nameKana": "みまさかたきお",
      "nameEn": "Mimasaka-Takio",
      "operator": null,
      "network": null,
      "ref": null,
      "latitude": 35.1236569,
      "longitude": 134.0713819,
      "countryCode": "jp",
      "rawTags": {
        "KSJ2:LIN": "因美線",
        "KSJ2:STN": "美作滝尾",
        "name": "美作滝尾",
        "name:en": "Mimasaka-Takio",
        "name:ja": "美作滝尾",
        "name:ja-Hira": "みまさかたきお",
        "name:ko": "미마사카타키오",
        "note": "National-Land Numerical Information (Railway) 2007, MLIT Japan",
        "note:ja": "国土数値情報（鉄道データ）平成19年　国土交通省",
        "public_transport": "station",
        "railway": "station",
        "source": "KSJ2",
        "source_ref": "http://nlftp.mlit.go.jp/ksj/jpgis/datalist/KsjTmplt-N02-v1_1.html",
        "wikidata": "Q6862014",
        "wikipedia": "ja:美作滝尾駅"
      }
    },
    {
      "id": "okayama_station_267059932",
      "osmId": 267059932,
      "osmType": "node",
      "prefectureId": "okayama",
      "type": "station",
      "subtype": "private",
      "name": "美作加茂",
      "nameKana": "みまさかかも",
      "nameEn": "Mimasaka-Kamo",
      "operator": null,
      "network": null,
      "ref": null,
      "latitude": 35.1694399,
      "longitude": 134.0622633,
      "countryCode": "jp",
      "rawTags": {
        "KSJ2:LIN": "因美線",
        "KSJ2:STN": "美作加茂",
        "name": "美作加茂",
        "name:en": "Mimasaka-Kamo",
        "name:ja": "美作加茂",
        "name:ja-Hira": "みまさかかも",
        "name:ko": "미마사카카모",
        "note": "National-Land Numerical Information (Railway) 2007, MLIT Japan",
        "note:ja": "国土数値情報（鉄道データ）平成19年　国土交通省",
        "public_transport": "station",
        "railway": "station",
        "source": "KSJ2",
        "source_ref": "http://nlftp.mlit.go.jp/ksj/jpgis/datalist/KsjTmplt-N02-v1_1.html",
        "train": "yes",
        "wikidata": "Q6862012",
        "wikipedia": "ja:美作加茂駅"
      }
    },
    {
      "id": "okayama_station_267060565",
      "osmId": 267060565,
      "osmType": "node",
      "prefectureId": "okayama",
      "type": "station",
      "subtype": "private",
      "name": "三浦",
      "nameKana": "みうら",
      "nameEn": "Miura",
      "operator": null,
      "network": null,
      "ref": null,
      "latitude": 35.141664,
      "longitude": 134.0780212,
      "countryCode": "jp",
      "rawTags": {
        "KSJ2:LIN": "因美線",
        "KSJ2:STN": "三浦",
        "name": "三浦",
        "name:en": "Miura",
        "name:ja": "三浦",
        "name:ja-Hira": "みうら",
        "name:ko": "미우라",
        "note": "National-Land Numerical Information (Railway) 2007, MLIT Japan",
        "note:ja": "国土数値情報（鉄道データ）平成19年　国土交通省",
        "public_transport": "station",
        "railway": "station",
        "source": "KSJ2",
        "source_ref": "http://nlftp.mlit.go.jp/ksj/jpgis/datalist/KsjTmplt-N02-v1_1.html",
        "wikidata": "Q6883687",
        "wikipedia": "ja:三浦駅"
      }
    },
    {
      "id": "okayama_station_267060750",
      "osmId": 267060750,
      "osmType": "node",
      "prefectureId": "okayama",
      "type": "station",
      "subtype": "private",
      "name": "知和",
      "nameKana": "ちわ",
      "nameEn": "Chiwa",
      "operator": null,
      "network": null,
      "ref": null,
      "latitude": 35.1928538,
      "longitude": 134.077514,
      "countryCode": "jp",
      "rawTags": {
        "KSJ2:LIN": "因美線",
        "KSJ2:STN": "知和",
        "name": "知和",
        "name:en": "Chiwa",
        "name:ja": "知和",
        "name:ja-Hira": "ちわ",
        "name:ko": "지와",
        "note": "National-Land Numerical Information (Railway) 2007, MLIT Japan",
        "note:ja": "国土数値情報（鉄道データ）平成19年　国土交通省",
        "public_transport": "station",
        "railway": "station",
        "source": "KSJ2",
        "source_ref": "http://nlftp.mlit.go.jp/ksj/jpgis/datalist/KsjTmplt-N02-v1_1.html",
        "wikidata": "Q3611176",
        "wikipedia": "ja:知和駅"
      }
    },
    {
      "id": "okayama_station_267060876",
      "osmId": 267060876,
      "osmType": "node",
      "prefectureId": "okayama",
      "type": "station",
      "subtype": "jr",
      "name": "高野",
      "nameKana": "たかの",
      "nameEn": "Takano",
      "operator": "日本旅客鉄道",
      "network": null,
      "ref": null,
      "latitude": 35.08042,
      "longitude": 134.066007,
      "countryCode": "jp",
      "rawTags": {
        "KSJ2:LIN": "因美線",
        "KSJ2:STN": "高野",
        "name": "高野",
        "name:en": "Takano",
        "name:ja": "高野",
        "name:ja-Hira": "たかの",
        "name:ko": "다카노",
        "note": "National-Land Numerical Information (Railway) 2007, MLIT Japan",
        "note:ja": "国土数値情報（鉄道データ）平成19年　国土交通省",
        "operator": "日本旅客鉄道",
        "public_transport": "station",
        "railway": "station",
        "source": "KSJ2",
        "source_ref": "http://nlftp.mlit.go.jp/ksj/jpgis/datalist/KsjTmplt-N02-v1_1.html",
        "wikidata": "Q7677184",
        "wikipedia": "ja:高野駅 (岡山県)"
      }
    },
    {
      "id": "okayama_station_270866516",
      "osmId": 270866516,
      "osmType": "node",
      "prefectureId": "okayama",
      "type": "station",
      "subtype": "private",
      "name": "三菱自工前",
      "nameKana": null,
      "nameEn": "Mitsubishijiko-mae",
      "operator": "水島臨海鉄道",
      "network": "水島臨海鉄道水島本線",
      "ref": null,
      "latitude": 34.5229584,
      "longitude": 133.7331149,
      "countryCode": "jp",
      "rawTags": {
        "KSJ2:LIN": "水島本線",
        "KSJ2:STN": "三菱自工前",
        "name": "三菱自工前",
        "name:en": "Mitsubishijiko-mae",
        "name:ja": "三菱自工前",
        "name:ko": "미쓰비시지코마에",
        "network": "水島臨海鉄道水島本線",
        "note": "National-Land Numerical Information (Railway) 2007, MLIT Japan",
        "note:ja": "国土数値情報（鉄道データ）平成19年　国土交通省",
        "operator": "水島臨海鉄道",
        "operator:en": "Mizushima Rinkai Railway",
        "public_transport": "station",
        "railway": "station",
        "source": "KSJ2",
        "source_ref": "http://nlftp.mlit.go.jp/ksj/jpgis/datalist/KsjTmplt-N02-v1_1.html",
        "train": "yes",
        "wikidata": "Q11357127",
        "wikipedia": "ja:三菱自工前駅"
      }
    },
    {
      "id": "okayama_station_270866536",
      "osmId": 270866536,
      "osmType": "node",
      "prefectureId": "okayama",
      "type": "station",
      "subtype": "private",
      "name": "栄",
      "nameKana": null,
      "nameEn": "Sakae",
      "operator": "水島臨海鉄道",
      "network": "水島臨海鉄道水島本線",
      "ref": null,
      "latitude": 34.5377661,
      "longitude": 133.7448862,
      "countryCode": "jp",
      "rawTags": {
        "KSJ2:LIN": "水島本線",
        "KSJ2:STN": "栄",
        "name": "栄",
        "name:en": "Sakae",
        "name:ja": "栄",
        "name:ko": "사카에",
        "network": "水島臨海鉄道水島本線",
        "note": "National-Land Numerical Information (Railway) 2007, MLIT Japan",
        "note:ja": "国土数値情報（鉄道データ）平成19年　国土交通省",
        "operator": "水島臨海鉄道",
        "public_transport": "station",
        "railway": "station",
        "source": "KSJ2",
        "source_ref": "http://nlftp.mlit.go.jp/ksj/jpgis/datalist/KsjTmplt-N02-v1_1.html",
        "train": "yes",
        "wikidata": "Q11535767",
        "wikipedia": "ja:栄駅 (岡山県)"
      }
    },
    {
      "id": "okayama_station_270866538",
      "osmId": 270866538,
      "osmType": "node",
      "prefectureId": "okayama",
      "type": "station",
      "subtype": "private",
      "name": "球場前",
      "nameKana": null,
      "nameEn": "Kyujo-mae",
      "operator": "水島臨海鉄道",
      "network": null,
      "ref": null,
      "latitude": 34.5912368,
      "longitude": 133.7473548,
      "countryCode": "jp",
      "rawTags": {
        "KSJ2:LIN": "水島本線",
        "KSJ2:STN": "球場前",
        "alt_name:ko": "규조마에",
        "name": "球場前",
        "name:en": "Kyujo-mae",
        "name:ja": "球場前",
        "name:ko": "구장앞",
        "note": "National-Land Numerical Information (Railway) 2007, MLIT Japan",
        "note:ja": "国土数値情報（鉄道データ）平成19年　国土交通省",
        "operator": "水島臨海鉄道",
        "public_transport": "station",
        "railway": "station",
        "source": "KSJ2",
        "source_ref": "http://nlftp.mlit.go.jp/ksj/jpgis/datalist/KsjTmplt-N02-v1_1.html",
        "train": "yes",
        "wikidata": "Q11573498",
        "wikipedia": "ja:球場前駅 (岡山県)"
      }
    },
    {
      "id": "okayama_station_270866584",
      "osmId": 270866584,
      "osmType": "node",
      "prefectureId": "okayama",
      "type": "station",
      "subtype": "private",
      "name": "弥生",
      "nameKana": null,
      "nameEn": "Yayoi",
      "operator": "水島臨海鉄道",
      "network": "水島臨海鉄道水島本線",
      "ref": null,
      "latitude": 34.543717,
      "longitude": 133.7474038,
      "countryCode": "jp",
      "rawTags": {
        "KSJ2:LIN": "水島本線",
        "KSJ2:STN": "弥生",
        "name": "弥生",
        "name:en": "Yayoi",
        "name:ja": "弥生",
        "name:ko": "야요이",
        "network": "水島臨海鉄道水島本線",
        "note": "National-Land Numerical Information (Railway) 2007, MLIT Japan",
        "note:ja": "国土数値情報（鉄道データ）平成19年　国土交通省",
        "operator": "水島臨海鉄道",
        "public_transport": "station",
        "railway": "station",
        "source": "KSJ2",
        "source_ref": "http://nlftp.mlit.go.jp/ksj/jpgis/datalist/KsjTmplt-N02-v1_1.html",
        "train": "yes",
        "wikidata": "Q11487476",
        "wikipedia": "ja:弥生駅"
      }
    },
    {
      "id": "okayama_station_270866603",
      "osmId": 270866603,
      "osmType": "node",
      "prefectureId": "okayama",
      "type": "station",
      "subtype": "private",
      "name": "倉敷市",
      "nameKana": null,
      "nameEn": "Kurashikishi",
      "operator": "水島臨海鉄道",
      "network": "水島臨海鉄道水島本線",
      "ref": null,
      "latitude": 34.6009414,
      "longitude": 133.7649638,
      "countryCode": "jp",
      "rawTags": {
        "KSJ2:LIN": "水島本線",
        "KSJ2:STN": "倉敷市",
        "name": "倉敷市",
        "name:en": "Kurashikishi",
        "name:ja": "倉敷市",
        "name:ko": "구라시키시",
        "network": "水島臨海鉄道水島本線",
        "note:ja": "国土数値情報（鉄道データ）平成19年　国土交通省",
        "operator": "水島臨海鉄道",
        "operator:en": "Mizushima Rinkai Railway",
        "operator:ja": "水島臨海鉄道",
        "public_transport": "station",
        "railway": "station",
        "source": "KSJ2",
        "source_ref": "http://nlftp.mlit.go.jp/ksj/jpgis/datalist/KsjTmplt-N02-v1_1.html",
        "train": "yes",
        "wikidata": "Q10888157",
        "wikipedia": "ja:倉敷市駅"
      }
    },
    {
      "id": "okayama_station_270866604",
      "osmId": 270866604,
      "osmType": "node",
      "prefectureId": "okayama",
      "type": "station",
      "subtype": "private",
      "name": "西富井",
      "nameKana": null,
      "nameEn": "Nishitomi",
      "operator": "水島臨海鉄道",
      "network": "水島臨海鉄道水島本線",
      "ref": null,
      "latitude": 34.5775703,
      "longitude": 133.7433446,
      "countryCode": "jp",
      "rawTags": {
        "KSJ2:LIN": "水島本線",
        "KSJ2:STN": "西富井",
        "name": "西富井",
        "name:en": "Nishitomi",
        "name:ja": "西富井",
        "name:ko": "니시토미이",
        "network": "水島臨海鉄道水島本線",
        "note": "National-Land Numerical Information (Railway) 2007, MLIT Japan",
        "note:ja": "国土数値情報（鉄道データ）平成19年　国土交通省",
        "operator": "水島臨海鉄道",
        "public_transport": "station",
        "railway": "station",
        "source": "KSJ2",
        "source_ref": "http://nlftp.mlit.go.jp/ksj/jpgis/datalist/KsjTmplt-N02-v1_1.html",
        "train": "yes",
        "wikidata": "Q11627676",
        "wikipedia": "ja:西富井駅"
      }
    },
    {
      "id": "okayama_station_270866607",
      "osmId": 270866607,
      "osmType": "node",
      "prefectureId": "okayama",
      "type": "station",
      "subtype": "private",
      "name": "福井",
      "nameKana": null,
      "nameEn": "Fukui",
      "operator": "水島臨海鉄道",
      "network": "水島臨海鉄道水島本線",
      "ref": null,
      "latitude": 34.5697694,
      "longitude": 133.7444441,
      "countryCode": "jp",
      "rawTags": {
        "KSJ2:LIN": "水島本線",
        "KSJ2:STN": "福井",
        "name": "福井",
        "name:en": "Fukui",
        "name:ja": "福井",
        "name:ko": "후쿠이",
        "network": "水島臨海鉄道水島本線",
        "note": "National-Land Numerical Information (Railway) 2007, MLIT Japan",
        "note:ja": "国土数値情報（鉄道データ）平成19年　国土交通省",
        "operator": "水島臨海鉄道",
        "public_transport": "station",
        "railway": "station",
        "source": "KSJ2",
        "source_ref": "http://nlftp.mlit.go.jp/ksj/jpgis/datalist/KsjTmplt-N02-v1_1.html",
        "train": "yes",
        "wikidata": "Q11591774",
        "wikipedia": "ja:福井駅 (岡山県)"
      }
    },
    {
      "id": "okayama_station_270866623",
      "osmId": 270866623,
      "osmType": "node",
      "prefectureId": "okayama",
      "type": "station",
      "subtype": "private",
      "name": "常盤",
      "nameKana": null,
      "nameEn": "Tokiwa",
      "operator": "水島臨海鉄道",
      "network": "水島臨海鉄道水島本線",
      "ref": null,
      "latitude": 34.5345508,
      "longitude": 133.7434695,
      "countryCode": "jp",
      "rawTags": {
        "KSJ2:LIN": "水島本線",
        "KSJ2:STN": "常盤",
        "name": "常盤",
        "name:en": "Tokiwa",
        "name:ja": "常盤",
        "name:ko": "도키와",
        "network": "水島臨海鉄道水島本線",
        "note": "National-Land Numerical Information (Railway) 2007, MLIT Japan",
        "note:ja": "国土数値情報（鉄道データ）平成19年　国土交通省",
        "operator": "水島臨海鉄道",
        "public_transport": "station",
        "railway": "station",
        "source": "KSJ2",
        "source_ref": "http://nlftp.mlit.go.jp/ksj/jpgis/datalist/KsjTmplt-N02-v1_1.html",
        "wikidata": "Q11481547",
        "wikipedia": "ja:常盤駅 (岡山県)"
      }
    },
    {
      "id": "okayama_station_270866626",
      "osmId": 270866626,
      "osmType": "node",
      "prefectureId": "okayama",
      "type": "station",
      "subtype": "private",
      "name": "浦田",
      "nameKana": null,
      "nameEn": "Urada",
      "operator": "水島臨海鉄道",
      "network": "水島臨海鉄道水島本線",
      "ref": null,
      "latitude": 34.5611335,
      "longitude": 133.7498617,
      "countryCode": "jp",
      "rawTags": {
        "KSJ2:LIN": "水島本線",
        "KSJ2:STN": "浦田",
        "name": "浦田",
        "name:en": "Urada",
        "name:ja": "浦田",
        "name:ko": "우라다",
        "network": "水島臨海鉄道水島本線",
        "note": "National-Land Numerical Information (Railway) 2007, MLIT Japan",
        "note:ja": "国土数値情報（鉄道データ）平成19年　国土交通省",
        "operator": "水島臨海鉄道",
        "public_transport": "station",
        "railway": "station",
        "source": "KSJ2",
        "source_ref": "http://nlftp.mlit.go.jp/ksj/jpgis/datalist/KsjTmplt-N02-v1_1.html",
        "train": "yes",
        "wikidata": "Q11558334",
        "wikipedia": "ja:浦田駅 (岡山県)"
      }
    },
    {
      "id": "okayama_station_339080252",
      "osmId": 339080252,
      "osmType": "node",
      "prefectureId": "okayama",
      "type": "station",
      "subtype": "private",
      "name": "子守唄の里高屋",
      "nameKana": "こもりうたのさとたかや",
      "nameEn": "Komoriuta no sato Takaya",
      "operator": "井原鉄道",
      "network": null,
      "ref": null,
      "latitude": 34.5818061,
      "longitude": 133.4333612,
      "countryCode": "jp",
      "rawTags": {
        "KSJ2:LIN": "井原線",
        "KSJ2:STN": "子守唄の里高屋",
        "name": "子守唄の里高屋",
        "name:en": "Komoriuta no sato Takaya",
        "name:ja": "子守唄の里高屋",
        "name:ja-Hira": "こもりうたのさとたかや",
        "name:ko": "고모리우타노사토타카야",
        "note": "National-Land Numerical Information (Railway) 2007, MLIT Japan",
        "note:ja": "国土数値情報（鉄道データ）平成19年　国土交通省",
        "operator": "井原鉄道",
        "operator:en": "Ibara Railway",
        "public_transport": "station",
        "railway": "station",
        "source": "KSJ2",
        "source_ref": "http://nlftp.mlit.go.jp/ksj/jpgis/datalist/KsjTmplt-N02-v1_1.html",
        "train": "yes",
        "wikidata": "Q6428483",
        "wikipedia": "ja:子守唄の里高屋駅"
      }
    },
    {
      "id": "okayama_station_339080255",
      "osmId": 339080255,
      "osmType": "node",
      "prefectureId": "okayama",
      "type": "station",
      "subtype": "private",
      "name": "早雲の里荏原",
      "nameKana": null,
      "nameEn": "Sounnosato-Ebara",
      "operator": null,
      "network": null,
      "ref": null,
      "latitude": 34.596785,
      "longitude": 133.5079931,
      "countryCode": "jp",
      "rawTags": {
        "KSJ2:LIN": "井原線",
        "KSJ2:STN": "早雲の里荏原",
        "name": "早雲の里荏原",
        "name:en": "Sounnosato-Ebara",
        "name:ja": "早雲の里荏原",
        "name:ko": "소운노사토에바라",
        "note": "National-Land Numerical Information (Railway) 2007, MLIT Japan",
        "note:ja": "国土数値情報（鉄道データ）平成19年　国土交通省",
        "railway": "station",
        "source": "KSJ2",
        "source_ref": "http://nlftp.mlit.go.jp/ksj/jpgis/datalist/KsjTmplt-N02-v1_1.html",
        "wikidata": "Q7667651",
        "wikipedia": "ja:早雲の里荏原駅"
      }
    },
    {
      "id": "okayama_station_339080347",
      "osmId": 339080347,
      "osmType": "node",
      "prefectureId": "okayama",
      "type": "station",
      "subtype": "private",
      "name": "井原",
      "nameKana": null,
      "nameEn": "Ibara",
      "operator": null,
      "network": null,
      "ref": null,
      "latitude": 34.5929244,
      "longitude": 133.4690962,
      "countryCode": "jp",
      "rawTags": {
        "KSJ2:LIN": "井原線",
        "KSJ2:STN": "井原",
        "name": "井原",
        "name:en": "Ibara",
        "name:ja": "井原",
        "name:ko": "이바라",
        "note": "National-Land Numerical Information (Railway) 2007, MLIT Japan",
        "note:ja": "国土数値情報（鉄道データ）平成19年　国土交通省",
        "public_transport": "station",
        "railway": "station",
        "source": "KSJ2",
        "source_ref": "http://nlftp.mlit.go.jp/ksj/jpgis/datalist/KsjTmplt-N02-v1_1.html",
        "wikidata": "Q5983703",
        "wikipedia": "ja:井原駅 (岡山県)"
      }
    },
    {
      "id": "okayama_station_339080643",
      "osmId": 339080643,
      "osmType": "node",
      "prefectureId": "okayama",
      "type": "station",
      "subtype": "private",
      "name": "三谷",
      "nameKana": "みたに",
      "nameEn": "Mitani",
      "operator": null,
      "network": null,
      "ref": null,
      "latitude": 34.6164299,
      "longitude": 133.6195968,
      "countryCode": "jp",
      "rawTags": {
        "KSJ2:LIN": "井原線",
        "KSJ2:STN": "三谷",
        "name": "三谷",
        "name:en": "Mitani",
        "name:ja": "三谷",
        "name:ja-Hira": "みたに",
        "name:ko": "미타니",
        "note": "National-Land Numerical Information (Railway) 2007, MLIT Japan",
        "note:ja": "国土数値情報（鉄道データ）平成19年　国土交通省",
        "public_transport": "station",
        "railway": "station",
        "source": "KSJ2",
        "source_ref": "http://nlftp.mlit.go.jp/ksj/jpgis/datalist/KsjTmplt-N02-v1_1.html",
        "wikidata": "Q11357300",
        "wikipedia": "ja:三谷駅 (岡山県)"
      }
    },
    {
      "id": "okayama_station_339081011",
      "osmId": 339081011,
      "osmType": "node",
      "prefectureId": "okayama",
      "type": "station",
      "subtype": "private",
      "name": "小田",
      "nameKana": null,
      "nameEn": "Oda",
      "operator": null,
      "network": null,
      "ref": null,
      "latitude": 34.6059942,
      "longitude": 133.5424399,
      "countryCode": "jp",
      "rawTags": {
        "KSJ2:LIN": "井原線",
        "KSJ2:STN": "小田",
        "name": "小田",
        "name:en": "Oda",
        "name:ja": "小田",
        "name:ko": "오다",
        "note": "National-Land Numerical Information (Railway) 2007, MLIT Japan",
        "note:ja": "国土数値情報（鉄道データ）平成19年　国土交通省",
        "public_transport": "station",
        "railway": "station",
        "source": "KSJ2",
        "source_ref": "http://nlftp.mlit.go.jp/ksj/jpgis/datalist/KsjTmplt-N02-v1_1.html",
        "train": "yes",
        "wikidata": "Q7077212",
        "wikipedia": "ja:小田駅 (岡山県)"
      }
    },
    {
      "id": "okayama_station_339081025",
      "osmId": 339081025,
      "osmType": "node",
      "prefectureId": "okayama",
      "type": "station",
      "subtype": "private",
      "name": "矢掛",
      "nameKana": null,
      "nameEn": "Yakage",
      "operator": null,
      "network": null,
      "ref": null,
      "latitude": 34.6293417,
      "longitude": 133.5900212,
      "countryCode": "jp",
      "rawTags": {
        "KSJ2:LIN": "井原線",
        "KSJ2:STN": "矢掛",
        "name": "矢掛",
        "name:en": "Yakage",
        "name:ja": "矢掛",
        "name:ko": "야카게",
        "note": "National-Land Numerical Information (Railway) 2007, MLIT Japan",
        "note:ja": "国土数値情報（鉄道データ）平成19年　国土交通省",
        "public_transport": "station",
        "railway": "station",
        "source": "KSJ2",
        "source_ref": "http://nlftp.mlit.go.jp/ksj/jpgis/datalist/KsjTmplt-N02-v1_1.html",
        "wikidata": "Q8047038",
        "wikipedia": "ja:矢掛駅"
      }
    },
    {
      "id": "okayama_station_339081095",
      "osmId": 339081095,
      "osmType": "node",
      "prefectureId": "okayama",
      "type": "station",
      "subtype": "private",
      "name": "いずえ",
      "nameKana": null,
      "nameEn": "Izue",
      "operator": null,
      "network": null,
      "ref": null,
      "latitude": 34.5879894,
      "longitude": 133.4508623,
      "countryCode": "jp",
      "rawTags": {
        "KSJ2:LIN": "井原線",
        "KSJ2:STN": "いずえ",
        "name": "いずえ",
        "name:en": "Izue",
        "name:ja": "いずえ",
        "name:ko": "이즈에",
        "note": "National-Land Numerical Information (Railway) 2007, MLIT Japan",
        "note:ja": "国土数値情報（鉄道データ）平成19年　国土交通省",
        "public_transport": "station",
        "railway": "station",
        "source": "KSJ2",
        "source_ref": "http://nlftp.mlit.go.jp/ksj/jpgis/datalist/KsjTmplt-N02-v1_1.html",
        "train": "yes",
        "wikidata": "Q6102231",
        "wikipedia": "ja:いずえ駅"
      }
    },
    {
      "id": "okayama_station_339081098",
      "osmId": 339081098,
      "osmType": "node",
      "prefectureId": "okayama",
      "type": "station",
      "subtype": "private",
      "name": "備中呉妹",
      "nameKana": "びっちゅうくれせ",
      "nameEn": "Bitchu-Kurese",
      "operator": null,
      "network": null,
      "ref": null,
      "latitude": 34.6216102,
      "longitude": 133.6619174,
      "countryCode": "jp",
      "rawTags": {
        "KSJ2:LIN": "井原線",
        "KSJ2:STN": "備中呉妹",
        "name": "備中呉妹",
        "name:en": "Bitchu-Kurese",
        "name:ja": "備中呉妹",
        "name:ja-Hira": "びっちゅうくれせ",
        "name:ko": "빗추쿠레세",
        "note": "National-Land Numerical Information (Railway) 2007, MLIT Japan",
        "note:ja": "国土数値情報（鉄道データ）平成19年　国土交通省",
        "public_transport": "station",
        "railway": "station",
        "source": "KSJ2",
        "source_ref": "http://nlftp.mlit.go.jp/ksj/jpgis/datalist/KsjTmplt-N02-v1_1.html",
        "train": "yes",
        "wikidata": "Q4445115",
        "wikipedia": "ja:備中呉妹駅"
      }
    },
    {
      "id": "okayama_station_339081189",
      "osmId": 339081189,
      "osmType": "node",
      "prefectureId": "okayama",
      "type": "station",
      "subtype": "private",
      "name": "川辺宿",
      "nameKana": null,
      "nameEn": "Kawabejuku",
      "operator": null,
      "network": null,
      "ref": null,
      "latitude": 34.6324037,
      "longitude": 133.7148104,
      "countryCode": "jp",
      "rawTags": {
        "KSJ2:LIN": "井原線",
        "KSJ2:STN": "川辺宿",
        "name": "川辺宿",
        "name:en": "Kawabejuku",
        "name:ja": "川辺宿",
        "name:ko": "가와베주쿠",
        "note": "National-Land Numerical Information (Railway) 2007, MLIT Japan",
        "note:ja": "国土数値情報（鉄道データ）平成19年　国土交通省",
        "public_transport": "station",
        "railway": "station",
        "source": "KSJ2",
        "source_ref": "http://nlftp.mlit.go.jp/ksj/jpgis/datalist/KsjTmplt-N02-v1_1.html",
        "train": "yes",
        "wikidata": "Q4445007",
        "wikipedia": "ja:川辺宿駅"
      }
    },
    {
      "id": "okayama_station_355837610",
      "osmId": 355837610,
      "osmType": "node",
      "prefectureId": "okayama",
      "type": "station",
      "subtype": "private",
      "name": "西粟倉",
      "nameKana": "にしあわくら",
      "nameEn": "Nishi-Awakura",
      "operator": null,
      "network": null,
      "ref": null,
      "latitude": 35.160799,
      "longitude": 134.3359427,
      "countryCode": "jp",
      "rawTags": {
        "KSJ2:LIN": "智頭線",
        "KSJ2:STN": "西粟倉",
        "name": "西粟倉",
        "name:en": "Nishi-Awakura",
        "name:ja": "西粟倉",
        "name:ja_kana": "にしあわくら",
        "name:ja_rm": "Nishi-Awakura",
        "name:ko": "니시아와쿠라",
        "note": "National-Land Numerical Information (Railway) 2007, MLIT Japan",
        "note:ja": "国土数値情報（鉄道データ）平成19年　国土交通省",
        "public_transport": "station",
        "railway": "station",
        "source": "KSJ2",
        "source_ref": "http://nlftp.mlit.go.jp/ksj/jpgis/datalist/KsjTmplt-N02-v1_1.html",
        "train": "yes",
        "wikidata": "Q7040311",
        "wikipedia": "ja:西粟倉駅"
      }
    },
    {
      "id": "okayama_station_355837825",
      "osmId": 355837825,
      "osmType": "node",
      "prefectureId": "okayama",
      "type": "station",
      "subtype": "private",
      "name": "あわくら温泉",
      "nameKana": null,
      "nameEn": "Awakura Onsen",
      "operator": "智頭急行",
      "network": "智頭急行智頭線",
      "ref": null,
      "latitude": 35.1886564,
      "longitude": 134.3368749,
      "countryCode": "jp",
      "rawTags": {
        "KSJ2:LIN": "智頭線",
        "KSJ2:STN": "あわくら温泉",
        "alt_name:ko": "아와쿠라온센",
        "name": "あわくら温泉",
        "name:en": "Awakura Onsen",
        "name:ja": "あわくら温泉",
        "name:ko": "아와쿠라온천",
        "network": "智頭急行智頭線",
        "note": "National-Land Numerical Information (Railway) 2007, MLIT Japan",
        "note:ja": "国土数値情報（鉄道データ）平成19年　国土交通省",
        "operator": "智頭急行",
        "public_transport": "station",
        "railway": "station",
        "source": "KSJ2",
        "source_ref": "http://nlftp.mlit.go.jp/ksj/jpgis/datalist/KsjTmplt-N02-v1_1.html",
        "wikidata": "Q4829757",
        "wikipedia": "ja:あわくら温泉駅"
      }
    },
    {
      "id": "okayama_station_355837872",
      "osmId": 355837872,
      "osmType": "node",
      "prefectureId": "okayama",
      "type": "station",
      "subtype": "private",
      "name": "宮本武蔵",
      "nameKana": null,
      "nameEn": null,
      "operator": null,
      "network": null,
      "ref": null,
      "latitude": 35.1016551,
      "longitude": 134.3303865,
      "countryCode": "jp",
      "rawTags": {
        "KSJ2:LIN": "智頭線",
        "KSJ2:STN": "宮本武蔵",
        "name": "宮本武蔵",
        "name:ja": "宮本武蔵",
        "name:ko": "미야모토무사시",
        "note": "National-Land Numerical Information (Railway) 2007, MLIT Japan",
        "note:ja": "国土数値情報（鉄道データ）平成19年　国土交通省",
        "public_transport": "station",
        "railway": "station",
        "source": "KSJ2",
        "source_ref": "http://nlftp.mlit.go.jp/ksj/jpgis/datalist/KsjTmplt-N02-v1_1.html",
        "train": "yes",
        "wikidata": "Q6884337",
        "wikipedia": "ja:宮本武蔵駅"
      }
    },
    {
      "id": "okayama_ferry_terminal_2951840757",
      "osmId": 2951840757,
      "osmType": "node",
      "prefectureId": "okayama",
      "type": "ferry_terminal",
      "subtype": null,
      "name": "牛窓港（前島フェリー乗り場）",
      "nameKana": null,
      "nameEn": null,
      "operator": null,
      "network": null,
      "ref": null,
      "latitude": 34.6146899,
      "longitude": 134.1646533,
      "countryCode": "jp",
      "rawTags": {
        "amenity": "ferry_terminal",
        "ferry": "yes",
        "name": "牛窓港（前島フェリー乗り場）",
        "public_transport": "station",
        "wikidata": "Q48744005",
        "wikipedia": "ja:牛窓港"
      }
    },
    {
      "id": "okayama_station_3197058890",
      "osmId": 3197058890,
      "osmType": "node",
      "prefectureId": "okayama",
      "type": "station",
      "subtype": "jr",
      "name": "西川原",
      "nameKana": "にしがわら",
      "nameEn": "Nishigawara",
      "operator": "西日本旅客鉄道",
      "network": null,
      "ref": "JR-S02",
      "latitude": 34.678907,
      "longitude": 133.9375777,
      "countryCode": "jp",
      "rawTags": {
        "check_date": "2023-01-05",
        "name": "西川原",
        "name:en": "Nishigawara",
        "name:ja-Hira": "にしがわら",
        "operator": "西日本旅客鉄道",
        "public_transport": "station",
        "railway": "station",
        "ref": "JR-S02",
        "reg_name": "西川原・就実",
        "train": "yes",
        "wikidata": "Q6148910",
        "wikipedia": "ja:西川原駅"
      }
    },
    {
      "id": "okayama_ferry_terminal_3732996269",
      "osmId": 3732996269,
      "osmType": "node",
      "prefectureId": "okayama",
      "type": "ferry_terminal",
      "subtype": null,
      "name": "日生駅前港(中日生港)",
      "nameKana": null,
      "nameEn": null,
      "operator": null,
      "network": null,
      "ref": null,
      "latitude": 34.7342584,
      "longitude": 134.2772528,
      "countryCode": "jp",
      "rawTags": {
        "amenity": "ferry_terminal",
        "ferry": "yes",
        "name": "日生駅前港(中日生港)",
        "public_transport": "station"
      }
    },
    {
      "id": "okayama_station_4073849189",
      "osmId": 4073849189,
      "osmType": "node",
      "prefectureId": "okayama",
      "type": "station",
      "subtype": "private",
      "name": "総社",
      "nameKana": "そうじゃ",
      "nameEn": "Sōja",
      "operator": null,
      "network": null,
      "ref": null,
      "latitude": 34.6735655,
      "longitude": 133.7380745,
      "countryCode": "jp",
      "rawTags": {
        "name": "総社",
        "name:en": "Sōja",
        "name:ja-Hira": "そうじゃ",
        "public_transport": "station",
        "railway": "station",
        "railway:ref": "U10;V07",
        "wikidata": "Q844657",
        "wikipedia": "ja:総社駅"
      }
    },
    {
      "id": "okayama_station_4095901941",
      "osmId": 4095901941,
      "osmType": "node",
      "prefectureId": "okayama",
      "type": "station",
      "subtype": "private",
      "name": "吉ケ原",
      "nameKana": null,
      "nameEn": null,
      "operator": "片上鉄道保存会",
      "network": "片上鉄道",
      "ref": null,
      "latitude": 34.9433894,
      "longitude": 134.0815125,
      "countryCode": "jp",
      "rawTags": {
        "name": "吉ケ原",
        "network": "片上鉄道",
        "operator": "片上鉄道保存会",
        "railway": "station",
        "station": "preserved"
      }
    },
    {
      "id": "okayama_ferry_terminal_4263639490",
      "osmId": 4263639490,
      "osmType": "node",
      "prefectureId": "okayama",
      "type": "ferry_terminal",
      "subtype": null,
      "name": "犬島行き連絡船乗り場",
      "nameKana": null,
      "nameEn": null,
      "operator": null,
      "network": null,
      "ref": null,
      "latitude": 34.5871975,
      "longitude": 134.1010187,
      "countryCode": "jp",
      "rawTags": {
        "amenity": "ferry_terminal",
        "name": "犬島行き連絡船乗り場"
      }
    },
    {
      "id": "okayama_station_4308092924",
      "osmId": 4308092924,
      "osmType": "node",
      "prefectureId": "okayama",
      "type": "station",
      "subtype": "private",
      "name": "津山",
      "nameKana": "つやま",
      "nameEn": "Tsuyama",
      "operator": null,
      "network": null,
      "ref": null,
      "latitude": 35.0545175,
      "longitude": 134.003275,
      "countryCode": "jp",
      "rawTags": {
        "KSJ2:LIN": "姫新線;津山線",
        "KSJ2:STN": "津山",
        "name": "津山",
        "name:en": "Tsuyama",
        "name:ja": "津山",
        "name:ja_kana": "つやま",
        "name:ja_rm": "Tsuyama",
        "name:ko": "쓰야마",
        "note": "National-Land Numerical Information (Railway) 2007, MLIT Japan",
        "note:ja": "国土数値情報（鉄道データ）平成19年　国土交通省",
        "public_transport": "station",
        "railway": "station",
        "wikidata": "Q844686",
        "wikipedia": "ja:津山駅"
      }
    },
    {
      "id": "okayama_station_4439893771",
      "osmId": 4439893771,
      "osmType": "node",
      "prefectureId": "okayama",
      "type": "station",
      "subtype": "jr",
      "name": "宇野",
      "nameKana": null,
      "nameEn": "Uno",
      "operator": "西日本旅客鉄道",
      "network": null,
      "ref": null,
      "latitude": 34.4947746,
      "longitude": 133.9539193,
      "countryCode": "jp",
      "rawTags": {
        "KSJ2:LIN": "宇野線",
        "KSJ2:STN": "宇野",
        "name": "宇野",
        "name:en": "Uno",
        "name:it": "Uno",
        "name:ja": "宇野",
        "name:ko": "우노",
        "note": "National-Land Numerical Information (Railway) 2007, MLIT Japan",
        "note:ja": "国土数値情報（鉄道データ）平成19年　国土交通省",
        "operator": "西日本旅客鉄道",
        "public_transport": "station",
        "railway": "station",
        "source": "KSJ2",
        "source_ref": "http://nlftp.mlit.go.jp/ksj/jpgis/datalist/KsjTmplt-N02-v1_1.html",
        "wikidata": "Q7897221",
        "wikipedia": "ja:宇野駅"
      }
    },
    {
      "id": "okayama_station_4443950515",
      "osmId": 4443950515,
      "osmType": "node",
      "prefectureId": "okayama",
      "type": "station",
      "subtype": "private",
      "name": "備中高梁",
      "nameKana": null,
      "nameEn": "Bitchu-Takahashi",
      "operator": null,
      "network": null,
      "ref": null,
      "latitude": 34.7886142,
      "longitude": 133.6164285,
      "countryCode": "jp",
      "rawTags": {
        "KSJ2:LIN": "伯備線",
        "KSJ2:STN": "備中高梁",
        "name": "備中高梁",
        "name:en": "Bitchu-Takahashi",
        "name:ja": "備中高梁",
        "name:ko": "빗추타카하시",
        "public_transport": "station",
        "railway": "station",
        "train": "yes",
        "wikidata": "Q4918796",
        "wikipedia": "ja:備中高梁駅"
      }
    },
    {
      "id": "okayama_ferry_terminal_4594197711",
      "osmId": 4594197711,
      "osmType": "node",
      "prefectureId": "okayama",
      "type": "ferry_terminal",
      "subtype": null,
      "name": "大多府港",
      "nameKana": null,
      "nameEn": null,
      "operator": null,
      "network": null,
      "ref": null,
      "latitude": 34.684383,
      "longitude": 134.2991862,
      "countryCode": "jp",
      "rawTags": {
        "amenity": "ferry_terminal",
        "ferry": "yes",
        "name": "大多府港",
        "public_transport": "station"
      }
    },
    {
      "id": "okayama_ferry_terminal_5649766458",
      "osmId": 5649766458,
      "osmType": "node",
      "prefectureId": "okayama",
      "type": "ferry_terminal",
      "subtype": null,
      "name": "四国汽船(旅客船)",
      "nameKana": null,
      "nameEn": null,
      "operator": null,
      "network": null,
      "ref": null,
      "latitude": 34.4916234,
      "longitude": 133.9550201,
      "countryCode": "jp",
      "rawTags": {
        "amenity": "ferry_terminal",
        "ferry": "yes",
        "name": "四国汽船(旅客船)",
        "public_transport": "station",
        "source": "bing"
      }
    },
    {
      "id": "okayama_ferry_terminal_5714915832",
      "osmId": 5714915832,
      "osmType": "node",
      "prefectureId": "okayama",
      "type": "ferry_terminal",
      "subtype": null,
      "name": "四国汽船 旅客船乗り場",
      "nameKana": null,
      "nameEn": null,
      "operator": null,
      "network": null,
      "ref": null,
      "latitude": 34.4922118,
      "longitude": 133.9550125,
      "countryCode": "jp",
      "rawTags": {
        "amenity": "ferry_terminal",
        "ferry": "yes",
        "name": "四国汽船 旅客船乗り場",
        "public_transport": "station"
      }
    },
    {
      "id": "okayama_station_5729644760",
      "osmId": 5729644760,
      "osmType": "node",
      "prefectureId": "okayama",
      "type": "station",
      "subtype": "private",
      "name": "金光",
      "nameKana": null,
      "nameEn": "Konkō",
      "operator": null,
      "network": null,
      "ref": null,
      "latitude": 34.5409507,
      "longitude": 133.6207826,
      "countryCode": "jp",
      "rawTags": {
        "KSJ2:LIN": "山陽線",
        "KSJ2:STN": "金光",
        "name": "金光",
        "name:en": "Konkō",
        "name:ja": "金光",
        "name:ko": "곤코",
        "note": "National-Land Numerical Information (Railway) 2007, MLIT Japan",
        "note:ja": "国土数値情報（鉄道データ）平成19年　国土交通省",
        "public_transport": "station",
        "railway": "station",
        "source": "KSJ2",
        "source_ref": "http://nlftp.mlit.go.jp/ksj/jpgis/datalist/KsjTmplt-N02-v1_1.html",
        "wikidata": "Q5358738",
        "wikipedia": "ja:金光駅"
      }
    },
    {
      "id": "okayama_station_6055022452",
      "osmId": 6055022452,
      "osmType": "node",
      "prefectureId": "okayama",
      "type": "station",
      "subtype": "private",
      "name": "中庄",
      "nameKana": null,
      "nameEn": "Nakashō",
      "operator": null,
      "network": null,
      "ref": null,
      "latitude": 34.6263098,
      "longitude": 133.8077661,
      "countryCode": "jp",
      "rawTags": {
        "name": "中庄",
        "name:en": "Nakashō",
        "public_transport": "station",
        "railway": "station",
        "train": "yes",
        "wikidata": "Q5360367",
        "wikipedia": "ja:中庄駅"
      }
    },
    {
      "id": "okayama_bus_terminal_6172356418",
      "osmId": 6172356418,
      "osmType": "node",
      "prefectureId": "okayama",
      "type": "bus_terminal",
      "subtype": null,
      "name": "イオンモール倉敷",
      "nameKana": null,
      "nameEn": null,
      "operator": null,
      "network": null,
      "ref": null,
      "latitude": 34.6034424,
      "longitude": 133.7459574,
      "countryCode": "jp",
      "rawTags": {
        "amenity": "bus_station",
        "bus": "yes",
        "name": "イオンモール倉敷",
        "public_transport": "station"
      }
    },
    {
      "id": "okayama_station_6375713042",
      "osmId": 6375713042,
      "osmType": "node",
      "prefectureId": "okayama",
      "type": "station",
      "subtype": "private",
      "name": "吉永",
      "nameKana": null,
      "nameEn": "Yoshinaga",
      "operator": null,
      "network": null,
      "ref": null,
      "latitude": 34.8122398,
      "longitude": 134.2045527,
      "countryCode": "jp",
      "rawTags": {
        "KSJ2:STN": "吉永",
        "name": "吉永",
        "name:en": "Yoshinaga",
        "name:ja": "吉永",
        "name:ko": "요시나가",
        "public_transport": "station",
        "railway": "station",
        "wikidata": "Q3611222",
        "wikipedia": "ja:吉永駅"
      }
    },
    {
      "id": "okayama_station_6375717341",
      "osmId": 6375717341,
      "osmType": "node",
      "prefectureId": "okayama",
      "type": "station",
      "subtype": "private",
      "name": "倉敷",
      "nameKana": null,
      "nameEn": "Kurashiki",
      "operator": null,
      "network": null,
      "ref": null,
      "latitude": 34.6018629,
      "longitude": 133.7658834,
      "countryCode": "jp",
      "rawTags": {
        "KSJ2:LIN": "山陽線",
        "KSJ2:STN": "倉敷",
        "name": "倉敷",
        "name:en": "Kurashiki",
        "name:ja": "倉敷",
        "name:ko": "구라시키",
        "note": "National-Land Numerical Information (Railway) 2007, MLIT Japan",
        "note:ja": "国土数値情報（鉄道データ）平成19年　国土交通省",
        "operator:en": "West Japan Railway Company",
        "operator:ja": "西日本旅客鉄道",
        "public_transport": "station",
        "railway": "station",
        "source": "KSJ2",
        "source_ref": "http://nlftp.mlit.go.jp/ksj/jpgis/datalist/KsjTmplt-N02-v1_1.html",
        "train": "yes",
        "wheelchair": "yes",
        "wikidata": "Q844677",
        "wikipedia": "ja:倉敷駅"
      }
    },
    {
      "id": "okayama_station_6385537257",
      "osmId": 6385537257,
      "osmType": "node",
      "prefectureId": "okayama",
      "type": "station",
      "subtype": "jr",
      "name": "新見",
      "nameKana": null,
      "nameEn": "Niimi",
      "operator": "西日本旅客鉄道",
      "network": "伯備線;姫新線",
      "ref": "JR-V18",
      "latitude": 34.9871991,
      "longitude": 133.4567409,
      "countryCode": "jp",
      "rawTags": {
        "KSJ2:STN": "新見",
        "name": "新見",
        "name:en": "Niimi",
        "name:ja": "新見",
        "name:ko": "니미",
        "network": "伯備線;姫新線",
        "operator": "西日本旅客鉄道",
        "operator:en": "West Japan Railway Company",
        "operator:ja": "西日本旅客鉄道",
        "operator:short": "JR西日本",
        "public_transport": "station",
        "railway": "station",
        "ref": "JR-V18",
        "wikidata": "Q844674",
        "wikipedia": "ja:新見駅"
      }
    },
    {
      "id": "okayama_station_6397242759",
      "osmId": 6397242759,
      "osmType": "node",
      "prefectureId": "okayama",
      "type": "station",
      "subtype": "jr",
      "name": "東津山",
      "nameKana": null,
      "nameEn": "Higashi-Tsuyama",
      "operator": "西日本旅客鉄道",
      "network": null,
      "ref": null,
      "latitude": 35.0586384,
      "longitude": 134.0316759,
      "countryCode": "jp",
      "rawTags": {
        "KSJ2:STN": "東津山",
        "name": "東津山",
        "name:en": "Higashi-Tsuyama",
        "name:ja": "東津山",
        "name:ko": "히가시쓰야마",
        "note": "National-Land Numerical Information (Railway) 2007, MLIT Japan",
        "note:ja": "国土数値情報（鉄道データ）平成19年　国土交通省",
        "operator": "西日本旅客鉄道",
        "public_transport": "station",
        "railway": "station",
        "source": "KSJ2",
        "source_ref": "http://nlftp.mlit.go.jp/ksj/jpgis/datalist/KsjTmplt-N02-v1_1.html",
        "train": "yes",
        "wikidata": "Q3661674",
        "wikipedia": "ja:東津山駅"
      }
    },
    {
      "id": "okayama_station_6433941948",
      "osmId": 6433941948,
      "osmType": "node",
      "prefectureId": "okayama",
      "type": "station",
      "subtype": "jr",
      "name": "茶屋町",
      "nameKana": null,
      "nameEn": "Chayamachi",
      "operator": "西日本旅客鉄道",
      "network": null,
      "ref": null,
      "latitude": 34.5770835,
      "longitude": 133.8259032,
      "countryCode": "jp",
      "rawTags": {
        "KSJ2:LIN": "宇野線;本四備讃線",
        "KSJ2:STN": "茶屋町",
        "name": "茶屋町",
        "name:en": "Chayamachi",
        "name:ja": "茶屋町",
        "name:ko": "자야마치",
        "note": "National-Land Numerical Information (Railway) 2007, MLIT Japan",
        "note:ja": "国土数値情報（鉄道データ）平成19年　国土交通省",
        "operator": "西日本旅客鉄道",
        "public_transport": "station",
        "railway": "station",
        "source": "KSJ2",
        "source_ref": "http://nlftp.mlit.go.jp/ksj/jpgis/datalist/KsjTmplt-N02-v1_1.html",
        "train": "yes",
        "wikidata": "Q5088619",
        "wikipedia": "ja:茶屋町駅"
      }
    },
    {
      "id": "okayama_station_6813439142",
      "osmId": 6813439142,
      "osmType": "node",
      "prefectureId": "okayama",
      "type": "station",
      "subtype": "private",
      "name": "水島",
      "nameKana": null,
      "nameEn": "Mizushima",
      "operator": "水島臨海鉄道",
      "network": "水島臨海鉄道水島本線",
      "ref": null,
      "latitude": 34.5291948,
      "longitude": 133.741293,
      "countryCode": "jp",
      "rawTags": {
        "KSJ2:LIN": "水島本線",
        "KSJ2:STN": "水島",
        "name": "水島",
        "name:en": "Mizushima",
        "name:ja": "水島",
        "name:ko": "미즈시마",
        "network": "水島臨海鉄道水島本線",
        "note": "National-Land Numerical Information (Railway) 2007, MLIT Japan",
        "note:ja": "国土数値情報（鉄道データ）平成19年　国土交通省",
        "operator": "水島臨海鉄道",
        "public_transport": "station",
        "railway": "station",
        "source": "KSJ2",
        "source_ref": "http://nlftp.mlit.go.jp/ksj/jpgis/datalist/KsjTmplt-N02-v1_1.html",
        "train": "yes",
        "wikidata": "Q11548524",
        "wikipedia": "ja:水島駅"
      }
    },
    {
      "id": "okayama_bus_terminal_6968291095",
      "osmId": 6968291095,
      "osmType": "node",
      "prefectureId": "okayama",
      "type": "bus_terminal",
      "subtype": null,
      "name": "井原バスセンター",
      "nameKana": null,
      "nameEn": null,
      "operator": null,
      "network": null,
      "ref": null,
      "latitude": 34.6014116,
      "longitude": 133.4653477,
      "countryCode": "jp",
      "rawTags": {
        "amenity": "bus_station",
        "bus": "yes",
        "name": "井原バスセンター",
        "public_transport": "station"
      }
    },
    {
      "id": "okayama_station_7104111066",
      "osmId": 7104111066,
      "osmType": "node",
      "prefectureId": "okayama",
      "type": "station",
      "subtype": "private",
      "name": "吉備真備",
      "nameKana": "きびのまきび",
      "nameEn": "Kibinomakibi",
      "operator": null,
      "network": null,
      "ref": null,
      "latitude": 34.6267408,
      "longitude": 133.6919128,
      "countryCode": "jp",
      "rawTags": {
        "KSJ2:LIN": "井原線",
        "KSJ2:STN": "吉備真備",
        "name": "吉備真備",
        "name:en": "Kibinomakibi",
        "name:ja": "吉備真備",
        "name:ja-Hira": "きびのまきび",
        "name:ko": "기비노마키비",
        "public_transport": "station",
        "railway": "station",
        "train": "yes",
        "wikidata": "Q4445075",
        "wikipedia": "ja:吉備真備駅"
      }
    },
    {
      "id": "okayama_station_8098643632",
      "osmId": 8098643632,
      "osmType": "node",
      "prefectureId": "okayama",
      "type": "station",
      "subtype": "jr",
      "name": "児島",
      "nameKana": null,
      "nameEn": "Kojima",
      "operator": "西日本旅客鉄道",
      "network": null,
      "ref": null,
      "latitude": 34.4627408,
      "longitude": 133.8076652,
      "countryCode": "jp",
      "rawTags": {
        "name": "児島",
        "name:de": "Kojima",
        "name:en": "Kojima",
        "name:ja": "児島",
        "name:ko": "고지마",
        "operator": "西日本旅客鉄道",
        "operator:en": "West Japan Railway Company",
        "public_transport": "station",
        "railway": "station",
        "train": "yes",
        "wikidata": "Q4981057",
        "wikipedia": "ja:児島駅"
      }
    },
    {
      "id": "okayama_station_8098896258",
      "osmId": 8098896258,
      "osmType": "node",
      "prefectureId": "okayama",
      "type": "station",
      "subtype": "jr",
      "name": "庭瀬",
      "nameKana": null,
      "nameEn": "Niwase",
      "operator": "西日本旅客鉄道",
      "network": null,
      "ref": null,
      "latitude": 34.6426996,
      "longitude": 133.8539694,
      "countryCode": "jp",
      "rawTags": {
        "KSJ2:LIN": "山陽線",
        "KSJ2:STN": "庭瀬",
        "name": "庭瀬",
        "name:en": "Niwase",
        "name:ja": "庭瀬",
        "name:ko": "니와세",
        "note": "National-Land Numerical Information (Railway) 2007, MLIT Japan",
        "note:ja": "国土数値情報（鉄道データ）平成19年 国土交通省",
        "operator": "西日本旅客鉄道",
        "operator:en": "West Japan Railway Company",
        "operator:ja": "西日本旅客鉄道",
        "public_transport": "station",
        "railway": "station",
        "source": "KSJ2",
        "source_ref": "http://nlftp.mlit.go.jp/ksj/jpgis/datalist/KsjTmplt-N02-v1_1.html",
        "train": "yes",
        "wikidata": "Q5360428",
        "wikipedia": "ja:庭瀬駅"
      }
    },
    {
      "id": "okayama_station_8105154272",
      "osmId": 8105154272,
      "osmType": "node",
      "prefectureId": "okayama",
      "type": "station",
      "subtype": "jr",
      "name": "北長瀬",
      "nameKana": null,
      "nameEn": "Kitanagase",
      "operator": "西日本旅客鉄道",
      "network": null,
      "ref": null,
      "latitude": 34.6530227,
      "longitude": 133.8855275,
      "countryCode": "jp",
      "rawTags": {
        "KSJ2:LIN": "山陽線",
        "KSJ2:STN": "北長瀬",
        "name": "北長瀬",
        "name:en": "Kitanagase",
        "name:ja": "北長瀬",
        "name:ko": "기타나가세",
        "note": "National-Land Numerical Information (Railway) 2007, MLIT Japan",
        "note:ja": "国土数値情報（鉄道データ）平成19年　国土交通省",
        "operator": "西日本旅客鉄道",
        "operator:en": "West Japan Railway Company",
        "operator:ja": "西日本旅客鉄道",
        "public_transport": "station",
        "railway": "station",
        "source": "KSJ2",
        "source_ref": "http://nlftp.mlit.go.jp/ksj/jpgis/datalist/KsjTmplt-N02-v1_1.html",
        "train": "yes",
        "wikidata": "Q5360787",
        "wikipedia": "ja:北長瀬駅"
      }
    },
    {
      "id": "okayama_station_8105697661",
      "osmId": 8105697661,
      "osmType": "node",
      "prefectureId": "okayama",
      "type": "station",
      "subtype": "private",
      "name": "備前田井",
      "nameKana": null,
      "nameEn": "Bizen-Tai",
      "operator": null,
      "network": null,
      "ref": null,
      "latitude": 34.5157963,
      "longitude": 133.9433967,
      "countryCode": "jp",
      "rawTags": {
        "KSJ2:LIN": "宇野線",
        "KSJ2:STN": "備前田井",
        "name": "備前田井",
        "name:en": "Bizen-Tai",
        "name:it": "Bizen-Tai",
        "name:ja": "備前田井",
        "name:ko": "비젠타이",
        "note": "National-Land Numerical Information (Railway) 2007, MLIT Japan",
        "note:ja": "国土数値情報（鉄道データ）平成19年　国土交通省",
        "public_transport": "station",
        "railway": "station",
        "source": "KSJ2",
        "source_ref": "http://nlftp.mlit.go.jp/ksj/jpgis/datalist/KsjTmplt-N02-v1_1.html",
        "wikidata": "Q4919398",
        "wikipedia": "ja:備前田井駅"
      }
    },
    {
      "id": "okayama_station_8105697663",
      "osmId": 8105697663,
      "osmType": "node",
      "prefectureId": "okayama",
      "type": "station",
      "subtype": "private",
      "name": "八浜",
      "nameKana": null,
      "nameEn": "Hachihama",
      "operator": null,
      "network": null,
      "ref": null,
      "latitude": 34.5320464,
      "longitude": 133.9189564,
      "countryCode": "jp",
      "rawTags": {
        "KSJ2:LIN": "宇野線",
        "KSJ2:STN": "八浜",
        "name": "八浜",
        "name:en": "Hachihama",
        "name:it": "Hachihama",
        "name:ja": "八浜",
        "name:ko": "하치하마",
        "note": "National-Land Numerical Information (Railway) 2007, MLIT Japan",
        "note:ja": "国土数値情報（鉄道データ）平成19年　国土交通省",
        "public_transport": "station",
        "railway": "station",
        "source": "KSJ2",
        "source_ref": "http://nlftp.mlit.go.jp/ksj/jpgis/datalist/KsjTmplt-N02-v1_1.html",
        "wikidata": "Q775058",
        "wikipedia": "ja:八浜駅"
      }
    },
    {
      "id": "okayama_station_8105697665",
      "osmId": 8105697665,
      "osmType": "node",
      "prefectureId": "okayama",
      "type": "station",
      "subtype": "private",
      "name": "常山",
      "nameKana": null,
      "nameEn": "Tsuneyama",
      "operator": null,
      "network": null,
      "ref": null,
      "latitude": 34.5316188,
      "longitude": 133.8925327,
      "countryCode": "jp",
      "rawTags": {
        "KSJ2:LIN": "宇野線",
        "KSJ2:STN": "常山",
        "name": "常山",
        "name:en": "Tsuneyama",
        "name:ja": "常山",
        "name:ko": "쓰네야마",
        "note": "National-Land Numerical Information (Railway) 2007, MLIT Japan",
        "note:ja": "国土数値情報（鉄道データ）平成19年　国土交通省",
        "public_transport": "station",
        "railway": "station",
        "source": "KSJ2",
        "source_ref": "http://nlftp.mlit.go.jp/ksj/jpgis/datalist/KsjTmplt-N02-v1_1.html",
        "wikidata": "Q7850217",
        "wikipedia": "ja:常山駅"
      }
    },
    {
      "id": "okayama_station_8105697666",
      "osmId": 8105697666,
      "osmType": "node",
      "prefectureId": "okayama",
      "type": "station",
      "subtype": "private",
      "name": "迫川",
      "nameKana": null,
      "nameEn": "Hazakawa",
      "operator": null,
      "network": null,
      "ref": null,
      "latitude": 34.5365053,
      "longitude": 133.8794817,
      "countryCode": "jp",
      "rawTags": {
        "KSJ2:LIN": "宇野線",
        "KSJ2:STN": "迫川",
        "name": "迫川",
        "name:en": "Hazakawa",
        "name:ja": "迫川",
        "name:ko": "하자카와",
        "note": "National-Land Numerical Information (Railway) 2007, MLIT Japan",
        "note:ja": "国土数値情報（鉄道データ）平成19年　国土交通省",
        "public_transport": "station",
        "railway": "station",
        "source": "KSJ2",
        "source_ref": "http://nlftp.mlit.go.jp/ksj/jpgis/datalist/KsjTmplt-N02-v1_1.html",
        "wikidata": "Q5687538",
        "wikipedia": "ja:迫川駅"
      }
    },
    {
      "id": "okayama_station_8105697668",
      "osmId": 8105697668,
      "osmType": "node",
      "prefectureId": "okayama",
      "type": "station",
      "subtype": "private",
      "name": "備前片岡",
      "nameKana": null,
      "nameEn": "Bizen-Kataoka",
      "operator": null,
      "network": null,
      "ref": null,
      "latitude": 34.5440598,
      "longitude": 133.8614244,
      "countryCode": "jp",
      "rawTags": {
        "KSJ2:LIN": "宇野線",
        "KSJ2:STN": "備前片岡",
        "name": "備前片岡",
        "name:en": "Bizen-Kataoka",
        "name:ja": "備前片岡",
        "name:ko": "비젠카타오카",
        "note": "National-Land Numerical Information (Railway) 2007, MLIT Japan",
        "note:ja": "国土数値情報（鉄道データ）平成19年　国土交通省",
        "public_transport": "station",
        "railway": "station",
        "source": "KSJ2",
        "source_ref": "http://nlftp.mlit.go.jp/ksj/jpgis/datalist/KsjTmplt-N02-v1_1.html",
        "wikidata": "Q4919392",
        "wikipedia": "ja:備前片岡駅"
      }
    },
    {
      "id": "okayama_station_8105697670",
      "osmId": 8105697670,
      "osmType": "node",
      "prefectureId": "okayama",
      "type": "station",
      "subtype": "jr",
      "name": "彦崎",
      "nameKana": null,
      "nameEn": "Hikosaki",
      "operator": "JR西日本",
      "network": null,
      "ref": null,
      "latitude": 34.5521113,
      "longitude": 133.8348048,
      "countryCode": "jp",
      "rawTags": {
        "KSJ2:LIN": "宇野線",
        "KSJ2:STN": "彦崎",
        "int_name": "Hikosaki",
        "name": "彦崎",
        "name:en": "Hikosaki",
        "name:ja": "彦崎",
        "name:ko": "히코사키",
        "note": "National-Land Numerical Information (Railway) 2007, MLIT Japan",
        "note:ja": "国土数値情報（鉄道データ）平成19年　国土交通省",
        "operator": "JR西日本",
        "platforms": "2",
        "public_transport": "station",
        "railway": "station",
        "source": "KSJ2",
        "source_ref": "http://nlftp.mlit.go.jp/ksj/jpgis/datalist/KsjTmplt-N02-v1_1.html",
        "wikidata": "Q5760674",
        "wikipedia": "ja:彦崎駅"
      }
    },
    {
      "id": "okayama_station_8105697688",
      "osmId": 8105697688,
      "osmType": "node",
      "prefectureId": "okayama",
      "type": "station",
      "subtype": "private",
      "name": "久々原",
      "nameKana": null,
      "nameEn": "Kuguhara",
      "operator": null,
      "network": null,
      "ref": null,
      "latitude": 34.5921741,
      "longitude": 133.827998,
      "countryCode": "jp",
      "rawTags": {
        "KSJ2:LIN": "宇野線",
        "KSJ2:STN": "久々原",
        "name": "久々原",
        "name:en": "Kuguhara",
        "name:ja": "久々原",
        "name:ko": "구구하라",
        "note": "National-Land Numerical Information (Railway) 2007, MLIT Japan",
        "note:ja": "国土数値情報（鉄道データ）平成19年　国土交通省",
        "public_transport": "station",
        "railway": "station",
        "source": "KSJ2",
        "source_ref": "http://nlftp.mlit.go.jp/ksj/jpgis/datalist/KsjTmplt-N02-v1_1.html",
        "wikidata": "Q6441996",
        "wikipedia": "ja:久々原駅"
      }
    },
    {
      "id": "okayama_station_8105697715",
      "osmId": 8105697715,
      "osmType": "node",
      "prefectureId": "okayama",
      "type": "station",
      "subtype": "private",
      "name": "早島",
      "nameKana": null,
      "nameEn": "Hayashima",
      "operator": null,
      "network": null,
      "ref": null,
      "latitude": 34.6023155,
      "longitude": 133.8335784,
      "countryCode": "jp",
      "rawTags": {
        "KSJ2:LIN": "宇野線",
        "KSJ2:STN": "早島",
        "name": "早島",
        "name:en": "Hayashima",
        "name:ja": "早島",
        "name:ko": "하야시마",
        "note": "National-Land Numerical Information (Railway) 2007, MLIT Japan",
        "note:ja": "国土数値情報（鉄道データ）平成19年　国土交通省",
        "public_transport": "station",
        "railway": "station",
        "source": "KSJ2",
        "source_ref": "http://nlftp.mlit.go.jp/ksj/jpgis/datalist/KsjTmplt-N02-v1_1.html",
        "train": "yes",
        "wikidata": "Q11511252",
        "wikipedia": "ja:早島駅"
      }
    },
    {
      "id": "okayama_station_8105697716",
      "osmId": 8105697716,
      "osmType": "node",
      "prefectureId": "okayama",
      "type": "station",
      "subtype": "private",
      "name": "備中箕島",
      "nameKana": null,
      "nameEn": "Bitchū-Mishima",
      "operator": null,
      "network": null,
      "ref": null,
      "latitude": 34.6056861,
      "longitude": 133.8506721,
      "countryCode": "jp",
      "rawTags": {
        "KSJ2:LIN": "宇野線",
        "KSJ2:STN": "備中箕島",
        "addr:full": "岡山県岡山市南区箕島字濱前617-2",
        "name": "備中箕島",
        "name:en": "Bitchū-Mishima",
        "name:ja": "備中箕島",
        "name:ko": "빗추미시마",
        "note": "National-Land Numerical Information (Railway) 2007, MLIT Japan",
        "note:ja": "国土数値情報（鉄道データ）平成19年　国土交通省",
        "public_transport": "station",
        "railway": "station",
        "source": "KSJ2",
        "source_ref": "http://nlftp.mlit.go.jp/ksj/jpgis/datalist/KsjTmplt-N02-v1_1.html",
        "wikidata": "Q4918794",
        "wikipedia": "ja:備中箕島駅"
      }
    },
    {
      "id": "okayama_station_8105709317",
      "osmId": 8105709317,
      "osmType": "node",
      "prefectureId": "okayama",
      "type": "station",
      "subtype": "private",
      "name": "妹尾",
      "nameKana": null,
      "nameEn": "Senō",
      "operator": null,
      "network": null,
      "ref": null,
      "latitude": 34.6083425,
      "longitude": 133.871476,
      "countryCode": "jp",
      "rawTags": {
        "KSJ2:LIN": "宇野線",
        "KSJ2:STN": "妹尾",
        "name": "妹尾",
        "name:en": "Senō",
        "name:ja": "妹尾",
        "name:ko": "세노오",
        "note": "National-Land Numerical Information (Railway) 2007, MLIT Japan",
        "note:ja": "国土数値情報（鉄道データ）平成19年　国土交通省",
        "public_transport": "station",
        "railway": "station",
        "source": "KSJ2",
        "source_ref": "http://nlftp.mlit.go.jp/ksj/jpgis/datalist/KsjTmplt-N02-v1_1.html",
        "train": "yes",
        "wikidata": "Q7450901",
        "wikipedia": "ja:妹尾駅"
      }
    },
    {
      "id": "okayama_station_8105709320",
      "osmId": 8105709320,
      "osmType": "node",
      "prefectureId": "okayama",
      "type": "station",
      "subtype": "private",
      "name": "備前西市",
      "nameKana": null,
      "nameEn": "Bizen-Nishiichi",
      "operator": null,
      "network": null,
      "ref": null,
      "latitude": 34.6318396,
      "longitude": 133.9002775,
      "countryCode": "jp",
      "rawTags": {
        "KSJ2:LIN": "宇野線",
        "KSJ2:STN": "備前西市",
        "name": "備前西市",
        "name:en": "Bizen-Nishiichi",
        "name:ja": "備前西市",
        "name:ko": "비젠니시이치",
        "note": "National-Land Numerical Information (Railway) 2007, MLIT Japan",
        "note:ja": "国土数値情報（鉄道データ）平成19年　国土交通省",
        "public_transport": "station",
        "railway": "station",
        "source": "KSJ2",
        "source_ref": "http://nlftp.mlit.go.jp/ksj/jpgis/datalist/KsjTmplt-N02-v1_1.html",
        "train": "yes",
        "wikidata": "Q11387344",
        "wikipedia": "ja:備前西市駅"
      }
    },
    {
      "id": "okayama_station_8105709321",
      "osmId": 8105709321,
      "osmType": "node",
      "prefectureId": "okayama",
      "type": "station",
      "subtype": "private",
      "name": "大元",
      "nameKana": null,
      "nameEn": "Ōmoto",
      "operator": null,
      "network": null,
      "ref": "JR-L02;JR-M02",
      "latitude": 34.6474122,
      "longitude": 133.9107717,
      "countryCode": "jp",
      "rawTags": {
        "KSJ2:LIN": "宇野線",
        "KSJ2:STN": "大元",
        "check_date": "2023-01-05",
        "name": "大元",
        "name:de": "Ōmoto",
        "name:en": "Ōmoto",
        "name:ja": "大元",
        "name:ko": "오모토",
        "note": "National-Land Numerical Information (Railway) 2007, MLIT Japan",
        "note:ja": "国土数値情報（鉄道データ）平成19年　国土交通省",
        "operator:en": "West Japan Railway Company",
        "public_transport": "station",
        "railway": "station",
        "ref": "JR-L02;JR-M02",
        "source": "KSJ2",
        "source_ref": "http://nlftp.mlit.go.jp/ksj/jpgis/datalist/KsjTmplt-N02-v1_1.html",
        "train": "yes",
        "wikidata": "Q8081633",
        "wikipedia": "ja:大元駅"
      }
    },
    {
      "id": "okayama_station_8114995588",
      "osmId": 8114995588,
      "osmType": "node",
      "prefectureId": "okayama",
      "type": "station",
      "subtype": "jr",
      "name": "高島",
      "nameKana": null,
      "nameEn": "Takashima",
      "operator": "西日本旅客鉄道",
      "network": null,
      "ref": "JR-S03;JR-N03",
      "latitude": 34.6830709,
      "longitude": 133.9579765,
      "countryCode": "jp",
      "rawTags": {
        "KSJ2:LIN": "山陽線",
        "KSJ2:STN": "高島",
        "name": "高島",
        "name:de": "Takashima",
        "name:en": "Takashima",
        "name:ja": "高島",
        "name:ko": "다카시마",
        "note": "National-Land Numerical Information (Railway) 2007, MLIT Japan",
        "note:ja": "国土数値情報（鉄道データ）平成19年　国土交通省",
        "operator": "西日本旅客鉄道",
        "public_transport": "station",
        "railway": "station",
        "ref": "JR-S03;JR-N03",
        "source": "KSJ2",
        "source_ref": "http://nlftp.mlit.go.jp/ksj/jpgis/datalist/KsjTmplt-N02-v1_1.html",
        "train": "yes",
        "wikidata": "Q5360396",
        "wikipedia": "ja:高島駅"
      }
    },
    {
      "id": "okayama_station_8114995601",
      "osmId": 8114995601,
      "osmType": "node",
      "prefectureId": "okayama",
      "type": "station",
      "subtype": "jr",
      "name": "瀬戸",
      "nameKana": null,
      "nameEn": "Seto",
      "operator": "西日本旅客鉄道",
      "network": null,
      "ref": null,
      "latitude": 34.7344138,
      "longitude": 134.0418841,
      "countryCode": "jp",
      "rawTags": {
        "KSJ2:LIN": "山陽線",
        "KSJ2:STN": "瀬戸",
        "name": "瀬戸",
        "name:en": "Seto",
        "name:ja": "瀬戸",
        "name:ko": "세토",
        "note": "National-Land Numerical Information (Railway) 2007, MLIT Japan",
        "note:ja": "国土数値情報（鉄道データ）平成19年　国土交通省",
        "operator": "西日本旅客鉄道",
        "operator:en": "West Japan Railway Company",
        "operator:ja": "西日本旅客鉄道",
        "public_transport": "station",
        "railway": "station",
        "source": "KSJ2",
        "source_ref": "http://nlftp.mlit.go.jp/ksj/jpgis/datalist/KsjTmplt-N02-v1_1.html",
        "wikidata": "Q844625",
        "wikipedia": "ja:瀬戸駅"
      }
    },
    {
      "id": "okayama_station_8114995604",
      "osmId": 8114995604,
      "osmType": "node",
      "prefectureId": "okayama",
      "type": "station",
      "subtype": "jr",
      "name": "万富",
      "nameKana": null,
      "nameEn": "Mantomi",
      "operator": "西日本旅客鉄道",
      "network": null,
      "ref": null,
      "latitude": 34.7582757,
      "longitude": 134.0805642,
      "countryCode": "jp",
      "rawTags": {
        "KSJ2:LIN": "山陽線",
        "KSJ2:STN": "万富",
        "name": "万富",
        "name:en": "Mantomi",
        "name:ja": "万富",
        "name:ko": "만토미",
        "note": "National-Land Numerical Information (Railway) 2007, MLIT Japan",
        "note:ja": "国土数値情報（鉄道データ）平成19年　国土交通省",
        "operator": "西日本旅客鉄道",
        "operator:en": "West Japan Railway Company",
        "operator:ja": "西日本旅客鉄道",
        "public_transport": "station",
        "railway": "station",
        "source": "KSJ2",
        "source_ref": "http://nlftp.mlit.go.jp/ksj/jpgis/datalist/KsjTmplt-N02-v1_1.html",
        "wikidata": "Q5360832",
        "wikipedia": "ja:万富駅"
      }
    },
    {
      "id": "okayama_station_8114995607",
      "osmId": 8114995607,
      "osmType": "node",
      "prefectureId": "okayama",
      "type": "station",
      "subtype": "private",
      "name": "熊山",
      "nameKana": null,
      "nameEn": "Kumayama",
      "operator": null,
      "network": null,
      "ref": null,
      "latitude": 34.7833445,
      "longitude": 134.1094248,
      "countryCode": "jp",
      "rawTags": {
        "KSJ2:LIN": "山陽線",
        "KSJ2:STN": "熊山",
        "name": "熊山",
        "name:en": "Kumayama",
        "name:ja": "熊山",
        "name:ko": "구마야마",
        "note": "National-Land Numerical Information (Railway) 2007, MLIT Japan",
        "note:ja": "国土数値情報（鉄道データ）平成19年　国土交通省",
        "public_transport": "station",
        "railway": "station",
        "source": "KSJ2",
        "source_ref": "http://nlftp.mlit.go.jp/ksj/jpgis/datalist/KsjTmplt-N02-v1_1.html",
        "wikidata": "Q5360774",
        "wikipedia": "ja:熊山駅"
      }
    },
    {
      "id": "okayama_station_8114995610",
      "osmId": 8114995610,
      "osmType": "node",
      "prefectureId": "okayama",
      "type": "station",
      "subtype": "jr",
      "name": "和気",
      "nameKana": null,
      "nameEn": "Wake",
      "operator": "西日本旅客鉄道",
      "network": null,
      "ref": null,
      "latitude": 34.7970952,
      "longitude": 134.1526231,
      "countryCode": "jp",
      "rawTags": {
        "KSJ2:LIN": "山陽線",
        "KSJ2:STN": "和気",
        "name": "和気",
        "name:en": "Wake",
        "name:ja": "和気",
        "name:ko": "와케",
        "note": "National-Land Numerical Information (Railway) 2007, MLIT Japan",
        "note:ja": "国土数値情報（鉄道データ）平成19年　国土交通省",
        "operator": "西日本旅客鉄道",
        "operator:en": "West Japan Railway Company",
        "operator:ja": "西日本旅客鉄道",
        "public_transport": "station",
        "railway": "station",
        "source": "KSJ2",
        "source_ref": "http://nlftp.mlit.go.jp/ksj/jpgis/datalist/KsjTmplt-N02-v1_1.html",
        "train": "yes",
        "wikidata": "Q7960956",
        "wikipedia": "ja:和気駅"
      }
    },
    {
      "id": "okayama_station_8114995615",
      "osmId": 8114995615,
      "osmType": "node",
      "prefectureId": "okayama",
      "type": "station",
      "subtype": "jr",
      "name": "三石",
      "nameKana": null,
      "nameEn": "Mitsuishi",
      "operator": "西日本旅客鉄道",
      "network": null,
      "ref": null,
      "latitude": 34.8043755,
      "longitude": 134.2757446,
      "countryCode": "jp",
      "rawTags": {
        "KSJ2:LIN": "山陽線",
        "KSJ2:STN": "三石",
        "ele": "100",
        "name": "三石",
        "name:en": "Mitsuishi",
        "name:ja": "三石",
        "name:ko": "미쓰이시",
        "note": "National-Land Numerical Information (Railway) 2007, MLIT Japan",
        "note:ja": "国土数値情報（鉄道データ）平成19年　国土交通省",
        "operator": "西日本旅客鉄道",
        "operator:en": "West Japan Railway Company",
        "operator:ja": "西日本旅客鉄道",
        "public_transport": "station",
        "railway": "station",
        "source": "KSJ2",
        "source_ref": "http://nlftp.mlit.go.jp/ksj/jpgis/datalist/KsjTmplt-N02-v1_1.html",
        "wikidata": "Q3611272",
        "wikipedia": "ja:三石駅"
      }
    },
    {
      "id": "okayama_station_8117359989",
      "osmId": 8117359989,
      "osmType": "node",
      "prefectureId": "okayama",
      "type": "station",
      "subtype": "private",
      "name": "笠岡",
      "nameKana": null,
      "nameEn": "Kasaoka",
      "operator": null,
      "network": null,
      "ref": null,
      "latitude": 34.5047232,
      "longitude": 133.5047114,
      "countryCode": "jp",
      "rawTags": {
        "KSJ2:LIN": "山陽線",
        "KSJ2:STN": "笠岡",
        "name": "笠岡",
        "name:en": "Kasaoka",
        "name:ja": "笠岡",
        "name:ko": "가사오카",
        "note": "National-Land Numerical Information (Railway) 2007, MLIT Japan",
        "note:ja": "国土数値情報（鉄道データ）平成19年　国土交通省",
        "public_transport": "station",
        "railway": "station",
        "source": "KSJ2",
        "source_ref": "http://nlftp.mlit.go.jp/ksj/jpgis/datalist/KsjTmplt-N02-v1_1.html",
        "wikidata": "Q5358698",
        "wikipedia": "ja:笠岡駅"
      }
    },
    {
      "id": "okayama_station_8117359992",
      "osmId": 8117359992,
      "osmType": "node",
      "prefectureId": "okayama",
      "type": "station",
      "subtype": "private",
      "name": "里庄",
      "nameKana": null,
      "nameEn": "Satoshō",
      "operator": null,
      "network": null,
      "ref": null,
      "latitude": 34.5081016,
      "longitude": 133.5510077,
      "countryCode": "jp",
      "rawTags": {
        "KSJ2:LIN": "山陽線",
        "KSJ2:STN": "里庄",
        "name": "里庄",
        "name:en": "Satoshō",
        "name:ja": "里庄",
        "name:ko": "사토쇼",
        "note": "National-Land Numerical Information (Railway) 2007, MLIT Japan",
        "note:ja": "国土数値情報（鉄道データ）平成19年　国土交通省",
        "public_transport": "station",
        "railway": "station",
        "source": "KSJ2",
        "source_ref": "http://nlftp.mlit.go.jp/ksj/jpgis/datalist/KsjTmplt-N02-v1_1.html",
        "wikidata": "Q5358528",
        "wikipedia": "ja:里庄駅"
      }
    },
    {
      "id": "okayama_station_8117359993",
      "osmId": 8117359993,
      "osmType": "node",
      "prefectureId": "okayama",
      "type": "station",
      "subtype": "private",
      "name": "鴨方",
      "nameKana": null,
      "nameEn": "Kamogata",
      "operator": null,
      "network": null,
      "ref": null,
      "latitude": 34.5272337,
      "longitude": 133.5875997,
      "countryCode": "jp",
      "rawTags": {
        "KSJ2:LIN": "山陽線",
        "KSJ2:STN": "鴨方",
        "name": "鴨方",
        "name:en": "Kamogata",
        "name:ja": "鴨方",
        "name:ko": "가모가타",
        "note": "National-Land Numerical Information (Railway) 2007, MLIT Japan",
        "note:ja": "国土数値情報（鉄道データ）平成19年　国土交通省",
        "public_transport": "station",
        "railway": "station",
        "source": "KSJ2",
        "source_ref": "http://nlftp.mlit.go.jp/ksj/jpgis/datalist/KsjTmplt-N02-v1_1.html",
        "wikidata": "Q5359014",
        "wikipedia": "ja:鴨方駅"
      }
    },
    {
      "id": "okayama_station_8118278050",
      "osmId": 8118278050,
      "osmType": "node",
      "prefectureId": "okayama",
      "type": "station",
      "subtype": "private",
      "name": "豪渓",
      "nameKana": null,
      "nameEn": "Gokei",
      "operator": null,
      "network": null,
      "ref": null,
      "latitude": 34.7063071,
      "longitude": 133.7225953,
      "countryCode": "jp",
      "rawTags": {
        "KSJ2:LIN": "伯備線",
        "KSJ2:STN": "豪渓",
        "name": "豪渓",
        "name:en": "Gokei",
        "name:ja": "豪渓",
        "name:ja_rm": "Gōkei",
        "name:ko": "고케이",
        "note": "National-Land Numerical Information (Railway) 2007, MLIT Japan",
        "note:ja": "国土数値情報（鉄道データ）平成19年　国土交通省",
        "public_transport": "station",
        "railway": "station",
        "source": "KSJ2",
        "source_ref": "http://nlftp.mlit.go.jp/ksj/jpgis/datalist/KsjTmplt-N02-v1_1.html",
        "wikidata": "Q5627757",
        "wikipedia": "ja:豪渓駅"
      }
    },
    {
      "id": "okayama_station_8118278054",
      "osmId": 8118278054,
      "osmType": "node",
      "prefectureId": "okayama",
      "type": "station",
      "subtype": "private",
      "name": "日羽",
      "nameKana": null,
      "nameEn": "Hiwa",
      "operator": null,
      "network": null,
      "ref": null,
      "latitude": 34.7158922,
      "longitude": 133.6897168,
      "countryCode": "jp",
      "rawTags": {
        "KSJ2:LIN": "伯備線",
        "KSJ2:STN": "日羽",
        "name": "日羽",
        "name:en": "Hiwa",
        "name:ja": "日羽",
        "name:ko": "히와",
        "note": "National-Land Numerical Information (Railway) 2007, MLIT Japan",
        "note:ja": "国土数値情報（鉄道データ）平成19年　国土交通省",
        "public_transport": "station",
        "railway": "station",
        "source": "KSJ2",
        "source_ref": "http://nlftp.mlit.go.jp/ksj/jpgis/datalist/KsjTmplt-N02-v1_1.html",
        "wikidata": "Q11510266",
        "wikipedia": "ja:日羽駅"
      }
    },
    {
      "id": "okayama_station_8118278055",
      "osmId": 8118278055,
      "osmType": "node",
      "prefectureId": "okayama",
      "type": "station",
      "subtype": "private",
      "name": "美袋",
      "nameKana": null,
      "nameEn": "Minagi",
      "operator": null,
      "network": null,
      "ref": null,
      "latitude": 34.7200507,
      "longitude": 133.6543632,
      "countryCode": "jp",
      "rawTags": {
        "KSJ2:LIN": "伯備線",
        "KSJ2:STN": "美袋",
        "name": "美袋",
        "name:en": "Minagi",
        "name:ja": "美袋",
        "name:ko": "미나기",
        "note": "National-Land Numerical Information (Railway) 2007, MLIT Japan",
        "note:ja": "国土数値情報（鉄道データ）平成19年　国土交通省",
        "public_transport": "station",
        "railway": "station",
        "source": "KSJ2",
        "source_ref": "http://nlftp.mlit.go.jp/ksj/jpgis/datalist/KsjTmplt-N02-v1_1.html",
        "wikidata": "Q6862773",
        "wikipedia": "ja:美袋駅"
      }
    },
    {
      "id": "okayama_station_8118278056",
      "osmId": 8118278056,
      "osmType": "node",
      "prefectureId": "okayama",
      "type": "station",
      "subtype": "private",
      "name": "備中広瀬",
      "nameKana": null,
      "nameEn": "Bitchu-Hirose",
      "operator": null,
      "network": null,
      "ref": null,
      "latitude": 34.7585026,
      "longitude": 133.6068204,
      "countryCode": "jp",
      "rawTags": {
        "KSJ2:LIN": "伯備線",
        "KSJ2:STN": "備中広瀬",
        "name": "備中広瀬",
        "name:en": "Bitchu-Hirose",
        "name:ja": "備中広瀬",
        "name:ko": "빗추히로세",
        "note": "National-Land Numerical Information (Railway) 2007, MLIT Japan",
        "note:ja": "国土数値情報（鉄道データ）平成19年　国土交通省",
        "public_transport": "station",
        "railway": "station",
        "source": "KSJ2",
        "source_ref": "http://nlftp.mlit.go.jp/ksj/jpgis/datalist/KsjTmplt-N02-v1_1.html",
        "wikidata": "Q3661679",
        "wikipedia": "ja:備中広瀬駅"
      }
    },
    {
      "id": "okayama_station_8118278059",
      "osmId": 8118278059,
      "osmType": "node",
      "prefectureId": "okayama",
      "type": "station",
      "subtype": "private",
      "name": "木野山",
      "nameKana": null,
      "nameEn": "Kinoyama",
      "operator": null,
      "network": null,
      "ref": null,
      "latitude": 34.8256631,
      "longitude": 133.614454,
      "countryCode": "jp",
      "rawTags": {
        "KSJ2:LIN": "伯備線",
        "KSJ2:STN": "木野山",
        "name": "木野山",
        "name:en": "Kinoyama",
        "name:ja": "木野山",
        "name:ko": "기노야마",
        "note": "National-Land Numerical Information (Railway) 2007, MLIT Japan",
        "note:ja": "国土数値情報（鉄道データ）平成19年　国土交通省",
        "public_transport": "station",
        "railway": "station",
        "source": "KSJ2",
        "source_ref": "http://nlftp.mlit.go.jp/ksj/jpgis/datalist/KsjTmplt-N02-v1_1.html",
        "wikidata": "Q6414211",
        "wikipedia": "ja:木野山駅"
      }
    },
    {
      "id": "okayama_station_8118278061",
      "osmId": 8118278061,
      "osmType": "node",
      "prefectureId": "okayama",
      "type": "station",
      "subtype": "private",
      "name": "備中川面",
      "nameKana": null,
      "nameEn": "Bitchū-Kawamo",
      "operator": null,
      "network": null,
      "ref": null,
      "latitude": 34.8500709,
      "longitude": 133.5886055,
      "countryCode": "jp",
      "rawTags": {
        "KSJ2:LIN": "伯備線",
        "KSJ2:STN": "備中川面",
        "name": "備中川面",
        "name:en": "Bitchū-Kawamo",
        "name:ja": "備中川面",
        "name:ko": "빗추카와모",
        "note": "National-Land Numerical Information (Railway) 2007, MLIT Japan",
        "note:ja": "国土数値情報（鉄道データ）平成19年　国土交通省",
        "public_transport": "station",
        "railway": "station",
        "source": "KSJ2",
        "source_ref": "http://nlftp.mlit.go.jp/ksj/jpgis/datalist/KsjTmplt-N02-v1_1.html",
        "wikidata": "Q3661752",
        "wikipedia": "ja:備中川面駅"
      }
    },
    {
      "id": "okayama_station_8118278062",
      "osmId": 8118278062,
      "osmType": "node",
      "prefectureId": "okayama",
      "type": "station",
      "subtype": "private",
      "name": "方谷",
      "nameKana": null,
      "nameEn": "Hokoku",
      "operator": null,
      "network": null,
      "ref": null,
      "latitude": 34.8767798,
      "longitude": 133.5566644,
      "countryCode": "jp",
      "rawTags": {
        "KSJ2:LIN": "伯備線",
        "KSJ2:STN": "方谷",
        "name": "方谷",
        "name:en": "Hokoku",
        "name:ja": "方谷",
        "name:ko": "호코쿠",
        "note": "National-Land Numerical Information (Railway) 2007, MLIT Japan",
        "note:ja": "国土数値情報（鉄道データ）平成19年　国土交通省",
        "public_transport": "station",
        "railway": "station",
        "source": "KSJ2",
        "source_ref": "http://nlftp.mlit.go.jp/ksj/jpgis/datalist/KsjTmplt-N02-v1_1.html",
        "wikidata": "Q5965221",
        "wikipedia": "ja:方谷駅"
      }
    },
    {
      "id": "okayama_station_8118278073",
      "osmId": 8118278073,
      "osmType": "node",
      "prefectureId": "okayama",
      "type": "station",
      "subtype": "private",
      "name": "石蟹",
      "nameKana": null,
      "nameEn": "Ishiga",
      "operator": null,
      "network": null,
      "ref": "JR-V17",
      "latitude": 34.9549463,
      "longitude": 133.479453,
      "countryCode": "jp",
      "rawTags": {
        "KSJ2:LIN": "伯備線",
        "KSJ2:STN": "石蟹",
        "name": "石蟹",
        "name:en": "Ishiga",
        "name:ja": "石蟹",
        "name:ko": "이시가",
        "note": "National-Land Numerical Information (Railway) 2007, MLIT Japan",
        "note:ja": "国土数値情報（鉄道データ）平成19年　国土交通省",
        "public_transport": "station",
        "railway": "station",
        "ref": "JR-V17",
        "source": "KSJ2",
        "source_ref": "http://nlftp.mlit.go.jp/ksj/jpgis/datalist/KsjTmplt-N02-v1_1.html",
        "wikidata": "Q3661620",
        "wikipedia": "ja:石蟹駅"
      }
    },
    {
      "id": "okayama_station_8118278085",
      "osmId": 8118278085,
      "osmType": "node",
      "prefectureId": "okayama",
      "type": "station",
      "subtype": "private",
      "name": "清音",
      "nameKana": null,
      "nameEn": "Kiyone",
      "operator": null,
      "network": null,
      "ref": null,
      "latitude": 34.6435349,
      "longitude": 133.7334709,
      "countryCode": "jp",
      "rawTags": {
        "KSJ2:LIN": "伯備線",
        "KSJ2:STN": "清音",
        "name": "清音",
        "name:en": "Kiyone",
        "name:ja": "清音",
        "name:ko": "기요네",
        "note": "National-Land Numerical Information (Railway) 2007, MLIT Japan",
        "note:ja": "国土数値情報（鉄道データ）平成19年　国土交通省",
        "public_transport": "station",
        "railway": "station",
        "source": "KSJ2",
        "source_ref": "http://nlftp.mlit.go.jp/ksj/jpgis/datalist/KsjTmplt-N02-v1_1.html",
        "wikidata": "Q4445051",
        "wikipedia": "ja:清音駅"
      }
    },
    {
      "id": "okayama_station_8118378898",
      "osmId": 8118378898,
      "osmType": "node",
      "prefectureId": "okayama",
      "type": "station",
      "subtype": "jr",
      "name": "上の町",
      "nameKana": null,
      "nameEn": "Kaminochō",
      "operator": "西日本旅客鉄道",
      "network": null,
      "ref": null,
      "latitude": 34.4906669,
      "longitude": 133.8151657,
      "countryCode": "jp",
      "rawTags": {
        "KSJ2:LIN": "本四備讃線",
        "KSJ2:STN": "上の町",
        "name": "上の町",
        "name:en": "Kaminochō",
        "name:ja": "上の町",
        "name:ko": "가미노초",
        "note": "National-Land Numerical Information (Railway) 2007, MLIT Japan",
        "note:ja": "国土数値情報（鉄道データ）平成19年　国土交通省",
        "operator": "西日本旅客鉄道",
        "public_transport": "station",
        "railway": "station",
        "source": "KSJ2",
        "source_ref": "http://nlftp.mlit.go.jp/ksj/jpgis/datalist/KsjTmplt-N02-v1_1.html",
        "train": "yes",
        "wikidata": "Q6799185",
        "wikipedia": "ja:上の町駅"
      }
    },
    {
      "id": "okayama_station_8118378900",
      "osmId": 8118378900,
      "osmType": "node",
      "prefectureId": "okayama",
      "type": "station",
      "subtype": "jr",
      "name": "木見",
      "nameKana": null,
      "nameEn": "Kimi",
      "operator": "西日本旅客鉄道",
      "network": null,
      "ref": null,
      "latitude": 34.5276557,
      "longitude": 133.8237146,
      "countryCode": "jp",
      "rawTags": {
        "KSJ2:LIN": "本四備讃線",
        "KSJ2:STN": "木見",
        "name": "木見",
        "name:en": "Kimi",
        "name:ja": "木見",
        "name:ko": "기미",
        "note": "National-Land Numerical Information (Railway) 2007, MLIT Japan",
        "note:ja": "国土数値情報（鉄道データ）平成19年　国土交通省",
        "operator": "西日本旅客鉄道",
        "public_transport": "station",
        "railway": "station",
        "source": "KSJ2",
        "source_ref": "http://nlftp.mlit.go.jp/ksj/jpgis/datalist/KsjTmplt-N02-v1_1.html",
        "wikidata": "Q6410088",
        "wikipedia": "ja:木見駅"
      }
    },
    {
      "id": "okayama_station_8118378902",
      "osmId": 8118378902,
      "osmType": "node",
      "prefectureId": "okayama",
      "type": "station",
      "subtype": "jr",
      "name": "植松",
      "nameKana": null,
      "nameEn": "Uematsu",
      "operator": "西日本旅客鉄道",
      "network": null,
      "ref": null,
      "latitude": 34.5513325,
      "longitude": 133.8279652,
      "countryCode": "jp",
      "rawTags": {
        "KSJ2:LIN": "本四備讃線",
        "KSJ2:STN": "植松",
        "name": "植松",
        "name:en": "Uematsu",
        "name:ja": "植松",
        "name:ko": "우에마쓰",
        "note": "National-Land Numerical Information (Railway) 2007, MLIT Japan",
        "note:ja": "国土数値情報（鉄道データ）平成19年　国土交通省",
        "operator": "西日本旅客鉄道",
        "public_transport": "station",
        "railway": "station",
        "source": "KSJ2",
        "source_ref": "http://nlftp.mlit.go.jp/ksj/jpgis/datalist/KsjTmplt-N02-v1_1.html",
        "train": "yes",
        "wikidata": "Q7877451",
        "wikipedia": "ja:植松駅"
      }
    },
    {
      "id": "okayama_station_8120093011",
      "osmId": 8120093011,
      "osmType": "node",
      "prefectureId": "okayama",
      "type": "station",
      "subtype": "private",
      "name": "寒河",
      "nameKana": null,
      "nameEn": "Sōgo",
      "operator": null,
      "network": null,
      "ref": null,
      "latitude": 34.7462629,
      "longitude": 134.2978272,
      "countryCode": "jp",
      "rawTags": {
        "KSJ2:LIN": "赤穂線",
        "KSJ2:STN": "寒河",
        "name": "寒河",
        "name:en": "Sōgo",
        "name:ja": "寒河",
        "name:ko": "소고",
        "note": "National-Land Numerical Information (Railway) 2007, MLIT Japan",
        "note:ja": "国土数値情報（鉄道データ）平成19年　国土交通省",
        "public_transport": "station",
        "railway": "station",
        "source": "KSJ2",
        "source_ref": "http://nlftp.mlit.go.jp/ksj/jpgis/datalist/KsjTmplt-N02-v1_1.html",
        "train": "yes",
        "wikidata": "Q7667571",
        "wikipedia": "ja:寒河駅"
      }
    },
    {
      "id": "okayama_station_8120093016",
      "osmId": 8120093016,
      "osmType": "node",
      "prefectureId": "okayama",
      "type": "station",
      "subtype": "private",
      "name": "伊里",
      "nameKana": null,
      "nameEn": "Iri",
      "operator": null,
      "network": null,
      "ref": null,
      "latitude": 34.7415563,
      "longitude": 134.2244942,
      "countryCode": "jp",
      "rawTags": {
        "KSJ2:LIN": "赤穂線",
        "KSJ2:STN": "伊里",
        "name": "伊里",
        "name:en": "Iri",
        "name:ja": "伊里",
        "name:ko": "이리",
        "note": "National-Land Numerical Information (Railway) 2007, MLIT Japan",
        "note:ja": "国土数値情報（鉄道データ）平成19年　国土交通省",
        "public_transport": "station",
        "railway": "station",
        "source": "KSJ2",
        "source_ref": "http://nlftp.mlit.go.jp/ksj/jpgis/datalist/KsjTmplt-N02-v1_1.html",
        "train": "yes",
        "wikidata": "Q6069511",
        "wikipedia": "ja:伊里駅"
      }
    },
    {
      "id": "okayama_station_8120094621",
      "osmId": 8120094621,
      "osmType": "node",
      "prefectureId": "okayama",
      "type": "station",
      "subtype": "jr",
      "name": "西片上",
      "nameKana": null,
      "nameEn": "Nishi-Katakami",
      "operator": "西日本旅客鉄道",
      "network": "JR赤穂線",
      "ref": "JR-N12",
      "latitude": 34.745183,
      "longitude": 134.1837126,
      "countryCode": "jp",
      "rawTags": {
        "KSJ2:LIN": "赤穂線",
        "KSJ2:STN": "西片上",
        "name": "西片上",
        "name:en": "Nishi-Katakami",
        "name:ja": "西片上",
        "name:ko": "니시카타카미",
        "network": "JR赤穂線",
        "note": "National-Land Numerical Information (Railway) 2007, MLIT Japan",
        "note:ja": "国土数値情報（鉄道データ）平成19年　国土交通省",
        "operator": "西日本旅客鉄道",
        "operator:en": "West Japan Railway Company",
        "public_transport": "station",
        "railway": "station",
        "ref": "JR-N12",
        "source": "KSJ2",
        "source_ref": "http://nlftp.mlit.go.jp/ksj/jpgis/datalist/KsjTmplt-N02-v1_1.html",
        "train": "yes",
        "wikidata": "Q7040361",
        "wikipedia": "ja:西片上駅"
      }
    },
    {
      "id": "okayama_station_8120094626",
      "osmId": 8120094626,
      "osmType": "node",
      "prefectureId": "okayama",
      "type": "station",
      "subtype": "jr",
      "name": "香登",
      "nameKana": null,
      "nameEn": "Kagato",
      "operator": "西日本旅客鉄道",
      "network": "JR赤穂線",
      "ref": null,
      "latitude": 34.7277787,
      "longitude": 134.1196252,
      "countryCode": "jp",
      "rawTags": {
        "KSJ2:LIN": "赤穂線",
        "KSJ2:STN": "香登",
        "name": "香登",
        "name:en": "Kagato",
        "name:ja": "香登",
        "name:ko": "가가토",
        "network": "JR赤穂線",
        "note": "National-Land Numerical Information (Railway) 2007, MLIT Japan",
        "note:ja": "国土数値情報（鉄道データ）平成19年　国土交通省",
        "operator": "西日本旅客鉄道",
        "public_transport": "station",
        "railway": "station",
        "source": "KSJ2",
        "source_ref": "http://nlftp.mlit.go.jp/ksj/jpgis/datalist/KsjTmplt-N02-v1_1.html",
        "train": "yes",
        "wikidata": "Q6346384",
        "wikipedia": "ja:香登駅"
      }
    },
    {
      "id": "okayama_station_8120094633",
      "osmId": 8120094633,
      "osmType": "node",
      "prefectureId": "okayama",
      "type": "station",
      "subtype": "jr",
      "name": "邑久",
      "nameKana": null,
      "nameEn": "Oku",
      "operator": "西日本旅客鉄道",
      "network": "JR赤穂線",
      "ref": "JR-N08",
      "latitude": 34.66841,
      "longitude": 134.0910584,
      "countryCode": "jp",
      "rawTags": {
        "KSJ2:LIN": "赤穂線",
        "KSJ2:STN": "邑久",
        "check_date": "2023-01-05",
        "name": "邑久",
        "name:en": "Oku",
        "name:ja": "邑久",
        "name:ko": "오쿠",
        "network": "JR赤穂線",
        "note": "National-Land Numerical Information (Railway) 2007, MLIT Japan",
        "note:ja": "国土数値情報（鉄道データ）平成19年　国土交通省",
        "operator": "西日本旅客鉄道",
        "public_transport": "station",
        "railway": "station",
        "ref": "JR-N08",
        "source": "KSJ2",
        "source_ref": "http://nlftp.mlit.go.jp/ksj/jpgis/datalist/KsjTmplt-N02-v1_1.html",
        "train": "yes",
        "wheelchair": "limited",
        "wikidata": "Q3610957",
        "wikipedia": "ja:邑久駅"
      }
    },
    {
      "id": "okayama_station_8120094642",
      "osmId": 8120094642,
      "osmType": "node",
      "prefectureId": "okayama",
      "type": "station",
      "subtype": "jr",
      "name": "大富",
      "nameKana": null,
      "nameEn": "Ōdomi",
      "operator": "西日本旅客鉄道",
      "network": "JR赤穂線",
      "ref": null,
      "latitude": 34.6613218,
      "longitude": 134.0706736,
      "countryCode": "jp",
      "rawTags": {
        "KSJ2:LIN": "赤穂線",
        "KSJ2:STN": "大富",
        "name": "大富",
        "name:en": "Ōdomi",
        "name:ja": "大富",
        "name:ko": "오도미",
        "network": "JR赤穂線",
        "note": "National-Land Numerical Information (Railway) 2007, MLIT Japan",
        "note:ja": "国土数値情報（鉄道データ）平成19年　国土交通省",
        "operator": "西日本旅客鉄道",
        "public_transport": "station",
        "railway": "station",
        "source": "KSJ2",
        "source_ref": "http://nlftp.mlit.go.jp/ksj/jpgis/datalist/KsjTmplt-N02-v1_1.html",
        "wikidata": "Q3661630",
        "wikipedia": "ja:大富駅"
      }
    },
    {
      "id": "okayama_station_8120094647",
      "osmId": 8120094647,
      "osmType": "node",
      "prefectureId": "okayama",
      "type": "station",
      "subtype": "jr",
      "name": "大多羅",
      "nameKana": null,
      "nameEn": "Ōdara",
      "operator": "西日本旅客鉄道",
      "network": "JR赤穂線",
      "ref": null,
      "latitude": 34.6655984,
      "longitude": 134.00643,
      "countryCode": "jp",
      "rawTags": {
        "KSJ2:LIN": "赤穂線",
        "KSJ2:STN": "大多羅",
        "name": "大多羅",
        "name:en": "Ōdara",
        "name:it": "Odara",
        "name:ja": "大多羅",
        "name:ko": "오다라",
        "network": "JR赤穂線",
        "note": "National-Land Numerical Information (Railway) 2007, MLIT Japan",
        "note:ja": "国土数値情報（鉄道データ）平成19年　国土交通省",
        "operator": "西日本旅客鉄道",
        "public_transport": "station",
        "railway": "station",
        "source": "KSJ2",
        "source_ref": "http://nlftp.mlit.go.jp/ksj/jpgis/datalist/KsjTmplt-N02-v1_1.html",
        "train": "yes",
        "wikidata": "Q3610905",
        "wikipedia": "ja:大多羅駅"
      }
    },
    {
      "id": "okayama_station_8120094659",
      "osmId": 8120094659,
      "osmType": "node",
      "prefectureId": "okayama",
      "type": "station",
      "subtype": "private",
      "name": "西大寺",
      "nameKana": null,
      "nameEn": "Saidaiji",
      "operator": null,
      "network": null,
      "ref": null,
      "latitude": 34.6619649,
      "longitude": 134.0373123,
      "countryCode": "jp",
      "rawTags": {
        "KSJ2:LIN": "赤穂線",
        "KSJ2:STN": "西大寺",
        "name": "西大寺",
        "name:en": "Saidaiji",
        "name:ja": "西大寺",
        "name:ko": "사이다이지",
        "note": "National-Land Numerical Information (Railway) 2007, MLIT Japan",
        "note:ja": "国土数値情報（鉄道データ）平成19年　国土交通省",
        "public_transport": "station",
        "railway": "station",
        "source": "KSJ2",
        "source_ref": "http://nlftp.mlit.go.jp/ksj/jpgis/datalist/KsjTmplt-N02-v1_1.html",
        "train": "yes",
        "wikidata": "Q3661905",
        "wikipedia": "ja:西大寺駅"
      }
    },
    {
      "id": "okayama_station_8120094662",
      "osmId": 8120094662,
      "osmType": "node",
      "prefectureId": "okayama",
      "type": "station",
      "subtype": "jr",
      "name": "長船",
      "nameKana": null,
      "nameEn": "Osafune",
      "operator": "西日本旅客鉄道",
      "network": "JR赤穂線",
      "ref": "JR-N09",
      "latitude": 34.6996334,
      "longitude": 134.0987214,
      "countryCode": "jp",
      "rawTags": {
        "KSJ2:LIN": "赤穂線",
        "KSJ2:STN": "長船",
        "name": "長船",
        "name:en": "Osafune",
        "name:ja": "長船",
        "name:ko": "오사후네",
        "network": "JR赤穂線",
        "note": "National-Land Numerical Information (Railway) 2007, MLIT Japan",
        "note:ja": "国土数値情報（鉄道データ）平成19年　国土交通省",
        "operator": "西日本旅客鉄道",
        "public_transport": "station",
        "railway": "station",
        "ref": "JR-N09",
        "source": "KSJ2",
        "source_ref": "http://nlftp.mlit.go.jp/ksj/jpgis/datalist/KsjTmplt-N02-v1_1.html",
        "train": "yes",
        "wikidata": "Q7105507",
        "wikipedia": "ja:長船駅"
      }
    },
    {
      "id": "okayama_station_8120094674",
      "osmId": 8120094674,
      "osmType": "node",
      "prefectureId": "okayama",
      "type": "station",
      "subtype": "jr",
      "name": "伊部",
      "nameKana": null,
      "nameEn": "Imbe",
      "operator": "西日本旅客鉄道",
      "network": "JR赤穂線",
      "ref": null,
      "latitude": 34.7387229,
      "longitude": 134.1608757,
      "countryCode": "jp",
      "rawTags": {
        "KSJ2:LIN": "赤穂線",
        "KSJ2:STN": "伊部",
        "name": "伊部",
        "name:en": "Imbe",
        "name:ja": "伊部",
        "name:ko": "인베",
        "network": "JR赤穂線",
        "note": "National-Land Numerical Information (Railway) 2007, MLIT Japan",
        "note:ja": "国土数値情報（鉄道データ）平成19年 国土交通省",
        "operator": "西日本旅客鉄道",
        "public_transport": "station",
        "railway": "station",
        "source": "KSJ2",
        "source_ref": "http://nlftp.mlit.go.jp/ksj/jpgis/datalist/KsjTmplt-N02-v1_1.html",
        "train": "yes",
        "wikidata": "Q6003510",
        "wikipedia": "ja:伊部駅"
      }
    },
    {
      "id": "okayama_station_8120094700",
      "osmId": 8120094700,
      "osmType": "node",
      "prefectureId": "okayama",
      "type": "station",
      "subtype": "jr",
      "name": "備前片上",
      "nameKana": null,
      "nameEn": "Bizen-Katakami",
      "operator": "西日本旅客鉄道",
      "network": "JR赤穂線",
      "ref": "JR-N13",
      "latitude": 34.7483104,
      "longitude": 134.197022,
      "countryCode": "jp",
      "rawTags": {
        "KSJ2:LIN": "赤穂線",
        "KSJ2:STN": "備前片上",
        "name": "備前片上",
        "name:en": "Bizen-Katakami",
        "name:ja": "備前片上",
        "name:ko": "비젠카타카미",
        "network": "JR赤穂線",
        "note": "National-Land Numerical Information (Railway) 2007, MLIT Japan",
        "note:ja": "国土数値情報（鉄道データ）平成19年 国土交通省",
        "operator": "西日本旅客鉄道",
        "operator:en": "West Japan Railway Company",
        "public_transport": "station",
        "railway": "station",
        "ref": "JR-N13",
        "source": "KSJ2",
        "source_ref": "http://nlftp.mlit.go.jp/ksj/jpgis/datalist/KsjTmplt-N02-v1_1.html",
        "wikidata": "Q3661660",
        "wikipedia": "ja:備前片上駅"
      }
    },
    {
      "id": "okayama_station_8120094726",
      "osmId": 8120094726,
      "osmType": "node",
      "prefectureId": "okayama",
      "type": "station",
      "subtype": "private",
      "name": "日生",
      "nameKana": null,
      "nameEn": "Hinase",
      "operator": null,
      "network": null,
      "ref": "JR-N15",
      "latitude": 34.7350623,
      "longitude": 134.2767326,
      "countryCode": "jp",
      "rawTags": {
        "KSJ2:LIN": "赤穂線",
        "KSJ2:STN": "日生",
        "name": "日生",
        "name:en": "Hinase",
        "name:ja": "日生",
        "name:ko": "히나세",
        "note": "National-Land Numerical Information (Railway) 2007, MLIT Japan",
        "note:ja": "国土数値情報（鉄道データ）平成19年 国土交通省",
        "public_transport": "station",
        "railway": "station",
        "ref": "JR-N15",
        "source": "KSJ2",
        "source_ref": "http://nlftp.mlit.go.jp/ksj/jpgis/datalist/KsjTmplt-N02-v1_1.html",
        "train": "yes",
        "wikidata": "Q11509707",
        "wikipedia": "ja:日生駅"
      }
    },
    {
      "id": "okayama_station_8120327716",
      "osmId": 8120327716,
      "osmType": "node",
      "prefectureId": "okayama",
      "type": "station",
      "subtype": "private",
      "name": "東総社",
      "nameKana": null,
      "nameEn": "Higashi-Soja",
      "operator": null,
      "network": null,
      "ref": null,
      "latitude": 34.6776394,
      "longitude": 133.7509583,
      "countryCode": "jp",
      "rawTags": {
        "KSJ2:LIN": "吉備線",
        "KSJ2:STN": "東総社",
        "name": "東総社",
        "name:en": "Higashi-Soja",
        "name:ja": "東総社",
        "name:ko": "히가시소자",
        "note": "National-Land Numerical Information (Railway) 2007, MLIT Japan",
        "note:ja": "国土数値情報（鉄道データ）平成19年　国土交通省",
        "public_transport": "station",
        "railway": "station",
        "railway:ref": "U09",
        "source": "KSJ2",
        "source_ref": "http://nlftp.mlit.go.jp/ksj/jpgis/datalist/KsjTmplt-N02-v1_1.html",
        "wikidata": "Q3661745",
        "wikipedia": "ja:東総社駅"
      }
    },
    {
      "id": "okayama_station_8120331527",
      "osmId": 8120331527,
      "osmType": "node",
      "prefectureId": "okayama",
      "type": "station",
      "subtype": "private",
      "name": "服部",
      "nameKana": null,
      "nameEn": "Hattori",
      "operator": null,
      "network": null,
      "ref": null,
      "latitude": 34.6911215,
      "longitude": 133.7752692,
      "countryCode": "jp",
      "rawTags": {
        "KSJ2:LIN": "吉備線",
        "KSJ2:STN": "服部",
        "name": "服部",
        "name:en": "Hattori",
        "name:ja": "服部",
        "name:ko": "핫토리",
        "note": "National-Land Numerical Information (Railway) 2007, MLIT Japan",
        "note:ja": "国土数値情報（鉄道データ）平成19年　国土交通省",
        "public_transport": "station",
        "railway": "station",
        "railway:ref": "U08",
        "source": "KSJ2",
        "source_ref": "http://nlftp.mlit.go.jp/ksj/jpgis/datalist/KsjTmplt-N02-v1_1.html",
        "wikidata": "Q5682195",
        "wikipedia": "ja:服部駅 (岡山県)"
      }
    },
    {
      "id": "okayama_station_8120331528",
      "osmId": 8120331528,
      "osmType": "node",
      "prefectureId": "okayama",
      "type": "station",
      "subtype": "private",
      "name": "足守",
      "nameKana": null,
      "nameEn": "Ashimori",
      "operator": null,
      "network": null,
      "ref": null,
      "latitude": 34.6980953,
      "longitude": 133.8028188,
      "countryCode": "jp",
      "rawTags": {
        "KSJ2:LIN": "吉備線",
        "KSJ2:STN": "足守",
        "name": "足守",
        "name:en": "Ashimori",
        "name:ja": "足守",
        "name:ko": "아시모리",
        "note": "National-Land Numerical Information (Railway) 2007, MLIT Japan",
        "note:ja": "国土数値情報（鉄道データ）平成19年　国土交通省",
        "public_transport": "station",
        "railway": "station",
        "railway:ref": "U07",
        "source": "KSJ2",
        "source_ref": "http://nlftp.mlit.go.jp/ksj/jpgis/datalist/KsjTmplt-N02-v1_1.html",
        "wikidata": "Q4805094",
        "wikipedia": "ja:足守駅"
      }
    },
    {
      "id": "okayama_station_8120331529",
      "osmId": 8120331529,
      "osmType": "node",
      "prefectureId": "okayama",
      "type": "station",
      "subtype": "private",
      "name": "備前一宮",
      "nameKana": null,
      "nameEn": "Bizen-Ichinomiya",
      "operator": null,
      "network": null,
      "ref": null,
      "latitude": 34.678841,
      "longitude": 133.8640831,
      "countryCode": "jp",
      "rawTags": {
        "KSJ2:LIN": "吉備線",
        "KSJ2:STN": "備前一宮",
        "name": "備前一宮",
        "name:en": "Bizen-Ichinomiya",
        "name:ja": "備前一宮",
        "name:ko": "비젠이치노미야",
        "note": "National-Land Numerical Information (Railway) 2007, MLIT Japan",
        "note:ja": "国土数値情報（鉄道データ）平成19年　国土交通省",
        "public_transport": "station",
        "railway": "station",
        "railway:ref": "U04",
        "source": "KSJ2",
        "source_ref": "http://nlftp.mlit.go.jp/ksj/jpgis/datalist/KsjTmplt-N02-v1_1.html",
        "wikidata": "Q4919389",
        "wikipedia": "ja:備前一宮駅"
      }
    },
    {
      "id": "okayama_station_8120331530",
      "osmId": 8120331530,
      "osmType": "node",
      "prefectureId": "okayama",
      "type": "station",
      "subtype": "private",
      "name": "備前三門",
      "nameKana": null,
      "nameEn": "Bizen-Mikado",
      "operator": null,
      "network": null,
      "ref": null,
      "latitude": 34.6678111,
      "longitude": 133.9003265,
      "countryCode": "jp",
      "rawTags": {
        "KSJ2:LIN": "吉備線",
        "KSJ2:STN": "備前三門",
        "name": "備前三門",
        "name:en": "Bizen-Mikado",
        "name:ja": "備前三門",
        "name:ko": "비젠미카도",
        "note": "National-Land Numerical Information (Railway) 2007, MLIT Japan",
        "note:ja": "国土数値情報（鉄道データ）平成19年　国土交通省",
        "public_transport": "station",
        "railway": "station",
        "railway:ref": "U02",
        "source": "KSJ2",
        "source_ref": "http://nlftp.mlit.go.jp/ksj/jpgis/datalist/KsjTmplt-N02-v1_1.html",
        "train": "yes",
        "wikidata": "Q4919393",
        "wikipedia": "ja:備前三門駅"
      }
    },
    {
      "id": "okayama_station_8120331531",
      "osmId": 8120331531,
      "osmType": "node",
      "prefectureId": "okayama",
      "type": "station",
      "subtype": "jr",
      "name": "備中高松",
      "nameKana": null,
      "nameEn": "Bitchū-Takamatsu",
      "operator": "西日本旅客鉄道",
      "network": null,
      "ref": null,
      "latitude": 34.6865502,
      "longitude": 133.8223413,
      "countryCode": "jp",
      "rawTags": {
        "KSJ2:LIN": "吉備線",
        "KSJ2:STN": "備中高松",
        "name": "備中高松",
        "name:en": "Bitchū-Takamatsu",
        "name:ja": "備中高松",
        "name:ko": "빗추타카마쓰",
        "note": "National-Land Numerical Information (Railway) 2007, MLIT Japan",
        "note:ja": "国土数値情報（鉄道データ）平成19年　国土交通省",
        "operator": "西日本旅客鉄道",
        "public_transport": "station",
        "railway": "station",
        "railway:ref": "U06",
        "source": "KSJ2",
        "source_ref": "http://nlftp.mlit.go.jp/ksj/jpgis/datalist/KsjTmplt-N02-v1_1.html",
        "wikidata": "Q4918797",
        "wikipedia": "ja:備中高松駅"
      }
    },
    {
      "id": "okayama_station_8120331539",
      "osmId": 8120331539,
      "osmType": "node",
      "prefectureId": "okayama",
      "type": "station",
      "subtype": "private",
      "name": "吉備津",
      "nameKana": null,
      "nameEn": "Kibitsu",
      "operator": null,
      "network": null,
      "ref": null,
      "latitude": 34.6744112,
      "longitude": 133.8460527,
      "countryCode": "jp",
      "rawTags": {
        "KSJ2:LIN": "吉備線",
        "KSJ2:STN": "吉備津",
        "name": "吉備津",
        "name:en": "Kibitsu",
        "name:ja": "吉備津",
        "name:ko": "기비쓰",
        "note": "National-Land Numerical Information (Railway) 2007, MLIT Japan",
        "note:ja": "国土数値情報（鉄道データ）平成19年　国土交通省",
        "public_transport": "station",
        "railway": "station",
        "railway:ref": "U05",
        "source": "KSJ2",
        "source_ref": "http://nlftp.mlit.go.jp/ksj/jpgis/datalist/KsjTmplt-N02-v1_1.html",
        "wikidata": "Q6404041",
        "wikipedia": "ja:吉備津駅"
      }
    },
    {
      "id": "okayama_station_8120331557",
      "osmId": 8120331557,
      "osmType": "node",
      "prefectureId": "okayama",
      "type": "station",
      "subtype": "jr",
      "name": "大安寺",
      "nameKana": null,
      "nameEn": "Daianji",
      "operator": "西日本旅客鉄道",
      "network": null,
      "ref": null,
      "latitude": 34.6629323,
      "longitude": 133.8876396,
      "countryCode": "jp",
      "rawTags": {
        "KSJ2:LIN": "吉備線",
        "KSJ2:STN": "大安寺",
        "name": "大安寺",
        "name:en": "Daianji",
        "name:ja": "大安寺",
        "name:ko": "다이안지",
        "note": "National-Land Numerical Information (Railway) 2007, MLIT Japan",
        "note:ja": "国土数値情報（鉄道データ）平成19年　国土交通省",
        "operator": "西日本旅客鉄道",
        "public_transport": "station",
        "railway": "station",
        "railway:ref": "U03",
        "source": "KSJ2",
        "source_ref": "http://nlftp.mlit.go.jp/ksj/jpgis/datalist/KsjTmplt-N02-v1_1.html",
        "wikidata": "Q5209068",
        "wikipedia": "ja:大安寺駅"
      }
    },
    {
      "id": "okayama_station_8296338341",
      "osmId": 8296338341,
      "osmType": "node",
      "prefectureId": "okayama",
      "type": "station",
      "subtype": "private",
      "name": "大原",
      "nameKana": null,
      "nameEn": "Ōhara",
      "operator": null,
      "network": null,
      "ref": null,
      "latitude": 35.1239902,
      "longitude": 134.3278626,
      "countryCode": "jp",
      "rawTags": {
        "KSJ2:STN": "大原",
        "name": "大原",
        "name:en": "Ōhara",
        "name:ja": "大原",
        "name:ko": "오하라",
        "note": "National-Land Numerical Information (Railway) 2007, MLIT Japan",
        "note:ja": "国土数値情報（鉄道データ）平成19年　国土交通省",
        "public_transport": "station",
        "railway": "station",
        "source": "KSJ2",
        "source_ref": "http://nlftp.mlit.go.jp/ksj/jpgis/datalist/KsjTmplt-N02-v1_1.html",
        "wikidata": "Q8081488",
        "wikipedia": "ja:大原駅 (岡山県)"
      }
    },
    {
      "id": "okayama_station_8558459803",
      "osmId": 8558459803,
      "osmType": "node",
      "prefectureId": "okayama",
      "type": "station",
      "subtype": "private",
      "name": "新倉敷",
      "nameKana": null,
      "nameEn": "Shin-Kurashiki",
      "operator": null,
      "network": null,
      "ref": null,
      "latitude": 34.5652579,
      "longitude": 133.6784605,
      "countryCode": "jp",
      "rawTags": {
        "KSJ2:LIN": "山陽新幹線",
        "KSJ2:STN": "新倉敷",
        "highspeed": "yes",
        "name": "新倉敷",
        "name:de": "Shin-Kurashiki",
        "name:en": "Shin-Kurashiki",
        "name:ja": "新倉敷",
        "name:ko": "신쿠라시키",
        "note": "National-Land Numerical Information (Railway) 2007, MLIT Japan",
        "note:ja": "国土数値情報（鉄道データ）平成19年　国土交通省",
        "public_transport": "station",
        "railway": "station",
        "source": "KSJ2",
        "source_ref": "http://nlftp.mlit.go.jp/ksj/jpgis/datalist/KsjTmplt-N02-v1_1.html",
        "train": "yes",
        "wikidata": "Q1067908",
        "wikipedia": "ja:新倉敷駅"
      }
    },
    {
      "id": "okayama_ferry_terminal_9234530766",
      "osmId": 9234530766,
      "osmType": "node",
      "prefectureId": "okayama",
      "type": "ferry_terminal",
      "subtype": null,
      "name": "日生港",
      "nameKana": null,
      "nameEn": null,
      "operator": null,
      "network": null,
      "ref": null,
      "latitude": 34.7311574,
      "longitude": 134.2692494,
      "countryCode": "jp",
      "rawTags": {
        "amenity": "ferry_terminal",
        "ferry": "yes",
        "name": "日生港",
        "public_transport": "station"
      }
    },
    {
      "id": "okayama_ferry_terminal_9234530836",
      "osmId": 9234530836,
      "osmType": "node",
      "prefectureId": "okayama",
      "type": "ferry_terminal",
      "subtype": null,
      "name": "頭島港",
      "nameKana": null,
      "nameEn": null,
      "operator": null,
      "network": null,
      "ref": null,
      "latitude": 34.6988166,
      "longitude": 134.2834496,
      "countryCode": "jp",
      "rawTags": {
        "amenity": "ferry_terminal",
        "ferry": "yes",
        "name": "頭島港",
        "public_transport": "station"
      }
    },
    {
      "id": "okayama_bus_terminal_9841157833",
      "osmId": 9841157833,
      "osmType": "node",
      "prefectureId": "okayama",
      "type": "bus_terminal",
      "subtype": null,
      "name": "船穂公民館",
      "nameKana": null,
      "nameEn": null,
      "operator": "倉敷市船穂地区コミュニティタクシー",
      "network": "船穂線",
      "ref": null,
      "latitude": 34.5846656,
      "longitude": 133.7084406,
      "countryCode": "jp",
      "rawTags": {
        "amenity": "bus_station",
        "bus": "yes",
        "name": "船穂公民館",
        "network": "船穂線",
        "operator": "倉敷市船穂地区コミュニティタクシー",
        "public_transport": "station"
      }
    },
    {
      "id": "okayama_station_11435050207",
      "osmId": 11435050207,
      "osmType": "node",
      "prefectureId": "okayama",
      "type": "station",
      "subtype": "jr",
      "name": "岡山",
      "nameKana": "おかやま",
      "nameEn": "Okayama",
      "operator": "西日本旅客鉄道",
      "network": "山陽新幹線",
      "ref": null,
      "latitude": 34.6654089,
      "longitude": 133.917825,
      "countryCode": "jp",
      "rawTags": {
        "highspeed": "yes",
        "name": "岡山",
        "name:de": "Okayama",
        "name:en": "Okayama",
        "name:es": "Okayama",
        "name:ja": "岡山",
        "name:ja_kana": "おかやま",
        "name:ja_rm": "Okayama",
        "name:ko": "오카야마",
        "network": "山陽新幹線",
        "network:en": "San'yō Shinkansen",
        "operator": "西日本旅客鉄道",
        "operator:en": "West Japan Railway Company",
        "public_transport": "station",
        "railway": "station",
        "website": "https://www.jr-odekake.net/eki/top.php?id=0650608",
        "wikidata": "Q801293",
        "wikipedia": "ja:岡山駅"
      }
    },
    {
      "id": "okayama_bus_terminal_13070986441",
      "osmId": 13070986441,
      "osmType": "node",
      "prefectureId": "okayama",
      "type": "bus_terminal",
      "subtype": null,
      "name": "中鉄美作バス",
      "nameKana": null,
      "nameEn": null,
      "operator": null,
      "network": null,
      "ref": null,
      "latitude": 35.2002208,
      "longitude": 133.7324322,
      "countryCode": "jp",
      "rawTags": {
        "amenity": "bus_station",
        "branch": "湯原営業所",
        "bus": "yes",
        "name": "中鉄美作バス",
        "operator:wikidata": "Q11367775",
        "operator:wikipedia": "ja:中鉄美作バス",
        "public_transport": "station"
      }
    },
    {
      "id": "okayama_airport_57009996",
      "osmId": 57009996,
      "osmType": "way",
      "prefectureId": "okayama",
      "type": "airport",
      "subtype": "domestic",
      "name": "岡山空港",
      "nameKana": "おかやまくうこう",
      "nameEn": "Okayama Airport",
      "operator": null,
      "network": null,
      "ref": "OKJ",
      "latitude": 34.7571474,
      "longitude": 133.8555389,
      "countryCode": "jp",
      "rawTags": {
        "KSJ2:AAC": "33201",
        "KSJ2:AD2": "5",
        "KSJ2:AD2_label": "都道府県",
        "KSJ2:ARP": "34.7569444444 133.8552777778",
        "KSJ2:ATB": "34.7600833300 133.8529167000",
        "KSJ2:CLT": "21 30",
        "KSJ2:COA": "空港整備法に基づく第三種空港",
        "KSJ2:CompositeCurve": "cv47Airport",
        "KSJ2:DSA": "特定飛行場以外",
        "KSJ2:INP": "5",
        "KSJ2:INP_label": "都道府県",
        "KSJ2:IUC": "供用中",
        "KSJ2:NA3": "岡山空港",
        "KSJ2:OPT": "07 00",
        "KSJ2:REF": "1",
        "KSJ2:REF_label": "ジェット定期便が就航している場合",
        "KSJ2:airport_id": "cf02_74",
        "KSJ2:runways": "3000 45",
        "aerodrome:type": "public",
        "aeroway": "aerodrome",
        "closest_town": "Okayama",
        "ele": "246",
        "fence": "yes",
        "iata": "OKJ",
        "icao": "RJOB",
        "name": "岡山空港",
        "name:en": "Okayama Airport",
        "name:ja": "岡山空港",
        "name:ja_kana": "おかやまくうこう",
        "name:ja_rm": "Okayama Kūkō",
        "note": "National-Land Numerical Information (Airport) 2007, MLIT Japan",
        "note:ja": "国土数値情報（空港データ）平成19年　国土交通省",
        "reg_name": "岡山桃太郎空港",
        "source": "KSJ2;wikipedia",
        "source_ref": "http://nlftp.mlit.go.jp/ksj/jpgis/datalist/KsjTmplt-C28-v1_1.html",
        "wikidata": "Q1322391",
        "wikipedia": "ja:岡山空港",
        "wikipedia:en": "Okayama_Airport",
        "wikipedia:ja": "岡山空港"
      }
    },
    {
      "id": "okayama_airport_57009997",
      "osmId": 57009997,
      "osmType": "way",
      "prefectureId": "okayama",
      "type": "airport",
      "subtype": "domestic",
      "name": "岡南飛行場",
      "nameKana": null,
      "nameEn": "Kounan Airport",
      "operator": null,
      "network": null,
      "ref": "RJBK",
      "latitude": 34.5924479,
      "longitude": 133.9326977,
      "countryCode": "jp",
      "rawTags": {
        "KSJ2:AAC": "330020090",
        "KSJ2:AAC_label": "岡山県岡山市南区浦安南町",
        "KSJ2:AD2": "5",
        "KSJ2:AD2_label": "都道府県",
        "KSJ2:ARP": "34.5913888889 133.9333333333",
        "KSJ2:ATB": "34.5923333300 133.9281667000",
        "KSJ2:CLT": "18 30",
        "KSJ2:COA": "その他の公共飛行場",
        "KSJ2:CompositeCurve": "cv51Airport",
        "KSJ2:DSA": "特定飛行場以外",
        "KSJ2:INP": "5",
        "KSJ2:INP_label": "都道府県",
        "KSJ2:IUC": "供用中",
        "KSJ2:NA3": "岡南飛行場",
        "KSJ2:OPT": "08 30",
        "KSJ2:REF": "3",
        "KSJ2:REF_label": "定期便が就航していない場合",
        "KSJ2:airport_id": "cf02_75",
        "KSJ2:runways": "1200 30",
        "KSJ2:survey_year_LFD_NPD": "1981 0 12,1982 0 13,1983 0 0,1984 0 0,1985 0 0,1986 0 0,1987 0 0,1988 13 0,1989 19 0,1990 17 0,1991 18 0,1992 19 0,1993 16 0,1994 12 0,1995 12 0,1996 11 12,1997 12 0,1998 13 0,1999 11 0,2000 11 0,2001 10 0,2002 11 0,2003 12 0,2004 12 0,2005 13 0",
        "aeroway": "aerodrome",
        "fence": "yes",
        "icao": "RJBK",
        "name": "岡南飛行場",
        "name:en": "Kounan Airport",
        "name:ja": "岡南飛行場",
        "name:ja_rm": "Kounan Hikojo",
        "name:ru": "Окаяма",
        "note": "National-Land Numerical Information (Airport) 2007, MLIT Japan",
        "note:ja": "国土数値情報（空港データ）平成19年　国土交通省",
        "source": "KSJ2",
        "source_ref": "http://nlftp.mlit.go.jp/ksj/jpgis/datalist/KsjTmplt-C28-v1_1.html",
        "wikidata": "Q1019300",
        "wikipedia": "ja:岡南飛行場"
      }
    },
    {
      "id": "okayama_bus_terminal_127528826",
      "osmId": 127528826,
      "osmType": "way",
      "prefectureId": "okayama",
      "type": "bus_terminal",
      "subtype": null,
      "name": "岡山駅西口バスセンター",
      "nameKana": null,
      "nameEn": null,
      "operator": null,
      "network": null,
      "ref": null,
      "latitude": 34.6669668,
      "longitude": 133.9173093,
      "countryCode": "jp",
      "rawTags": {
        "amenity": "bus_station",
        "bus": "yes",
        "name": "岡山駅西口バスセンター",
        "public_transport": "station"
      }
    },
    {
      "id": "okayama_bus_terminal_167273498",
      "osmId": 167273498,
      "osmType": "way",
      "prefectureId": "okayama",
      "type": "bus_terminal",
      "subtype": null,
      "name": "岡山駅バスターミナル",
      "nameKana": null,
      "nameEn": null,
      "operator": null,
      "network": null,
      "ref": null,
      "latitude": 34.6651781,
      "longitude": 133.9185894,
      "countryCode": "jp",
      "rawTags": {
        "amenity": "bus_station",
        "area:highway": "service",
        "bus": "yes",
        "name": "岡山駅バスターミナル",
        "public_transport": "station"
      }
    },
    {
      "id": "okayama_airport_278762830",
      "osmId": 278762830,
      "osmType": "way",
      "prefectureId": "okayama",
      "type": "airport",
      "subtype": "domestic",
      "name": "笠岡ふれあい空港",
      "nameKana": null,
      "nameEn": null,
      "operator": null,
      "network": null,
      "ref": null,
      "latitude": 34.4759843,
      "longitude": 133.4890059,
      "countryCode": "jp",
      "rawTags": {
        "aeroway": "aerodrome",
        "name": "笠岡ふれあい空港",
        "wikidata": "Q11599866",
        "wikipedia": "ja:笠岡ふれあい空港"
      }
    },
    {
      "id": "okayama_bus_terminal_399762406",
      "osmId": 399762406,
      "osmType": "way",
      "prefectureId": "okayama",
      "type": "bus_terminal",
      "subtype": null,
      "name": "天満屋バスステーション",
      "nameKana": null,
      "nameEn": null,
      "operator": null,
      "network": null,
      "ref": null,
      "latitude": 34.6618159,
      "longitude": 133.928409,
      "countryCode": "jp",
      "rawTags": {
        "amenity": "bus_station",
        "building": "yes",
        "bus": "yes",
        "name": "天満屋バスステーション",
        "public_transport": "station",
        "wikidata": "Q11442831",
        "wikipedia": "ja:天満屋バスステーション"
      }
    },
    {
      "id": "okayama_bus_terminal_399762408",
      "osmId": 399762408,
      "osmType": "way",
      "prefectureId": "okayama",
      "type": "bus_terminal",
      "subtype": null,
      "name": "宇野バス表町バスセンター",
      "nameKana": null,
      "nameEn": null,
      "operator": null,
      "network": null,
      "ref": null,
      "latitude": 34.661552,
      "longitude": 133.9301589,
      "countryCode": "jp",
      "rawTags": {
        "amenity": "bus_station",
        "bus": "yes",
        "name": "宇野バス表町バスセンター",
        "public_transport": "station",
        "wikidata": "Q11626465",
        "wikipedia": "ja:表町バスセンター"
      }
    },
    {
      "id": "okayama_bus_terminal_400501290",
      "osmId": 400501290,
      "osmType": "way",
      "prefectureId": "okayama",
      "type": "bus_terminal",
      "subtype": null,
      "name": "宇野駅バスのりば",
      "nameKana": null,
      "nameEn": null,
      "operator": null,
      "network": null,
      "ref": null,
      "latitude": 34.4940555,
      "longitude": 133.9537635,
      "countryCode": "jp",
      "rawTags": {
        "amenity": "bus_station",
        "bus": "yes",
        "name": "宇野駅バスのりば",
        "public_transport": "station"
      }
    },
    {
      "id": "okayama_bus_terminal_400503006",
      "osmId": 400503006,
      "osmType": "way",
      "prefectureId": "okayama",
      "type": "bus_terminal",
      "subtype": null,
      "name": "倉敷駅バスターミナル",
      "nameKana": null,
      "nameEn": null,
      "operator": null,
      "network": null,
      "ref": null,
      "latitude": 34.6012081,
      "longitude": 133.7661865,
      "countryCode": "jp",
      "rawTags": {
        "amenity": "bus_station",
        "bus": "yes",
        "name": "倉敷駅バスターミナル",
        "public_transport": "station"
      }
    },
    {
      "id": "okayama_bus_terminal_400503007",
      "osmId": 400503007,
      "osmType": "way",
      "prefectureId": "okayama",
      "type": "bus_terminal",
      "subtype": null,
      "name": "倉敷駅北口バスのりば",
      "nameKana": null,
      "nameEn": null,
      "operator": null,
      "network": null,
      "ref": null,
      "latitude": 34.6022466,
      "longitude": 133.765057,
      "countryCode": "jp",
      "rawTags": {
        "amenity": "bus_station",
        "bus": "yes",
        "name": "倉敷駅北口バスのりば",
        "public_transport": "station"
      }
    },
    {
      "id": "okayama_bus_terminal_400995120",
      "osmId": 400995120,
      "osmType": "way",
      "prefectureId": "okayama",
      "type": "bus_terminal",
      "subtype": null,
      "name": "両備バス西大寺バスセンター",
      "nameKana": null,
      "nameEn": null,
      "operator": null,
      "network": null,
      "ref": null,
      "latitude": 34.656432,
      "longitude": 134.0304195,
      "countryCode": "jp",
      "rawTags": {
        "amenity": "bus_station",
        "bus": "yes",
        "name": "両備バス西大寺バスセンター",
        "public_transport": "station",
        "wikidata": "Q11627554",
        "wikipedia": "ja:西大寺バスセンター"
      }
    },
    {
      "id": "okayama_station_407537571",
      "osmId": 407537571,
      "osmType": "way",
      "prefectureId": "okayama",
      "type": "station",
      "subtype": "private",
      "name": "黄福柵原駅;黄福柵原",
      "nameKana": null,
      "nameEn": null,
      "operator": "片上鉄道保存会",
      "network": "片上鉄道",
      "ref": null,
      "latitude": 34.9435013,
      "longitude": 134.0774422,
      "countryCode": "jp",
      "rawTags": {
        "building": "train_station",
        "name": "黄福柵原駅;黄福柵原",
        "network": "片上鉄道",
        "operator": "片上鉄道保存会",
        "railway": "station",
        "station": "preserved"
      }
    },
    {
      "id": "okayama_bus_terminal_441069993",
      "osmId": 441069993,
      "osmType": "way",
      "prefectureId": "okayama",
      "type": "bus_terminal",
      "subtype": null,
      "name": "笠岡市交通交流センター",
      "nameKana": null,
      "nameEn": null,
      "operator": null,
      "network": null,
      "ref": null,
      "latitude": 34.4880617,
      "longitude": 133.5180245,
      "countryCode": "jp",
      "rawTags": {
        "amenity": "bus_station",
        "building": "yes",
        "bus": "yes",
        "name": "笠岡市交通交流センター",
        "public_transport": "station"
      }
    },
    {
      "id": "okayama_ferry_terminal_601251539",
      "osmId": 601251539,
      "osmType": "way",
      "prefectureId": "okayama",
      "type": "ferry_terminal",
      "subtype": null,
      "name": "宇野港フェリー乗り場",
      "nameKana": null,
      "nameEn": null,
      "operator": null,
      "network": null,
      "ref": null,
      "latitude": 34.4930128,
      "longitude": 133.9522563,
      "countryCode": "jp",
      "rawTags": {
        "amenity": "ferry_terminal",
        "building": "transportation",
        "check_date": "2024-02-27",
        "ferry": "yes",
        "name": "宇野港フェリー乗り場",
        "public_transport": "station",
        "toilets": "yes",
        "toilets:wheelchair": "yes"
      }
    },
    {
      "id": "okayama_ferry_terminal_692893140",
      "osmId": 692893140,
      "osmType": "way",
      "prefectureId": "okayama",
      "type": "ferry_terminal",
      "subtype": null,
      "name": "まるがめ競艇行き 無料高速艇乗降船場",
      "nameKana": null,
      "nameEn": null,
      "operator": null,
      "network": null,
      "ref": null,
      "latitude": 34.524051,
      "longitude": 133.7396075,
      "countryCode": "jp",
      "rawTags": {
        "amenity": "ferry_terminal",
        "building": "yes",
        "ferry": "yes",
        "name": "まるがめ競艇行き 無料高速艇乗降船場",
        "public_transport": "station"
      }
    },
    {
      "id": "okayama_ferry_terminal_694016439",
      "osmId": 694016439,
      "osmType": "way",
      "prefectureId": "okayama",
      "type": "ferry_terminal",
      "subtype": null,
      "name": "水島通船（株）待合所",
      "nameKana": null,
      "nameEn": null,
      "operator": null,
      "network": null,
      "ref": null,
      "latitude": 34.5253114,
      "longitude": 133.7388649,
      "countryCode": "jp",
      "rawTags": {
        "amenity": "ferry_terminal",
        "building": "yes",
        "ferry": "yes",
        "name": "水島通船（株）待合所",
        "public_transport": "station"
      }
    },
    {
      "id": "okayama_bus_terminal_771354821",
      "osmId": 771354821,
      "osmType": "way",
      "prefectureId": "okayama",
      "type": "bus_terminal",
      "subtype": null,
      "name": "高梁バスセンター",
      "nameKana": null,
      "nameEn": null,
      "operator": null,
      "network": null,
      "ref": null,
      "latitude": 34.7890797,
      "longitude": 133.6165192,
      "countryCode": "jp",
      "rawTags": {
        "amenity": "bus_station",
        "bus": "yes",
        "name": "高梁バスセンター",
        "public_transport": "station"
      }
    },
    {
      "id": "okayama_ferry_terminal_1000431418",
      "osmId": 1000431418,
      "osmType": "way",
      "prefectureId": "okayama",
      "type": "ferry_terminal",
      "subtype": null,
      "name": "瀬戸内観光汽船(フェリー待合所)",
      "nameKana": null,
      "nameEn": null,
      "operator": null,
      "network": null,
      "ref": null,
      "latitude": 34.7348788,
      "longitude": 134.277035,
      "countryCode": "jp",
      "rawTags": {
        "amenity": "ferry_terminal",
        "building": "commercial",
        "disused:amenity": "ferry_terminal",
        "ele": "1.8",
        "ferry": "yes",
        "height": "6.9",
        "name": "瀬戸内観光汽船(フェリー待合所)",
        "public_transport": "station",
        "source": "MLIT_PLATEAU 33211-bldg-16020",
        "survey:date": "2023"
      }
    },
    {
      "id": "okayama_bus_terminal_1189553379",
      "osmId": 1189553379,
      "osmType": "way",
      "prefectureId": "okayama",
      "type": "bus_terminal",
      "subtype": null,
      "name": "北振バス矢掛バスセンター(旧井笠鉄道矢掛駅)",
      "nameKana": null,
      "nameEn": null,
      "operator": null,
      "network": null,
      "ref": null,
      "latitude": 34.6227063,
      "longitude": 133.5822476,
      "countryCode": "jp",
      "rawTags": {
        "amenity": "bus_station",
        "building": "yes",
        "bus": "yes",
        "name": "北振バス矢掛バスセンター(旧井笠鉄道矢掛駅)",
        "public_transport": "station"
      }
    },
    {
      "id": "okayama_bus_terminal_1361047710",
      "osmId": 1361047710,
      "osmType": "way",
      "prefectureId": "okayama",
      "type": "bus_terminal",
      "subtype": null,
      "name": "バスのりば",
      "nameKana": null,
      "nameEn": null,
      "operator": "宇野自動車",
      "network": null,
      "ref": null,
      "latitude": 35.0126229,
      "longitude": 134.1506618,
      "countryCode": "jp",
      "rawTags": {
        "amenity": "bus_station",
        "building": "yes",
        "bus": "yes",
        "name": "バスのりば",
        "operator": "宇野自動車",
        "public_transport": "station",
        "wikidata": "Q11449901",
        "wikipedia": "ja:宇野自動車"
      }
    }
  ]
}