{
  "fetchedAt": "2025-12-12T05:36:41.364Z",
  "prefectureId": "saga",
  "prefectureName": "佐賀県",
  "stats": {
    "station": 79,
    "airport": 2,
    "ferry_terminal": 6,
    "bus_terminal": 6,
    "total": 93
  },
  "data": [
    {
      "id": "saga_station_265852127",
      "osmId": 265852127,
      "osmType": "node",
      "prefectureId": "saga",
      "type": "station",
      "subtype": "jr",
      "name": "三間坂",
      "nameKana": null,
      "nameEn": "Mimasaka",
      "operator": "九州旅客鉄道",
      "network": "JR佐世保線",
      "ref": null,
      "latitude": 33.194725,
      "longitude": 129.9476933,
      "countryCode": "jp",
      "rawTags": {
        "KSJ2:LIN": "佐世保線",
        "KSJ2:STN": "三間坂",
        "name": "三間坂",
        "name:de": "Mimasaka",
        "name:en": "Mimasaka",
        "name:ja": "三間坂",
        "name:ko": "미마사카",
        "network": "JR佐世保線",
        "note": "National-Land Numerical Information (Railway) 2007, MLIT Japan",
        "note:ja": "国土数値情報（鉄道データ）平成19年　国土交通省",
        "operator": "九州旅客鉄道",
        "railway": "station",
        "source": "KSJ2",
        "source_ref": "http://nlftp.mlit.go.jp/ksj/jpgis/datalist/KsjTmplt-N02-v1_1.html",
        "wikidata": "Q5365283",
        "wikipedia": "ja:三間坂駅"
      }
    },
    {
      "id": "saga_station_265852448",
      "osmId": 265852448,
      "osmType": "node",
      "prefectureId": "saga",
      "type": "station",
      "subtype": "jr",
      "name": "上有田",
      "nameKana": null,
      "nameEn": "Kami-Arita",
      "operator": "九州旅客鉄道",
      "network": "JR佐世保線",
      "ref": null,
      "latitude": 33.1902799,
      "longitude": 129.9053775,
      "countryCode": "jp",
      "rawTags": {
        "KSJ2:LIN": "佐世保線",
        "KSJ2:STN": "上有田",
        "name": "上有田",
        "name:de": "Kami-Arita",
        "name:en": "Kami-Arita",
        "name:ja": "上有田",
        "name:ko": "가미아리타",
        "network": "JR佐世保線",
        "note": "National-Land Numerical Information (Railway) 2007, MLIT Japan",
        "note:ja": "国土数値情報（鉄道データ）平成19年　国土交通省",
        "operator": "九州旅客鉄道",
        "railway": "station",
        "source": "KSJ2",
        "source_ref": "http://nlftp.mlit.go.jp/ksj/jpgis/datalist/KsjTmplt-N02-v1_1.html",
        "wikidata": "Q6357099",
        "wikipedia": "ja:上有田駅"
      }
    },
    {
      "id": "saga_station_270856398",
      "osmId": 270856398,
      "osmType": "node",
      "prefectureId": "saga",
      "type": "station",
      "subtype": "private",
      "name": "鳴石",
      "nameKana": null,
      "nameEn": "Naruishi",
      "operator": null,
      "network": null,
      "ref": null,
      "latitude": 33.2996385,
      "longitude": 129.816694,
      "countryCode": "jp",
      "rawTags": {
        "KSJ2:LIN": "西九州線",
        "KSJ2:STN": "鳴石",
        "name": "鳴石",
        "name:en": "Naruishi",
        "name:ja": "鳴石",
        "name:ko": "나루이시",
        "note": "National-Land Numerical Information (Railway) 2007, MLIT Japan",
        "note:ja": "国土数値情報（鉄道データ）平成19年　国土交通省",
        "railway": "station",
        "source": "KSJ2",
        "source_ref": "http://nlftp.mlit.go.jp/ksj/jpgis/datalist/KsjTmplt-N02-v1_1.html",
        "wikidata": "Q11675404",
        "wikipedia": "ja:鳴石駅"
      }
    },
    {
      "id": "saga_station_270856463",
      "osmId": 270856463,
      "osmType": "node",
      "prefectureId": "saga",
      "type": "station",
      "subtype": "private",
      "name": "金武",
      "nameKana": "かなたけ",
      "nameEn": "Kanatake",
      "operator": null,
      "network": null,
      "ref": null,
      "latitude": 33.2518039,
      "longitude": 129.8544789,
      "countryCode": "jp",
      "rawTags": {
        "KSJ2:LIN": "西九州線",
        "KSJ2:STN": "金武",
        "name": "金武",
        "name:en": "Kanatake",
        "name:ja": "金武",
        "name:ja-Hira": "かなたけ",
        "name:ko": "가나타케",
        "note": "National-Land Numerical Information (Railway) 2007, MLIT Japan",
        "note:ja": "国土数値情報（鉄道データ）平成19年　国土交通省",
        "railway": "station",
        "source": "KSJ2",
        "source_ref": "http://nlftp.mlit.go.jp/ksj/jpgis/datalist/KsjTmplt-N02-v1_1.html",
        "wikidata": "Q11647331",
        "wikipedia": "ja:金武駅"
      }
    },
    {
      "id": "saga_station_270856548",
      "osmId": 270856548,
      "osmType": "node",
      "prefectureId": "saga",
      "type": "station",
      "subtype": "private",
      "name": "夫婦石",
      "nameKana": null,
      "nameEn": "Meotoishi",
      "operator": null,
      "network": null,
      "ref": null,
      "latitude": 33.2372543,
      "longitude": 129.8506151,
      "countryCode": "jp",
      "rawTags": {
        "KSJ2:LIN": "西九州線",
        "KSJ2:STN": "夫婦石",
        "name": "夫婦石",
        "name:en": "Meotoishi",
        "name:ja": "夫婦石",
        "name:ko": "메오토이시",
        "note": "National-Land Numerical Information (Railway) 2007, MLIT Japan",
        "note:ja": "国土数値情報（鉄道データ）平成19年　国土交通省",
        "railway": "station",
        "source": "KSJ2",
        "source_ref": "http://nlftp.mlit.go.jp/ksj/jpgis/datalist/KsjTmplt-N02-v1_1.html",
        "wheelchair": "yes",
        "wikidata": "Q11444782",
        "wikipedia": "ja:夫婦石駅"
      }
    },
    {
      "id": "saga_station_270856725",
      "osmId": 270856725,
      "osmType": "node",
      "prefectureId": "saga",
      "type": "station",
      "subtype": "private",
      "name": "川東",
      "nameKana": null,
      "nameEn": "Kawahigashi",
      "operator": null,
      "network": null,
      "ref": null,
      "latitude": 33.267624,
      "longitude": 129.864123,
      "countryCode": "jp",
      "rawTags": {
        "KSJ2:LIN": "西九州線",
        "KSJ2:STN": "川東",
        "name": "川東",
        "name:en": "Kawahigashi",
        "name:ja": "川東",
        "name:ko": "가와히가시",
        "note": "National-Land Numerical Information (Railway) 2007, MLIT Japan",
        "note:ja": "国土数値情報（鉄道データ）平成19年　国土交通省",
        "railway": "station",
        "source": "KSJ2",
        "source_ref": "http://nlftp.mlit.go.jp/ksj/jpgis/datalist/KsjTmplt-N02-v1_1.html",
        "wikidata": "Q11478846",
        "wikipedia": "ja:川東駅 (佐賀県)"
      }
    },
    {
      "id": "saga_station_270856748",
      "osmId": 270856748,
      "osmType": "node",
      "prefectureId": "saga",
      "type": "station",
      "subtype": "private",
      "name": "山谷",
      "nameKana": null,
      "nameEn": "Yamadani",
      "operator": null,
      "network": null,
      "ref": null,
      "latitude": 33.2290695,
      "longitude": 129.8491014,
      "countryCode": "jp",
      "rawTags": {
        "KSJ2:LIN": "西九州線",
        "KSJ2:STN": "山谷",
        "name": "山谷",
        "name:en": "Yamadani",
        "name:ja": "山谷",
        "name:ko": "야마다니",
        "note": "National-Land Numerical Information (Railway) 2007, MLIT Japan",
        "note:ja": "国土数値情報（鉄道データ）平成19年　国土交通省",
        "railway": "station",
        "source": "KSJ2",
        "source_ref": "http://nlftp.mlit.go.jp/ksj/jpgis/datalist/KsjTmplt-N02-v1_1.html",
        "wikidata": "Q11470936",
        "wikipedia": "ja:山谷駅"
      }
    },
    {
      "id": "saga_station_270857013",
      "osmId": 270857013,
      "osmType": "node",
      "prefectureId": "saga",
      "type": "station",
      "subtype": "private",
      "name": "久原",
      "nameKana": null,
      "nameEn": "Kubara",
      "operator": null,
      "network": null,
      "ref": null,
      "latitude": 33.3148676,
      "longitude": 129.81155,
      "countryCode": "jp",
      "rawTags": {
        "KSJ2:LIN": "西九州線",
        "KSJ2:STN": "久原",
        "name": "久原",
        "name:en": "Kubara",
        "name:ja": "久原",
        "name:ko": "구바라",
        "note": "National-Land Numerical Information (Railway) 2007, MLIT Japan",
        "note:ja": "国土数値情報（鉄道データ）平成19年　国土交通省",
        "railway": "station",
        "source": "KSJ2",
        "source_ref": "http://nlftp.mlit.go.jp/ksj/jpgis/datalist/KsjTmplt-N02-v1_1.html",
        "wikidata": "Q11369206",
        "wikipedia": "ja:久原駅"
      }
    },
    {
      "id": "saga_station_270857161",
      "osmId": 270857161,
      "osmType": "node",
      "prefectureId": "saga",
      "type": "station",
      "subtype": "private",
      "name": "西有田",
      "nameKana": null,
      "nameEn": "NIshi-Arita",
      "operator": null,
      "network": null,
      "ref": null,
      "latitude": 33.2099976,
      "longitude": 129.8500521,
      "countryCode": "jp",
      "rawTags": {
        "KSJ2:LIN": "松浦鉄道",
        "KSJ2:STN": "西有田",
        "name": "西有田",
        "name:en": "NIshi-Arita",
        "name:ja": "西有田",
        "name:ko": "니시아리타",
        "note": "National-Land Numerical Information (Railway) 2007, MLIT Japan",
        "note:ja": "国土数値情報（鉄道データ）平成19年　国土交通省",
        "railway": "station",
        "source": "KSJ2",
        "source_ref": "http://nlftp.mlit.go.jp/ksj/jpgis/datalist/KsjTmplt-N02-v1_1.html",
        "wheelchair": "limited",
        "wikidata": "Q11628452",
        "wikipedia": "ja:西有田駅"
      }
    },
    {
      "id": "saga_station_270857171",
      "osmId": 270857171,
      "osmType": "node",
      "prefectureId": "saga",
      "type": "station",
      "subtype": "private",
      "name": "三代橋",
      "nameKana": null,
      "nameEn": "Midaibashi",
      "operator": null,
      "network": null,
      "ref": null,
      "latitude": 33.1891592,
      "longitude": 129.8656598,
      "countryCode": "jp",
      "rawTags": {
        "KSJ2:LIN": "西九州線",
        "KSJ2:STN": "三代橋",
        "name": "三代橋",
        "name:en": "Midaibashi",
        "name:ja": "三代橋",
        "name:ko": "미다이바시",
        "note": "National-Land Numerical Information (Railway) 2007, MLIT Japan",
        "note:ja": "国土数値情報（鉄道データ）平成19年　国土交通省",
        "railway": "station",
        "source": "KSJ2",
        "source_ref": "http://nlftp.mlit.go.jp/ksj/jpgis/datalist/KsjTmplt-N02-v1_1.html",
        "wikidata": "Q11354356",
        "wikipedia": "ja:三代橋駅"
      }
    },
    {
      "id": "saga_station_270857585",
      "osmId": 270857585,
      "osmType": "node",
      "prefectureId": "saga",
      "type": "station",
      "subtype": "private",
      "name": "伊万里",
      "nameKana": null,
      "nameEn": "Imari",
      "operator": null,
      "network": null,
      "ref": null,
      "latitude": 33.271839,
      "longitude": 129.8772734,
      "countryCode": "jp",
      "rawTags": {
        "KSJ2:STN": "伊万里",
        "name": "伊万里",
        "name:en": "Imari",
        "name:ja": "伊万里",
        "name:ko": "이마리",
        "public_transport": "station",
        "railway": "station",
        "train": "yes",
        "wikidata": "Q8189881",
        "wikipedia": "ja:伊万里駅"
      }
    },
    {
      "id": "saga_station_270857738",
      "osmId": 270857738,
      "osmType": "node",
      "prefectureId": "saga",
      "type": "station",
      "subtype": "private",
      "name": "福島口",
      "nameKana": null,
      "nameEn": "Fukushimaguchi",
      "operator": "松浦鉄道",
      "network": "松浦鉄道西九州線",
      "ref": null,
      "latitude": 33.3379647,
      "longitude": 129.7903672,
      "countryCode": "jp",
      "rawTags": {
        "KSJ2:LIN": "西九州線",
        "KSJ2:STN": "福島口",
        "name": "福島口",
        "name:en": "Fukushimaguchi",
        "name:ja": "福島口",
        "name:ko": "후쿠시마구치",
        "network": "松浦鉄道西九州線",
        "note": "National-Land Numerical Information (Railway) 2007, MLIT Japan",
        "note:ja": "国土数値情報（鉄道データ）平成19年　国土交通省",
        "operator": "松浦鉄道",
        "railway": "station",
        "source": "KSJ2",
        "source_ref": "http://nlftp.mlit.go.jp/ksj/jpgis/datalist/KsjTmplt-N02-v1_1.html",
        "wikidata": "Q11593047",
        "wikipedia": "ja:福島口駅"
      }
    },
    {
      "id": "saga_station_270857764",
      "osmId": 270857764,
      "osmType": "node",
      "prefectureId": "saga",
      "type": "station",
      "subtype": "private",
      "name": "黒川",
      "nameKana": null,
      "nameEn": "Kurogou",
      "operator": null,
      "network": null,
      "ref": null,
      "latitude": 33.1949099,
      "longitude": 129.8555416,
      "countryCode": "jp",
      "rawTags": {
        "KSJ2:LIN": "西九州線",
        "KSJ2:STN": "黒川",
        "name": "黒川",
        "name:en": "Kurogou",
        "name:ja": "黒川",
        "name:ko": "구로고우",
        "note": "National-Land Numerical Information (Railway) 2007, MLIT Japan",
        "note:ja": "国土数値情報（鉄道データ）平成19年　国土交通省",
        "railway": "station",
        "source": "KSJ2",
        "source_ref": "http://nlftp.mlit.go.jp/ksj/jpgis/datalist/KsjTmplt-N02-v1_1.html",
        "wikidata": "Q11678271",
        "wikipedia": "ja:黒川駅 (佐賀県)"
      }
    },
    {
      "id": "saga_station_270857953",
      "osmId": 270857953,
      "osmType": "node",
      "prefectureId": "saga",
      "type": "station",
      "subtype": "private",
      "name": "里",
      "nameKana": null,
      "nameEn": "Sato",
      "operator": null,
      "network": null,
      "ref": null,
      "latitude": 33.2848731,
      "longitude": 129.8354635,
      "countryCode": "jp",
      "rawTags": {
        "KSJ2:LIN": "西九州線",
        "KSJ2:STN": "里",
        "name": "里",
        "name:en": "Sato",
        "name:ja": "里",
        "name:ko": "사토",
        "note": "National-Land Numerical Information (Railway) 2007, MLIT Japan",
        "note:ja": "国土数値情報（鉄道データ）平成19年　国土交通省",
        "railway": "station",
        "source": "KSJ2",
        "source_ref": "http://nlftp.mlit.go.jp/ksj/jpgis/datalist/KsjTmplt-N02-v1_1.html",
        "wikidata": "Q11644680",
        "wikipedia": "ja:里駅"
      }
    },
    {
      "id": "saga_station_270858225",
      "osmId": 270858225,
      "osmType": "node",
      "prefectureId": "saga",
      "type": "station",
      "subtype": "private",
      "name": "大木",
      "nameKana": null,
      "nameEn": "Oogi",
      "operator": null,
      "network": null,
      "ref": null,
      "latitude": 33.2218071,
      "longitude": 129.8499674,
      "countryCode": "jp",
      "rawTags": {
        "KSJ2:LIN": "西九州線",
        "KSJ2:STN": "大木",
        "name": "大木",
        "name:en": "Oogi",
        "name:ja": "大木",
        "name:ko": "오기",
        "note": "National-Land Numerical Information (Railway) 2007, MLIT Japan",
        "note:ja": "国土数値情報（鉄道データ）平成19年　国土交通省",
        "railway": "station",
        "source": "KSJ2",
        "source_ref": "http://nlftp.mlit.go.jp/ksj/jpgis/datalist/KsjTmplt-N02-v1_1.html",
        "wikidata": "Q11435926",
        "wikipedia": "ja:大木駅"
      }
    },
    {
      "id": "saga_station_270858664",
      "osmId": 270858664,
      "osmType": "node",
      "prefectureId": "saga",
      "type": "station",
      "subtype": "private",
      "name": "楠久",
      "nameKana": null,
      "nameEn": "Kusuku",
      "operator": null,
      "network": null,
      "ref": null,
      "latitude": 33.2914152,
      "longitude": 129.82674,
      "countryCode": "jp",
      "rawTags": {
        "KSJ2:LIN": "西九州線",
        "KSJ2:STN": "楠久",
        "name": "楠久",
        "name:en": "Kusuku",
        "name:ja": "楠久",
        "name:ko": "구스쿠",
        "note": "National-Land Numerical Information (Railway) 2007, MLIT Japan",
        "note:ja": "国土数値情報（鉄道データ）平成19年　国土交通省",
        "public_transport": "station",
        "railway": "station",
        "source": "KSJ2",
        "source_ref": "http://nlftp.mlit.go.jp/ksj/jpgis/datalist/KsjTmplt-N02-v1_1.html",
        "wikidata": "Q11541157",
        "wikipedia": "ja:楠久駅"
      }
    },
    {
      "id": "saga_station_270858875",
      "osmId": 270858875,
      "osmType": "node",
      "prefectureId": "saga",
      "type": "station",
      "subtype": "private",
      "name": "浦ノ崎",
      "nameKana": null,
      "nameEn": "Uranosaki",
      "operator": null,
      "network": null,
      "ref": null,
      "latitude": 33.3349804,
      "longitude": 129.7929124,
      "countryCode": "jp",
      "rawTags": {
        "KSJ2:LIN": "西九州線",
        "KSJ2:STN": "浦ノ崎",
        "name": "浦ノ崎",
        "name:en": "Uranosaki",
        "name:ja": "浦ノ崎",
        "name:ko": "우라노사키",
        "note": "National-Land Numerical Information (Railway) 2007, MLIT Japan",
        "note:ja": "国土数値情報（鉄道データ）平成19年　国土交通省",
        "railway": "station",
        "source": "KSJ2",
        "source_ref": "http://nlftp.mlit.go.jp/ksj/jpgis/datalist/KsjTmplt-N02-v1_1.html",
        "wikidata": "Q7899732",
        "wikipedia": "ja:浦ノ崎駅"
      }
    },
    {
      "id": "saga_station_270858881",
      "osmId": 270858881,
      "osmType": "node",
      "prefectureId": "saga",
      "type": "station",
      "subtype": "private",
      "name": "東山代",
      "nameKana": null,
      "nameEn": "Higashi-Yamashiro",
      "operator": null,
      "network": null,
      "ref": null,
      "latitude": 33.2781443,
      "longitude": 129.84574,
      "countryCode": "jp",
      "rawTags": {
        "KSJ2:LIN": "西九州線",
        "KSJ2:STN": "東山代",
        "name": "東山代",
        "name:en": "Higashi-Yamashiro",
        "name:ja": "東山代",
        "name:ko": "히가시야마시로",
        "note": "National-Land Numerical Information (Railway) 2007, MLIT Japan",
        "note:ja": "国土数値情報（鉄道データ）平成19年　国土交通省",
        "railway": "station",
        "source": "KSJ2",
        "source_ref": "http://nlftp.mlit.go.jp/ksj/jpgis/datalist/KsjTmplt-N02-v1_1.html",
        "wikidata": "Q11526691",
        "wikipedia": "ja:東山代駅"
      }
    },
    {
      "id": "saga_station_270859690",
      "osmId": 270859690,
      "osmType": "node",
      "prefectureId": "saga",
      "type": "station",
      "subtype": "private",
      "name": "波瀬",
      "nameKana": null,
      "nameEn": "Haze",
      "operator": null,
      "network": null,
      "ref": null,
      "latitude": 33.3230012,
      "longitude": 129.807266,
      "countryCode": "jp",
      "rawTags": {
        "KSJ2:LIN": "西九州線",
        "KSJ2:STN": "波瀬",
        "name": "波瀬",
        "name:en": "Haze",
        "name:ja": "波瀬",
        "name:ko": "하제",
        "note": "National-Land Numerical Information (Railway) 2007, MLIT Japan",
        "note:ja": "国土数値情報（鉄道データ）平成19年　国土交通省",
        "railway": "station",
        "source": "KSJ2",
        "source_ref": "http://nlftp.mlit.go.jp/ksj/jpgis/datalist/KsjTmplt-N02-v1_1.html",
        "wikidata": "Q11555571",
        "wikipedia": "ja:波瀬駅"
      }
    },
    {
      "id": "saga_station_270859700",
      "osmId": 270859700,
      "osmType": "node",
      "prefectureId": "saga",
      "type": "station",
      "subtype": "private",
      "name": "蔵宿",
      "nameKana": null,
      "nameEn": "Zoushuku",
      "operator": null,
      "network": null,
      "ref": null,
      "latitude": 33.2020578,
      "longitude": 129.8505109,
      "countryCode": "jp",
      "rawTags": {
        "KSJ2:LIN": "西九州線",
        "KSJ2:STN": "蔵宿",
        "name": "蔵宿",
        "name:en": "Zoushuku",
        "name:ja": "蔵宿",
        "name:ko": "조슈쿠",
        "note": "National-Land Numerical Information (Railway) 2007, MLIT Japan",
        "note:ja": "国土数値情報（鉄道データ）平成19年　国土交通省",
        "railway": "station",
        "source": "KSJ2",
        "source_ref": "http://nlftp.mlit.go.jp/ksj/jpgis/datalist/KsjTmplt-N02-v1_1.html",
        "wikidata": "Q8076247",
        "wikipedia": "ja:蔵宿駅"
      }
    },
    {
      "id": "saga_ferry_terminal_778175254",
      "osmId": 778175254,
      "osmType": "node",
      "prefectureId": "saga",
      "type": "ferry_terminal",
      "subtype": null,
      "name": "唐津フェリーターミナル",
      "nameKana": null,
      "nameEn": null,
      "operator": null,
      "network": null,
      "ref": null,
      "latitude": 33.4696439,
      "longitude": 129.9636169,
      "countryCode": "jp",
      "rawTags": {
        "amenity": "ferry_terminal",
        "name": "唐津フェリーターミナル"
      }
    },
    {
      "id": "saga_station_778185118",
      "osmId": 778185118,
      "osmType": "node",
      "prefectureId": "saga",
      "type": "station",
      "subtype": "private",
      "name": "唐津",
      "nameKana": null,
      "nameEn": "Karatsu",
      "operator": null,
      "network": null,
      "ref": null,
      "latitude": 33.4462729,
      "longitude": 129.9677507,
      "countryCode": "jp",
      "rawTags": {
        "name": "唐津",
        "name:de": "Karatsu",
        "name:en": "Karatsu",
        "name:ja": "唐津",
        "name:ko": "가라쓰",
        "railway": "station",
        "wikidata": "Q852147",
        "wikipedia": "ja:唐津駅"
      }
    },
    {
      "id": "saga_airport_1042055897",
      "osmId": 1042055897,
      "osmType": "node",
      "prefectureId": "saga",
      "type": "airport",
      "subtype": "military",
      "name": "目達原飛行場",
      "nameKana": null,
      "nameEn": "Metabaru Air Base",
      "operator": null,
      "network": null,
      "ref": "RJDM",
      "latitude": 33.3256992,
      "longitude": 130.4130539,
      "countryCode": "jp",
      "rawTags": {
        "aeroway": "aerodrome",
        "icao": "RJDM",
        "landuse": "military",
        "military": "airfield",
        "name": "目達原飛行場",
        "name:en": "Metabaru Air Base",
        "name:ja": "目達原飛行場",
        "source": "ourairports.com",
        "wikidata": "Q652293"
      }
    },
    {
      "id": "saga_bus_terminal_3396954905",
      "osmId": 3396954905,
      "osmType": "node",
      "prefectureId": "saga",
      "type": "bus_terminal",
      "subtype": null,
      "name": "小城バスセンター",
      "nameKana": null,
      "nameEn": null,
      "operator": null,
      "network": null,
      "ref": null,
      "latitude": 33.2934578,
      "longitude": 130.1990481,
      "countryCode": "jp",
      "rawTags": {
        "amenity": "bus_station",
        "name": "小城バスセンター"
      }
    },
    {
      "id": "saga_station_4026759506",
      "osmId": 4026759506,
      "osmType": "node",
      "prefectureId": "saga",
      "type": "station",
      "subtype": "jr",
      "name": "けやき台",
      "nameKana": "けやきだい",
      "nameEn": "Keyaki-dai",
      "operator": "九州旅客鉄道",
      "network": null,
      "ref": null,
      "latitude": 33.4343882,
      "longitude": 130.5333383,
      "countryCode": "jp",
      "rawTags": {
        "name": "けやき台",
        "name:de": "Keyakidai",
        "name:en": "Keyaki-dai",
        "name:ja": "けやき台",
        "name:ja-Hira": "けやきだい",
        "name:ja_rm": "Keyaki-dai",
        "name:ko": "게야키다이",
        "operator": "九州旅客鉄道",
        "operator:ja": "九州旅客鉄道",
        "railway": "station",
        "source": "bing,2011",
        "source:name": "survey",
        "wikidata": "Q5359700",
        "wikipedia": "ja:けやき台駅"
      }
    },
    {
      "id": "saga_station_4026759507",
      "osmId": 4026759507,
      "osmType": "node",
      "prefectureId": "saga",
      "type": "station",
      "subtype": "jr",
      "name": "基山",
      "nameKana": null,
      "nameEn": "Kiyama",
      "operator": "九州旅客鉄道",
      "network": null,
      "ref": "JB12",
      "latitude": 33.4209927,
      "longitude": 130.5324138,
      "countryCode": "jp",
      "rawTags": {
        "KSJ2:LIN": "鹿児島線",
        "KSJ2:STN": "基山",
        "name": "基山",
        "name:de": "Kiyama",
        "name:en": "Kiyama",
        "name:ja": "基山",
        "name:ko": "가야마",
        "note": "National-Land Numerical Information (Railway) 2007, MLIT Japan",
        "note:ja": "国土数値情報（鉄道データ）平成19年　国土交通省",
        "operator": "九州旅客鉄道",
        "operator:ja": "九州旅客鉄道",
        "public_transport": "station",
        "railway": "station",
        "ref": "JB12",
        "source": "KSJ2",
        "source_ref": "http://nlftp.mlit.go.jp/ksj/jpgis/datalist/KsjTmplt-N02-v1_1.html",
        "wikidata": "Q872452",
        "wikipedia": "ja:基山駅"
      }
    },
    {
      "id": "saga_station_4837980299",
      "osmId": 4837980299,
      "osmType": "node",
      "prefectureId": "saga",
      "type": "station",
      "subtype": "jr",
      "name": "弥生が丘",
      "nameKana": null,
      "nameEn": "Yayoigaoka",
      "operator": "九州旅客鉄道",
      "network": null,
      "ref": null,
      "latitude": 33.4025169,
      "longitude": 130.5286097,
      "countryCode": "jp",
      "rawTags": {
        "name": "弥生が丘",
        "name:de": "Yayoigaoka",
        "name:en": "Yayoigaoka",
        "name:ja": "弥生が丘",
        "name:ko": "야요이가오카",
        "operator": "九州旅客鉄道",
        "operator:ja": "九州旅客鉄道",
        "public_transport": "station",
        "railway": "station",
        "source": "bing,2011",
        "source:name": "knowledge",
        "wikidata": "Q5359532",
        "wikipedia": "ja:弥生が丘駅"
      }
    },
    {
      "id": "saga_station_4837983624",
      "osmId": 4837983624,
      "osmType": "node",
      "prefectureId": "saga",
      "type": "station",
      "subtype": "jr",
      "name": "田代",
      "nameKana": null,
      "nameEn": "Tashiro",
      "operator": "九州旅客鉄道",
      "network": null,
      "ref": null,
      "latitude": 33.3841138,
      "longitude": 130.5247036,
      "countryCode": "jp",
      "rawTags": {
        "name": "田代",
        "name:de": "Tashiro",
        "name:en": "Tashiro",
        "name:ja": "田代",
        "name:ko": "다시로",
        "operator": "九州旅客鉄道",
        "operator:ja": "九州旅客鉄道",
        "public_transport": "station",
        "railway": "station",
        "source:name": "knowledge",
        "wikidata": "Q5359292",
        "wikipedia": "ja:田代駅"
      }
    },
    {
      "id": "saga_station_4837988927",
      "osmId": 4837988927,
      "osmType": "node",
      "prefectureId": "saga",
      "type": "station",
      "subtype": "jr",
      "name": "武雄温泉",
      "nameKana": "タケオオンセン",
      "nameEn": "Takeo Onsen",
      "operator": null,
      "network": "JR佐世保線",
      "ref": null,
      "latitude": 33.1964792,
      "longitude": 130.0230661,
      "countryCode": "jp",
      "rawTags": {
        "KSJ2:LIN": "佐世保線",
        "KSJ2:STN": "武雄温泉",
        "alt_name:ko": "다케오온센",
        "name": "武雄温泉",
        "name:en": "Takeo Onsen",
        "name:ja": "武雄温泉",
        "name:ja-Hira": "タケオオンセン",
        "name:ja_rm": "Takeoonsen",
        "name:ko": "다케오온천",
        "network": "JR佐世保線",
        "note": "National-Land Numerical Information (Railway) 2007, MLIT Japan",
        "note:ja": "国土数値情報（鉄道データ）平成19年 国土交通省",
        "public_transport": "station",
        "railway": "station",
        "website": "http://www.jrkyushu.co.jp/railway/station/1191668_1601.html",
        "wheelchair": "yes",
        "wikidata": "Q2105971",
        "wikipedia": "ja:武雄温泉駅"
      }
    },
    {
      "id": "saga_station_4837990009",
      "osmId": 4837990009,
      "osmType": "node",
      "prefectureId": "saga",
      "type": "station",
      "subtype": "jr",
      "name": "鍋島",
      "nameKana": "なべしま",
      "nameEn": "Nabeshima",
      "operator": "九州旅客鉄道",
      "network": null,
      "ref": null,
      "latitude": 33.2590622,
      "longitude": 130.2657589,
      "countryCode": "jp",
      "rawTags": {
        "contact:website": "https://www.jrkyushu.co.jp/railway/station/1191739_1601.html",
        "name": "鍋島",
        "name:de": "Nabeshima",
        "name:en": "Nabeshima",
        "name:ja-Hira": "なべしま",
        "operator": "九州旅客鉄道",
        "public_transport": "station",
        "railway": "station",
        "train": "yes",
        "wikidata": "Q5367881",
        "wikipedia": "ja:鍋島駅"
      }
    },
    {
      "id": "saga_station_5875685172",
      "osmId": 5875685172,
      "osmType": "node",
      "prefectureId": "saga",
      "type": "station",
      "subtype": "jr",
      "name": "肥前旭",
      "nameKana": "ひぜんあさひ",
      "nameEn": "Hizen Asahi",
      "operator": "九州旅客鉄道",
      "network": null,
      "ref": "JB16",
      "latitude": 33.3501001,
      "longitude": 130.4961203,
      "countryCode": "jp",
      "rawTags": {
        "name": "肥前旭",
        "name:en": "Hizen Asahi",
        "name:ja-Hira": "ひぜんあさひ",
        "operator": "九州旅客鉄道",
        "operator:ja": "九州旅客鉄道",
        "public_transport": "station",
        "railway": "station",
        "ref": "JB16",
        "wikidata": "Q5359363",
        "wikipedia": "ja:肥前旭駅"
      }
    },
    {
      "id": "saga_station_6050997375",
      "osmId": 6050997375,
      "osmType": "node",
      "prefectureId": "saga",
      "type": "station",
      "subtype": "jr",
      "name": "高橋",
      "nameKana": null,
      "nameEn": "Takahashi",
      "operator": "九州旅客鉄道",
      "network": "JR佐世保線",
      "ref": null,
      "latitude": 33.2078889,
      "longitude": 130.0418069,
      "countryCode": "jp",
      "rawTags": {
        "name": "高橋",
        "name:de": "Takahashi",
        "name:en": "Takahashi",
        "name:ja": "高橋",
        "network": "JR佐世保線",
        "operator": "九州旅客鉄道",
        "public_transport": "station",
        "railway": "station",
        "wikidata": "Q7677035",
        "wikipedia": "ja:高橋駅"
      }
    },
    {
      "id": "saga_station_6060489258",
      "osmId": 6060489258,
      "osmType": "node",
      "prefectureId": "saga",
      "type": "station",
      "subtype": "private",
      "name": "伊賀屋",
      "nameKana": null,
      "nameEn": "Igaya",
      "operator": null,
      "network": null,
      "ref": "JH07",
      "latitude": 33.2904495,
      "longitude": 130.3369686,
      "countryCode": "jp",
      "rawTags": {
        "KSJ2:LIN": "長崎線",
        "KSJ2:STN": "伊賀屋",
        "contact:website": "https://www.jrkyushu.co.jp/railway/station/1191398_1601.html",
        "name": "伊賀屋",
        "name:de": "Igaya",
        "name:en": "Igaya",
        "name:ja": "伊賀屋",
        "name:ko": "이가야",
        "public_transport": "station",
        "railway": "station",
        "ref": "JH07",
        "wikidata": "Q5359030",
        "wikipedia": "ja:伊賀屋駅"
      }
    },
    {
      "id": "saga_station_6244705890",
      "osmId": 6244705890,
      "osmType": "node",
      "prefectureId": "saga",
      "type": "station",
      "subtype": "jr",
      "name": "西唐津",
      "nameKana": null,
      "nameEn": "Nishi-Karatsu",
      "operator": "九州旅客鉄道",
      "network": null,
      "ref": null,
      "latitude": 33.4616571,
      "longitude": 129.9576107,
      "countryCode": "jp",
      "rawTags": {
        "name": "西唐津",
        "name:en": "Nishi-Karatsu",
        "name:ja": "西唐津",
        "name:ko": "니시카라쓰",
        "note": "National-Land Numerical Information (Railway) 2007, MLIT Japan",
        "note:ja": "国土数値情報（鉄道データ）平成19年　国土交通省",
        "operator": "九州旅客鉄道",
        "railway": "station",
        "source": "KSJ2",
        "wikidata": "Q5367579",
        "wikipedia": "ja:西唐津駅"
      }
    },
    {
      "id": "saga_station_6374755514",
      "osmId": 6374755514,
      "osmType": "node",
      "prefectureId": "saga",
      "type": "station",
      "subtype": "jr",
      "name": "有田",
      "nameKana": null,
      "nameEn": "Arita",
      "operator": "九州旅客鉄道",
      "network": null,
      "ref": null,
      "latitude": 33.1835918,
      "longitude": 129.8819711,
      "countryCode": "jp",
      "rawTags": {
        "KSJ2:LIN": "西九州線",
        "KSJ2:STN": "有田",
        "name": "有田",
        "name:de": "Arita",
        "name:en": "Arita",
        "name:ja": "有田",
        "name:ko": "아리타",
        "note": "National-Land Numerical Information (Railway) 2007, MLIT Japan",
        "note:ja": "国土数値情報（鉄道データ）平成19年　国土交通省",
        "operator": "九州旅客鉄道",
        "public_transport": "station",
        "railway": "station",
        "source": "KSJ2",
        "source_ref": "http://nlftp.mlit.go.jp/ksj/jpgis/datalist/KsjTmplt-N02-v1_1.html",
        "wheelchair": "yes",
        "wikidata": "Q4791116",
        "wikipedia": "ja:有田駅"
      }
    },
    {
      "id": "saga_bus_terminal_6382747785",
      "osmId": 6382747785,
      "osmType": "node",
      "prefectureId": "saga",
      "type": "bus_terminal",
      "subtype": null,
      "name": "嬉野バスセンター",
      "nameKana": "うれしのばすせんたー",
      "nameEn": "Ureshino Bus Centre",
      "operator": null,
      "network": null,
      "ref": null,
      "latitude": 33.0961464,
      "longitude": 129.9816613,
      "countryCode": "jp",
      "rawTags": {
        "amenity": "bus_station",
        "name": "嬉野バスセンター",
        "name:en": "Ureshino Bus Centre",
        "name:ja": "嬉野バスセンター",
        "name:ja-Hira": "うれしのばすせんたー"
      }
    },
    {
      "id": "saga_station_7222666256",
      "osmId": 7222666256,
      "osmType": "node",
      "prefectureId": "saga",
      "type": "station",
      "subtype": "jr",
      "name": "永尾",
      "nameKana": null,
      "nameEn": "Nagao",
      "operator": "九州旅客鉄道",
      "network": "JR佐世保線",
      "ref": null,
      "latitude": 33.1931925,
      "longitude": 129.9806314,
      "countryCode": "jp",
      "rawTags": {
        "KSJ2:LIN": "佐世保線",
        "KSJ2:STN": "永尾",
        "name": "永尾",
        "name:de": "Nagao",
        "name:en": "Nagao",
        "name:ja": "永尾",
        "name:ko": "나가오",
        "network": "JR佐世保線",
        "note": "National-Land Numerical Information (Railway) 2007, MLIT Japan",
        "note:ja": "国土数値情報（鉄道データ）平成19年　国土交通省",
        "operator": "九州旅客鉄道",
        "railway": "station",
        "source": "KSJ2",
        "source_ref": "http://nlftp.mlit.go.jp/ksj/jpgis/datalist/KsjTmplt-N02-v1_1.html",
        "wikidata": "Q6958485",
        "wikipedia": "ja:永尾駅"
      }
    },
    {
      "id": "saga_station_7816717075",
      "osmId": 7816717075,
      "osmType": "node",
      "prefectureId": "saga",
      "type": "station",
      "subtype": "jr",
      "name": "上伊万里",
      "nameKana": null,
      "nameEn": "Kami-Imari",
      "operator": "九州旅客鉄道",
      "network": "JR筑肥線",
      "ref": null,
      "latitude": 33.2701263,
      "longitude": 129.8921064,
      "countryCode": "jp",
      "rawTags": {
        "KSJ2:LIN": "筑肥線",
        "KSJ2:STN": "上伊万里",
        "name": "上伊万里",
        "name:en": "Kami-Imari",
        "name:ja": "上伊万里",
        "name:ko": "가미이마리",
        "network": "JR筑肥線",
        "note": "National-Land Numerical Information (Railway) 2007, MLIT Japan",
        "note:ja": "国土数値情報（鉄道データ）平成19年　国土交通省",
        "operator": "九州旅客鉄道",
        "public_transport": "station",
        "railway": "station",
        "source": "KSJ2",
        "source_ref": "http://nlftp.mlit.go.jp/ksj/jpgis/datalist/KsjTmplt-N02-v1_1.html",
        "wikidata": "Q6357137",
        "wikipedia": "ja:上伊万里駅"
      }
    },
    {
      "id": "saga_station_7816717076",
      "osmId": 7816717076,
      "osmType": "node",
      "prefectureId": "saga",
      "type": "station",
      "subtype": "jr",
      "name": "金石原",
      "nameKana": null,
      "nameEn": "Kanaishihara",
      "operator": "九州旅客鉄道",
      "network": "JR筑肥線",
      "ref": null,
      "latitude": 33.2652054,
      "longitude": 129.9347549,
      "countryCode": "jp",
      "rawTags": {
        "KSJ2:LIN": "筑肥線",
        "KSJ2:STN": "金石原",
        "name": "金石原",
        "name:en": "Kanaishihara",
        "name:ja": "金石原",
        "name:ko": "가나이시하라",
        "network": "JR筑肥線",
        "note": "National-Land Numerical Information (Railway) 2007, MLIT Japan",
        "note:ja": "国土数値情報（鉄道データ）平成19年　国土交通省",
        "operator": "九州旅客鉄道",
        "public_transport": "station",
        "railway": "station",
        "source": "KSJ2",
        "source_ref": "http://nlftp.mlit.go.jp/ksj/jpgis/datalist/KsjTmplt-N02-v1_1.html",
        "wikidata": "Q6360326",
        "wikipedia": "ja:金石原駅"
      }
    },
    {
      "id": "saga_station_7816717077",
      "osmId": 7816717077,
      "osmType": "node",
      "prefectureId": "saga",
      "type": "station",
      "subtype": "jr",
      "name": "桃川",
      "nameKana": null,
      "nameEn": "Momonokawa",
      "operator": "九州旅客鉄道",
      "network": "JR筑肥線",
      "ref": null,
      "latitude": 33.2718525,
      "longitude": 129.9568409,
      "countryCode": "jp",
      "rawTags": {
        "KSJ2:LIN": "筑肥線",
        "KSJ2:STN": "桃川",
        "name": "桃川",
        "name:en": "Momonokawa",
        "name:ja": "桃川",
        "name:ko": "모모노카와",
        "network": "JR筑肥線",
        "note": "National-Land Numerical Information (Railway) 2007, MLIT Japan",
        "note:ja": "国土数値情報（鉄道データ）平成19年　国土交通省",
        "operator": "九州旅客鉄道",
        "public_transport": "station",
        "railway": "station",
        "source": "KSJ2",
        "source_ref": "http://nlftp.mlit.go.jp/ksj/jpgis/datalist/KsjTmplt-N02-v1_1.html",
        "wikidata": "Q11537053",
        "wikipedia": "ja:桃川駅"
      }
    },
    {
      "id": "saga_station_7816717078",
      "osmId": 7816717078,
      "osmType": "node",
      "prefectureId": "saga",
      "type": "station",
      "subtype": "jr",
      "name": "肥前長野",
      "nameKana": null,
      "nameEn": "Hizen-Nagano",
      "operator": "九州旅客鉄道",
      "network": "JR筑肥線",
      "ref": null,
      "latitude": 33.2955662,
      "longitude": 129.970927,
      "countryCode": "jp",
      "rawTags": {
        "KSJ2:LIN": "筑肥線",
        "KSJ2:STN": "肥前長野",
        "name": "肥前長野",
        "name:en": "Hizen-Nagano",
        "name:ja": "肥前長野",
        "name:ko": "히젠나가노",
        "network": "JR筑肥線",
        "note": "National-Land Numerical Information (Railway) 2007, MLIT Japan",
        "note:ja": "国土数値情報（鉄道データ）平成19年　国土交通省",
        "operator": "九州旅客鉄道",
        "public_transport": "station",
        "railway": "station",
        "source": "KSJ2",
        "source_ref": "http://nlftp.mlit.go.jp/ksj/jpgis/datalist/KsjTmplt-N02-v1_1.html",
        "wikidata": "Q5873029",
        "wikipedia": "ja:肥前長野駅"
      }
    },
    {
      "id": "saga_station_7816717079",
      "osmId": 7816717079,
      "osmType": "node",
      "prefectureId": "saga",
      "type": "station",
      "subtype": "jr",
      "name": "大川野",
      "nameKana": null,
      "nameEn": "Ookawano",
      "operator": "九州旅客鉄道",
      "network": "JR筑肥線",
      "ref": null,
      "latitude": 33.3071349,
      "longitude": 129.9764496,
      "countryCode": "jp",
      "rawTags": {
        "KSJ2:LIN": "筑肥線",
        "KSJ2:STN": "大川野",
        "name": "大川野",
        "name:en": "Ookawano",
        "name:ja": "大川野",
        "name:ko": "오카와노",
        "network": "JR筑肥線",
        "note": "National-Land Numerical Information (Railway) 2007, MLIT Japan",
        "note:ja": "国土数値情報（鉄道データ）平成19年　国土交通省",
        "operator": "九州旅客鉄道",
        "public_transport": "station",
        "railway": "station",
        "source": "KSJ2",
        "source_ref": "http://nlftp.mlit.go.jp/ksj/jpgis/datalist/KsjTmplt-N02-v1_1.html",
        "wikidata": "Q8081561",
        "wikipedia": "ja:大川野駅"
      }
    },
    {
      "id": "saga_station_7816717080",
      "osmId": 7816717080,
      "osmType": "node",
      "prefectureId": "saga",
      "type": "station",
      "subtype": "jr",
      "name": "駒鳴",
      "nameKana": null,
      "nameEn": "Konamaki",
      "operator": "九州旅客鉄道",
      "network": "JR筑肥線",
      "ref": null,
      "latitude": 33.3194995,
      "longitude": 129.9724084,
      "countryCode": "jp",
      "rawTags": {
        "KSJ2:LIN": "筑肥線",
        "KSJ2:STN": "駒鳴",
        "name": "駒鳴",
        "name:en": "Konamaki",
        "name:ja": "駒鳴",
        "name:ko": "고마나키",
        "network": "JR筑肥線",
        "note": "National-Land Numerical Information (Railway) 2007, MLIT Japan",
        "note:ja": "国土数値情報（鉄道データ）平成19年　国土交通省",
        "operator": "九州旅客鉄道",
        "public_transport": "station",
        "railway": "station",
        "source": "KSJ2",
        "source_ref": "http://nlftp.mlit.go.jp/ksj/jpgis/datalist/KsjTmplt-N02-v1_1.html",
        "wikidata": "Q6428109",
        "wikipedia": "ja:駒鳴駅"
      }
    },
    {
      "id": "saga_station_7816717081",
      "osmId": 7816717081,
      "osmType": "node",
      "prefectureId": "saga",
      "type": "station",
      "subtype": "jr",
      "name": "佐里",
      "nameKana": null,
      "nameEn": "Sari",
      "operator": "九州旅客鉄道",
      "network": "JR筑肥線",
      "ref": null,
      "latitude": 33.3379614,
      "longitude": 129.9789329,
      "countryCode": "jp",
      "rawTags": {
        "KSJ2:LIN": "筑肥線",
        "KSJ2:STN": "佐里",
        "name": "佐里",
        "name:en": "Sari",
        "name:ja": "佐里",
        "name:ko": "사리",
        "network": "JR筑肥線",
        "note": "National-Land Numerical Information (Railway) 2007, MLIT Japan",
        "note:ja": "国土数値情報（鉄道データ）平成19年　国土交通省",
        "operator": "九州旅客鉄道",
        "public_transport": "station",
        "railway": "station",
        "source": "KSJ2",
        "source_ref": "http://nlftp.mlit.go.jp/ksj/jpgis/datalist/KsjTmplt-N02-v1_1.html",
        "wikidata": "Q2907403",
        "wikipedia": "ja:佐里駅"
      }
    },
    {
      "id": "saga_station_7816717082",
      "osmId": 7816717082,
      "osmType": "node",
      "prefectureId": "saga",
      "type": "station",
      "subtype": "jr",
      "name": "西相知",
      "nameKana": null,
      "nameEn": "Nishi-Ouchi",
      "operator": "九州旅客鉄道",
      "network": "JR筑肥線",
      "ref": null,
      "latitude": 33.3475457,
      "longitude": 129.9904892,
      "countryCode": "jp",
      "rawTags": {
        "KSJ2:LIN": "筑肥線",
        "KSJ2:STN": "西相知",
        "name": "西相知",
        "name:en": "Nishi-Ouchi",
        "name:ja": "西相知",
        "name:ko": "니시오치",
        "network": "JR筑肥線",
        "note": "National-Land Numerical Information (Railway) 2007, MLIT Japan",
        "note:ja": "国土数値情報（鉄道データ）平成19年　国土交通省",
        "operator": "九州旅客鉄道",
        "public_transport": "station",
        "railway": "station",
        "source": "KSJ2",
        "source_ref": "http://nlftp.mlit.go.jp/ksj/jpgis/datalist/KsjTmplt-N02-v1_1.html",
        "wikidata": "Q7040462",
        "wikipedia": "ja:西相知駅"
      }
    },
    {
      "id": "saga_station_7816717084",
      "osmId": 7816717084,
      "osmType": "node",
      "prefectureId": "saga",
      "type": "station",
      "subtype": "private",
      "name": "鬼塚",
      "nameKana": null,
      "nameEn": "Onizuka",
      "operator": null,
      "network": null,
      "ref": null,
      "latitude": 33.4214663,
      "longitude": 129.9871901,
      "countryCode": "jp",
      "rawTags": {
        "name": "鬼塚",
        "name:en": "Onizuka",
        "name:ja": "鬼塚",
        "name:ko": "오니즈카",
        "note": "National-Land Numerical Information (Railway) 2007, MLIT Japan",
        "note:ja": "国土数値情報（鉄道データ）平成19年　国土交通省",
        "public_transport": "station",
        "railway": "station",
        "source": "KSJ2",
        "wikidata": "Q7093973",
        "wikipedia": "ja:鬼塚駅"
      }
    },
    {
      "id": "saga_station_7816772394",
      "osmId": 7816772394,
      "osmType": "node",
      "prefectureId": "saga",
      "type": "station",
      "subtype": "jr",
      "name": "肥前久保",
      "nameKana": null,
      "nameEn": "Hizen-Kubo",
      "operator": "九州旅客鉄道",
      "network": "JR筑肥線",
      "ref": null,
      "latitude": 33.3555122,
      "longitude": 129.9998467,
      "countryCode": "jp",
      "rawTags": {
        "KSJ2:LIN": "筑肥線",
        "KSJ2:STN": "肥前久保",
        "name": "肥前久保",
        "name:en": "Hizen-Kubo",
        "name:ja": "肥前久保",
        "name:ko": "히젠쿠보",
        "network": "JR筑肥線",
        "note": "National-Land Numerical Information (Railway) 2007, MLIT Japan",
        "note:ja": "国土数値情報（鉄道データ）平成19年　国土交通省",
        "operator": "九州旅客鉄道",
        "public_transport": "station",
        "railway": "station",
        "source": "KSJ2",
        "source_ref": "http://nlftp.mlit.go.jp/ksj/jpgis/datalist/KsjTmplt-N02-v1_1.html",
        "wikidata": "Q5873031",
        "wikipedia": "ja:肥前久保駅"
      }
    },
    {
      "id": "saga_station_7816772436",
      "osmId": 7816772436,
      "osmType": "node",
      "prefectureId": "saga",
      "type": "station",
      "subtype": "jr",
      "name": "虹ノ松原",
      "nameKana": null,
      "nameEn": "Nijinomatsubura",
      "operator": "九州旅客鉄道",
      "network": null,
      "ref": null,
      "latitude": 33.4410618,
      "longitude": 130.0162027,
      "countryCode": "jp",
      "rawTags": {
        "KSJ2:LIN": "筑肥線",
        "KSJ2:STN": "虹ノ松原",
        "name": "虹ノ松原",
        "name:de": "Nijinomatsubara",
        "name:en": "Nijinomatsubura",
        "name:ja": "虹ノ松原",
        "name:ko": "니지노마쓰바라",
        "note": "National-Land Numerical Information (Railway) 2007, MLIT Japan",
        "note:ja": "国土数値情報（鉄道データ）平成19年　国土交通省",
        "operator": "九州旅客鉄道",
        "public_transport": "station",
        "railway": "station",
        "source": "KSJ2",
        "source_ref": "http://nlftp.mlit.go.jp/ksj/jpgis/datalist/KsjTmplt-N02-v1_1.html",
        "wikidata": "Q7034556",
        "wikipedia": "ja:虹ノ松原駅"
      }
    },
    {
      "id": "saga_station_7816772438",
      "osmId": 7816772438,
      "osmType": "node",
      "prefectureId": "saga",
      "type": "station",
      "subtype": "private",
      "name": "和多田",
      "nameKana": null,
      "nameEn": "Watada",
      "operator": null,
      "network": null,
      "ref": null,
      "latitude": 33.4369348,
      "longitude": 129.9807718,
      "countryCode": "jp",
      "rawTags": {
        "name": "和多田",
        "name:de": "Watada",
        "name:en": "Watada",
        "name:ja": "和多田",
        "name:ko": "와타다",
        "note": "National-Land Numerical Information (Railway) 2007, MLIT Japan",
        "note:ja": "国土数値情報（鉄道データ）平成19年　国土交通省",
        "public_transport": "station",
        "railway": "station",
        "source": "KSJ2",
        "wikidata": "Q7972973",
        "wikipedia": "ja:和多田駅"
      }
    },
    {
      "id": "saga_station_7816772450",
      "osmId": 7816772450,
      "osmType": "node",
      "prefectureId": "saga",
      "type": "station",
      "subtype": "private",
      "name": "浜崎",
      "nameKana": null,
      "nameEn": "Hamasaki",
      "operator": null,
      "network": null,
      "ref": null,
      "latitude": 33.4467721,
      "longitude": 130.0364636,
      "countryCode": "jp",
      "rawTags": {
        "KSJ2:LIN": "筑肥線",
        "KSJ2:STN": "浜崎",
        "name": "浜崎",
        "name:de": "Hamasaki",
        "name:en": "Hamasaki",
        "name:ja": "浜崎",
        "name:ko": "하마사키",
        "note": "National-Land Numerical Information (Railway) 2007, MLIT Japan",
        "note:ja": "国土数値情報（鉄道データ）平成19年　国土交通省",
        "public_transport": "station",
        "railway": "station",
        "source": "KSJ2",
        "source_ref": "http://nlftp.mlit.go.jp/ksj/jpgis/datalist/KsjTmplt-N02-v1_1.html",
        "wikidata": "Q5644129",
        "wikipedia": "ja:浜崎駅"
      }
    },
    {
      "id": "saga_station_7816772454",
      "osmId": 7816772454,
      "osmType": "node",
      "prefectureId": "saga",
      "type": "station",
      "subtype": "jr",
      "name": "東唐津",
      "nameKana": "ひがしからつ",
      "nameEn": "Higashi-Karatsu",
      "operator": "九州旅客鉄道",
      "network": "JR筑肥線",
      "ref": null,
      "latitude": 33.4394053,
      "longitude": 129.9968487,
      "countryCode": "jp",
      "rawTags": {
        "KSJ2:LIN": "筑肥線",
        "KSJ2:STN": "東唐津",
        "name": "東唐津",
        "name:de": "Karatsu Ost",
        "name:en": "Higashi-Karatsu",
        "name:ja": "東唐津",
        "name:ja-Hira": "ひがしからつ",
        "name:ko": "히가시카라쓰",
        "network": "JR筑肥線",
        "note": "National-Land Numerical Information (Railway) 2007, MLIT Japan",
        "note:ja": "国土数値情報（鉄道データ）平成19年　国土交通省",
        "operator": "九州旅客鉄道",
        "public_transport": "station",
        "railway": "station",
        "source": "KSJ2",
        "source_ref": "http://nlftp.mlit.go.jp/ksj/jpgis/datalist/KsjTmplt-N02-v1_1.html",
        "wikidata": "Q5753595",
        "wikipedia": "ja:東唐津駅"
      }
    },
    {
      "id": "saga_station_7839126316",
      "osmId": 7839126316,
      "osmType": "node",
      "prefectureId": "saga",
      "type": "station",
      "subtype": "private",
      "name": "鳥栖",
      "nameKana": null,
      "nameEn": "Tosu",
      "operator": null,
      "network": null,
      "ref": "JB15;JH01",
      "latitude": 33.3739136,
      "longitude": 130.5198828,
      "countryCode": "jp",
      "rawTags": {
        "contact:website": "https://www.jrkyushu.co.jp/railway/station/1191718_1601.html",
        "name": "鳥栖",
        "name:ar": "توسو، ساغا",
        "name:de": "Tosu",
        "name:en": "Tosu",
        "name:fa": "توسو",
        "name:fr": "Tosu",
        "name:gl": "Tosu",
        "name:it": "Tosu",
        "name:ja": "鳥栖",
        "name:ko": "도스 시",
        "name:mzn": "توسو، ساگا",
        "name:pl": "Tosu",
        "name:pt": "Tosu",
        "name:ru": "Тосу",
        "name:zh": "鳥栖市",
        "public_transport": "station",
        "railway": "station",
        "ref": "JB15;JH01",
        "wikidata": "Q840544"
      }
    },
    {
      "id": "saga_station_7844799627",
      "osmId": 7844799627,
      "osmType": "node",
      "prefectureId": "saga",
      "type": "station",
      "subtype": "private",
      "name": "立野",
      "nameKana": null,
      "nameEn": "Tateno",
      "operator": null,
      "network": null,
      "ref": null,
      "latitude": 33.4126046,
      "longitude": 130.5393201,
      "countryCode": "jp",
      "rawTags": {
        "KSJ2:LIN": "甘木線",
        "KSJ2:STN": "立野",
        "name": "立野",
        "name:en": "Tateno",
        "name:ja": "立野",
        "name:ko": "다테노",
        "note": "National-Land Numerical Information (Railway) 2007, MLIT Japan",
        "note:ja": "国土数値情報（鉄道データ）平成19年　国土交通省",
        "public_transport": "station",
        "railway": "station",
        "source": "KSJ2",
        "source_ref": "http://nlftp.mlit.go.jp/ksj/jpgis/datalist/KsjTmplt-N02-v1_1.html",
        "wikidata": "Q11598260",
        "wikipedia": "ja:立野駅 (佐賀県)"
      }
    },
    {
      "id": "saga_station_7887121336",
      "osmId": 7887121336,
      "osmType": "node",
      "prefectureId": "saga",
      "type": "station",
      "subtype": "jr",
      "name": "肥前大浦",
      "nameKana": null,
      "nameEn": "Hizen-Ōura",
      "operator": "九州旅客鉄道",
      "network": null,
      "ref": null,
      "latitude": 32.9748201,
      "longitude": 130.2068723,
      "countryCode": "jp",
      "rawTags": {
        "KSJ2:LIN": "長崎線",
        "KSJ2:STN": "肥前大浦",
        "name": "肥前大浦",
        "name:en": "Hizen-Ōura",
        "name:ja": "肥前大浦",
        "name:ko": "히젠오우라",
        "note": "National-Land Numerical Information (Railway) 2007, MLIT Japan",
        "note:ja": "国土数値情報（鉄道データ）平成19年　国土交通省",
        "operator": "九州旅客鉄道",
        "public_transport": "station",
        "railway": "station",
        "source": "KSJ2",
        "source_ref": "http://nlftp.mlit.go.jp/ksj/jpgis/datalist/KsjTmplt-N02-v1_1.html",
        "wikidata": "Q5356956",
        "wikipedia": "ja:肥前大浦駅"
      }
    },
    {
      "id": "saga_station_7887163343",
      "osmId": 7887163343,
      "osmType": "node",
      "prefectureId": "saga",
      "type": "station",
      "subtype": "jr",
      "name": "肥前飯田",
      "nameKana": null,
      "nameEn": "Hizen-Iida",
      "operator": "九州旅客鉄道",
      "network": null,
      "ref": null,
      "latitude": 33.0555213,
      "longitude": 130.1588112,
      "countryCode": "jp",
      "rawTags": {
        "KSJ2:LIN": "長崎線",
        "KSJ2:STN": "肥前飯田",
        "name": "肥前飯田",
        "name:en": "Hizen-Iida",
        "name:ja": "肥前飯田",
        "name:ko": "히젠이다",
        "note": "National-Land Numerical Information (Railway) 2007, MLIT Japan",
        "note:ja": "国土数値情報（鉄道データ）平成19年　国土交通省",
        "operator": "九州旅客鉄道",
        "public_transport": "station",
        "railway": "station",
        "source": "KSJ2",
        "source_ref": "http://nlftp.mlit.go.jp/ksj/jpgis/datalist/KsjTmplt-N02-v1_1.html",
        "wikidata": "Q8010990",
        "wikipedia": "ja:肥前飯田駅"
      }
    },
    {
      "id": "saga_station_7887175871",
      "osmId": 7887175871,
      "osmType": "node",
      "prefectureId": "saga",
      "type": "station",
      "subtype": "jr",
      "name": "多良",
      "nameKana": null,
      "nameEn": "Tara",
      "operator": "九州旅客鉄道",
      "network": null,
      "ref": null,
      "latitude": 33.0249287,
      "longitude": 130.17609,
      "countryCode": "jp",
      "rawTags": {
        "KSJ2:LIN": "長崎線",
        "KSJ2:STN": "多良",
        "name": "多良",
        "name:en": "Tara",
        "name:ja": "多良",
        "name:ko": "다라",
        "note": "National-Land Numerical Information (Railway) 2007, MLIT Japan",
        "note:ja": "国土数値情報（鉄道データ）平成19年　国土交通省",
        "operator": "九州旅客鉄道",
        "public_transport": "station",
        "railway": "station",
        "source": "KSJ2",
        "source_ref": "http://nlftp.mlit.go.jp/ksj/jpgis/datalist/KsjTmplt-N02-v1_1.html",
        "wikidata": "Q7685150",
        "wikipedia": "ja:多良駅"
      }
    },
    {
      "id": "saga_station_7887210248",
      "osmId": 7887210248,
      "osmType": "node",
      "prefectureId": "saga",
      "type": "station",
      "subtype": "jr",
      "name": "肥前浜",
      "nameKana": null,
      "nameEn": "Hizen-Hama",
      "operator": "九州旅客鉄道",
      "network": null,
      "ref": null,
      "latitude": 33.0958948,
      "longitude": 130.1164655,
      "countryCode": "jp",
      "rawTags": {
        "KSJ2:LIN": "長崎線",
        "KSJ2:STN": "肥前浜",
        "name": "肥前浜",
        "name:de": "Hizen-Hama",
        "name:en": "Hizen-Hama",
        "name:ja": "肥前浜",
        "name:ko": "히젠하마",
        "note": "National-Land Numerical Information (Railway) 2007, MLIT Japan",
        "note:ja": "国土数値情報（鉄道データ）平成19年　国土交通省",
        "operator": "九州旅客鉄道",
        "operator:ja": "九州旅客鉄道",
        "public_transport": "station",
        "railway": "station",
        "source": "KSJ2",
        "source_ref": "http://nlftp.mlit.go.jp/ksj/jpgis/datalist/KsjTmplt-N02-v1_1.html",
        "wikidata": "Q5357093",
        "wikipedia": "ja:肥前浜駅"
      }
    },
    {
      "id": "saga_station_7887212077",
      "osmId": 7887212077,
      "osmType": "node",
      "prefectureId": "saga",
      "type": "station",
      "subtype": "jr",
      "name": "肥前七浦",
      "nameKana": null,
      "nameEn": "Hizen-Nanaura",
      "operator": "九州旅客鉄道",
      "network": null,
      "ref": null,
      "latitude": 33.0703866,
      "longitude": 130.1454511,
      "countryCode": "jp",
      "rawTags": {
        "KSJ2:LIN": "長崎線",
        "KSJ2:STN": "肥前七浦",
        "name": "肥前七浦",
        "name:en": "Hizen-Nanaura",
        "name:ja": "肥前七浦",
        "name:ko": "히젠나나우라",
        "note": "National-Land Numerical Information (Railway) 2007, MLIT Japan",
        "note:ja": "国土数値情報（鉄道データ）平成19年　国土交通省",
        "operator": "九州旅客鉄道",
        "public_transport": "station",
        "railway": "station",
        "source": "KSJ2",
        "source_ref": "http://nlftp.mlit.go.jp/ksj/jpgis/datalist/KsjTmplt-N02-v1_1.html",
        "wikidata": "Q5357178",
        "wikipedia": "ja:肥前七浦駅"
      }
    },
    {
      "id": "saga_station_7887286260",
      "osmId": 7887286260,
      "osmType": "node",
      "prefectureId": "saga",
      "type": "station",
      "subtype": "jr",
      "name": "肥前鹿島",
      "nameKana": null,
      "nameEn": "Hizen-Kashima",
      "operator": "九州旅客鉄道",
      "network": null,
      "ref": null,
      "latitude": 33.1143937,
      "longitude": 130.0977528,
      "countryCode": "jp",
      "rawTags": {
        "KSJ2:LIN": "長崎線",
        "KSJ2:STN": "肥前鹿島",
        "name": "肥前鹿島",
        "name:de": "Hizen-Kashima",
        "name:en": "Hizen-Kashima",
        "name:ja": "肥前鹿島",
        "name:ko": "히젠카시마",
        "note": "National-Land Numerical Information (Railway) 2007, MLIT Japan",
        "note:ja": "国土数値情報（鉄道データ）平成19年　国土交通省",
        "operator": "九州旅客鉄道",
        "operator:ja": "九州旅客鉄道",
        "public_transport": "station",
        "railway": "station",
        "source": "KSJ2",
        "source_ref": "http://nlftp.mlit.go.jp/ksj/jpgis/datalist/KsjTmplt-N02-v1_1.html",
        "wikidata": "Q5357103",
        "wikipedia": "ja:肥前鹿島駅"
      }
    },
    {
      "id": "saga_station_7887323718",
      "osmId": 7887323718,
      "osmType": "node",
      "prefectureId": "saga",
      "type": "station",
      "subtype": "jr",
      "name": "肥前竜王",
      "nameKana": null,
      "nameEn": "Hizen-Ryūō",
      "operator": "九州旅客鉄道",
      "network": null,
      "ref": null,
      "latitude": 33.1466599,
      "longitude": 130.1204416,
      "countryCode": "jp",
      "rawTags": {
        "KSJ2:LIN": "長崎線",
        "KSJ2:STN": "肥前竜王",
        "name": "肥前竜王",
        "name:de": "Hizen-Ryūō",
        "name:en": "Hizen-Ryūō",
        "name:ja": "肥前竜王",
        "name:ko": "히젠류오",
        "note": "National-Land Numerical Information (Railway) 2007, MLIT Japan",
        "note:ja": "国土数値情報（鉄道データ）平成19年　国土交通省",
        "operator": "九州旅客鉄道",
        "operator:ja": "九州旅客鉄道",
        "public_transport": "station",
        "railway": "station",
        "source": "KSJ2",
        "source_ref": "http://nlftp.mlit.go.jp/ksj/jpgis/datalist/KsjTmplt-N02-v1_1.html",
        "wikidata": "Q375617",
        "wikipedia": "ja:肥前竜王駅"
      }
    },
    {
      "id": "saga_station_7887750905",
      "osmId": 7887750905,
      "osmType": "node",
      "prefectureId": "saga",
      "type": "station",
      "subtype": "jr",
      "name": "肥前白石",
      "nameKana": null,
      "nameEn": "Hizen-Shiroishi",
      "operator": "九州旅客鉄道",
      "network": null,
      "ref": null,
      "latitude": 33.1868892,
      "longitude": 130.1358578,
      "countryCode": "jp",
      "rawTags": {
        "KSJ2:LIN": "長崎線",
        "KSJ2:STN": "肥前白石",
        "name": "肥前白石",
        "name:de": "Hizen-Shiroishi",
        "name:en": "Hizen-Shiroishi",
        "name:ja": "肥前白石",
        "name:ko": "히젠시로이시",
        "note": "National-Land Numerical Information (Railway) 2007, MLIT Japan",
        "note:ja": "国土数値情報（鉄道データ）平成19年　国土交通省",
        "operator": "九州旅客鉄道",
        "operator:ja": "九州旅客鉄道",
        "public_transport": "station",
        "railway": "station",
        "source": "KSJ2",
        "source_ref": "http://nlftp.mlit.go.jp/ksj/jpgis/datalist/KsjTmplt-N02-v1_1.html",
        "wikidata": "Q8011203",
        "wikipedia": "ja:肥前白石駅"
      }
    },
    {
      "id": "saga_station_7887750907",
      "osmId": 7887750907,
      "osmType": "node",
      "prefectureId": "saga",
      "type": "station",
      "subtype": "jr",
      "name": "新鳥栖",
      "nameKana": null,
      "nameEn": "Shin-Tosu",
      "operator": "九州旅客鉄道",
      "network": null,
      "ref": "JH02",
      "latitude": 33.3696637,
      "longitude": 130.4908123,
      "countryCode": "jp",
      "rawTags": {
        "contact:website": "https://www.jrkyushu.co.jp/railway/station/1191627_1601.html",
        "name": "新鳥栖",
        "name:de": "Shin-Tosu",
        "name:en": "Shin-Tosu",
        "name:ja": "新鳥栖",
        "name:ko": "신토스",
        "operator": "九州旅客鉄道",
        "operator:en": "Kyushu Railway Company",
        "operator:ja": "九州旅客鉄道",
        "public_transport": "station",
        "railway": "station",
        "ref": "JH02",
        "source": "Bing",
        "wikidata": "Q1136568",
        "wikipedia": "ja:新鳥栖駅"
      }
    },
    {
      "id": "saga_station_7887750916",
      "osmId": 7887750916,
      "osmType": "node",
      "prefectureId": "saga",
      "type": "station",
      "subtype": "jr",
      "name": "吉野ヶ里公園",
      "nameKana": null,
      "nameEn": "Yoshinogarikoen",
      "operator": "九州旅客鉄道",
      "network": null,
      "ref": "JH05",
      "latitude": 33.3248016,
      "longitude": 130.3991951,
      "countryCode": "jp",
      "rawTags": {
        "KSJ2:LIN": "長崎線",
        "KSJ2:STN": "吉野ヶ里公園",
        "alt_name:ko": "요시노가리코엔",
        "contact:website": "https://www.jrkyushu.co.jp/railway/station/1191935_1601.html",
        "name": "吉野ヶ里公園",
        "name:de": "Yoshinogarikoen",
        "name:en": "Yoshinogarikoen",
        "name:ja": "吉野ヶ里公園",
        "name:ja-Latn": "Yoshinogarikōen",
        "name:ko": "요시노가리공원",
        "note": "National-Land Numerical Information (Railway) 2007, MLIT Japan",
        "note:ja": "国土数値情報（鉄道データ）平成19年　国土交通省",
        "operator": "九州旅客鉄道",
        "operator:ja": "九州旅客鉄道株式会社",
        "public_transport": "station",
        "railway": "station",
        "ref": "JH05",
        "source": "KSJ2",
        "source_ref": "http://nlftp.mlit.go.jp/ksj/jpgis/datalist/KsjTmplt-N02-v1_1.html",
        "wikidata": "Q5363800",
        "wikipedia": "ja:吉野ケ里公園駅"
      }
    },
    {
      "id": "saga_station_7887750918",
      "osmId": 7887750918,
      "osmType": "node",
      "prefectureId": "saga",
      "type": "station",
      "subtype": "jr",
      "name": "江北",
      "nameKana": "こうほく",
      "nameEn": "Kohoku",
      "operator": "九州旅客鉄道",
      "network": null,
      "ref": null,
      "latitude": 33.2192643,
      "longitude": 130.1609895,
      "countryCode": "jp",
      "rawTags": {
        "KSJ2:LIN": "長崎線",
        "KSJ2:STN": "肥前山口",
        "contact:website": "https://www.jrkyushu.co.jp/railway/station/1191816_1601.html",
        "name": "江北",
        "name:de": "Kohoku",
        "name:en": "Kohoku",
        "name:ja": "江北",
        "name:ja-Hira": "こうほく",
        "name:ko": "히젠야마구치",
        "note": "National-Land Numerical Information (Railway) 2007, MLIT Japan",
        "note:ja": "国土数値情報（鉄道データ）平成19年　国土交通省",
        "operator": "九州旅客鉄道",
        "operator:ja": "九州旅客鉄道",
        "public_transport": "station",
        "railway": "station",
        "source": "KSJ2",
        "source_ref": "http://nlftp.mlit.go.jp/ksj/jpgis/datalist/KsjTmplt-N02-v1_1.html",
        "usage": "main",
        "wikidata": "Q872564",
        "wikipedia": "ja:肥前山口駅"
      }
    },
    {
      "id": "saga_station_7887750924",
      "osmId": 7887750924,
      "osmType": "node",
      "prefectureId": "saga",
      "type": "station",
      "subtype": "jr",
      "name": "久保田",
      "nameKana": null,
      "nameEn": "Kubota",
      "operator": "九州旅客鉄道",
      "network": null,
      "ref": null,
      "latitude": 33.2556027,
      "longitude": 130.2288699,
      "countryCode": "jp",
      "rawTags": {
        "KSJ2:LIN": "長崎線",
        "KSJ2:STN": "久保田",
        "contact:website": "https://www.jrkyushu.co.jp/railway/station/1191552_1601.html",
        "name": "久保田",
        "name:de": "Kubota",
        "name:en": "Kubota",
        "name:ja": "久保田",
        "name:ko": "구보타",
        "note": "National-Land Numerical Information (Railway) 2007, MLIT Japan",
        "note:ja": "国土数値情報（鉄道データ）平成19年　国土交通省",
        "operator": "九州旅客鉄道",
        "operator:ja": "九州旅客鉄道",
        "public_transport": "station",
        "railway": "station",
        "source": "KSJ2",
        "source_ref": "http://nlftp.mlit.go.jp/ksj/jpgis/datalist/KsjTmplt-N02-v1_1.html",
        "wikidata": "Q852060",
        "wikipedia": "ja:久保田駅 (佐賀県)"
      }
    },
    {
      "id": "saga_station_7887750930",
      "osmId": 7887750930,
      "osmType": "node",
      "prefectureId": "saga",
      "type": "station",
      "subtype": "jr",
      "name": "肥前麓",
      "nameKana": null,
      "nameEn": "Hizen-Fumoto",
      "operator": "九州旅客鉄道",
      "network": null,
      "ref": "JH03",
      "latitude": 33.3658702,
      "longitude": 130.4780504,
      "countryCode": "jp",
      "rawTags": {
        "KSJ2:LIN": "長崎線",
        "KSJ2:STN": "肥前麓",
        "contact:website": "https://www.jrkyushu.co.jp/railway/station/1191815_1601.html",
        "name": "肥前麓",
        "name:de": "Hizen-Fumoto",
        "name:en": "Hizen-Fumoto",
        "name:ja": "肥前麓",
        "name:ko": "히젠후모토",
        "note": "National-Land Numerical Information (Railway) 2007, MLIT Japan",
        "note:ja": "国土数値情報（鉄道データ）平成19年　国土交通省",
        "operator": "九州旅客鉄道",
        "operator:ja": "九州旅客鉄道",
        "public_transport": "station",
        "railway": "station",
        "ref": "JH03",
        "source": "KSJ2",
        "source_ref": "http://nlftp.mlit.go.jp/ksj/jpgis/datalist/KsjTmplt-N02-v1_1.html",
        "wikidata": "Q5359166",
        "wikipedia": "ja:肥前麓駅"
      }
    },
    {
      "id": "saga_station_7887750938",
      "osmId": 7887750938,
      "osmType": "node",
      "prefectureId": "saga",
      "type": "station",
      "subtype": "jr",
      "name": "牛津",
      "nameKana": null,
      "nameEn": "Ushizu",
      "operator": "九州旅客鉄道",
      "network": null,
      "ref": null,
      "latitude": 33.2478244,
      "longitude": 130.2011558,
      "countryCode": "jp",
      "rawTags": {
        "KSJ2:LIN": "長崎線",
        "KSJ2:STN": "牛津",
        "contact:website": "https://www.jrkyushu.co.jp/railway/station/1191430_1601.html",
        "name": "牛津",
        "name:de": "Ushizu",
        "name:en": "Ushizu",
        "name:ja": "牛津",
        "name:ko": "우시즈",
        "note": "National-Land Numerical Information (Railway) 2007, MLIT Japan",
        "note:ja": "国土数値情報（鉄道データ）平成19年　国土交通省",
        "operator": "九州旅客鉄道",
        "operator:ja": "九州旅客鉄道",
        "public_transport": "station",
        "railway": "station",
        "source": "KSJ2",
        "source_ref": "http://nlftp.mlit.go.jp/ksj/jpgis/datalist/KsjTmplt-N02-v1_1.html",
        "wikidata": "Q5358773",
        "wikipedia": "ja:牛津駅"
      }
    },
    {
      "id": "saga_station_7888509419",
      "osmId": 7888509419,
      "osmType": "node",
      "prefectureId": "saga",
      "type": "station",
      "subtype": "jr",
      "name": "中原",
      "nameKana": "なかばる",
      "nameEn": "Nakabaru",
      "operator": "九州旅客鉄道",
      "network": null,
      "ref": "JH04",
      "latitude": 33.3464862,
      "longitude": 130.4405342,
      "countryCode": "jp",
      "rawTags": {
        "contact:website": "https://www.jrkyushu.co.jp/railway/station/1191731_1601.html",
        "name": "中原",
        "name:de": "Nakabaru",
        "name:en": "Nakabaru",
        "name:ja": "中原",
        "name:ja-Hira": "なかばる",
        "name:ja-Latn": "Nakabaru",
        "name:ko": "나카바루",
        "operator": "九州旅客鉄道",
        "operator:ja": "九州旅客鉄道",
        "public_transport": "station",
        "railway": "station",
        "ref": "JH04",
        "wikidata": "Q5359031",
        "wikipedia": "ja:中原駅"
      }
    },
    {
      "id": "saga_station_8078384320",
      "osmId": 8078384320,
      "osmType": "node",
      "prefectureId": "saga",
      "type": "station",
      "subtype": "jr",
      "name": "中多久",
      "nameKana": null,
      "nameEn": "Naka-Taku",
      "operator": "九州旅客鉄道",
      "network": "JR唐津線",
      "ref": null,
      "latitude": 33.2832982,
      "longitude": 130.1123688,
      "countryCode": "jp",
      "rawTags": {
        "KSJ2:LIN": "唐津線",
        "KSJ2:STN": "中多久",
        "name": "中多久",
        "name:en": "Naka-Taku",
        "name:ja": "中多久",
        "name:ko": "나카타쿠",
        "network": "JR唐津線",
        "note": "National-Land Numerical Information (Railway) 2007, MLIT Japan",
        "note:ja": "国土数値情報（鉄道データ）平成19年　国土交通省",
        "operator": "九州旅客鉄道",
        "public_transport": "station",
        "railway": "station",
        "source": "KSJ2",
        "source_ref": "http://nlftp.mlit.go.jp/ksj/jpgis/datalist/KsjTmplt-N02-v1_1.html",
        "wikidata": "Q11363542",
        "wikipedia": "ja:中多久駅"
      }
    },
    {
      "id": "saga_station_8078384321",
      "osmId": 8078384321,
      "osmType": "node",
      "prefectureId": "saga",
      "type": "station",
      "subtype": "jr",
      "name": "厳木",
      "nameKana": null,
      "nameEn": "Kyuragi",
      "operator": "九州旅客鉄道",
      "network": "JR唐津線",
      "ref": null,
      "latitude": 33.3233466,
      "longitude": 130.0606712,
      "countryCode": "jp",
      "rawTags": {
        "KSJ2:LIN": "唐津線",
        "KSJ2:STN": "厳木",
        "name": "厳木",
        "name:en": "Kyuragi",
        "name:ja": "厳木",
        "name:ko": "규라기",
        "network": "JR唐津線",
        "note": "National-Land Numerical Information (Railway) 2007, MLIT Japan",
        "note:ja": "国土数値情報（鉄道データ）平成19年　国土交通省",
        "operator": "九州旅客鉄道",
        "public_transport": "station",
        "railway": "station",
        "source": "KSJ2",
        "source_ref": "http://nlftp.mlit.go.jp/ksj/jpgis/datalist/KsjTmplt-N02-v1_1.html",
        "wikidata": "Q6453144",
        "wikipedia": "ja:厳木駅"
      }
    },
    {
      "id": "saga_station_8078384322",
      "osmId": 8078384322,
      "osmType": "node",
      "prefectureId": "saga",
      "type": "station",
      "subtype": "jr",
      "name": "岩屋",
      "nameKana": null,
      "nameEn": "Iwaya",
      "operator": "九州旅客鉄道",
      "network": "JR唐津線",
      "ref": null,
      "latitude": 33.3314685,
      "longitude": 130.0384158,
      "countryCode": "jp",
      "rawTags": {
        "KSJ2:LIN": "唐津線",
        "KSJ2:STN": "岩屋",
        "name": "岩屋",
        "name:en": "Iwaya",
        "name:ja": "岩屋",
        "name:ko": "이와야",
        "network": "JR唐津線",
        "note": "National-Land Numerical Information (Railway) 2007, MLIT Japan",
        "note:ja": "国土数値情報（鉄道データ）平成19年　国土交通省",
        "operator": "九州旅客鉄道",
        "public_transport": "station",
        "railway": "station",
        "source": "KSJ2",
        "source_ref": "http://nlftp.mlit.go.jp/ksj/jpgis/datalist/KsjTmplt-N02-v1_1.html",
        "wikidata": "Q6100857",
        "wikipedia": "ja:岩屋駅 (佐賀県)"
      }
    },
    {
      "id": "saga_station_8078384323",
      "osmId": 8078384323,
      "osmType": "node",
      "prefectureId": "saga",
      "type": "station",
      "subtype": "jr",
      "name": "相知",
      "nameKana": null,
      "nameEn": "Ouchi",
      "operator": "九州旅客鉄道",
      "network": "JR唐津線",
      "ref": null,
      "latitude": 33.3469265,
      "longitude": 130.0199157,
      "countryCode": "jp",
      "rawTags": {
        "KSJ2:LIN": "唐津線",
        "KSJ2:STN": "相知",
        "name": "相知",
        "name:en": "Ouchi",
        "name:ja": "相知",
        "name:ko": "오치",
        "network": "JR唐津線",
        "note": "National-Land Numerical Information (Railway) 2007, MLIT Japan",
        "note:ja": "国土数値情報（鉄道データ）平成19年　国土交通省",
        "operator": "九州旅客鉄道",
        "public_transport": "station",
        "railway": "station",
        "source": "KSJ2",
        "source_ref": "http://nlftp.mlit.go.jp/ksj/jpgis/datalist/KsjTmplt-N02-v1_1.html",
        "wikidata": "Q8081434",
        "wikipedia": "ja:相知駅"
      }
    },
    {
      "id": "saga_station_8078384329",
      "osmId": 8078384329,
      "osmType": "node",
      "prefectureId": "saga",
      "type": "station",
      "subtype": "jr",
      "name": "本牟田部",
      "nameKana": "ほんむたべ",
      "nameEn": "Honmutabe",
      "operator": "九州旅客鉄道",
      "network": "JR唐津線",
      "ref": null,
      "latitude": 33.3724013,
      "longitude": 129.9963746,
      "countryCode": "jp",
      "rawTags": {
        "KSJ2:LIN": "唐津線",
        "KSJ2:STN": "本牟田部",
        "name": "本牟田部",
        "name:en": "Honmutabe",
        "name:ja": "本牟田部",
        "name:ja-Hira": "ほんむたべ",
        "name:ko": "혼무타베",
        "network": "JR唐津線",
        "note": "National-Land Numerical Information (Railway) 2007, MLIT Japan",
        "note:ja": "国土数値情報（鉄道データ）平成19年 国土交通省",
        "operator": "九州旅客鉄道",
        "public_transport": "station",
        "railway": "station",
        "source": "KSJ2",
        "source_ref": "http://nlftp.mlit.go.jp/ksj/jpgis/datalist/KsjTmplt-N02-v1_1.html",
        "wikidata": "Q5896564",
        "wikipedia": "ja:本牟田部駅"
      }
    },
    {
      "id": "saga_station_8078384332",
      "osmId": 8078384332,
      "osmType": "node",
      "prefectureId": "saga",
      "type": "station",
      "subtype": "jr",
      "name": "山本",
      "nameKana": null,
      "nameEn": "Yamamoto",
      "operator": "九州旅客鉄道",
      "network": null,
      "ref": null,
      "latitude": 33.393373,
      "longitude": 129.9811041,
      "countryCode": "jp",
      "rawTags": {
        "KSJ2:LIN": "唐津線",
        "KSJ2:STN": "山本",
        "name": "山本",
        "name:en": "Yamamoto",
        "name:ja": "山本",
        "name:ko": "야마모토",
        "note": "National-Land Numerical Information (Railway) 2007, MLIT Japan",
        "note:ja": "国土数値情報（鉄道データ）平成19年　国土交通省",
        "operator": "九州旅客鉄道",
        "operator:en": "Kyushu Railway Company",
        "operator:ja": "九州旅客鉄道",
        "public_transport": "station",
        "railway": "station",
        "source": "KSJ2",
        "source_ref": "http://nlftp.mlit.go.jp/ksj/jpgis/datalist/KsjTmplt-N02-v1_1.html",
        "wikidata": "Q8047860",
        "wikipedia": "ja:山本駅 (佐賀県)"
      }
    },
    {
      "id": "saga_station_8078384345",
      "osmId": 8078384345,
      "osmType": "node",
      "prefectureId": "saga",
      "type": "station",
      "subtype": "jr",
      "name": "東多久",
      "nameKana": null,
      "nameEn": "Higashi-Taku",
      "operator": "九州旅客鉄道",
      "network": "JR唐津線",
      "ref": null,
      "latitude": 33.2854199,
      "longitude": 130.1424692,
      "countryCode": "jp",
      "rawTags": {
        "KSJ2:LIN": "唐津線",
        "KSJ2:STN": "東多久",
        "name": "東多久",
        "name:en": "Higashi-Taku",
        "name:ja": "東多久",
        "name:ko": "히가시타쿠",
        "network": "JR唐津線",
        "note": "National-Land Numerical Information (Railway) 2007, MLIT Japan",
        "note:ja": "国土数値情報（鉄道データ）平成19年　国土交通省",
        "operator": "九州旅客鉄道",
        "public_transport": "station",
        "railway": "station",
        "source": "KSJ2",
        "source_ref": "http://nlftp.mlit.go.jp/ksj/jpgis/datalist/KsjTmplt-N02-v1_1.html",
        "wikidata": "Q11526440",
        "wikipedia": "ja:東多久駅"
      }
    },
    {
      "id": "saga_station_8078384350",
      "osmId": 8078384350,
      "osmType": "node",
      "prefectureId": "saga",
      "type": "station",
      "subtype": "jr",
      "name": "多久",
      "nameKana": null,
      "nameEn": "Taku",
      "operator": "九州旅客鉄道",
      "network": "JR唐津線",
      "ref": null,
      "latitude": 33.2880886,
      "longitude": 130.0961414,
      "countryCode": "jp",
      "rawTags": {
        "KSJ2:LIN": "唐津線",
        "KSJ2:STN": "多久",
        "name": "多久",
        "name:en": "Taku",
        "name:ja": "多久",
        "name:ko": "다쿠",
        "network": "JR唐津線",
        "note": "National-Land Numerical Information (Railway) 2007, MLIT Japan",
        "note:ja": "国土数値情報（鉄道データ）平成19年　国土交通省",
        "operator": "九州旅客鉄道",
        "public_transport": "station",
        "railway": "station",
        "source": "KSJ2",
        "source_ref": "http://nlftp.mlit.go.jp/ksj/jpgis/datalist/KsjTmplt-N02-v1_1.html",
        "wikidata": "Q5363258",
        "wikipedia": "ja:多久駅"
      }
    },
    {
      "id": "saga_station_8137244445",
      "osmId": 8137244445,
      "osmType": "node",
      "prefectureId": "saga",
      "type": "station",
      "subtype": "jr",
      "name": "神埼",
      "nameKana": "かんざき",
      "nameEn": "Kanzaki",
      "operator": "九州旅客鉄道",
      "network": null,
      "ref": "JH06",
      "latitude": 33.3158443,
      "longitude": 130.3745998,
      "countryCode": "jp",
      "rawTags": {
        "KSJ2:LIN": "長崎線",
        "KSJ2:STN": "神埼",
        "contact:website": "https://www.jrkyushu.co.jp/railway/station/1191520_1601.html",
        "name": "神埼",
        "name:de": "Kanzaki",
        "name:en": "Kanzaki",
        "name:ja": "神埼",
        "name:ja-Hira": "かんざき",
        "name:ko": "간자키",
        "operator": "九州旅客鉄道",
        "public_transport": "station",
        "railway": "station",
        "ref": "JH06",
        "wikidata": "Q5358654",
        "wikipedia": "ja:神埼駅"
      }
    },
    {
      "id": "saga_station_8168035527",
      "osmId": 8168035527,
      "osmType": "node",
      "prefectureId": "saga",
      "type": "station",
      "subtype": "jr",
      "name": "嬉野温泉",
      "nameKana": "うれしのおんせん",
      "nameEn": "Ureshino-Onsen",
      "operator": "九州旅客鉄道",
      "network": null,
      "ref": null,
      "latitude": 33.1066719,
      "longitude": 129.9989438,
      "countryCode": "jp",
      "rawTags": {
        "addr:city": "嬉野市",
        "addr:province": "佐賀県",
        "addr:quarter": "嬉野町大字下宿",
        "name": "嬉野温泉",
        "name:en": "Ureshino-Onsen",
        "name:ja": "嬉野温泉",
        "name:ja-Hira": "うれしのおんせん",
        "name:ko": "우레시노온센",
        "operator": "九州旅客鉄道",
        "operator:ja": "九州旅客鉄道",
        "public_transport": "station",
        "railway": "station",
        "train": "yes",
        "wikidata": "Q7900416",
        "wikipedia": "ja:嬉野温泉駅"
      }
    },
    {
      "id": "saga_station_8654562870",
      "osmId": 8654562870,
      "osmType": "node",
      "prefectureId": "saga",
      "type": "station",
      "subtype": "jr",
      "name": "北方",
      "nameKana": null,
      "nameEn": "KItagata",
      "operator": "九州旅客鉄道",
      "network": "JR佐世保線",
      "ref": null,
      "latitude": 33.2161375,
      "longitude": 130.0830616,
      "countryCode": "jp",
      "rawTags": {
        "KSJ2:LIN": "佐世保線",
        "KSJ2:STN": "北方",
        "name": "北方",
        "name:de": "Kitagata",
        "name:en": "KItagata",
        "name:ja": "北方",
        "name:ko": "기타가타",
        "network": "JR佐世保線",
        "note": "National-Land Numerical Information (Railway) 2007, MLIT Japan",
        "note:ja": "国土数値情報（鉄道データ）平成19年　国土交通省",
        "operator": "九州旅客鉄道",
        "railway": "station",
        "source": "KSJ2",
        "source_ref": "http://nlftp.mlit.go.jp/ksj/jpgis/datalist/KsjTmplt-N02-v1_1.html",
        "wikidata": "Q5363124",
        "wikipedia": "ja:北方駅 (佐賀県)"
      }
    },
    {
      "id": "saga_station_8657034811",
      "osmId": 8657034811,
      "osmType": "node",
      "prefectureId": "saga",
      "type": "station",
      "subtype": "jr",
      "name": "大町",
      "nameKana": null,
      "nameEn": "Oomachi",
      "operator": "九州旅客鉄道",
      "network": "JR佐世保線",
      "ref": null,
      "latitude": 33.2124357,
      "longitude": 130.1074704,
      "countryCode": "jp",
      "rawTags": {
        "KSJ2:LIN": "佐世保線",
        "KSJ2:STN": "大町",
        "name": "大町",
        "name:de": "Oomachi",
        "name:en": "Oomachi",
        "name:ja": "大町",
        "name:ko": "오마치",
        "network": "JR佐世保線",
        "note": "National-Land Numerical Information (Railway) 2007, MLIT Japan",
        "note:ja": "国土数値情報（鉄道データ）平成19年　国土交通省",
        "operator": "九州旅客鉄道",
        "railway": "station",
        "source": "KSJ2",
        "source_ref": "http://nlftp.mlit.go.jp/ksj/jpgis/datalist/KsjTmplt-N02-v1_1.html",
        "wikidata": "Q8081601",
        "wikipedia": "ja:大町駅 (佐賀県)"
      }
    },
    {
      "id": "saga_ferry_terminal_9008323918",
      "osmId": 9008323918,
      "osmType": "node",
      "prefectureId": "saga",
      "type": "ferry_terminal",
      "subtype": null,
      "name": "小川島航路乗り場",
      "nameKana": null,
      "nameEn": null,
      "operator": "川口汽船有限会社",
      "network": null,
      "ref": null,
      "latitude": 33.539298,
      "longitude": 129.8946113,
      "countryCode": "jp",
      "rawTags": {
        "amenity": "ferry_terminal",
        "ferry": "yes",
        "name": "小川島航路乗り場",
        "operator": "川口汽船有限会社",
        "public_transport": "station"
      }
    },
    {
      "id": "saga_ferry_terminal_9008323958",
      "osmId": 9008323958,
      "osmType": "node",
      "prefectureId": "saga",
      "type": "ferry_terminal",
      "subtype": null,
      "name": "松島航路のりば",
      "nameKana": null,
      "nameEn": null,
      "operator": null,
      "network": "株式会社新栄",
      "ref": null,
      "latitude": 33.5397566,
      "longitude": 129.8945377,
      "countryCode": "jp",
      "rawTags": {
        "amenity": "ferry_terminal",
        "ferry": "yes",
        "name": "松島航路のりば",
        "network": "株式会社新栄",
        "public_transport": "station"
      }
    },
    {
      "id": "saga_ferry_terminal_9008324007",
      "osmId": 9008324007,
      "osmType": "node",
      "prefectureId": "saga",
      "type": "ferry_terminal",
      "subtype": null,
      "name": "加唐島航路のりば",
      "nameKana": null,
      "nameEn": null,
      "operator": null,
      "network": null,
      "ref": null,
      "latitude": 33.5415909,
      "longitude": 129.893367,
      "countryCode": "jp",
      "rawTags": {
        "amenity": "ferry_terminal",
        "ferry": "yes",
        "name": "加唐島航路のりば",
        "public_transport": "station"
      }
    },
    {
      "id": "saga_ferry_terminal_9009216088",
      "osmId": 9009216088,
      "osmType": "node",
      "prefectureId": "saga",
      "type": "ferry_terminal",
      "subtype": null,
      "name": "馬渡島航路のりば",
      "nameKana": null,
      "nameEn": null,
      "operator": null,
      "network": "有限会社郵正丸",
      "ref": null,
      "latitude": 33.5327577,
      "longitude": 129.8793272,
      "countryCode": "jp",
      "rawTags": {
        "amenity": "ferry_terminal",
        "ferry": "yes",
        "name": "馬渡島航路のりば",
        "network": "有限会社郵正丸",
        "public_transport": "station"
      }
    },
    {
      "id": "saga_ferry_terminal_9009216149",
      "osmId": 9009216149,
      "osmType": "node",
      "prefectureId": "saga",
      "type": "ferry_terminal",
      "subtype": null,
      "name": "向島航路のりば",
      "nameKana": null,
      "nameEn": null,
      "operator": "株式会社向島汽船",
      "network": null,
      "ref": null,
      "latitude": 33.4496295,
      "longitude": 129.7898237,
      "countryCode": "jp",
      "rawTags": {
        "amenity": "ferry_terminal",
        "ferry": "yes",
        "name": "向島航路のりば",
        "operator": "株式会社向島汽船",
        "public_transport": "station"
      }
    },
    {
      "id": "saga_station_9524354389",
      "osmId": 9524354389,
      "osmType": "node",
      "prefectureId": "saga",
      "type": "station",
      "subtype": "jr",
      "name": "小城",
      "nameKana": null,
      "nameEn": "Ogi",
      "operator": "九州旅客鉄道",
      "network": "JR唐津線",
      "ref": null,
      "latitude": 33.2856312,
      "longitude": 130.1986527,
      "countryCode": "jp",
      "rawTags": {
        "KSJ2:LIN": "唐津線",
        "KSJ2:STN": "小城",
        "name": "小城",
        "name:en": "Ogi",
        "name:ja": "小城",
        "name:ko": "오기",
        "network": "JR唐津線",
        "operator": "九州旅客鉄道",
        "public_transport": "station",
        "railway": "station",
        "wikidata": "Q11459485",
        "wikipedia": "ja:小城駅"
      }
    },
    {
      "id": "saga_bus_terminal_10804663093",
      "osmId": 10804663093,
      "osmType": "node",
      "prefectureId": "saga",
      "type": "bus_terminal",
      "subtype": null,
      "name": "唐津大手口バスセンター",
      "nameKana": "からつおおてぐちばすせんたー",
      "nameEn": "Karatsu Oteguchi Bus Center",
      "operator": null,
      "network": null,
      "ref": null,
      "latitude": 33.4493491,
      "longitude": 129.9695103,
      "countryCode": "jp",
      "rawTags": {
        "amenity": "bus_station",
        "name": "唐津大手口バスセンター",
        "name:en": "Karatsu Oteguchi Bus Center",
        "name:ja": "唐津大手口バスセンター",
        "name:ja-Hira": "からつおおてぐちばすせんたー",
        "name:ko": "가라쓰 오테구치 버스센터",
        "name:zh": "唐津大手口巴士中心",
        "wikidata": "Q11418624",
        "wikipedia": "ja:唐津大手口バスセンター"
      }
    },
    {
      "id": "saga_bus_terminal_552985981",
      "osmId": 552985981,
      "osmType": "way",
      "prefectureId": "saga",
      "type": "bus_terminal",
      "subtype": null,
      "name": "佐賀駅バスセンター",
      "nameKana": null,
      "nameEn": "Saga Station Bus Center",
      "operator": null,
      "network": null,
      "ref": null,
      "latitude": 33.2644774,
      "longitude": 130.2993075,
      "countryCode": "jp",
      "rawTags": {
        "amenity": "bus_station",
        "bus": "yes",
        "name": "佐賀駅バスセンター",
        "name:en": "Saga Station Bus Center",
        "name:ja": "佐賀駅バスセンター",
        "public_transport": "station",
        "wheelchair": "yes",
        "wikidata": "Q11384901",
        "wikipedia": "ja:佐賀駅バスセンター"
      }
    },
    {
      "id": "saga_bus_terminal_753612738",
      "osmId": 753612738,
      "osmType": "way",
      "prefectureId": "saga",
      "type": "bus_terminal",
      "subtype": null,
      "name": "祐徳稲荷神社バスターミナル",
      "nameKana": null,
      "nameEn": null,
      "operator": null,
      "network": null,
      "ref": null,
      "latitude": 33.0781092,
      "longitude": 130.1090496,
      "countryCode": "jp",
      "rawTags": {
        "amenity": "bus_station",
        "building": "transportation",
        "name": "祐徳稲荷神社バスターミナル"
      }
    },
    {
      "id": "saga_station_1167993847",
      "osmId": 1167993847,
      "osmType": "way",
      "prefectureId": "saga",
      "type": "station",
      "subtype": "jr",
      "name": "佐賀",
      "nameKana": null,
      "nameEn": "Saga",
      "operator": "九州旅客鉄道",
      "network": null,
      "ref": "JH08",
      "latitude": 33.2641541,
      "longitude": 130.297418,
      "countryCode": "jp",
      "rawTags": {
        "contact:website": "https://www.jrkyushu.co.jp/railway/station/1191586_1601.html",
        "int_name": "Saga",
        "layer": "1",
        "name": "佐賀",
        "name:en": "Saga",
        "name:ja": "佐賀",
        "name:ko": "사가",
        "note:ja": "国土数値情報（鉄道データ）平成19年　国土交通省",
        "operator": "九州旅客鉄道",
        "operator:ja": "九州旅客鉄道",
        "public_transport": "station",
        "railway": "station",
        "ref": "JH08",
        "wikidata": "Q1042665",
        "wikipedia": "ja:佐賀駅"
      }
    },
    {
      "id": "saga_bus_terminal_1322961289",
      "osmId": 1322961289,
      "osmType": "way",
      "prefectureId": "saga",
      "type": "bus_terminal",
      "subtype": null,
      "name": "呼子バスのりば",
      "nameKana": null,
      "nameEn": null,
      "operator": "昭和自動車",
      "network": null,
      "ref": null,
      "latitude": 33.5373047,
      "longitude": 129.8939518,
      "countryCode": "jp",
      "rawTags": {
        "addr:block_number": "4185",
        "addr:city": "唐津市",
        "addr:housenumber": "15",
        "addr:neighbourhood": "呼子町呼子",
        "addr:postcode": "847-0303",
        "addr:province": "佐賀県",
        "alt_name": "呼子バス発着所",
        "amenity": "bus_station",
        "building": "transportation",
        "building:levels": "1",
        "name": "呼子バスのりば",
        "operator": "昭和自動車"
      }
    },
    {
      "id": "saga_airport_5601357",
      "osmId": 5601357,
      "osmType": "relation",
      "prefectureId": "saga",
      "type": "airport",
      "subtype": "domestic",
      "name": "九州佐賀国際空港",
      "nameKana": null,
      "nameEn": "Saga Airport (Kyushu Saga International Airport)",
      "operator": null,
      "network": null,
      "ref": "HSG",
      "latitude": 33.1494164,
      "longitude": 130.3044964,
      "countryCode": "jp",
      "rawTags": {
        "KSJ2:AAC": "41302",
        "KSJ2:AAC_label": "佐賀県佐賀郡川副町",
        "KSJ2:AD2": "5",
        "KSJ2:AD2_label": "都道府県",
        "KSJ2:ARP": "33.1497222222 130.3022222222",
        "KSJ2:ATB": "33.1533055600 130.3029722000",
        "KSJ2:CLT": "21 00",
        "KSJ2:COA": "空港整備法に基づく第三種空港",
        "KSJ2:CompositeCurve": "cv70Airport",
        "KSJ2:DSA": "特定飛行場以外",
        "KSJ2:INP": "5",
        "KSJ2:INP_label": "都道府県",
        "KSJ2:IUC": "供用中",
        "KSJ2:NA3": "佐賀空港",
        "KSJ2:OPT": "06 30",
        "KSJ2:REF": "1",
        "KSJ2:REF_label": "ジェット定期便が就航している場合",
        "KSJ2:airport_id": "cf02_83",
        "KSJ2:runways": "2000 45",
        "aeroway": "aerodrome",
        "iata": "HSG",
        "icao": "RJFS",
        "name": "九州佐賀国際空港",
        "name:en": "Saga Airport (Kyushu Saga International Airport)",
        "name:fr": "Aéroport de Saga",
        "name:ja": "九州佐賀国際空港",
        "name:ja_rm": "Saga Kuko",
        "name:ko": "사가공항",
        "note": "National-Land Numerical Information (Airport) 2007, MLIT Japan",
        "note:ja": "国土数値情報（空港データ）平成19年　国土交通省",
        "source": "KSJ2",
        "source_ref": "http://nlftp.mlit.go.jp/ksj/jpgis/datalist/KsjTmplt-C28-v1_1.html",
        "type": "multipolygon",
        "wikidata": "Q1366663",
        "wikipedia": "en:Saga Airport"
      }
    },
    {
      "id": "saga_station_19360615",
      "osmId": 19360615,
      "osmType": "relation",
      "prefectureId": "saga",
      "type": "station",
      "subtype": "jr",
      "name": "バルーンさが",
      "nameKana": null,
      "nameEn": "Balloon Saga",
      "operator": "九州旅客鉄道",
      "network": null,
      "ref": null,
      "latitude": 33.2576143,
      "longitude": 130.2467376,
      "countryCode": "jp",
      "rawTags": {
        "addr:city": "佐賀市",
        "addr:neighbourhood": "萩野",
        "addr:postcode": "840-0864",
        "addr:province": "佐賀県",
        "addr:quarter": "嘉瀬町",
        "alt_name": "バルーン佐賀",
        "name": "バルーンさが",
        "name:en": "Balloon Saga",
        "name:ja": "バルーンさが",
        "note": "臨時駅（佐賀インターナショナルバルーンフェスタの開催期間中のみ営業）",
        "operator": "九州旅客鉄道",
        "public_transport": "stop_area",
        "railway": "station",
        "train": "yes",
        "type": "public_transport",
        "wikidata": "Q4851866",
        "wikipedia": "ja:バルーンさが駅"
      }
    }
  ]
}