{
  "fetchedAt": "2025-12-12T05:29:31.042Z",
  "prefectureId": "shiga",
  "prefectureName": "滋賀県",
  "stats": {
    "station": 93,
    "airport": 1,
    "ferry_terminal": 5,
    "bus_terminal": 12,
    "total": 111
  },
  "data": [
    {
      "id": "shiga_station_267302251",
      "osmId": 267302251,
      "osmType": "node",
      "prefectureId": "shiga",
      "type": "station",
      "subtype": "private",
      "name": "近江今津",
      "nameKana": null,
      "nameEn": "Ōmi-Imazu",
      "operator": null,
      "network": null,
      "ref": "JR-B14",
      "latitude": 35.3985126,
      "longitude": 136.0323864,
      "countryCode": "jp",
      "rawTags": {
        "KSJ2:LIN": "湖西線",
        "KSJ2:STN": "近江今津",
        "contact:website": "https://www.jr-odekake.net/eki/top?id=0611215",
        "name": "近江今津",
        "name:en": "Ōmi-Imazu",
        "name:ja": "近江今津",
        "name:ko": "오미이마즈",
        "note": "National-Land Numerical Information (Railway) 2007, MLIT Japan",
        "note:ja": "国土数値情報（鉄道データ）平成19年　国土交通省",
        "public_transport": "station",
        "railway": "station",
        "ref": "JR-B14",
        "source": "KSJ2",
        "source_ref": "http://nlftp.mlit.go.jp/ksj/jpgis/datalist/KsjTmplt-N02-v1_1.html",
        "wikidata": "Q1590429",
        "wikipedia": "ja:近江今津駅"
      }
    },
    {
      "id": "shiga_station_267303049",
      "osmId": 267303049,
      "osmType": "node",
      "prefectureId": "shiga",
      "type": "station",
      "subtype": "private",
      "name": "甲南",
      "nameKana": null,
      "nameEn": "Kōnan",
      "operator": null,
      "network": null,
      "ref": null,
      "latitude": 34.9311631,
      "longitude": 136.1693865,
      "countryCode": "jp",
      "rawTags": {
        "KSJ2:LIN": "草津線",
        "KSJ2:STN": "甲南",
        "name": "甲南",
        "name:en": "Kōnan",
        "name:ja": "甲南",
        "name:ko": "고난",
        "note": "National-Land Numerical Information (Railway) 2007, MLIT Japan",
        "note:ja": "国土数値情報（鉄道データ）平成19年　国土交通省",
        "public_transport": "station",
        "railway": "station",
        "source": "KSJ2",
        "source_ref": "http://nlftp.mlit.go.jp/ksj/jpgis/datalist/KsjTmplt-N02-v1_1.html",
        "wikidata": "Q5362063",
        "wikipedia": "ja:甲南駅"
      }
    },
    {
      "id": "shiga_station_267303051",
      "osmId": 267303051,
      "osmType": "node",
      "prefectureId": "shiga",
      "type": "station",
      "subtype": "private",
      "name": "三雲",
      "nameKana": null,
      "nameEn": "Mikumo",
      "operator": null,
      "network": null,
      "ref": null,
      "latitude": 34.9831773,
      "longitude": 136.1178406,
      "countryCode": "jp",
      "rawTags": {
        "KSJ2:LIN": "草津線",
        "KSJ2:STN": "三雲",
        "name": "三雲",
        "name:en": "Mikumo",
        "name:ja": "三雲",
        "name:ko": "미쿠모",
        "note": "National-Land Numerical Information (Railway) 2007, MLIT Japan",
        "note:ja": "国土数値情報（鉄道データ）平成19年　国土交通省",
        "public_transport": "station",
        "railway": "station",
        "source": "KSJ2",
        "source_ref": "http://nlftp.mlit.go.jp/ksj/jpgis/datalist/KsjTmplt-N02-v1_1.html",
        "train": "yes",
        "wikidata": "Q5361729",
        "wikipedia": "ja:三雲駅"
      }
    },
    {
      "id": "shiga_station_267303140",
      "osmId": 267303140,
      "osmType": "node",
      "prefectureId": "shiga",
      "type": "station",
      "subtype": "jr",
      "name": "手原",
      "nameKana": null,
      "nameEn": "Tehara",
      "operator": "西日本旅客鉄道",
      "network": "JR草津線",
      "ref": null,
      "latitude": 35.0273101,
      "longitude": 135.9993215,
      "countryCode": "jp",
      "rawTags": {
        "KSJ2:LIN": "草津線",
        "KSJ2:STN": "手原",
        "name": "手原",
        "name:en": "Tehara",
        "name:ja": "手原",
        "name:ko": "데하라",
        "network": "JR草津線",
        "note": "National-Land Numerical Information (Railway) 2007, MLIT Japan",
        "note:ja": "国土数値情報（鉄道データ）平成19年　国土交通省",
        "operator": "西日本旅客鉄道",
        "public_transport": "station",
        "railway": "station",
        "source": "KSJ2",
        "source_ref": "http://nlftp.mlit.go.jp/ksj/jpgis/datalist/KsjTmplt-N02-v1_1.html",
        "wikidata": "Q5362482",
        "wikipedia": "ja:手原駅"
      }
    },
    {
      "id": "shiga_station_267303636",
      "osmId": 267303636,
      "osmType": "node",
      "prefectureId": "shiga",
      "type": "station",
      "subtype": "private",
      "name": "甲賀",
      "nameKana": null,
      "nameEn": "Koka",
      "operator": null,
      "network": null,
      "ref": null,
      "latitude": 34.9013453,
      "longitude": 136.2126848,
      "countryCode": "jp",
      "rawTags": {
        "KSJ2:LIN": "草津線",
        "KSJ2:STN": "甲賀",
        "name": "甲賀",
        "name:en": "Koka",
        "name:ja": "甲賀",
        "name:ko": "고카",
        "note": "National-Land Numerical Information (Railway) 2007, MLIT Japan",
        "note:ja": "国土数値情報（鉄道データ）平成19年　国土交通省",
        "public_transport": "station",
        "railway": "station",
        "source": "KSJ2",
        "source_ref": "http://nlftp.mlit.go.jp/ksj/jpgis/datalist/KsjTmplt-N02-v1_1.html",
        "train": "yes",
        "wikidata": "Q5362404",
        "wikipedia": "ja:甲賀駅"
      }
    },
    {
      "id": "shiga_station_267308832",
      "osmId": 267308832,
      "osmType": "node",
      "prefectureId": "shiga",
      "type": "station",
      "subtype": "private",
      "name": "高月",
      "nameKana": null,
      "nameEn": "Takatsuki",
      "operator": null,
      "network": null,
      "ref": "JR-A06",
      "latitude": 35.4711634,
      "longitude": 136.2374239,
      "countryCode": "jp",
      "rawTags": {
        "contact:website": "https://www.jr-odekake.net/eki/top?id=0541406",
        "name": "高月",
        "name:en": "Takatsuki",
        "name:ja": "高月",
        "name:ko": "다카쓰키",
        "note": "National-Land Numerical Information (Railway) 2007, MLIT Japan",
        "public_transport": "station",
        "railway": "station",
        "ref": "JR-A06",
        "source": "KSJ2",
        "wikidata": "Q5365710",
        "wikipedia": "ja:高月駅"
      }
    },
    {
      "id": "shiga_station_267459659",
      "osmId": 267459659,
      "osmType": "node",
      "prefectureId": "shiga",
      "type": "station",
      "subtype": "jr",
      "name": "大津",
      "nameKana": null,
      "nameEn": "Ōtsu",
      "operator": "西日本旅客鉄道",
      "network": "JR琵琶湖線",
      "ref": null,
      "latitude": 35.0030494,
      "longitude": 135.8648951,
      "countryCode": "jp",
      "rawTags": {
        "KSJ2:LIN": "東海道線",
        "KSJ2:STN": "大津",
        "name": "大津",
        "name:en": "Ōtsu",
        "name:ja": "大津",
        "name:ko": "오쓰",
        "network": "JR琵琶湖線",
        "note": "National-Land Numerical Information (Railway) 2007, MLIT Japan",
        "note:ja": "国土数値情報（鉄道データ）平成19年　国土交通省",
        "operator": "西日本旅客鉄道",
        "public_transport": "station",
        "railway": "station",
        "source": "KSJ2",
        "source_ref": "http://nlftp.mlit.go.jp/ksj/jpgis/datalist/KsjTmplt-N02-v1_1.html",
        "wikidata": "Q1042976",
        "wikipedia": "ja:大津駅"
      }
    },
    {
      "id": "shiga_station_267459763",
      "osmId": 267459763,
      "osmType": "node",
      "prefectureId": "shiga",
      "type": "station",
      "subtype": "private",
      "name": "石山",
      "nameKana": null,
      "nameEn": "Ishiyama",
      "operator": null,
      "network": null,
      "ref": null,
      "latitude": 34.9799397,
      "longitude": 135.9000031,
      "countryCode": "jp",
      "rawTags": {
        "KSJ2:LIN": "東海道線",
        "KSJ2:STN": "石山",
        "name": "石山",
        "name:de": "Ishiyama",
        "name:en": "Ishiyama",
        "name:it": "Ishiyama",
        "name:ru": "Исияма",
        "note": "National-Land Numerical Information (Railway) 2007, MLIT Japan",
        "note:ja": "国土数値情報（鉄道データ）平成19年　国土交通省",
        "public_transport": "station",
        "railway": "station",
        "source": "KSJ2",
        "source_ref": "http://nlftp.mlit.go.jp/ksj/jpgis/datalist/KsjTmplt-N02-v1_1.html",
        "wikidata": "Q740087",
        "wikipedia": "ja:石山駅"
      }
    },
    {
      "id": "shiga_station_339087543",
      "osmId": 339087543,
      "osmType": "node",
      "prefectureId": "shiga",
      "type": "station",
      "subtype": "private",
      "name": "追分",
      "nameKana": "おいわけ",
      "nameEn": "Oiwake",
      "operator": "京阪電気鉄道",
      "network": "京津線",
      "ref": "OT33",
      "latitude": 34.9915859,
      "longitude": 135.8371682,
      "countryCode": "jp",
      "rawTags": {
        "KSJ2:STN": "追分",
        "name": "追分",
        "name:en": "Oiwake",
        "name:ja": "追分",
        "name:ja-Hira": "おいわけ",
        "name:ja-Latn": "Oiwake",
        "network": "京津線",
        "operator": "京阪電気鉄道",
        "public_transport": "station",
        "railway": "station",
        "ref": "OT33",
        "train": "yes",
        "wikidata": "Q7081571",
        "wikipedia": "ja:追分駅 (滋賀県)"
      }
    },
    {
      "id": "shiga_ferry_terminal_416778355",
      "osmId": 416778355,
      "osmType": "node",
      "prefectureId": "shiga",
      "type": "ferry_terminal",
      "subtype": null,
      "name": "長浜港",
      "nameKana": null,
      "nameEn": null,
      "operator": null,
      "network": null,
      "ref": null,
      "latitude": 35.3731339,
      "longitude": 136.2641139,
      "countryCode": "jp",
      "rawTags": {
        "amenity": "ferry_terminal",
        "name": "長浜港"
      }
    },
    {
      "id": "shiga_station_1351659258",
      "osmId": 1351659258,
      "osmType": "node",
      "prefectureId": "shiga",
      "type": "station",
      "subtype": "private",
      "name": "篠原",
      "nameKana": "しのはら",
      "nameEn": "Shinohara",
      "operator": null,
      "network": null,
      "ref": null,
      "latitude": 35.0991244,
      "longitude": 136.0713313,
      "countryCode": "jp",
      "rawTags": {
        "KSJ2:LIN": "東海道線",
        "KSJ2:STN": "篠原",
        "name": "篠原",
        "name:en": "Shinohara",
        "name:ja": "篠原",
        "name:ja_kana": "しのはら",
        "name:ko": "시노하라",
        "name:ru": "Синохара",
        "public_transport": "station",
        "railway": "station",
        "wikidata": "Q1042696",
        "wikipedia": "ja:篠原駅 (滋賀県)"
      }
    },
    {
      "id": "shiga_station_1351659261",
      "osmId": 1351659261,
      "osmType": "node",
      "prefectureId": "shiga",
      "type": "station",
      "subtype": "private",
      "name": "近江八幡",
      "nameKana": "おうみはちまん",
      "nameEn": "Ōmihachiman",
      "operator": null,
      "network": null,
      "ref": null,
      "latitude": 35.1223816,
      "longitude": 136.1027652,
      "countryCode": "jp",
      "rawTags": {
        "KSJ2:LIN": "八日市線",
        "KSJ2:RAS": "eb03_1360",
        "KSJ2:STN": "近江八幡",
        "KSJ2:segment": "eb02_2646",
        "name": "近江八幡",
        "name:en": "Ōmihachiman",
        "name:ja": "近江八幡",
        "name:ja_kana": "おうみはちまん",
        "name:ko": "오미하치만",
        "note": "National-Land Numerical Information (Railway) 2007, MLIT Japan",
        "note:ja": "国土数値情報（鉄道データ）平成19年　国土交通省",
        "public_transport": "station",
        "railway": "station",
        "source": "KSJ2",
        "source_ref": "http://nlftp.mlit.go.jp/ksj/jpgis/datalist/KsjTmplt-N02-v1_1.html",
        "wikidata": "Q1042782",
        "wikipedia": "ja:近江八幡駅"
      }
    },
    {
      "id": "shiga_station_1351659278",
      "osmId": 1351659278,
      "osmType": "node",
      "prefectureId": "shiga",
      "type": "station",
      "subtype": "private",
      "name": "長谷野",
      "nameKana": null,
      "nameEn": "Nagatanino",
      "operator": null,
      "network": null,
      "ref": null,
      "latitude": 35.0956064,
      "longitude": 136.1876387,
      "countryCode": "jp",
      "rawTags": {
        "KSJ2:LIN": "本線",
        "KSJ2:RAS": "eb03_1362",
        "KSJ2:STN": "長谷野",
        "KSJ2:segment": "eb02_2703",
        "name": "長谷野",
        "name:en": "Nagatanino",
        "name:ja": "長谷野",
        "note": "National-Land Numerical Information (Railway) 2007, MLIT Japan",
        "note:ja": "国土数値情報（鉄道データ）平成19年　国土交通省",
        "public_transport": "station",
        "railway": "station",
        "source": "KSJ2",
        "source_ref": "http://nlftp.mlit.go.jp/ksj/jpgis/datalist/KsjTmplt-N02-v1_1.html",
        "wikidata": "Q6958676",
        "wikipedia": "ja:長谷野駅"
      }
    },
    {
      "id": "shiga_station_2674697441",
      "osmId": 2674697441,
      "osmType": "node",
      "prefectureId": "shiga",
      "type": "station",
      "subtype": "jr",
      "name": "石部",
      "nameKana": "いしべ",
      "nameEn": "Ishibe",
      "operator": "西日本旅客鉄道",
      "network": "JR草津線",
      "ref": null,
      "latitude": 35.0176482,
      "longitude": 136.052946,
      "countryCode": "jp",
      "rawTags": {
        "KSJ2:LIN": "草津線",
        "KSJ2:STN": "石部",
        "addr:block_number": "5",
        "addr:city": "湖南市",
        "addr:housenumber": "35",
        "addr:neighbourhood": "3丁目",
        "addr:province": "滋賀県",
        "addr:quarter": "石部西",
        "name": "石部",
        "name:en": "Ishibe",
        "name:ja": "石部",
        "name:ja-Hira": "いしべ",
        "name:ja-Latn": "Ishibe",
        "name:ko": "이시베",
        "network": "JR草津線",
        "note": "National-Land Numerical Information (Railway) 2007, MLIT Japan",
        "note:ja": "国土数値情報（鉄道データ）平成19年　国土交通省",
        "operator": "西日本旅客鉄道",
        "public_transport": "station",
        "railway": "station",
        "source": "KSJ2",
        "source_ref": "http://nlftp.mlit.go.jp/ksj/jpgis/datalist/KsjTmplt-N02-v1_1.html",
        "train": "yes",
        "website": "https://www.jr-odekake.net/eki/top.php?id=0621407",
        "wikidata": "Q5362466",
        "wikipedia": "ja:石部駅"
      }
    },
    {
      "id": "shiga_bus_terminal_2966865364",
      "osmId": 2966865364,
      "osmType": "node",
      "prefectureId": "shiga",
      "type": "bus_terminal",
      "subtype": null,
      "name": "草津駅",
      "nameKana": null,
      "nameEn": null,
      "operator": "近江鉄道大津営業所",
      "network": null,
      "ref": null,
      "latitude": 35.0222599,
      "longitude": 135.9623283,
      "countryCode": "jp",
      "rawTags": {
        "amenity": "bus_station",
        "bus": "yes",
        "highway": "bus_stop",
        "name": "草津駅",
        "name:ja": "草津駅",
        "operator": "近江鉄道大津営業所",
        "public_transport": "platform",
        "source": "survey",
        "website": "http://time.khobho.co.jp/ohmi_bus/pol_dsp.asp?KaiKbn=NOW&teiNm=%91%90%92%C3%89whttp://time.khobho.co.jp/ohmi_bus/pol_dsp.asp?KaiKbn=NOW&teiNm=%91%90%92%C3%89w"
      }
    },
    {
      "id": "shiga_station_3544611598",
      "osmId": 3544611598,
      "osmType": "node",
      "prefectureId": "shiga",
      "type": "station",
      "subtype": "private",
      "name": "五箇荘",
      "nameKana": "ごかしょう",
      "nameEn": "Gokashou",
      "operator": null,
      "network": null,
      "ref": null,
      "latitude": 35.1547658,
      "longitude": 136.1972302,
      "countryCode": "jp",
      "rawTags": {
        "KSJ2:LIN": "本線",
        "KSJ2:RAS": "eb03_1378",
        "KSJ2:STN": "五箇荘",
        "KSJ2:segment": "eb02_2663",
        "name": "五箇荘",
        "name:en": "Gokashou",
        "name:ja": "五箇荘",
        "name:ja_kana": "ごかしょう",
        "name:ko": "고카쇼",
        "note": "National-Land Numerical Information (Railway) 2007, MLIT Japan",
        "note:ja": "国土数値情報（鉄道データ）平成19年　国土交通省",
        "public_transport": "station",
        "railway": "station",
        "source": "KSJ2",
        "source_ref": "http://nlftp.mlit.go.jp/ksj/jpgis/datalist/KsjTmplt-N02-v1_1.html",
        "wikidata": "Q2886686",
        "wikipedia": "ja:五箇荘駅"
      }
    },
    {
      "id": "shiga_station_3544611599",
      "osmId": 3544611599,
      "osmType": "node",
      "prefectureId": "shiga",
      "type": "station",
      "subtype": "private",
      "name": "八日市",
      "nameKana": "ようかいち",
      "nameEn": "Yōkaichi",
      "operator": null,
      "network": null,
      "ref": null,
      "latitude": 35.1144354,
      "longitude": 136.1946367,
      "countryCode": "jp",
      "rawTags": {
        "KSJ2:LIN": "八日市線",
        "KSJ2:RAS": "eb03_1354",
        "KSJ2:STN": "八日市",
        "KSJ2:segment": "eb02_2658",
        "name": "八日市",
        "name:en": "Yōkaichi",
        "name:ja": "八日市",
        "name:ja_kana": "ようかいち",
        "name:ko": "요카이치",
        "note": "National-Land Numerical Information (Railway) 2007, MLIT Japan",
        "note:ja": "国土数値情報（鉄道データ）平成19年　国土交通省",
        "public_transport": "station",
        "railway": "station",
        "source": "KSJ2",
        "source_ref": "http://nlftp.mlit.go.jp/ksj/jpgis/datalist/KsjTmplt-N02-v1_1.html",
        "wikidata": "Q8062651",
        "wikipedia": "ja:八日市駅"
      }
    },
    {
      "id": "shiga_station_3544611600",
      "osmId": 3544611600,
      "osmType": "node",
      "prefectureId": "shiga",
      "type": "station",
      "subtype": "private",
      "name": "日野",
      "nameKana": "ひの",
      "nameEn": "Hino",
      "operator": "近江鉄道",
      "network": "近江鉄道本線",
      "ref": null,
      "latitude": 35.0122637,
      "longitude": 136.2194474,
      "countryCode": "jp",
      "rawTags": {
        "KSJ2:LIN": "本線",
        "KSJ2:RAS": "eb03_1376",
        "KSJ2:STN": "日野",
        "KSJ2:segment": "eb02_2704",
        "name": "日野",
        "name:en": "Hino",
        "name:ja": "日野",
        "name:ja-Hira": "ひの",
        "name:ja-Latn": "Hino",
        "name:ko": "히노",
        "network": "近江鉄道本線",
        "note": "National-Land Numerical Information (Railway) 2007, MLIT Japan",
        "note:ja": "国土数値情報（鉄道データ）平成19年　国土交通省",
        "operator": "近江鉄道",
        "operator:en": "Ohmi Railway",
        "public_transport": "station",
        "railway": "station",
        "source": "KSJ2",
        "source_ref": "http://nlftp.mlit.go.jp/ksj/jpgis/datalist/KsjTmplt-N02-v1_1.html",
        "train": "yes",
        "wikidata": "Q5767373",
        "wikimedia_commons": "File:Ohmi-RW_Hino_stn.jpg",
        "wikipedia": "ja:日野駅 (滋賀県)"
      }
    },
    {
      "id": "shiga_station_3544611601",
      "osmId": 3544611601,
      "osmType": "node",
      "prefectureId": "shiga",
      "type": "station",
      "subtype": "private",
      "name": "水口",
      "nameKana": null,
      "nameEn": "Minakuchi",
      "operator": "近江鉄道",
      "network": "近江鉄道本線",
      "ref": "OR34",
      "latitude": 34.9743172,
      "longitude": 136.176836,
      "countryCode": "jp",
      "rawTags": {
        "KSJ2:LIN": "本線",
        "KSJ2:RAS": "eb03_1380",
        "KSJ2:STN": "水口",
        "KSJ2:segment": "eb02_2664",
        "name": "水口",
        "name:en": "Minakuchi",
        "name:ja": "水口",
        "name:ko": "미나쿠치",
        "network": "近江鉄道本線",
        "note": "National-Land Numerical Information (Railway) 2007, MLIT Japan",
        "note:ja": "国土数値情報（鉄道データ）平成19年　国土交通省",
        "operator": "近江鉄道",
        "public_transport": "station",
        "railway": "station",
        "ref": "OR34",
        "source": "KSJ2",
        "source_ref": "http://nlftp.mlit.go.jp/ksj/jpgis/datalist/KsjTmplt-N02-v1_1.html",
        "train": "yes",
        "wikidata": "Q6862823",
        "wikipedia": "ja:水口駅"
      }
    },
    {
      "id": "shiga_station_3544611602",
      "osmId": 3544611602,
      "osmType": "node",
      "prefectureId": "shiga",
      "type": "station",
      "subtype": "jr",
      "name": "貴生川",
      "nameKana": "きぶかわ",
      "nameEn": "Kibukawa",
      "operator": "JR西日本;近江鉄道;信楽高原鐵道",
      "network": "近江鉄道本線;草津線;信楽高原鐵道信楽線",
      "ref": null,
      "latitude": 34.9522655,
      "longitude": 136.153886,
      "countryCode": "jp",
      "rawTags": {
        "internet_access": "no",
        "name": "貴生川",
        "name:en": "Kibukawa",
        "name:ja": "貴生川",
        "name:ja-Hira": "きぶかわ",
        "name:ja-Latn": "Kibukawa",
        "name:ko": "기부카와",
        "network": "近江鉄道本線;草津線;信楽高原鐵道信楽線",
        "operator": "JR西日本;近江鉄道;信楽高原鐵道",
        "public_transport": "station",
        "railway": "station",
        "wheelchair": "yes",
        "wikidata": "Q865712",
        "wikipedia": "ja:貴生川駅"
      }
    },
    {
      "id": "shiga_station_3630162090",
      "osmId": 3630162090,
      "osmType": "node",
      "prefectureId": "shiga",
      "type": "station",
      "subtype": "private",
      "name": "彦根",
      "nameKana": "ひこね",
      "nameEn": "Hikone",
      "operator": null,
      "network": null,
      "ref": "JR-A13",
      "latitude": 35.2722017,
      "longitude": 136.2633658,
      "countryCode": "jp",
      "rawTags": {
        "KSJ2:LIN": "東海道線",
        "KSJ2:STN": "彦根",
        "addr:block_number": "40",
        "addr:city": "彦根市",
        "addr:province": "滋賀県",
        "addr:quarter": "古沢町",
        "name": "彦根",
        "name:en": "Hikone",
        "name:ja": "彦根",
        "name:ja_kana": "ひこね",
        "name:ko": "히코네",
        "note": "National-Land Numerical Information (Railway) 2007, MLIT Japan",
        "note:ja": "国土数値情報（鉄道データ）平成19年　国土交通省",
        "public_transport": "station",
        "railway": "station",
        "ref": "JR-A13",
        "source": "KSJ2",
        "source_ref": "http://nlftp.mlit.go.jp/ksj/jpgis/datalist/KsjTmplt-N02-v1_1.html",
        "wikidata": "Q1131151",
        "wikipedia": "ja:彦根駅"
      }
    },
    {
      "id": "shiga_station_3664970241",
      "osmId": 3664970241,
      "osmType": "node",
      "prefectureId": "shiga",
      "type": "station",
      "subtype": "private",
      "name": "鳥居本",
      "nameKana": "とりいもと",
      "nameEn": "Toriimoto",
      "operator": "近江鉄道",
      "network": "近江鉄道本線",
      "ref": null,
      "latitude": 35.2845592,
      "longitude": 136.2829991,
      "countryCode": "jp",
      "rawTags": {
        "name": "鳥居本",
        "name:en": "Toriimoto",
        "name:ja": "鳥居本",
        "name:ja-Hira": "とりいもと",
        "name:ko": "토리모토",
        "network": "近江鉄道本線",
        "operator": "近江鉄道",
        "public_transport": "station",
        "railway": "station",
        "wikidata": "Q606237",
        "wikipedia": "ja:鳥居本駅"
      }
    },
    {
      "id": "shiga_station_3664970245",
      "osmId": 3664970245,
      "osmType": "node",
      "prefectureId": "shiga",
      "type": "station",
      "subtype": "private",
      "name": "多賀大社前",
      "nameKana": "たがたいしゃまえ",
      "nameEn": "Taga Taisha-mae",
      "operator": "近江鉄道",
      "network": "多賀線",
      "ref": null,
      "latitude": 35.2264448,
      "longitude": 136.2843767,
      "countryCode": "jp",
      "rawTags": {
        "name": "多賀大社前",
        "name:en": "Taga Taisha-mae",
        "name:ja": "多賀大社前",
        "name:ja-Hira": "たがたいしゃまえ",
        "network": "多賀線",
        "operator": "近江鉄道",
        "public_transport": "station",
        "railway": "station",
        "wikidata": "Q965382",
        "wikipedia": "ja:多賀大社前駅"
      }
    },
    {
      "id": "shiga_station_3664970246",
      "osmId": 3664970246,
      "osmType": "node",
      "prefectureId": "shiga",
      "type": "station",
      "subtype": "private",
      "name": "高宮",
      "nameKana": "たかみや",
      "nameEn": "Takamiya",
      "operator": "近江鉄道",
      "network": null,
      "ref": null,
      "latitude": 35.2362814,
      "longitude": 136.2605969,
      "countryCode": "jp",
      "rawTags": {
        "name": "高宮",
        "name:en": "Takamiya",
        "name:ja": "高宮",
        "name:ja-Hira": "たかみや",
        "operator": "近江鉄道",
        "public_transport": "station",
        "railway": "station",
        "wikidata": "Q6073376",
        "wikipedia": "ja:高宮駅 (滋賀県)"
      }
    },
    {
      "id": "shiga_station_3999594681",
      "osmId": 3999594681,
      "osmType": "node",
      "prefectureId": "shiga",
      "type": "station",
      "subtype": "private",
      "name": "柏原",
      "nameKana": null,
      "nameEn": "Kashiwabara",
      "operator": null,
      "network": null,
      "ref": null,
      "latitude": 35.3447896,
      "longitude": 136.4028328,
      "countryCode": "jp",
      "rawTags": {
        "name": "柏原",
        "name:de": "Kashiwabara",
        "name:en": "Kashiwabara",
        "name:ja": "柏原",
        "name:ko": "가시와바라",
        "name:ru": "Касивабара",
        "public_transport": "station",
        "railway": "station",
        "wikidata": "Q871139",
        "wikipedia": "ja:柏原駅 (滋賀県)"
      }
    },
    {
      "id": "shiga_station_3999594682",
      "osmId": 3999594682,
      "osmType": "node",
      "prefectureId": "shiga",
      "type": "station",
      "subtype": "jr",
      "name": "米原",
      "nameKana": "まいばら",
      "nameEn": "Maibara",
      "operator": "西日本旅客鉄道",
      "network": null,
      "ref": "JR-A12;CA83",
      "latitude": 35.3149074,
      "longitude": 136.2901179,
      "countryCode": "jp",
      "rawTags": {
        "name": "米原",
        "name:de": "Maibara",
        "name:en": "Maibara",
        "name:it": "Maibara",
        "name:ja": "米原",
        "name:ja-Hira": "まいばら",
        "name:ja-Latn": "Maibara",
        "name:ko": "마이바라",
        "name:ru": "Маибара",
        "name:uk": "Маїбара",
        "operator": "西日本旅客鉄道",
        "operator:en": "West Japan Railway Company",
        "public_transport": "station",
        "railway": "station",
        "ref": "JR-A12;CA83",
        "wikidata": "Q801158",
        "wikipedia": "ja:米原駅"
      }
    },
    {
      "id": "shiga_station_3999594683",
      "osmId": 3999594683,
      "osmType": "node",
      "prefectureId": "shiga",
      "type": "station",
      "subtype": "private",
      "name": "醒ヶ井",
      "nameKana": null,
      "nameEn": "Samegai",
      "operator": null,
      "network": null,
      "ref": null,
      "latitude": 35.3277421,
      "longitude": 136.345277,
      "countryCode": "jp",
      "rawTags": {
        "name": "醒ヶ井",
        "name:de": "Samegai",
        "name:en": "Samegai",
        "name:ja": "醒ヶ井",
        "name:ko": "사메가이",
        "name:ru": "Самегаи",
        "public_transport": "station",
        "railway": "station",
        "wikidata": "Q870959",
        "wikipedia": "ja:醒ケ井駅"
      }
    },
    {
      "id": "shiga_station_3999594687",
      "osmId": 3999594687,
      "osmType": "node",
      "prefectureId": "shiga",
      "type": "station",
      "subtype": "private",
      "name": "近江長岡",
      "nameKana": null,
      "nameEn": "Ōmi-Nagoka",
      "operator": null,
      "network": null,
      "ref": null,
      "latitude": 35.3591769,
      "longitude": 136.3740107,
      "countryCode": "jp",
      "rawTags": {
        "name": "近江長岡",
        "name:de": "Ōmi-Nagoka",
        "name:en": "Ōmi-Nagoka",
        "name:ja": "近江長岡",
        "name:ko": "오미나가오카",
        "name:ru": "Оми-Нагока",
        "public_transport": "station",
        "railway": "station",
        "wikidata": "Q872483",
        "wikipedia": "ja:近江長岡駅"
      }
    },
    {
      "id": "shiga_station_3999683414",
      "osmId": 3999683414,
      "osmType": "node",
      "prefectureId": "shiga",
      "type": "station",
      "subtype": "private",
      "name": "河瀬",
      "nameKana": null,
      "nameEn": "Kawase",
      "operator": null,
      "network": null,
      "ref": null,
      "latitude": 35.225197,
      "longitude": 136.2249796,
      "countryCode": "jp",
      "rawTags": {
        "name": "河瀬",
        "name:de": "Kawase",
        "name:en": "Kawase",
        "name:ja": "河瀬",
        "name:ko": "가와세",
        "public_transport": "station",
        "railway": "station",
        "wikidata": "Q614782",
        "wikipedia": "ja:河瀬駅"
      }
    },
    {
      "id": "shiga_station_3999683418",
      "osmId": 3999683418,
      "osmType": "node",
      "prefectureId": "shiga",
      "type": "station",
      "subtype": "private",
      "name": "南彦根",
      "nameKana": null,
      "nameEn": "Minami-Hikone",
      "operator": null,
      "network": null,
      "ref": null,
      "latitude": 35.2460755,
      "longitude": 136.2479316,
      "countryCode": "jp",
      "rawTags": {
        "name": "南彦根",
        "name:de": "Minami-Hikone",
        "name:en": "Minami-Hikone",
        "name:ja": "南彦根",
        "name:ko": "미나미히코네",
        "name:ru": "Минами-Хиконе",
        "public_transport": "station",
        "railway": "station",
        "wheelchair": "yes",
        "wikidata": "Q1042827",
        "wikipedia": "ja:南彦根駅"
      }
    },
    {
      "id": "shiga_station_3999683419",
      "osmId": 3999683419,
      "osmType": "node",
      "prefectureId": "shiga",
      "type": "station",
      "subtype": "private",
      "name": "南草津",
      "nameKana": null,
      "nameEn": "Minami-Kusatsu",
      "operator": null,
      "network": null,
      "ref": null,
      "latitude": 35.0037567,
      "longitude": 135.9472641,
      "countryCode": "jp",
      "rawTags": {
        "name": "南草津",
        "name:de": "Minami-Kusatsu",
        "name:en": "Minami-Kusatsu",
        "name:ja": "南草津",
        "name:ko": "미나미쿠사쓰",
        "name:ru": "Минами-Кусацу",
        "public_transport": "station",
        "railway": "station",
        "toilets:disposal": "flush",
        "wikidata": "Q1042831",
        "wikipedia": "ja:南草津駅"
      }
    },
    {
      "id": "shiga_station_4022185756",
      "osmId": 4022185756,
      "osmType": "node",
      "prefectureId": "shiga",
      "type": "station",
      "subtype": "private",
      "name": "栗東",
      "nameKana": null,
      "nameEn": "Rittō",
      "operator": null,
      "network": null,
      "ref": null,
      "latitude": 35.0373583,
      "longitude": 135.9798785,
      "countryCode": "jp",
      "rawTags": {
        "KSJ2:LIN": "東海道線",
        "KSJ2:STN": "栗東",
        "name": "栗東",
        "name:en": "Rittō",
        "name:ja": "栗東",
        "name:ko": "릿토",
        "note": "National-Land Numerical Information (Railway) 2007, MLIT Japan",
        "note:ja": "国土数値情報（鉄道データ）平成19年　国土交通省",
        "public_transport": "station",
        "railway": "station",
        "source": "KSJ2",
        "source_ref": "http://nlftp.mlit.go.jp/ksj/jpgis/datalist/KsjTmplt-N02-v1_1.html",
        "wikidata": "Q1042673",
        "wikipedia": "ja:栗東駅"
      }
    },
    {
      "id": "shiga_station_4289438388",
      "osmId": 4289438388,
      "osmType": "node",
      "prefectureId": "shiga",
      "type": "station",
      "subtype": "private",
      "name": "膳所",
      "nameKana": null,
      "nameEn": "Zeze",
      "operator": null,
      "network": null,
      "ref": null,
      "latitude": 34.9993301,
      "longitude": 135.8806158,
      "countryCode": "jp",
      "rawTags": {
        "KSJ2:LIN": "東海道線",
        "KSJ2:STN": "膳所",
        "name": "膳所",
        "name:en": "Zeze",
        "name:ja": "膳所",
        "name:ko": "제제",
        "name:ru": "Дзедзе",
        "note": "National-Land Numerical Information (Railway) 2007, MLIT Japan",
        "note:ja": "国土数値情報（鉄道データ）平成19年　国土交通省",
        "public_transport": "station",
        "railway": "station",
        "source": "KSJ2",
        "source_ref": "http://nlftp.mlit.go.jp/ksj/jpgis/datalist/KsjTmplt-N02-v1_1.html",
        "wikidata": "Q1042692",
        "wikipedia": "ja:膳所駅"
      }
    },
    {
      "id": "shiga_station_4289542225",
      "osmId": 4289542225,
      "osmType": "node",
      "prefectureId": "shiga",
      "type": "station",
      "subtype": "jr",
      "name": "瀬田",
      "nameKana": "せた",
      "nameEn": "Seta",
      "operator": "西日本旅客鉄道",
      "network": null,
      "ref": null,
      "latitude": 34.9870804,
      "longitude": 135.9254689,
      "countryCode": "jp",
      "rawTags": {
        "name": "瀬田",
        "name:en": "Seta",
        "name:ja": "瀬田",
        "name:ja-Hira": "せた",
        "name:ja-Latn": "Seta",
        "name:ru": "Сета",
        "operator": "西日本旅客鉄道",
        "public_transport": "station",
        "railway": "station",
        "train": "yes",
        "wikidata": "Q1042966",
        "wikipedia": "ja:瀬田駅 (滋賀県)"
      }
    },
    {
      "id": "shiga_station_4289542226",
      "osmId": 4289542226,
      "osmType": "node",
      "prefectureId": "shiga",
      "type": "station",
      "subtype": "jr",
      "name": "草津",
      "nameKana": null,
      "nameEn": "Kusatsu",
      "operator": "西日本旅客鉄道株式会社",
      "network": "東海道本線;草津線",
      "ref": null,
      "latitude": 35.022551,
      "longitude": 135.9618263,
      "countryCode": "jp",
      "rawTags": {
        "name": "草津",
        "name:en": "Kusatsu",
        "network": "東海道本線;草津線",
        "operator": "西日本旅客鉄道株式会社",
        "public_transport": "station",
        "railway": "station",
        "wikidata": "Q775813"
      }
    },
    {
      "id": "shiga_station_4329204809",
      "osmId": 4329204809,
      "osmType": "node",
      "prefectureId": "shiga",
      "type": "station",
      "subtype": "private",
      "name": "京阪石山",
      "nameKana": "けいはんいしやま",
      "nameEn": "Keihan-ishiyama",
      "operator": "京阪電気鉄道",
      "network": "石山坂本線",
      "ref": "OT03",
      "latitude": 34.9796496,
      "longitude": 135.8994102,
      "countryCode": "jp",
      "rawTags": {
        "name": "京阪石山",
        "name:en": "Keihan-ishiyama",
        "name:ja": "京阪石山",
        "name:ja-Hira": "けいはんいしやま",
        "network": "石山坂本線",
        "operator": "京阪電気鉄道",
        "public_transport": "station",
        "railway": "station",
        "ref": "OT03",
        "source_ref": "https://www.keihan.co.jp/traffic/station/",
        "train": "yes",
        "wikidata": "Q11375858"
      }
    },
    {
      "id": "shiga_bus_terminal_4619794123",
      "osmId": 4619794123,
      "osmType": "node",
      "prefectureId": "shiga",
      "type": "bus_terminal",
      "subtype": null,
      "name": "瀬田駅",
      "nameKana": null,
      "nameEn": null,
      "operator": null,
      "network": null,
      "ref": null,
      "latitude": 34.9866084,
      "longitude": 135.9252347,
      "countryCode": "jp",
      "rawTags": {
        "amenity": "bus_station",
        "bus": "yes",
        "name": "瀬田駅",
        "public_transport": "station"
      }
    },
    {
      "id": "shiga_station_4999665154",
      "osmId": 4999665154,
      "osmType": "node",
      "prefectureId": "shiga",
      "type": "station",
      "subtype": "private",
      "name": "信楽",
      "nameKana": "しがらき",
      "nameEn": "Shigaraki",
      "operator": "信楽高原鐵道",
      "network": "信楽高原鐵道信楽線",
      "ref": null,
      "latitude": 34.8768864,
      "longitude": 136.0610175,
      "countryCode": "jp",
      "rawTags": {
        "addr:block_number": "192",
        "addr:city": "甲賀市",
        "addr:neighbourhood": "長野",
        "addr:postcode": "529-1851",
        "addr:province": "滋賀県",
        "addr:quarter": "信楽町",
        "name": "信楽",
        "name:en": "Shigaraki",
        "name:ja": "信楽",
        "name:ja-Hira": "しがらき",
        "name:ja-Latn": "Shigaraki",
        "network": "信楽高原鐵道信楽線",
        "operator": "信楽高原鐵道",
        "public_transport": "station",
        "railway": "station",
        "wikidata": "Q17211442"
      }
    },
    {
      "id": "shiga_station_5004344385",
      "osmId": 5004344385,
      "osmType": "node",
      "prefectureId": "shiga",
      "type": "station",
      "subtype": "jr",
      "name": "長浜",
      "nameKana": null,
      "nameEn": "Nagahama",
      "operator": "西日本旅客鉄道",
      "network": "北陸本線",
      "ref": "JR-A09",
      "latitude": 35.3784578,
      "longitude": 136.2651919,
      "countryCode": "jp",
      "rawTags": {
        "contact:website": "https://www.jr-odekake.net/eki/top?id=0541403",
        "name": "長浜",
        "name:de": "Nagahama",
        "name:en": "Nagahama",
        "name:ja": "長浜",
        "name:ko": "나가하마",
        "name:ru": "Нагахама",
        "network": "北陸本線",
        "note": "National-Land Numerical Information (Railway) 2007, MLIT Japan",
        "operator": "西日本旅客鉄道",
        "public_transport": "station",
        "railway": "station",
        "ref": "JR-A09",
        "source": "KSJ2",
        "wikidata": "Q1037083",
        "wikipedia": "ja:長浜駅"
      }
    },
    {
      "id": "shiga_station_5176041264",
      "osmId": 5176041264,
      "osmType": "node",
      "prefectureId": "shiga",
      "type": "station",
      "subtype": "private",
      "name": "太郎坊宮前",
      "nameKana": "たろぼうぐうまえ",
      "nameEn": "Tarobougumae",
      "operator": null,
      "network": null,
      "ref": null,
      "latitude": 35.1085344,
      "longitude": 136.1837802,
      "countryCode": "jp",
      "rawTags": {
        "KSJ2:LIN": "八日市線",
        "KSJ2:RAS": "eb03_1356",
        "KSJ2:STN": "太郎坊宮前",
        "KSJ2:segment": "eb02_2648",
        "name": "太郎坊宮前",
        "name:en": "Tarobougumae",
        "name:ja": "太郎坊宮前",
        "name:ja_kana": "たろぼうぐうまえ",
        "note": "National-Land Numerical Information (Railway) 2007, MLIT Japan",
        "note:ja": "国土数値情報（鉄道データ）平成19年　国土交通省",
        "old_name": "太郎坊",
        "public_transport": "station",
        "railway": "station",
        "source": "KSJ2",
        "source_ref": "http://nlftp.mlit.go.jp/ksj/jpgis/datalist/KsjTmplt-N02-v1_1.html",
        "wikidata": "Q7687071",
        "wikipedia": "ja:太郎坊宮前駅"
      }
    },
    {
      "id": "shiga_station_5176041281",
      "osmId": 5176041281,
      "osmType": "node",
      "prefectureId": "shiga",
      "type": "station",
      "subtype": "private",
      "name": "市辺",
      "nameKana": "いちのべ",
      "nameEn": "Ichinobe",
      "operator": "近江鉄道",
      "network": "近江鉄道八日市線",
      "ref": null,
      "latitude": 35.1040143,
      "longitude": 136.1658808,
      "countryCode": "jp",
      "rawTags": {
        "KSJ2:LIN": "八日市線",
        "KSJ2:RAS": "eb03_1359",
        "KSJ2:STN": "市辺",
        "KSJ2:segment": "eb02_2647",
        "name": "市辺",
        "name:en": "Ichinobe",
        "name:ja": "市辺",
        "name:ja_kana": "いちのべ",
        "name:ko": "이치노베",
        "network": "近江鉄道八日市線",
        "note": "National-Land Numerical Information (Railway) 2007, MLIT Japan",
        "note:ja": "国土数値情報（鉄道データ）平成19年　国土交通省",
        "operator": "近江鉄道",
        "operator:en": "Ohmi Railway",
        "operator:ja": "近江鉄道",
        "platforms": "2",
        "public_transport": "station",
        "railway": "station",
        "source": "KSJ2",
        "source_ref": "http://nlftp.mlit.go.jp/ksj/jpgis/datalist/KsjTmplt-N02-v1_1.html",
        "wikidata": "Q5986229",
        "wikipedia": "ja:市辺駅"
      }
    },
    {
      "id": "shiga_station_5176041422",
      "osmId": 5176041422,
      "osmType": "node",
      "prefectureId": "shiga",
      "type": "station",
      "subtype": "private",
      "name": "平田",
      "nameKana": "ひらた",
      "nameEn": "Hirata",
      "operator": "近江鉄道",
      "network": "近江鉄道八日市線",
      "ref": null,
      "latitude": 35.1102189,
      "longitude": 136.1465368,
      "countryCode": "jp",
      "rawTags": {
        "KSJ2:LIN": "八日市線",
        "KSJ2:RAS": "eb03_1355",
        "KSJ2:STN": "平田",
        "KSJ2:segment": "eb02_2653",
        "name": "平田",
        "name:en": "Hirata",
        "name:ja": "平田",
        "name:ja_kana": "ひらた",
        "name:ko": "히라타",
        "network": "近江鉄道八日市線",
        "note": "National-Land Numerical Information (Railway) 2007, MLIT Japan",
        "note:ja": "国土数値情報（鉄道データ）平成19年　国土交通省",
        "operator": "近江鉄道",
        "operator:en": "Ohmi Railway",
        "operator:ja": "近江鉄道",
        "platforms": "2",
        "public_transport": "station",
        "railway": "station",
        "source": "KSJ2",
        "source_ref": "http://nlftp.mlit.go.jp/ksj/jpgis/datalist/KsjTmplt-N02-v1_1.html",
        "wikidata": "Q5769525",
        "wikipedia": "ja:平田駅 (滋賀県)"
      }
    },
    {
      "id": "shiga_station_5176041523",
      "osmId": 5176041523,
      "osmType": "node",
      "prefectureId": "shiga",
      "type": "station",
      "subtype": "private",
      "name": "武佐",
      "nameKana": null,
      "nameEn": "Musa",
      "operator": "近江鉄道",
      "network": "近江鉄道八日市線",
      "ref": null,
      "latitude": 35.1149219,
      "longitude": 136.1304353,
      "countryCode": "jp",
      "rawTags": {
        "KSJ2:LIN": "八日市線",
        "KSJ2:RAS": "eb03_1358",
        "KSJ2:STN": "武佐",
        "KSJ2:segment": "eb02_2649",
        "name": "武佐",
        "name:en": "Musa",
        "name:ja": "武佐",
        "name:ko": "무사",
        "network": "近江鉄道八日市線",
        "note": "National-Land Numerical Information (Railway) 2007, MLIT Japan",
        "note:ja": "国土数値情報（鉄道データ）平成19年　国土交通省",
        "operator": "近江鉄道",
        "operator:en": "Ohmi Railway",
        "operator:ja": "近江鉄道",
        "platforms": "2",
        "public_transport": "station",
        "railway": "station",
        "source": "KSJ2",
        "source_ref": "http://nlftp.mlit.go.jp/ksj/jpgis/datalist/KsjTmplt-N02-v1_1.html",
        "wikidata": "Q11545798",
        "wikipedia": "ja:武佐駅 (滋賀県)"
      }
    },
    {
      "id": "shiga_bus_terminal_5276997921",
      "osmId": 5276997921,
      "osmType": "node",
      "prefectureId": "shiga",
      "type": "bus_terminal",
      "subtype": null,
      "name": "トンネル",
      "nameKana": null,
      "nameEn": null,
      "operator": null,
      "network": null,
      "ref": null,
      "latitude": 35.3665419,
      "longitude": 136.3596793,
      "countryCode": "jp",
      "rawTags": {
        "amenity": "bus_station",
        "name": "トンネル"
      }
    },
    {
      "id": "shiga_station_5403468046",
      "osmId": 5403468046,
      "osmType": "node",
      "prefectureId": "shiga",
      "type": "station",
      "subtype": "private",
      "name": "能登川",
      "nameKana": null,
      "nameEn": "Notogawa",
      "operator": null,
      "network": null,
      "ref": null,
      "latitude": 35.1799912,
      "longitude": 136.1658863,
      "countryCode": "jp",
      "rawTags": {
        "KSJ2:LIN": "東海道線",
        "KSJ2:STN": "能登川",
        "name": "能登川",
        "name:en": "Notogawa",
        "name:ja": "能登川",
        "name:ko": "노토가와",
        "name:ru": "Нотогава",
        "note": "National-Land Numerical Information (Railway) 2007, MLIT Japan",
        "note:ja": "国土数値情報鉄道データ平成19年　国土交通省",
        "public_transport": "station",
        "railway": "station",
        "source": "KSJ2",
        "source_ref": "http://nlftp.mlit.go.jp/ksj/jpgis/datalist/KsjTmplt-N02-v1_1.html",
        "wikidata": "Q1042348",
        "wikipedia": "ja:能登川駅"
      }
    },
    {
      "id": "shiga_station_5450840149",
      "osmId": 5450840149,
      "osmType": "node",
      "prefectureId": "shiga",
      "type": "station",
      "subtype": "jr",
      "name": "寺庄",
      "nameKana": "てらしょう",
      "nameEn": "Terasho",
      "operator": "JR西日本",
      "network": "JR草津線",
      "ref": null,
      "latitude": 34.9190254,
      "longitude": 136.1858704,
      "countryCode": "jp",
      "rawTags": {
        "name": "寺庄",
        "name:en": "Terasho",
        "name:ja": "寺庄",
        "name:ja-Hira": "てらしょう",
        "name:ja-Latn": "Terashō",
        "network": "JR草津線",
        "operator": "JR西日本",
        "public_transport": "station",
        "railway": "station",
        "train": "yes",
        "wikidata": "Q5362939",
        "wikipedia": "ja:寺庄駅"
      }
    },
    {
      "id": "shiga_ferry_terminal_5588287888",
      "osmId": 5588287888,
      "osmType": "node",
      "prefectureId": "shiga",
      "type": "ferry_terminal",
      "subtype": null,
      "name": "近江八幡和船観光協同組合",
      "nameKana": null,
      "nameEn": null,
      "operator": null,
      "network": null,
      "ref": null,
      "latitude": 35.1462292,
      "longitude": 136.0935614,
      "countryCode": "jp",
      "rawTags": {
        "amenity": "ferry_terminal",
        "name": "近江八幡和船観光協同組合"
      }
    },
    {
      "id": "shiga_station_5729650523",
      "osmId": 5729650523,
      "osmType": "node",
      "prefectureId": "shiga",
      "type": "station",
      "subtype": "private",
      "name": "安土",
      "nameKana": null,
      "nameEn": "Azuchi",
      "operator": null,
      "network": null,
      "ref": null,
      "latitude": 35.1425367,
      "longitude": 136.1336732,
      "countryCode": "jp",
      "rawTags": {
        "KSJ2:STN": "安土",
        "name": "安土",
        "name:en": "Azuchi",
        "name:ja": "安土",
        "name:ko": "아즈치",
        "name:ru": "Адзути",
        "public_transport": "station",
        "railway": "station",
        "wikidata": "Q649689",
        "wikipedia": "ja:安土駅"
      }
    },
    {
      "id": "shiga_ferry_terminal_6407874841",
      "osmId": 6407874841,
      "osmType": "node",
      "prefectureId": "shiga",
      "type": "ferry_terminal",
      "subtype": null,
      "name": "三井寺",
      "nameKana": null,
      "nameEn": "Midera",
      "operator": "びわ湖疏水船受付事務局",
      "network": "びわ湖疏水船",
      "ref": null,
      "latitude": 35.0116614,
      "longitude": 135.8566361,
      "countryCode": "jp",
      "rawTags": {
        "amenity": "ferry_terminal",
        "ferry": "yes",
        "name": "三井寺",
        "name:en": "Midera",
        "name:ja": "三井寺",
        "network": "びわ湖疏水船",
        "operator": "びわ湖疏水船受付事務局",
        "public_transport": "stop_position"
      }
    },
    {
      "id": "shiga_station_6408028891",
      "osmId": 6408028891,
      "osmType": "node",
      "prefectureId": "shiga",
      "type": "station",
      "subtype": "private",
      "name": "坂本比叡山口",
      "nameKana": "さかもとひえいざんぐち",
      "nameEn": "Sakamoto-hieizanguchi",
      "operator": "京阪電気鉄道",
      "network": "大津線",
      "ref": "OT21",
      "latitude": 35.070502,
      "longitude": 135.8713317,
      "countryCode": "jp",
      "rawTags": {
        "name": "坂本比叡山口",
        "name:en": "Sakamoto-hieizanguchi",
        "name:ja": "坂本比叡山口",
        "name:ja-Hira": "さかもとひえいざんぐち",
        "name:ja-Latn": "Sakamoto Hieizanguchi",
        "network": "大津線",
        "old_name": "坂本",
        "old_name:en": "Sakamoto",
        "old_name:ja": "坂本",
        "old_name:ja-Hira": "さかもと",
        "old_name:ja-Latn": "Sakamoto",
        "operator": "京阪電気鉄道",
        "public_transport": "station",
        "railway": "station",
        "ref": "OT21",
        "source_ref": "https://www.keihan.co.jp/traffic/station/",
        "train": "yes",
        "wikidata": "Q405082"
      }
    },
    {
      "id": "shiga_station_6408967094",
      "osmId": 6408967094,
      "osmType": "node",
      "prefectureId": "shiga",
      "type": "station",
      "subtype": "private",
      "name": "びわ湖浜大津",
      "nameKana": "びわこはまおおつ",
      "nameEn": "Biwako-hamaotsu",
      "operator": "京阪電気鉄道",
      "network": "大津線",
      "ref": "OT12",
      "latitude": 35.0111848,
      "longitude": 135.8642775,
      "countryCode": "jp",
      "rawTags": {
        "name": "びわ湖浜大津",
        "name:en": "Biwako-hamaotsu",
        "name:ja": "びわ湖浜大津",
        "name:ja-Hira": "びわこはまおおつ",
        "name:ja-Latn": "Biwako Hamaōtsu",
        "network": "大津線",
        "old_name": "浜大津",
        "old_name:en": "Hamaotsu",
        "old_name:ja": "浜大津",
        "old_name:ja-Hira": "はまおおつ",
        "old_name:ja-Latn": "Hamaōtsu",
        "operator": "京阪電気鉄道",
        "public_transport": "station",
        "railway": "station",
        "ref": "OT12",
        "source_ref": "https://www.keihan.co.jp/traffic/station/",
        "train": "yes",
        "wikidata": "Q5644181"
      }
    },
    {
      "id": "shiga_station_6410606743",
      "osmId": 6410606743,
      "osmType": "node",
      "prefectureId": "shiga",
      "type": "station",
      "subtype": "private",
      "name": "京阪膳所",
      "nameKana": "けいはんぜぜ",
      "nameEn": "Keihan-zeze",
      "operator": "京阪電気鉄道",
      "network": "石山坂本線",
      "ref": "OT09",
      "latitude": 34.9997533,
      "longitude": 135.8809783,
      "countryCode": "jp",
      "rawTags": {
        "name": "京阪膳所",
        "name:en": "Keihan-zeze",
        "name:ja": "京阪膳所",
        "name:ja-Hira": "けいはんぜぜ",
        "network": "石山坂本線",
        "operator": "京阪電気鉄道",
        "public_transport": "station",
        "railway": "station",
        "ref": "OT09",
        "source_ref": "https://www.keihan.co.jp/traffic/station/",
        "train": "yes",
        "wikidata": "Q11375864"
      }
    },
    {
      "id": "shiga_station_6412610754",
      "osmId": 6412610754,
      "osmType": "node",
      "prefectureId": "shiga",
      "type": "station",
      "subtype": "private",
      "name": "石山寺",
      "nameKana": "いしやまでら",
      "nameEn": "Ishiyamadera",
      "operator": "京阪電気鉄道",
      "network": "石山坂本線",
      "ref": "OT01",
      "latitude": 34.967233,
      "longitude": 135.9033881,
      "countryCode": "jp",
      "rawTags": {
        "name": "石山寺",
        "name:en": "Ishiyamadera",
        "name:ja": "石山寺",
        "name:ja-Hira": "いしやまでら",
        "network": "石山坂本線",
        "operator": "京阪電気鉄道",
        "public_transport": "station",
        "railway": "station",
        "ref": "OT01",
        "source_ref": "https://www.keihan.co.jp/traffic/station/",
        "train": "yes",
        "wikidata": "Q11585529"
      }
    },
    {
      "id": "shiga_station_7097140175",
      "osmId": 7097140175,
      "osmType": "node",
      "prefectureId": "shiga",
      "type": "station",
      "subtype": "private",
      "name": "彦根口",
      "nameKana": "ひこねぐち",
      "nameEn": "Hikoneguchi",
      "operator": null,
      "network": null,
      "ref": null,
      "latitude": 35.2548213,
      "longitude": 136.2584183,
      "countryCode": "jp",
      "rawTags": {
        "KSJ2:LIN": "本線",
        "KSJ2:RAS": "eb03_1371",
        "KSJ2:STN": "彦根口",
        "KSJ2:segment": "eb02_2683",
        "name": "彦根口",
        "name:en": "Hikoneguchi",
        "name:ja": "彦根口",
        "name:ja_kana": "ひこねぐち",
        "name:ko": "히코네구치",
        "note": "National-Land Numerical Information (Railway) 2007, MLIT Japan",
        "note:ja": "国土数値情報（鉄道データ）平成19年　国土交通省",
        "public_transport": "station",
        "railway": "station",
        "wikidata": "Q3661724",
        "wikipedia": "ja:彦根口駅"
      }
    },
    {
      "id": "shiga_station_7828873696",
      "osmId": 7828873696,
      "osmType": "node",
      "prefectureId": "shiga",
      "type": "station",
      "subtype": "jr",
      "name": "志賀",
      "nameKana": null,
      "nameEn": "Shiga",
      "operator": "西日本旅客鉄道",
      "network": null,
      "ref": "JR-B21",
      "latitude": 35.2017984,
      "longitude": 135.9246375,
      "countryCode": "jp",
      "rawTags": {
        "KSJ2:LIN": "湖西線",
        "KSJ2:STN": "志賀",
        "layer": "1",
        "level": "1",
        "name": "志賀",
        "name:en": "Shiga",
        "note": "National-Land Numerical Information (Railway) 2007, MLIT Japan",
        "note:ja": "国土数値情報（鉄道データ）平成19年　国土交通省",
        "operator": "西日本旅客鉄道",
        "passenger_lines": "2",
        "public_transport": "station",
        "railway": "station",
        "ref": "JR-B21",
        "source": "KSJ2",
        "source_ref": "http://nlftp.mlit.go.jp/ksj/jpgis/datalist/KsjTmplt-N02-v1_1.html",
        "wikidata": "Q86873",
        "wikipedia": "ja:志賀駅"
      }
    },
    {
      "id": "shiga_station_7828937595",
      "osmId": 7828937595,
      "osmType": "node",
      "prefectureId": "shiga",
      "type": "station",
      "subtype": "jr",
      "name": "和邇",
      "nameKana": "わに",
      "nameEn": "Wani",
      "operator": "西日本旅客鉄道",
      "network": null,
      "ref": "JR-B23",
      "latitude": 35.1621022,
      "longitude": 135.9220643,
      "countryCode": "jp",
      "rawTags": {
        "KSJ2:LIN": "湖西線",
        "KSJ2:STN": "和邇",
        "alt_name": "和迩",
        "alt_name:ja": "和迩",
        "contact:website": "https://www.jr-odekake.net/eki/top?id=0611206",
        "level": "1",
        "name": "和邇",
        "name:en": "Wani",
        "name:ja": "和邇",
        "name:ja-Hira": "わに",
        "name:ja-Latn": "Wani",
        "note": "National-Land Numerical Information (Railway) 2007, MLIT Japan",
        "note:ja": "国土数値情報（鉄道データ）平成19年　国土交通省",
        "operator": "西日本旅客鉄道",
        "passenger_lines": "2",
        "public_transport": "station",
        "railway": "station",
        "ref": "JR-B23",
        "source": "KSJ2",
        "source_ref": "http://nlftp.mlit.go.jp/ksj/jpgis/datalist/KsjTmplt-N02-v1_1.html",
        "wikidata": "Q5365302",
        "wikipedia": "ja:和邇駅"
      }
    },
    {
      "id": "shiga_station_7828937596",
      "osmId": 7828937596,
      "osmType": "node",
      "prefectureId": "shiga",
      "type": "station",
      "subtype": "private",
      "name": "小野",
      "nameKana": null,
      "nameEn": "Ono",
      "operator": null,
      "network": null,
      "ref": "JR-B24",
      "latitude": 35.1388611,
      "longitude": 135.922626,
      "countryCode": "jp",
      "rawTags": {
        "KSJ2:LIN": "湖西線",
        "KSJ2:STN": "小野",
        "contact:website": "https://www.jr-odekake.net/eki/top?id=0611219",
        "name": "小野",
        "name:en": "Ono",
        "note": "National-Land Numerical Information (Railway) 2007, MLIT Japan",
        "note:ja": "国土数値情報（鉄道データ）平成19年　国土交通省",
        "passenger_lines": "2",
        "public_transport": "station",
        "railway": "station",
        "ref": "JR-B24",
        "source": "KSJ2",
        "source_ref": "http://nlftp.mlit.go.jp/ksj/jpgis/datalist/KsjTmplt-N02-v1_1.html",
        "wikidata": "Q5364270",
        "wikipedia": "ja:小野駅 (滋賀県)"
      }
    },
    {
      "id": "shiga_station_7828937597",
      "osmId": 7828937597,
      "osmType": "node",
      "prefectureId": "shiga",
      "type": "station",
      "subtype": "jr",
      "name": "大津京",
      "nameKana": "おおつきょう",
      "nameEn": "Otsukyo",
      "operator": "西日本旅客鉄道",
      "network": "湖西線",
      "ref": "JR-B29",
      "latitude": 35.0245014,
      "longitude": 135.8573599,
      "countryCode": "jp",
      "rawTags": {
        "contact:website": "https://www.jr-odekake.net/eki/top?id=0611201",
        "name": "大津京",
        "name:en": "Otsukyo",
        "name:ja-Hira": "おおつきょう",
        "name:ja-Latn": "Ōtsukyō",
        "network": "湖西線",
        "old_name": "西大津",
        "operator": "西日本旅客鉄道",
        "public_transport": "station",
        "railway": "station",
        "ref": "JR-B29",
        "source": "KSJ2",
        "source_ref": "http://nlftp.mlit.go.jp/ksj/jpgis/datalist/KsjTmplt-N02-v1_1.html",
        "wikidata": "Q5367242",
        "wikipedia": "ja:大津京駅"
      }
    },
    {
      "id": "shiga_station_7828937600",
      "osmId": 7828937600,
      "osmType": "node",
      "prefectureId": "shiga",
      "type": "station",
      "subtype": "jr",
      "name": "おごと温泉",
      "nameKana": "おごとおんせん",
      "nameEn": "Ogotoonsen",
      "operator": "西日本旅客鉄道",
      "network": "湖西線",
      "ref": "JR-B26",
      "latitude": 35.0972099,
      "longitude": 135.8948908,
      "countryCode": "jp",
      "rawTags": {
        "KSJ2:LIN": "湖西線",
        "KSJ2:STN": "雄琴",
        "contact:website": "https://www.jr-odekake.net/eki/top?id=0611204",
        "name": "おごと温泉",
        "name:en": "Ogotoonsen",
        "name:ja-Hira": "おごとおんせん",
        "name:zh": "雄琴温泉",
        "network": "湖西線",
        "note": "National-Land Numerical Information (Railway) 2007, MLIT Japan",
        "note:ja": "国土数値情報（鉄道データ）平成19年　国土交通省",
        "old_name": "雄琴",
        "operator": "西日本旅客鉄道",
        "passenger_lines": "2",
        "public_transport": "station",
        "railway": "station",
        "ref": "JR-B26",
        "source": "KSJ2",
        "source_ref": "http://nlftp.mlit.go.jp/ksj/jpgis/datalist/KsjTmplt-N02-v1_1.html",
        "wikidata": "Q5367599",
        "wikipedia": "ja:おごと温泉駅"
      }
    },
    {
      "id": "shiga_station_7828937601",
      "osmId": 7828937601,
      "osmType": "node",
      "prefectureId": "shiga",
      "type": "station",
      "subtype": "private",
      "name": "比叡山坂本",
      "nameKana": null,
      "nameEn": "Hieizan-Sakamoto",
      "operator": null,
      "network": null,
      "ref": "JR-B27",
      "latitude": 35.070665,
      "longitude": 135.8783509,
      "countryCode": "jp",
      "rawTags": {
        "contact:website": "https://www.jr-odekake.net/eki/top?id=0611203",
        "name": "比叡山坂本",
        "name:en": "Hieizan-Sakamoto",
        "old_name": "叡山",
        "old_name:en": "Eizan",
        "public_transport": "station",
        "railway": "station",
        "ref": "JR-B27",
        "source": "KSJ2",
        "source_ref": "http://nlftp.mlit.go.jp/ksj/jpgis/datalist/KsjTmplt-N02-v1_1.html",
        "wikidata": "Q5367380",
        "wikipedia": "ja:比叡山坂本駅"
      }
    },
    {
      "id": "shiga_station_7828937602",
      "osmId": 7828937602,
      "osmType": "node",
      "prefectureId": "shiga",
      "type": "station",
      "subtype": "private",
      "name": "堅田",
      "nameKana": null,
      "nameEn": "Katata",
      "operator": null,
      "network": null,
      "ref": "JR-B25",
      "latitude": 35.1208877,
      "longitude": 135.9149669,
      "countryCode": "jp",
      "rawTags": {
        "KSJ2:LIN": "湖西線",
        "KSJ2:STN": "堅田",
        "contact:website": "https://www.jr-odekake.net/eki/top?id=0611205",
        "name": "堅田",
        "name:en": "Katata",
        "name:ja": "堅田",
        "name:ko": "가타타",
        "note": "National-Land Numerical Information (Railway) 2007, MLIT Japan",
        "note:ja": "国土数値情報（鉄道データ）平成19年　国土交通省",
        "passenger_lines": "2",
        "public_transport": "station",
        "railway": "station",
        "ref": "JR-B25",
        "source": "KSJ2",
        "source_ref": "http://nlftp.mlit.go.jp/ksj/jpgis/datalist/KsjTmplt-N02-v1_1.html",
        "wikidata": "Q5363573",
        "wikipedia": "ja:堅田駅"
      }
    },
    {
      "id": "shiga_station_7828937605",
      "osmId": 7828937605,
      "osmType": "node",
      "prefectureId": "shiga",
      "type": "station",
      "subtype": "jr",
      "name": "蓬莱",
      "nameKana": null,
      "nameEn": "Hōrai",
      "operator": "西日本旅客鉄道",
      "network": null,
      "ref": "JR-B22",
      "latitude": 35.1823594,
      "longitude": 135.914977,
      "countryCode": "jp",
      "rawTags": {
        "KSJ2:LIN": "湖西線",
        "KSJ2:STN": "蓬莱",
        "layer": "1",
        "level": "1",
        "name": "蓬莱",
        "name:en": "Hōrai",
        "note": "National-Land Numerical Information (Railway) 2007, MLIT Japan",
        "note:ja": "国土数値情報（鉄道データ）平成19年　国土交通省",
        "operator": "西日本旅客鉄道",
        "passenger_lines": "2",
        "public_transport": "station",
        "railway": "station",
        "ref": "JR-B22",
        "source": "KSJ2",
        "source_ref": "http://nlftp.mlit.go.jp/ksj/jpgis/datalist/KsjTmplt-N02-v1_1.html",
        "wikidata": "Q5364181",
        "wikipedia": "ja:蓬莱駅"
      }
    },
    {
      "id": "shiga_station_7828937606",
      "osmId": 7828937606,
      "osmType": "node",
      "prefectureId": "shiga",
      "type": "station",
      "subtype": "private",
      "name": "唐崎",
      "nameKana": null,
      "nameEn": "Karasaki",
      "operator": null,
      "network": null,
      "ref": "JR-B28",
      "latitude": 35.0497601,
      "longitude": 135.866836,
      "countryCode": "jp",
      "rawTags": {
        "contact:website": "https://www.jr-odekake.net/eki/top?id=0611202",
        "name": "唐崎",
        "name:en": "Karasaki",
        "public_transport": "station",
        "railway": "station",
        "ref": "JR-B28",
        "source": "KSJ2",
        "source_ref": "http://nlftp.mlit.go.jp/ksj/jpgis/datalist/KsjTmplt-N02-v1_1.html",
        "wheelchair": "yes",
        "wikidata": "Q5367629",
        "wikipedia": "ja:唐崎駅"
      }
    },
    {
      "id": "shiga_station_7831593077",
      "osmId": 7831593077,
      "osmType": "node",
      "prefectureId": "shiga",
      "type": "station",
      "subtype": "private",
      "name": "ほうらい丘",
      "nameKana": null,
      "nameEn": "Hōraioka",
      "operator": null,
      "network": null,
      "ref": null,
      "latitude": 35.0681004,
      "longitude": 135.8609247,
      "countryCode": "jp",
      "rawTags": {
        "KSJ2:LIN": "比叡山鉄道線",
        "name": "ほうらい丘",
        "name:en": "Hōraioka",
        "note": "National-Land Numerical Information (Railway) 2007, MLIT Japan",
        "note:ja": "国土数値情報（鉄道データ）平成19年　国土交通省",
        "public_transport": "station",
        "railway": "station",
        "source": "KSJ2",
        "source_ref": "http://nlftp.mlit.go.jp/ksj/jpgis/datalist/KsjTmplt-N02-v1_1.html",
        "wikidata": "Q5965245",
        "wikipedia": "ja:ほうらい丘駅"
      }
    },
    {
      "id": "shiga_station_7831593078",
      "osmId": 7831593078,
      "osmType": "node",
      "prefectureId": "shiga",
      "type": "station",
      "subtype": "private",
      "name": "もたて山",
      "nameKana": null,
      "nameEn": "Motate Yama",
      "operator": null,
      "network": null,
      "ref": null,
      "latitude": 35.0675637,
      "longitude": 135.8488628,
      "countryCode": "jp",
      "rawTags": {
        "KSJ2:LIN": "比叡山鉄道線",
        "name": "もたて山",
        "name:en": "Motate Yama",
        "note": "National-Land Numerical Information (Railway) 2007, MLIT Japan",
        "note:ja": "国土数値情報（鉄道データ）平成19年　国土交通省",
        "public_transport": "station",
        "railway": "station",
        "source": "KSJ2",
        "source_ref": "http://nlftp.mlit.go.jp/ksj/jpgis/datalist/KsjTmplt-N02-v1_1.html",
        "wikidata": "Q11279967",
        "wikipedia": "ja:もたて山駅"
      }
    },
    {
      "id": "shiga_station_7831593079",
      "osmId": 7831593079,
      "osmType": "node",
      "prefectureId": "shiga",
      "type": "station",
      "subtype": "private",
      "name": "ケーブル延暦寺",
      "nameKana": "けーぶるえんりゃくじ",
      "nameEn": "Cable Enryakuji",
      "operator": "比叡山鉄道",
      "network": "比叡山鉄道",
      "ref": null,
      "latitude": 35.0664945,
      "longitude": 135.8438766,
      "countryCode": "jp",
      "rawTags": {
        "KSJ2:LIN": "比叡山鉄道線",
        "KSJ2:STN": "ケーブル延暦寺",
        "name": "ケーブル延暦寺",
        "name:en": "Cable Enryakuji",
        "name:ja": "ケーブル延暦寺",
        "name:ja-Hira": "けーぶるえんりゃくじ",
        "name:ko": "케이블엔랴쿠지",
        "network": "比叡山鉄道",
        "note": "National-Land Numerical Information (Railway) 2007, MLIT Japan",
        "note:ja": "国土数値情報（鉄道データ）平成19年　国土交通省",
        "operator": "比叡山鉄道",
        "public_transport": "station",
        "railway": "station",
        "source": "KSJ2",
        "source_ref": "http://nlftp.mlit.go.jp/ksj/jpgis/datalist/KsjTmplt-N02-v1_1.html",
        "wikidata": "Q5015641",
        "wikipedia": "ja:ケーブル延暦寺駅"
      }
    },
    {
      "id": "shiga_station_7831593080",
      "osmId": 7831593080,
      "osmType": "node",
      "prefectureId": "shiga",
      "type": "station",
      "subtype": "private",
      "name": "ケーブル坂本",
      "nameKana": "けーぶるさかもと",
      "nameEn": "Cable Sakamoto",
      "operator": "京福電気鉄道",
      "network": "鋼索線",
      "ref": null,
      "latitude": 35.0696684,
      "longitude": 135.8638503,
      "countryCode": "jp",
      "rawTags": {
        "KSJ2:LIN": "比叡山鉄道線",
        "KSJ2:STN": "ケーブル坂本",
        "name": "ケーブル坂本",
        "name:en": "Cable Sakamoto",
        "name:ja": "ケーブル坂本",
        "name:ja-Hira": "けーぶるさかもと",
        "name:ko": "케이블사카모토",
        "network": "鋼索線",
        "note": "National-Land Numerical Information (Railway) 2007, MLIT Japan",
        "note:ja": "国土数値情報（鉄道データ）平成19年　国土交通省",
        "operator": "京福電気鉄道",
        "public_transport": "station",
        "railway": "station",
        "source": "KSJ2",
        "source_ref": "http://nlftp.mlit.go.jp/ksj/jpgis/datalist/KsjTmplt-N02-v1_1.html",
        "wikidata": "Q5015655",
        "wikipedia": "ja:ケーブル坂本駅"
      }
    },
    {
      "id": "shiga_station_8063979630",
      "osmId": 8063979630,
      "osmType": "node",
      "prefectureId": "shiga",
      "type": "station",
      "subtype": "jr",
      "name": "近江塩津",
      "nameKana": null,
      "nameEn": "Ōmi-Shiotsu",
      "operator": "西日本旅客鉄道",
      "network": null,
      "ref": "JR-A03;JR-B10",
      "latitude": 35.5391188,
      "longitude": 136.1514847,
      "countryCode": "jp",
      "rawTags": {
        "contact:website": "https://www.jr-odekake.net/eki/top?id=0541409",
        "name": "近江塩津",
        "name:en": "Ōmi-Shiotsu",
        "note": "National-Land Numerical Information (Railway) 2007, MLIT Japan",
        "operator": "西日本旅客鉄道",
        "public_transport": "station",
        "railway": "station",
        "ref": "JR-A03;JR-B10",
        "source": "KSJ2",
        "wheelchair": "no",
        "wikidata": "Q3611081",
        "wikipedia": "ja:近江塩津駅"
      }
    },
    {
      "id": "shiga_station_8070007866",
      "osmId": 8070007866,
      "osmType": "node",
      "prefectureId": "shiga",
      "type": "station",
      "subtype": "jr",
      "name": "比良",
      "nameKana": null,
      "nameEn": "Hira",
      "operator": "西日本旅客鉄道",
      "network": null,
      "ref": "JR-B20",
      "latitude": 35.2198695,
      "longitude": 135.9442182,
      "countryCode": "jp",
      "rawTags": {
        "KSJ2:LIN": "湖西線",
        "KSJ2:STN": "比良",
        "contact:website": "https://www.jr-odekake.net/eki/top?id=0611209",
        "layer": "1",
        "level": "1",
        "name": "比良",
        "name:en": "Hira",
        "note": "National-Land Numerical Information (Railway) 2007, MLIT Japan",
        "note:ja": "国土数値情報（鉄道データ）平成19年　国土交通省",
        "operator": "西日本旅客鉄道",
        "passenger_lines": "2",
        "public_transport": "station",
        "railway": "station",
        "ref": "JR-B20",
        "source": "KSJ2",
        "source_ref": "http://nlftp.mlit.go.jp/ksj/jpgis/datalist/KsjTmplt-N02-v1_1.html",
        "wikidata": "Q5365241",
        "wikipedia": "ja:比良駅 (滋賀県)"
      }
    },
    {
      "id": "shiga_station_8070010582",
      "osmId": 8070010582,
      "osmType": "node",
      "prefectureId": "shiga",
      "type": "station",
      "subtype": "private",
      "name": "近江舞子",
      "nameKana": null,
      "nameEn": "Ōmi-Maiko",
      "operator": null,
      "network": null,
      "ref": "JR-B19",
      "latitude": 35.2358219,
      "longitude": 135.9590299,
      "countryCode": "jp",
      "rawTags": {
        "KSJ2:LIN": "湖西線",
        "KSJ2:STN": "近江舞子",
        "contact:website": "https://www.jr-odekake.net/eki/top?id=0611210",
        "name": "近江舞子",
        "name:en": "Ōmi-Maiko",
        "note": "National-Land Numerical Information (Railway) 2007, MLIT Japan",
        "note:ja": "国土数値情報（鉄道データ）平成19年　国土交通省",
        "passenger_lines": "2",
        "public_transport": "station",
        "railway": "station",
        "ref": "JR-B19",
        "source": "KSJ2",
        "source_ref": "http://nlftp.mlit.go.jp/ksj/jpgis/datalist/KsjTmplt-N02-v1_1.html",
        "wikidata": "Q5363235",
        "wikipedia": "ja:近江舞子駅"
      }
    },
    {
      "id": "shiga_station_8070020124",
      "osmId": 8070020124,
      "osmType": "node",
      "prefectureId": "shiga",
      "type": "station",
      "subtype": "private",
      "name": "近江高島",
      "nameKana": null,
      "nameEn": "Omi-Takashima",
      "operator": null,
      "network": null,
      "ref": "JR-B17",
      "latitude": 35.2926397,
      "longitude": 136.0103068,
      "countryCode": "jp",
      "rawTags": {
        "KSJ2:LIN": "湖西線",
        "KSJ2:STN": "近江高島",
        "level": "1",
        "name": "近江高島",
        "name:en": "Omi-Takashima",
        "name:ja-Latn": "Ōmi-Takashima",
        "note": "National-Land Numerical Information (Railway) 2007, MLIT Japan",
        "note:ja": "国土数値情報（鉄道データ）平成19年　国土交通省",
        "public_transport": "station",
        "railway": "station",
        "ref": "JR-B17",
        "source": "KSJ2",
        "source_ref": "http://nlftp.mlit.go.jp/ksj/jpgis/datalist/KsjTmplt-N02-v1_1.html",
        "wikidata": "Q5363194",
        "wikipedia": "ja:近江高島駅"
      }
    },
    {
      "id": "shiga_station_8070020629",
      "osmId": 8070020629,
      "osmType": "node",
      "prefectureId": "shiga",
      "type": "station",
      "subtype": "private",
      "name": "北小松",
      "nameKana": null,
      "nameEn": "Kita-Komatsu",
      "operator": null,
      "network": null,
      "ref": "JR-B18",
      "latitude": 35.2537381,
      "longitude": 135.9705823,
      "countryCode": "jp",
      "rawTags": {
        "KSJ2:LIN": "湖西線",
        "KSJ2:STN": "北小松",
        "contact:website": "https://www.jr-odekake.net/eki/top?id=0611211",
        "name": "北小松",
        "name:en": "Kita-Komatsu",
        "note": "National-Land Numerical Information (Railway) 2007, MLIT Japan",
        "note:ja": "国土数値情報（鉄道データ）平成19年　国土交通省",
        "public_transport": "station",
        "railway": "station",
        "ref": "JR-B18",
        "source": "KSJ2",
        "source_ref": "http://nlftp.mlit.go.jp/ksj/jpgis/datalist/KsjTmplt-N02-v1_1.html",
        "wikidata": "Q5364845",
        "wikipedia": "ja:北小松駅"
      }
    },
    {
      "id": "shiga_station_8070032814",
      "osmId": 8070032814,
      "osmType": "node",
      "prefectureId": "shiga",
      "type": "station",
      "subtype": "private",
      "name": "新旭",
      "nameKana": null,
      "nameEn": "Shin-Asahi",
      "operator": null,
      "network": null,
      "ref": "JR-B15",
      "latitude": 35.3552951,
      "longitude": 136.035532,
      "countryCode": "jp",
      "rawTags": {
        "KSJ2:LIN": "湖西線",
        "KSJ2:STN": "新旭",
        "contact:website": "https://www.jr-odekake.net/eki/top?id=0611214",
        "name": "新旭",
        "name:en": "Shin-Asahi",
        "name:ja": "新旭",
        "note": "National-Land Numerical Information (Railway) 2007, MLIT Japan",
        "note:ja": "国土数値情報（鉄道データ）平成19年　国土交通省",
        "public_transport": "station",
        "railway": "station",
        "ref": "JR-B15",
        "source": "KSJ2",
        "source_ref": "http://nlftp.mlit.go.jp/ksj/jpgis/datalist/KsjTmplt-N02-v1_1.html",
        "wikidata": "Q5364336",
        "wikipedia": "ja:新旭駅"
      }
    },
    {
      "id": "shiga_station_8070050609",
      "osmId": 8070050609,
      "osmType": "node",
      "prefectureId": "shiga",
      "type": "station",
      "subtype": "jr",
      "name": "近江中庄",
      "nameKana": null,
      "nameEn": "Ōmi-Nakashō",
      "operator": "西日本旅客鉄道",
      "network": null,
      "ref": "JR-B13",
      "latitude": 35.4413694,
      "longitude": 136.0385474,
      "countryCode": "jp",
      "rawTags": {
        "KSJ2:LIN": "湖西線",
        "KSJ2:STN": "近江中庄",
        "contact:website": "https://www.jr-odekake.net/eki/top?id=0611216",
        "name": "近江中庄",
        "name:en": "Ōmi-Nakashō",
        "note": "National-Land Numerical Information (Railway) 2007, MLIT Japan",
        "note:ja": "国土数値情報（鉄道データ）平成19年　国土交通省",
        "operator": "西日本旅客鉄道",
        "public_transport": "station",
        "railway": "station",
        "ref": "JR-B13",
        "source": "KSJ2",
        "source_ref": "http://nlftp.mlit.go.jp/ksj/jpgis/datalist/KsjTmplt-N02-v1_1.html",
        "wikidata": "Q5364773",
        "wikipedia": "ja:近江中庄駅"
      }
    },
    {
      "id": "shiga_station_8070057805",
      "osmId": 8070057805,
      "osmType": "node",
      "prefectureId": "shiga",
      "type": "station",
      "subtype": "private",
      "name": "マキノ",
      "nameKana": null,
      "nameEn": "Makino",
      "operator": null,
      "network": null,
      "ref": "JR-B12",
      "latitude": 35.4613743,
      "longitude": 136.0598008,
      "countryCode": "jp",
      "rawTags": {
        "KSJ2:LIN": "湖西線",
        "KSJ2:STN": "マキノ",
        "contact:website": "https://www.jr-odekake.net/eki/top?id=0611217",
        "name": "マキノ",
        "name:en": "Makino",
        "name:ja": "マキノ",
        "name:ko": "마키노",
        "name:zh": "牧野",
        "note": "National-Land Numerical Information (Railway) 2007, MLIT Japan",
        "note:ja": "国土数値情報（鉄道データ）平成19年　国土交通省",
        "public_transport": "station",
        "railway": "station",
        "ref": "JR-B12",
        "source": "KSJ2",
        "source_ref": "http://nlftp.mlit.go.jp/ksj/jpgis/datalist/KsjTmplt-N02-v1_1.html",
        "wikidata": "Q5363830",
        "wikipedia": "ja:マキノ駅"
      }
    },
    {
      "id": "shiga_station_8070064523",
      "osmId": 8070064523,
      "osmType": "node",
      "prefectureId": "shiga",
      "type": "station",
      "subtype": "private",
      "name": "永原",
      "nameKana": null,
      "nameEn": "Nagahara",
      "operator": null,
      "network": null,
      "ref": "JR-B11",
      "latitude": 35.4990028,
      "longitude": 136.1226675,
      "countryCode": "jp",
      "rawTags": {
        "KSJ2:LIN": "湖西線",
        "KSJ2:STN": "永原",
        "contact:website": "https://www.jr-odekake.net/eki/top?id=0611218",
        "name": "永原",
        "name:en": "Nagahara",
        "note": "National-Land Numerical Information (Railway) 2007, MLIT Japan",
        "note:ja": "国土数値情報（鉄道データ）平成19年　国土交通省",
        "public_transport": "station",
        "railway": "station",
        "ref": "JR-B11",
        "source": "KSJ2",
        "source_ref": "http://nlftp.mlit.go.jp/ksj/jpgis/datalist/KsjTmplt-N02-v1_1.html",
        "wikidata": "Q5363118",
        "wikipedia": "ja:永原駅"
      }
    },
    {
      "id": "shiga_station_8115207266",
      "osmId": 8115207266,
      "osmType": "node",
      "prefectureId": "shiga",
      "type": "station",
      "subtype": "jr",
      "name": "安曇川",
      "nameKana": null,
      "nameEn": "Adogawa",
      "operator": "西日本旅客鉄道",
      "network": "湖西線",
      "ref": "JR-B16",
      "latitude": 35.328438,
      "longitude": 136.0199755,
      "countryCode": "jp",
      "rawTags": {
        "KSJ2:LIN": "湖西線",
        "KSJ2:STN": "安曇川",
        "addr:city": "高島市",
        "addr:province": "滋賀県",
        "contact:website": "https://www.jr-odekake.net/eki/top?id=0611213",
        "name": "安曇川",
        "name:en": "Adogawa",
        "network": "湖西線",
        "note": "National-Land Numerical Information (Railway) 2007, MLIT Japan",
        "note:ja": "国土数値情報（鉄道データ）平成19年　国土交通省",
        "operator": "西日本旅客鉄道",
        "public_transport": "station",
        "railway": "station",
        "ref": "JR-B16",
        "source": "KSJ2",
        "source_ref": "http://nlftp.mlit.go.jp/ksj/jpgis/datalist/KsjTmplt-N02-v1_1.html",
        "start_date": "1974-07-20",
        "wikidata": "Q4684027",
        "wikipedia": "ja:安曇川駅"
      }
    },
    {
      "id": "shiga_station_8128136605",
      "osmId": 8128136605,
      "osmType": "node",
      "prefectureId": "shiga",
      "type": "station",
      "subtype": "private",
      "name": "田村",
      "nameKana": null,
      "nameEn": "Tamura",
      "operator": null,
      "network": null,
      "ref": "JR-A10",
      "latitude": 35.356318,
      "longitude": 136.2818055,
      "countryCode": "jp",
      "rawTags": {
        "contact:website": "https://www.jr-odekake.net/eki/top?id=0541402",
        "name": "田村",
        "name:en": "Tamura",
        "name:ja": "田村",
        "name:ko": "다무라",
        "name:ru": "Тамура",
        "public_transport": "station",
        "railway": "station",
        "ref": "JR-A10",
        "wikidata": "Q1037100",
        "wikipedia": "ja:田村駅"
      }
    },
    {
      "id": "shiga_station_8128136607",
      "osmId": 8128136607,
      "osmType": "node",
      "prefectureId": "shiga",
      "type": "station",
      "subtype": "jr",
      "name": "坂田",
      "nameKana": null,
      "nameEn": "Sakata",
      "operator": "西日本旅客鉄道",
      "network": null,
      "ref": "JR-A11",
      "latitude": 35.3359644,
      "longitude": 136.2877594,
      "countryCode": "jp",
      "rawTags": {
        "contact:website": "https://www.jr-odekake.net/eki/top?id=0541401",
        "name": "坂田",
        "name:en": "Sakata",
        "name:ja": "坂田",
        "name:ko": "사카타",
        "name:ru": "Саката",
        "operator": "西日本旅客鉄道",
        "public_transport": "station",
        "railway": "station",
        "ref": "JR-A11",
        "wikidata": "Q1037076",
        "wikipedia": "ja:坂田駅"
      }
    },
    {
      "id": "shiga_station_8128136609",
      "osmId": 8128136609,
      "osmType": "node",
      "prefectureId": "shiga",
      "type": "station",
      "subtype": "private",
      "name": "稲枝",
      "nameKana": null,
      "nameEn": "Inae",
      "operator": null,
      "network": null,
      "ref": null,
      "latitude": 35.2033146,
      "longitude": 136.1943595,
      "countryCode": "jp",
      "rawTags": {
        "KSJ2:STN": "稲枝",
        "name": "稲枝",
        "name:en": "Inae",
        "name:ja": "稲枝",
        "name:ko": "이나에",
        "name:ru": "Инаэ",
        "public_transport": "station",
        "railway": "station",
        "wikidata": "Q1042954",
        "wikipedia": "ja:稲枝駅"
      }
    },
    {
      "id": "shiga_station_8128136616",
      "osmId": 8128136616,
      "osmType": "node",
      "prefectureId": "shiga",
      "type": "station",
      "subtype": "private",
      "name": "野洲",
      "nameKana": "やす",
      "nameEn": "Yasu",
      "operator": null,
      "network": null,
      "ref": null,
      "latitude": 35.0686932,
      "longitude": 136.0225922,
      "countryCode": "jp",
      "rawTags": {
        "KSJ2:STN": "野洲",
        "name": "野洲",
        "name:en": "Yasu",
        "name:ja": "野洲",
        "name:ja_kana": "やす",
        "name:ko": "야스",
        "name:ru": "Ясу",
        "public_transport": "station",
        "railway": "station",
        "wikidata": "Q1042474",
        "wikipedia": "ja:野洲駅"
      }
    },
    {
      "id": "shiga_station_8128179618",
      "osmId": 8128179618,
      "osmType": "node",
      "prefectureId": "shiga",
      "type": "station",
      "subtype": "private",
      "name": "守山",
      "nameKana": null,
      "nameEn": "Moriyama",
      "operator": null,
      "network": null,
      "ref": null,
      "latitude": 35.0504054,
      "longitude": 135.9956883,
      "countryCode": "jp",
      "rawTags": {
        "KSJ2:STN": "守山",
        "name": "守山",
        "name:en": "Moriyama",
        "name:ja": "守山",
        "name:ko": "모리야마",
        "name:ru": "Морияма",
        "public_transport": "station",
        "railway": "station",
        "wikidata": "Q1042787",
        "wikipedia": "ja:守山駅 (滋賀県)"
      }
    },
    {
      "id": "shiga_station_8214061514",
      "osmId": 8214061514,
      "osmType": "node",
      "prefectureId": "shiga",
      "type": "station",
      "subtype": "private",
      "name": "尼子",
      "nameKana": "あまご",
      "nameEn": "Amago",
      "operator": null,
      "network": null,
      "ref": null,
      "latitude": 35.2140929,
      "longitude": 136.2462482,
      "countryCode": "jp",
      "rawTags": {
        "KSJ2:RAS": "eb03_1361",
        "KSJ2:segment": "eb02_2660",
        "name": "尼子",
        "name:en": "Amago",
        "name:ja": "尼子",
        "name:ja_kana": "あまご",
        "name:ko": "아마고",
        "note": "National-Land Numerical Information (Railway) 2007, MLIT Japan",
        "note:ja": "国土数値情報（鉄道データ）平成19年　国土交通省",
        "public_transport": "station",
        "railway": "station",
        "source": "KSJ2",
        "source_ref": "http://nlftp.mlit.go.jp/ksj/jpgis/datalist/KsjTmplt-N02-v1_1.html",
        "wikidata": "Q4739140",
        "wikipedia": "ja:尼子駅"
      }
    },
    {
      "id": "shiga_station_8214134219",
      "osmId": 8214134219,
      "osmType": "node",
      "prefectureId": "shiga",
      "type": "station",
      "subtype": "private",
      "name": "ひこね芹川",
      "nameKana": "ひこねせりかわ",
      "nameEn": "Hikoneserikawa",
      "operator": null,
      "network": null,
      "ref": null,
      "latitude": 35.2622511,
      "longitude": 136.2609702,
      "countryCode": "jp",
      "rawTags": {
        "name": "ひこね芹川",
        "name:en": "Hikoneserikawa",
        "name:ja": "ひこね芹川",
        "name:ja_kana": "ひこねせりかわ",
        "name:ko": "히코네세리카와",
        "public_transport": "station",
        "railway": "station",
        "wikidata": "Q5977124",
        "wikipedia": "ja:ひこね芹川駅"
      }
    },
    {
      "id": "shiga_station_8214134221",
      "osmId": 8214134221,
      "osmType": "node",
      "prefectureId": "shiga",
      "type": "station",
      "subtype": "private",
      "name": "フジテック前",
      "nameKana": "ふじてっくまえ",
      "nameEn": "Fujitec-mae",
      "operator": null,
      "network": null,
      "ref": null,
      "latitude": 35.2943107,
      "longitude": 136.2854969,
      "countryCode": "jp",
      "rawTags": {
        "KSJ2:RAS": "eb03_1384",
        "KSJ2:segment": "eb02_2707",
        "name": "フジテック前",
        "name:en": "Fujitec-mae",
        "name:ja": "フジテック前",
        "name:ja_kana": "ふじてっくまえ",
        "name:ko": "후지텍마에",
        "note": "National-Land Numerical Information (Railway) 2007, MLIT Japan",
        "note:ja": "国土数値情報（鉄道データ）平成19年　国土交通省",
        "public_transport": "station",
        "railway": "station",
        "source": "KSJ2",
        "source_ref": "http://nlftp.mlit.go.jp/ksj/jpgis/datalist/KsjTmplt-N02-v1_1.html",
        "wikidata": "Q2886648",
        "wikipedia": "ja:フジテック前駅"
      }
    },
    {
      "id": "shiga_station_8215530240",
      "osmId": 8215530240,
      "osmType": "node",
      "prefectureId": "shiga",
      "type": "station",
      "subtype": "private",
      "name": "大学前",
      "nameKana": null,
      "nameEn": "Daigaku-mae",
      "operator": null,
      "network": null,
      "ref": null,
      "latitude": 35.0878086,
      "longitude": 136.1847069,
      "countryCode": "jp",
      "rawTags": {
        "KSJ2:RAS": "eb03_1379",
        "KSJ2:segment": "eb02_2661",
        "name": "大学前",
        "name:en": "Daigaku-mae",
        "name:ja": "大学前",
        "note": "National-Land Numerical Information (Railway) 2007, MLIT Japan",
        "note:ja": "国土数値情報（鉄道データ）平成19年　国土交通省",
        "public_transport": "station",
        "railway": "station",
        "source": "KSJ2",
        "source_ref": "http://nlftp.mlit.go.jp/ksj/jpgis/datalist/KsjTmplt-N02-v1_1.html",
        "wikidata": "Q5209100",
        "wikipedia": "ja:大学前駅 (滋賀県)"
      }
    },
    {
      "id": "shiga_station_8215530241",
      "osmId": 8215530241,
      "osmType": "node",
      "prefectureId": "shiga",
      "type": "station",
      "subtype": "private",
      "name": "京セラ前",
      "nameKana": null,
      "nameEn": "Kyocera-mae",
      "operator": null,
      "network": null,
      "ref": null,
      "latitude": 35.0748781,
      "longitude": 136.1803289,
      "countryCode": "jp",
      "rawTags": {
        "KSJ2:RAS": "eb03_1374",
        "KSJ2:segment": "eb02_2674",
        "name": "京セラ前",
        "name:en": "Kyocera-mae",
        "name:ja": "京セラ前",
        "note": "National-Land Numerical Information (Railway) 2007, MLIT Japan",
        "note:ja": "国土数値情報（鉄道データ）平成19年　国土交通省",
        "public_transport": "station",
        "railway": "station",
        "source": "KSJ2",
        "source_ref": "http://nlftp.mlit.go.jp/ksj/jpgis/datalist/KsjTmplt-N02-v1_1.html",
        "wikidata": "Q6451864",
        "wikipedia": "ja:京セラ前駅"
      }
    },
    {
      "id": "shiga_station_8215530242",
      "osmId": 8215530242,
      "osmType": "node",
      "prefectureId": "shiga",
      "type": "station",
      "subtype": "private",
      "name": "朝日大塚",
      "nameKana": null,
      "nameEn": "Asahi Ōtsuka",
      "operator": null,
      "network": null,
      "ref": null,
      "latitude": 35.0509582,
      "longitude": 136.1935468,
      "countryCode": "jp",
      "rawTags": {
        "KSJ2:RAS": "eb03_1370",
        "KSJ2:segment": "eb02_2667",
        "name": "朝日大塚",
        "name:en": "Asahi Ōtsuka",
        "name:ja": "朝日大塚",
        "note": "National-Land Numerical Information (Railway) 2007, MLIT Japan",
        "note:ja": "国土数値情報（鉄道データ）平成19年　国土交通省",
        "public_transport": "station",
        "railway": "station",
        "source": "KSJ2",
        "source_ref": "http://nlftp.mlit.go.jp/ksj/jpgis/datalist/KsjTmplt-N02-v1_1.html",
        "wikidata": "Q4803381",
        "wikipedia": "ja:朝日大塚駅"
      }
    },
    {
      "id": "shiga_station_8215530243",
      "osmId": 8215530243,
      "osmType": "node",
      "prefectureId": "shiga",
      "type": "station",
      "subtype": "private",
      "name": "朝日野",
      "nameKana": null,
      "nameEn": "Asahino",
      "operator": null,
      "network": null,
      "ref": null,
      "latitude": 35.0315558,
      "longitude": 136.2057039,
      "countryCode": "jp",
      "rawTags": {
        "KSJ2:RAS": "eb03_1366",
        "KSJ2:segment": "eb02_2695",
        "name": "朝日野",
        "name:en": "Asahino",
        "name:ja": "朝日野",
        "note": "National-Land Numerical Information (Railway) 2007, MLIT Japan",
        "note:ja": "国土数値情報（鉄道データ）平成19年　国土交通省",
        "public_transport": "station",
        "railway": "station",
        "source": "KSJ2",
        "source_ref": "http://nlftp.mlit.go.jp/ksj/jpgis/datalist/KsjTmplt-N02-v1_1.html",
        "wikidata": "Q4803397",
        "wikipedia": "ja:朝日野駅"
      }
    },
    {
      "id": "shiga_station_8215530244",
      "osmId": 8215530244,
      "osmType": "node",
      "prefectureId": "shiga",
      "type": "station",
      "subtype": "private",
      "name": "河辺の森",
      "nameKana": "かわべのもり",
      "nameEn": "Kawabenomori",
      "operator": null,
      "network": null,
      "ref": null,
      "latitude": 35.1353183,
      "longitude": 136.196172,
      "countryCode": "jp",
      "rawTags": {
        "KSJ2:RAS": "eb03_1365",
        "KSJ2:segment": "eb02_2699",
        "name": "河辺の森",
        "name:en": "Kawabenomori",
        "name:ja": "河辺の森",
        "name:ja_kana": "かわべのもり",
        "note": "National-Land Numerical Information (Railway) 2007, MLIT Japan",
        "note:ja": "国土数値情報（鉄道データ）平成19年　国土交通省",
        "public_transport": "station",
        "railway": "station",
        "source": "KSJ2",
        "source_ref": "http://nlftp.mlit.go.jp/ksj/jpgis/datalist/KsjTmplt-N02-v1_1.html",
        "wikidata": "Q6379426",
        "wikipedia": "ja:河辺の森駅"
      }
    },
    {
      "id": "shiga_station_8215530245",
      "osmId": 8215530245,
      "osmType": "node",
      "prefectureId": "shiga",
      "type": "station",
      "subtype": "private",
      "name": "愛知川",
      "nameKana": null,
      "nameEn": "Echigawa",
      "operator": null,
      "network": null,
      "ref": null,
      "latitude": 35.1761389,
      "longitude": 136.2135158,
      "countryCode": "jp",
      "rawTags": {
        "KSJ2:RAS": "eb03_1377",
        "KSJ2:segment": "eb02_2705",
        "name": "愛知川",
        "name:en": "Echigawa",
        "name:ja": "愛知川",
        "name:ko": "에치가와",
        "note": "National-Land Numerical Information (Railway) 2007, MLIT Japan",
        "note:ja": "国土数値情報（鉄道データ）平成19年　国土交通省",
        "public_transport": "station",
        "railway": "station",
        "source": "KSJ2",
        "source_ref": "http://nlftp.mlit.go.jp/ksj/jpgis/datalist/KsjTmplt-N02-v1_1.html",
        "wikidata": "Q5332406",
        "wikipedia": "ja:愛知川駅"
      }
    },
    {
      "id": "shiga_station_8215530250",
      "osmId": 8215530250,
      "osmType": "node",
      "prefectureId": "shiga",
      "type": "station",
      "subtype": "private",
      "name": "豊郷",
      "nameKana": "とよさと",
      "nameEn": "Toyosato",
      "operator": null,
      "network": null,
      "ref": null,
      "latitude": 35.1977267,
      "longitude": 136.2307893,
      "countryCode": "jp",
      "rawTags": {
        "KSJ2:RAS": "eb03_1367",
        "KSJ2:segment": "eb02_2671",
        "name": "豊郷",
        "name:en": "Toyosato",
        "name:ja": "豊郷",
        "name:ja_kana": "とよさと",
        "name:ko": "토요사토",
        "note": "National-Land Numerical Information (Railway) 2007, MLIT Japan",
        "note:ja": "国土数値情報（鉄道データ）平成19年　国土交通省",
        "public_transport": "station",
        "railway": "station",
        "source": "KSJ2",
        "source_ref": "http://nlftp.mlit.go.jp/ksj/jpgis/datalist/KsjTmplt-N02-v1_1.html",
        "wikidata": "Q7830718",
        "wikipedia": "ja:豊郷駅 (滋賀県)"
      }
    },
    {
      "id": "shiga_station_8218908694",
      "osmId": 8218908694,
      "osmType": "node",
      "prefectureId": "shiga",
      "type": "station",
      "subtype": "private",
      "name": "桜川",
      "nameKana": null,
      "nameEn": "Sakuragawa",
      "operator": null,
      "network": null,
      "ref": null,
      "latitude": 35.0649891,
      "longitude": 136.187538,
      "countryCode": "jp",
      "rawTags": {
        "KSJ2:RAS": "eb03_1364",
        "KSJ2:segment": "eb02_2700",
        "name": "桜川",
        "name:en": "Sakuragawa",
        "name:ja": "桜川",
        "name:ko": "사쿠라가와",
        "note": "National-Land Numerical Information (Railway) 2007, MLIT Japan",
        "note:ja": "国土数値情報（鉄道データ）平成19年　国土交通省",
        "public_transport": "station",
        "railway": "station",
        "source": "KSJ2",
        "source_ref": "http://nlftp.mlit.go.jp/ksj/jpgis/datalist/KsjTmplt-N02-v1_1.html",
        "wikidata": "Q7403198",
        "wikipedia": "ja:桜川駅 (滋賀県)"
      }
    },
    {
      "id": "shiga_station_8219056322",
      "osmId": 8219056322,
      "osmType": "node",
      "prefectureId": "shiga",
      "type": "station",
      "subtype": "private",
      "name": "スクリーン",
      "nameKana": "すくりーん",
      "nameEn": "Screen",
      "operator": "近江鉄道",
      "network": "近江鉄道多賀線",
      "ref": null,
      "latitude": 35.2331749,
      "longitude": 136.267278,
      "countryCode": "jp",
      "rawTags": {
        "name": "スクリーン",
        "name:en": "Screen",
        "name:ja": "スクリーン",
        "name:ja-Hira": "すくりーん",
        "network": "近江鉄道多賀線",
        "operator": "近江鉄道",
        "public_transport": "station",
        "railway": "station",
        "wikidata": "Q1058331",
        "wikipedia": "ja:スクリーン駅"
      }
    },
    {
      "id": "shiga_station_8219350669",
      "osmId": 8219350669,
      "osmType": "node",
      "prefectureId": "shiga",
      "type": "station",
      "subtype": "private",
      "name": "新八日市",
      "nameKana": "しんようかいち",
      "nameEn": "Shin-Yokaichi",
      "operator": null,
      "network": null,
      "ref": "OR16",
      "latitude": 35.1102399,
      "longitude": 136.1910767,
      "countryCode": "jp",
      "rawTags": {
        "KSJ2:RAS": "eb03_1357",
        "KSJ2:segment": "eb02_2652",
        "name": "新八日市",
        "name:en": "Shin-Yokaichi",
        "name:ja": "新八日市",
        "name:ja-Hira": "しんようかいち",
        "name:ko": "신요카이치",
        "note": "National-Land Numerical Information (Railway) 2007, MLIT Japan",
        "note:ja": "国土数値情報（鉄道データ）平成19年 国土交通省",
        "platforms": "2",
        "public_transport": "station",
        "railway": "station",
        "ref": "OR16",
        "source": "KSJ2",
        "source_ref": "http://nlftp.mlit.go.jp/ksj/jpgis/datalist/KsjTmplt-N02-v1_1.html",
        "wikidata": "Q5577368",
        "wikipedia": "ja:新八日市駅"
      }
    },
    {
      "id": "shiga_bus_terminal_11774805306",
      "osmId": 11774805306,
      "osmType": "node",
      "prefectureId": "shiga",
      "type": "bus_terminal",
      "subtype": null,
      "name": "木ノ本バスターミナル",
      "nameKana": null,
      "nameEn": null,
      "operator": null,
      "network": null,
      "ref": null,
      "latitude": 35.5045562,
      "longitude": 136.2217945,
      "countryCode": "jp",
      "rawTags": {
        "amenity": "bus_station",
        "bus": "yes",
        "check_date": "2024-03-31",
        "name": "木ノ本バスターミナル",
        "public_transport": "station"
      }
    },
    {
      "id": "shiga_ferry_terminal_12169863437",
      "osmId": 12169863437,
      "osmType": "node",
      "prefectureId": "shiga",
      "type": "ferry_terminal",
      "subtype": null,
      "name": "竹生島",
      "nameKana": "ちくぶしま",
      "nameEn": "Chikubu Island",
      "operator": null,
      "network": null,
      "ref": null,
      "latitude": 35.4200558,
      "longitude": 136.1434507,
      "countryCode": "jp",
      "rawTags": {
        "amenity": "ferry_terminal",
        "name": "竹生島",
        "name:en": "Chikubu Island",
        "name:fr": "Île Chikubu",
        "name:ja-Hira": "ちくぶしま",
        "name:ja-Latn": "Chikubu-shima"
      }
    },
    {
      "id": "shiga_station_12838453008",
      "osmId": 12838453008,
      "osmType": "node",
      "prefectureId": "shiga",
      "type": "station",
      "subtype": "private",
      "name": "木ノ本",
      "nameKana": null,
      "nameEn": "Kinomoto",
      "operator": null,
      "network": null,
      "ref": "JR-A05",
      "latitude": 35.5062451,
      "longitude": 136.2215196,
      "countryCode": "jp",
      "rawTags": {
        "contact:website": "https://www.jr-odekake.net/eki/top?id=0541407",
        "name": "木ノ本",
        "name:en": "Kinomoto",
        "name:ja": "木ノ本",
        "name:ko": "기노모토",
        "note": "National-Land Numerical Information (Railway) 2007, MLIT Japan",
        "public_transport": "station",
        "railway": "station",
        "ref": "JR-A05",
        "source": "KSJ2",
        "wikidata": "Q5366594",
        "wikipedia": "ja:木ノ本駅"
      }
    },
    {
      "id": "shiga_station_12838453041",
      "osmId": 12838453041,
      "osmType": "node",
      "prefectureId": "shiga",
      "type": "station",
      "subtype": "private",
      "name": "河毛",
      "nameKana": null,
      "nameEn": "Kawake",
      "operator": null,
      "network": null,
      "ref": "JR-A07",
      "latitude": 35.4484112,
      "longitude": 136.2495313,
      "countryCode": "jp",
      "rawTags": {
        "contact:website": "https://www.jr-odekake.net/eki/top?id=0541405",
        "name": "河毛",
        "name:en": "Kawake",
        "name:ja": "河毛",
        "name:ko": "가와케",
        "public_transport": "station",
        "railway": "station",
        "ref": "JR-A07",
        "wikidata": "Q5365887",
        "wikipedia": "ja:河毛駅"
      }
    },
    {
      "id": "shiga_station_12838453079",
      "osmId": 12838453079,
      "osmType": "node",
      "prefectureId": "shiga",
      "type": "station",
      "subtype": "private",
      "name": "虎姫",
      "nameKana": null,
      "nameEn": "Torahime",
      "operator": null,
      "network": null,
      "ref": "JR-A08",
      "latitude": 35.4246514,
      "longitude": 136.2572779,
      "countryCode": "jp",
      "rawTags": {
        "contact:website": "https://www.jr-odekake.net/eki/top?id=0541404",
        "name": "虎姫",
        "name:en": "Torahime",
        "name:ja": "虎姫",
        "name:ko": "도라히메",
        "note": "National-Land Numerical Information (Railway) 2007, MLIT Japan",
        "public_transport": "station",
        "railway": "station",
        "ref": "JR-A08",
        "source": "KSJ2",
        "wikidata": "Q8009862",
        "wikipedia": "ja:虎姫駅"
      }
    },
    {
      "id": "shiga_station_12838457723",
      "osmId": 12838457723,
      "osmType": "node",
      "prefectureId": "shiga",
      "type": "station",
      "subtype": "private",
      "name": "余呉",
      "nameKana": null,
      "nameEn": "Yogo",
      "operator": null,
      "network": null,
      "ref": "JR-A04",
      "latitude": 35.5339582,
      "longitude": 136.1989783,
      "countryCode": "jp",
      "rawTags": {
        "name": "余呉",
        "name:en": "Yogo",
        "name:ja": "余呉",
        "name:ko": "요고",
        "note": "National-Land Numerical Information (Railway) 2007, MLIT Japan",
        "public_transport": "station",
        "railway": "station",
        "ref": "JR-A04",
        "source": "KSJ2",
        "wikidata": "Q5365698",
        "wikipedia": "ja:余呉駅"
      }
    },
    {
      "id": "shiga_ferry_terminal_183552654",
      "osmId": 183552654,
      "osmType": "way",
      "prefectureId": "shiga",
      "type": "ferry_terminal",
      "subtype": null,
      "name": "観光船のりば",
      "nameKana": null,
      "nameEn": null,
      "operator": null,
      "network": null,
      "ref": null,
      "latitude": 35.3972279,
      "longitude": 136.0350739,
      "countryCode": "jp",
      "rawTags": {
        "amenity": "ferry_terminal",
        "building": "yes",
        "layer": "1",
        "name": "観光船のりば"
      }
    },
    {
      "id": "shiga_bus_terminal_304353737",
      "osmId": 304353737,
      "osmType": "way",
      "prefectureId": "shiga",
      "type": "bus_terminal",
      "subtype": null,
      "name": "近江八幡駅バスのりば",
      "nameKana": null,
      "nameEn": null,
      "operator": null,
      "network": null,
      "ref": null,
      "latitude": 35.1229488,
      "longitude": 136.102008,
      "countryCode": "jp",
      "rawTags": {
        "amenity": "bus_station",
        "name": "近江八幡駅バスのりば"
      }
    },
    {
      "id": "shiga_bus_terminal_375790134",
      "osmId": 375790134,
      "osmType": "way",
      "prefectureId": "shiga",
      "type": "bus_terminal",
      "subtype": null,
      "name": "本水口",
      "nameKana": "ほんみなくち",
      "nameEn": null,
      "operator": "甲賀市",
      "network": "甲賀市コミュニティバス",
      "ref": null,
      "latitude": 34.9677725,
      "longitude": 136.1778688,
      "countryCode": "jp",
      "rawTags": {
        "amenity": "bus_station",
        "building": "no",
        "bus": "yes",
        "name": "本水口",
        "name:ja": "本水口",
        "name:ja-Hira": "ほんみなくち",
        "name:ja-Latn": "Hon minakuchi",
        "network": "甲賀市コミュニティバス",
        "operator": "甲賀市",
        "public_transport": "station"
      }
    },
    {
      "id": "shiga_bus_terminal_402074705",
      "osmId": 402074705,
      "osmType": "way",
      "prefectureId": "shiga",
      "type": "bus_terminal",
      "subtype": null,
      "name": "西塔（釈迦堂）",
      "nameKana": null,
      "nameEn": null,
      "operator": null,
      "network": null,
      "ref": null,
      "latitude": 35.0719301,
      "longitude": 135.8335043,
      "countryCode": "jp",
      "rawTags": {
        "amenity": "bus_station",
        "building": "roof",
        "description": "延暦寺バスセンター・比叡山頂方面",
        "name": "西塔（釈迦堂）"
      }
    },
    {
      "id": "shiga_bus_terminal_467338755",
      "osmId": 467338755,
      "osmType": "way",
      "prefectureId": "shiga",
      "type": "bus_terminal",
      "subtype": null,
      "name": "龍谷大学行直通バス停留所",
      "nameKana": null,
      "nameEn": null,
      "operator": null,
      "network": null,
      "ref": null,
      "latitude": 34.9847497,
      "longitude": 135.9254348,
      "countryCode": "jp",
      "rawTags": {
        "amenity": "bus_station",
        "bus": "yes",
        "name": "龍谷大学行直通バス停留所",
        "public_transport": "station"
      }
    },
    {
      "id": "shiga_bus_terminal_571298132",
      "osmId": 571298132,
      "osmType": "way",
      "prefectureId": "shiga",
      "type": "bus_terminal",
      "subtype": null,
      "name": "びわ湖浜大津;浜大津",
      "nameKana": null,
      "nameEn": null,
      "operator": null,
      "network": "江若バス;近江鉄道バス;京阪バス",
      "ref": null,
      "latitude": 35.0116001,
      "longitude": 135.8639559,
      "countryCode": "jp",
      "rawTags": {
        "amenity": "bus_station",
        "bus": "yes",
        "name": "びわ湖浜大津;浜大津",
        "name:京阪バス": "浜大津",
        "name:江若バス": "びわ湖浜大津",
        "name:近江鉄道バス": "浜大津",
        "network": "江若バス;近江鉄道バス;京阪バス",
        "public_transport": "station"
      }
    },
    {
      "id": "shiga_bus_terminal_572208723",
      "osmId": 572208723,
      "osmType": "way",
      "prefectureId": "shiga",
      "type": "bus_terminal",
      "subtype": null,
      "name": "大津駅",
      "nameKana": null,
      "nameEn": null,
      "operator": null,
      "network": null,
      "ref": null,
      "latitude": 35.0037616,
      "longitude": 135.8641096,
      "countryCode": "jp",
      "rawTags": {
        "amenity": "bus_station",
        "bus": "yes",
        "name": "大津駅",
        "public_transport": "station"
      }
    },
    {
      "id": "shiga_airport_902792647",
      "osmId": 902792647,
      "osmType": "way",
      "prefectureId": "shiga",
      "type": "airport",
      "subtype": "domestic",
      "name": "びわ湖ＭPPG パラグライダー飛行場",
      "nameKana": null,
      "nameEn": "Lake Biwa MPPG Paraglider Airfield",
      "operator": null,
      "network": null,
      "ref": null,
      "latitude": 35.0848262,
      "longitude": 135.9484959,
      "countryCode": "jp",
      "rawTags": {
        "aeroway": "aerodrome",
        "name": "びわ湖ＭPPG パラグライダー飛行場",
        "name:en": "Lake Biwa MPPG Paraglider Airfield"
      }
    },
    {
      "id": "shiga_bus_terminal_1417557965",
      "osmId": 1417557965,
      "osmType": "way",
      "prefectureId": "shiga",
      "type": "bus_terminal",
      "subtype": null,
      "name": "下田",
      "nameKana": "しもだ",
      "nameEn": null,
      "operator": null,
      "network": "甲賀市コミュニティバス",
      "ref": null,
      "latitude": 35.024296,
      "longitude": 136.1303808,
      "countryCode": "jp",
      "rawTags": {
        "amenity": "bus_station",
        "bus": "yes",
        "name": "下田",
        "name:ja": "下田",
        "name:ja-Hira": "しもだ",
        "name:ja-Latn": "Shimoda",
        "network": "甲賀市コミュニティバス",
        "network:en": "Koka City Community Bus",
        "network:ja": "甲賀市コミュニティバス",
        "public_transport": "station"
      }
    },
    {
      "id": "shiga_bus_terminal_1421993345",
      "osmId": 1421993345,
      "osmType": "way",
      "prefectureId": "shiga",
      "type": "bus_terminal",
      "subtype": null,
      "name": "近江土山駅",
      "nameKana": "おうみつちやまえき",
      "nameEn": null,
      "operator": null,
      "network": "甲賀市コミュニティバス",
      "ref": null,
      "latitude": 34.9364857,
      "longitude": 136.2839773,
      "countryCode": "jp",
      "rawTags": {
        "amenity": "bus_station",
        "bus": "yes",
        "name": "近江土山駅",
        "name:ja": "近江土山駅",
        "name:ja-Hira": "おうみつちやまえき",
        "name:ja-Latn": "Ōmi Tsuchiyama eki",
        "nat_name": "近江土山",
        "nat_name:ja": "近江土山",
        "nat_name:ja-Hira": "おうみつちやま",
        "nat_name:ja-Latn": "Ōmi Tsuchiyama",
        "network": "甲賀市コミュニティバス",
        "network:en": "Koka City Community Bus",
        "network:ja": "甲賀市コミュニティバス",
        "network:wikidata": "Q11577990",
        "public_transport": "station"
      }
    }
  ]
}