{
  "fetchedAt": "2025-12-12T05:32:35.255Z",
  "prefectureId": "shimane",
  "prefectureName": "島根県",
  "stats": {
    "station": 118,
    "airport": 3,
    "ferry_terminal": 18,
    "bus_terminal": 10,
    "total": 149
  },
  "data": [
    {
      "id": "shimane_station_265968755",
      "osmId": 265968755,
      "osmType": "node",
      "prefectureId": "shimane",
      "type": "station",
      "subtype": "private",
      "name": "安来",
      "nameKana": null,
      "nameEn": "Yasugi",
      "operator": null,
      "network": null,
      "ref": null,
      "latitude": 35.4280643,
      "longitude": 133.259255,
      "countryCode": "jp",
      "rawTags": {
        "KSJ2:LIN": "山陰線",
        "KSJ2:STN": "安来",
        "name": "安来",
        "name:en": "Yasugi",
        "name:ja": "安来",
        "name:ko": "야스기",
        "note": "National-Land Numerical Information (Railway) 2007, MLIT Japan",
        "note:ja": "国土数値情報（鉄道データ）平成19年　国土交通省",
        "public_transport": "station",
        "railway": "station",
        "source": "KSJ2",
        "source_ref": "http://nlftp.mlit.go.jp/ksj/jpgis/datalist/KsjTmplt-N02-v1_1.html",
        "train": "yes",
        "wikidata": "Q5357024",
        "wikipedia": "ja:安来駅"
      }
    },
    {
      "id": "shimane_station_265970277",
      "osmId": 265970277,
      "osmType": "node",
      "prefectureId": "shimane",
      "type": "station",
      "subtype": "private",
      "name": "出雲神西",
      "nameKana": null,
      "nameEn": "Izumo-Jinzai",
      "operator": null,
      "network": null,
      "ref": null,
      "latitude": 35.3249535,
      "longitude": 132.7020052,
      "countryCode": "jp",
      "rawTags": {
        "KSJ2:LIN": "山陰線",
        "KSJ2:STN": "出雲神西",
        "name": "出雲神西",
        "name:en": "Izumo-Jinzai",
        "name:ja": "出雲神西",
        "name:ko": "이즈모진자이",
        "note": "National-Land Numerical Information (Railway) 2007, MLIT Japan",
        "note:ja": "国土数値情報（鉄道データ）平成19年　国土交通省",
        "railway": "station",
        "source": "KSJ2",
        "source_ref": "http://nlftp.mlit.go.jp/ksj/jpgis/datalist/KsjTmplt-N02-v1_1.html",
        "wikidata": "Q5356623",
        "wikipedia": "ja:出雲神西駅"
      }
    },
    {
      "id": "shimane_station_265970361",
      "osmId": 265970361,
      "osmType": "node",
      "prefectureId": "shimane",
      "type": "station",
      "subtype": "private",
      "name": "西出雲",
      "nameKana": null,
      "nameEn": "Nishi-Izumo",
      "operator": null,
      "network": null,
      "ref": null,
      "latitude": 35.3348391,
      "longitude": 132.7216853,
      "countryCode": "jp",
      "rawTags": {
        "KSJ2:LIN": "山陰線",
        "KSJ2:STN": "西出雲",
        "name": "西出雲",
        "name:en": "Nishi-Izumo",
        "name:ja": "西出雲",
        "name:ko": "니시이즈모",
        "note": "National-Land Numerical Information (Railway) 2007, MLIT Japan",
        "note:ja": "国土数値情報（鉄道データ）平成19年　国土交通省",
        "public_transport": "station",
        "railway": "station",
        "source": "KSJ2",
        "source_ref": "http://nlftp.mlit.go.jp/ksj/jpgis/datalist/KsjTmplt-N02-v1_1.html",
        "wikidata": "Q861518",
        "wikipedia": "ja:西出雲駅"
      }
    },
    {
      "id": "shimane_station_265970366",
      "osmId": 265970366,
      "osmType": "node",
      "prefectureId": "shimane",
      "type": "station",
      "subtype": "jr",
      "name": "荘原",
      "nameKana": null,
      "nameEn": "Shōbara",
      "operator": "西日本旅客鉄道",
      "network": "JR山陰線",
      "ref": null,
      "latitude": 35.3935659,
      "longitude": 132.8682039,
      "countryCode": "jp",
      "rawTags": {
        "KSJ2:LIN": "山陰線",
        "KSJ2:STN": "荘原",
        "name": "荘原",
        "name:en": "Shōbara",
        "name:ja": "荘原",
        "name:ko": "쇼바라",
        "network": "JR山陰線",
        "note": "National-Land Numerical Information (Railway) 2007, MLIT Japan",
        "note:ja": "国土数値情報（鉄道データ）平成19年　国土交通省",
        "operator": "西日本旅客鉄道",
        "public_transport": "station",
        "railway": "station",
        "source": "KSJ2",
        "source_ref": "http://nlftp.mlit.go.jp/ksj/jpgis/datalist/KsjTmplt-N02-v1_1.html",
        "train": "yes",
        "wikidata": "Q5355723",
        "wikipedia": "ja:荘原駅"
      }
    },
    {
      "id": "shimane_station_265970368",
      "osmId": 265970368,
      "osmType": "node",
      "prefectureId": "shimane",
      "type": "station",
      "subtype": "private",
      "name": "乃木",
      "nameKana": null,
      "nameEn": "Nogi",
      "operator": null,
      "network": null,
      "ref": null,
      "latitude": 35.4459064,
      "longitude": 133.0485881,
      "countryCode": "jp",
      "rawTags": {
        "KSJ2:LIN": "山陰線",
        "KSJ2:STN": "乃木",
        "name": "乃木",
        "name:en": "Nogi",
        "name:ja": "乃木",
        "name:ko": "노기",
        "note": "National-Land Numerical Information (Railway) 2007, MLIT Japan",
        "note:ja": "国土数値情報（鉄道データ）平成19年　国土交通省",
        "public_transport": "station",
        "railway": "station",
        "source": "KSJ2",
        "source_ref": "http://nlftp.mlit.go.jp/ksj/jpgis/datalist/KsjTmplt-N02-v1_1.html",
        "wikidata": "Q5356159",
        "wikipedia": "ja:乃木駅"
      }
    },
    {
      "id": "shimane_station_265970626",
      "osmId": 265970626,
      "osmType": "node",
      "prefectureId": "shimane",
      "type": "station",
      "subtype": "private",
      "name": "松江",
      "nameKana": null,
      "nameEn": "Matsue",
      "operator": null,
      "network": null,
      "ref": null,
      "latitude": 35.4640129,
      "longitude": 133.06387,
      "countryCode": "jp",
      "rawTags": {
        "KSJ2:LIN": "山陰線",
        "KSJ2:STN": "松江",
        "contact:website": "https://www.jr-odekake.net/eki/top?id=0640734",
        "name": "松江",
        "name:en": "Matsue",
        "name:ja": "松江",
        "name:ko": "마쓰에",
        "note": "National-Land Numerical Information (Railway) 2007, MLIT Japan",
        "note:ja": "国土数値情報（鉄道データ）平成19年　国土交通省",
        "public_transport": "station",
        "railway": "station",
        "source": "KSJ2",
        "source_ref": "http://nlftp.mlit.go.jp/ksj/jpgis/datalist/KsjTmplt-N02-v1_1.html",
        "train": "yes",
        "wikidata": "Q1058652",
        "wikipedia": "ja:松江駅"
      }
    },
    {
      "id": "shimane_station_265970986",
      "osmId": 265970986,
      "osmType": "node",
      "prefectureId": "shimane",
      "type": "station",
      "subtype": "private",
      "name": "江南",
      "nameKana": null,
      "nameEn": "Kōnan",
      "operator": null,
      "network": null,
      "ref": null,
      "latitude": 35.3152617,
      "longitude": 132.6832073,
      "countryCode": "jp",
      "rawTags": {
        "KSJ2:LIN": "山陰線",
        "KSJ2:STN": "江南",
        "name": "江南",
        "name:en": "Kōnan",
        "name:ja": "江南",
        "name:ko": "고난",
        "note": "National-Land Numerical Information (Railway) 2007, MLIT Japan",
        "note:ja": "国土数値情報（鉄道データ）平成19年　国土交通省",
        "railway": "station",
        "source": "KSJ2",
        "source_ref": "http://nlftp.mlit.go.jp/ksj/jpgis/datalist/KsjTmplt-N02-v1_1.html",
        "wikidata": "Q5355821",
        "wikipedia": "ja:江南駅 (島根県)"
      }
    },
    {
      "id": "shimane_station_265970989",
      "osmId": 265970989,
      "osmType": "node",
      "prefectureId": "shimane",
      "type": "station",
      "subtype": "private",
      "name": "宍道",
      "nameKana": null,
      "nameEn": "Shinji",
      "operator": null,
      "network": null,
      "ref": null,
      "latitude": 35.406757,
      "longitude": 132.9088655,
      "countryCode": "jp",
      "rawTags": {
        "KSJ2:LIN": "山陰線;木次線",
        "KSJ2:STN": "宍道",
        "contact:website": "https://www.jr-odekake.net/eki/top?id=0640738",
        "name": "宍道",
        "name:en": "Shinji",
        "name:ja": "宍道",
        "name:ko": "신지",
        "note": "National-Land Numerical Information (Railway) 2007, MLIT Japan",
        "note:ja": "国土数値情報（鉄道データ）平成19年　国土交通省",
        "public_transport": "station",
        "railway": "station",
        "source": "KSJ2",
        "source_ref": "http://nlftp.mlit.go.jp/ksj/jpgis/datalist/KsjTmplt-N02-v1_1.html",
        "wikidata": "Q3611061",
        "wikipedia": "ja:宍道駅"
      }
    },
    {
      "id": "shimane_station_265971146",
      "osmId": 265971146,
      "osmType": "node",
      "prefectureId": "shimane",
      "type": "station",
      "subtype": "private",
      "name": "小田",
      "nameKana": null,
      "nameEn": "Oda",
      "operator": null,
      "network": null,
      "ref": null,
      "latitude": 35.2845919,
      "longitude": 132.6301142,
      "countryCode": "jp",
      "rawTags": {
        "KSJ2:LIN": "山陰線",
        "KSJ2:STN": "小田",
        "name": "小田",
        "name:en": "Oda",
        "name:ja": "小田",
        "name:ko": "오다",
        "note": "National-Land Numerical Information (Railway) 2007, MLIT Japan",
        "note:ja": "国土数値情報（鉄道データ）平成19年　国土交通省",
        "railway": "station",
        "source": "KSJ2",
        "source_ref": "http://nlftp.mlit.go.jp/ksj/jpgis/datalist/KsjTmplt-N02-v1_1.html",
        "wikidata": "Q5356502",
        "wikipedia": "ja:小田駅 (島根県)"
      }
    },
    {
      "id": "shimane_station_265971350",
      "osmId": 265971350,
      "osmType": "node",
      "prefectureId": "shimane",
      "type": "station",
      "subtype": "private",
      "name": "荒島",
      "nameKana": null,
      "nameEn": "Arashima",
      "operator": null,
      "network": null,
      "ref": null,
      "latitude": 35.4317977,
      "longitude": 133.2073805,
      "countryCode": "jp",
      "rawTags": {
        "KSJ2:LIN": "山陰線",
        "KSJ2:STN": "荒島",
        "name": "荒島",
        "name:en": "Arashima",
        "name:ja": "荒島",
        "name:ko": "아라시마",
        "note": "National-Land Numerical Information (Railway) 2007, MLIT Japan",
        "note:ja": "国土数値情報（鉄道データ）平成19年　国土交通省",
        "public_transport": "station",
        "railway": "station",
        "source": "KSJ2",
        "source_ref": "http://nlftp.mlit.go.jp/ksj/jpgis/datalist/KsjTmplt-N02-v1_1.html",
        "wikidata": "Q4784373",
        "wikipedia": "ja:荒島駅"
      }
    },
    {
      "id": "shimane_station_265971426",
      "osmId": 265971426,
      "osmType": "node",
      "prefectureId": "shimane",
      "type": "station",
      "subtype": "private",
      "name": "来待",
      "nameKana": null,
      "nameEn": "Kimachi",
      "operator": null,
      "network": null,
      "ref": null,
      "latitude": 35.4206764,
      "longitude": 132.9517228,
      "countryCode": "jp",
      "rawTags": {
        "KSJ2:LIN": "山陰線",
        "KSJ2:STN": "来待",
        "name": "来待",
        "name:en": "Kimachi",
        "name:ja": "来待",
        "name:ko": "기마치",
        "note": "National-Land Numerical Information (Railway) 2007, MLIT Japan",
        "note:ja": "国土数値情報（鉄道データ）平成19年　国土交通省",
        "railway": "station",
        "source": "KSJ2",
        "source_ref": "http://nlftp.mlit.go.jp/ksj/jpgis/datalist/KsjTmplt-N02-v1_1.html",
        "train": "yes",
        "wikidata": "Q5356520",
        "wikipedia": "ja:来待駅"
      }
    },
    {
      "id": "shimane_station_265971516",
      "osmId": 265971516,
      "osmType": "node",
      "prefectureId": "shimane",
      "type": "station",
      "subtype": "private",
      "name": "東松江",
      "nameKana": null,
      "nameEn": "Higashi-Matsue",
      "operator": null,
      "network": null,
      "ref": null,
      "latitude": 35.445491,
      "longitude": 133.128456,
      "countryCode": "jp",
      "rawTags": {
        "KSJ2:LIN": "山陰線",
        "KSJ2:STN": "東松江",
        "name": "東松江",
        "name:en": "Higashi-Matsue",
        "name:ja": "東松江",
        "name:ko": "히가시마쓰에",
        "note": "National-Land Numerical Information (Railway) 2007, MLIT Japan",
        "note:ja": "国土数値情報（鉄道データ）平成19年　国土交通省",
        "public_transport": "station",
        "railway": "station",
        "source": "KSJ2",
        "source_ref": "http://nlftp.mlit.go.jp/ksj/jpgis/datalist/KsjTmplt-N02-v1_1.html",
        "train": "yes",
        "wikidata": "Q5357082",
        "wikipedia": "ja:東松江駅 (島根県)"
      }
    },
    {
      "id": "shimane_station_265971759",
      "osmId": 265971759,
      "osmType": "node",
      "prefectureId": "shimane",
      "type": "station",
      "subtype": "private",
      "name": "田儀",
      "nameKana": null,
      "nameEn": "Tagi",
      "operator": null,
      "network": null,
      "ref": null,
      "latitude": 35.2751757,
      "longitude": 132.5897571,
      "countryCode": "jp",
      "rawTags": {
        "KSJ2:LIN": "山陰線",
        "KSJ2:STN": "田儀",
        "name": "田儀",
        "name:en": "Tagi",
        "name:ja": "田儀",
        "name:ko": "다기",
        "note": "National-Land Numerical Information (Railway) 2007, MLIT Japan",
        "note:ja": "国土数値情報（鉄道データ）平成19年　国土交通省",
        "railway": "station",
        "source": "KSJ2",
        "source_ref": "http://nlftp.mlit.go.jp/ksj/jpgis/datalist/KsjTmplt-N02-v1_1.html",
        "wikidata": "Q5356698",
        "wikipedia": "ja:田儀駅"
      }
    },
    {
      "id": "shimane_station_265971856",
      "osmId": 265971856,
      "osmType": "node",
      "prefectureId": "shimane",
      "type": "station",
      "subtype": "private",
      "name": "直江",
      "nameKana": null,
      "nameEn": "Naoe",
      "operator": null,
      "network": null,
      "ref": null,
      "latitude": 35.3836887,
      "longitude": 132.8076789,
      "countryCode": "jp",
      "rawTags": {
        "KSJ2:LIN": "山陰線",
        "KSJ2:STN": "直江",
        "name": "直江",
        "name:en": "Naoe",
        "name:ja": "直江",
        "name:ko": "나오에",
        "note": "National-Land Numerical Information (Railway) 2007, MLIT Japan",
        "note:ja": "国土数値情報（鉄道データ）平成19年　国土交通省",
        "railway": "station",
        "source": "KSJ2",
        "source_ref": "http://nlftp.mlit.go.jp/ksj/jpgis/datalist/KsjTmplt-N02-v1_1.html",
        "wikidata": "Q6964523",
        "wikipedia": "ja:直江駅"
      }
    },
    {
      "id": "shimane_station_265972058",
      "osmId": 265972058,
      "osmType": "node",
      "prefectureId": "shimane",
      "type": "station",
      "subtype": "private",
      "name": "黒松",
      "nameKana": null,
      "nameEn": "Kuromatsu",
      "operator": null,
      "network": null,
      "ref": null,
      "latitude": 35.0565276,
      "longitude": 132.3133153,
      "countryCode": "jp",
      "rawTags": {
        "KSJ2:LIN": "山陰線",
        "KSJ2:STN": "黒松",
        "name": "黒松",
        "name:en": "Kuromatsu",
        "name:ja": "黒松",
        "name:ko": "구로마쓰",
        "note": "National-Land Numerical Information (Railway) 2007, MLIT Japan",
        "note:ja": "国土数値情報（鉄道データ）平成19年　国土交通省",
        "railway": "station",
        "source": "KSJ2",
        "source_ref": "http://nlftp.mlit.go.jp/ksj/jpgis/datalist/KsjTmplt-N02-v1_1.html",
        "wikidata": "Q6446347",
        "wikipedia": "ja:黒松駅 (島根県)"
      }
    },
    {
      "id": "shimane_station_265995256",
      "osmId": 265995256,
      "osmType": "node",
      "prefectureId": "shimane",
      "type": "station",
      "subtype": "private",
      "name": "揖屋",
      "nameKana": null,
      "nameEn": "Iya",
      "operator": null,
      "network": null,
      "ref": null,
      "latitude": 35.4279397,
      "longitude": 133.1494152,
      "countryCode": "jp",
      "rawTags": {
        "KSJ2:LIN": "山陰線",
        "KSJ2:STN": "揖屋",
        "addr:city": "松江市",
        "addr:neighbourhood": "揖屋",
        "addr:postcode": "699-0101",
        "addr:province": "島根県",
        "addr:quarter": "東出雲町",
        "name": "揖屋",
        "name:en": "Iya",
        "name:ja": "揖屋",
        "name:ko": "이야",
        "note": "National-Land Numerical Information (Railway) 2007, MLIT Japan",
        "note:ja": "国土数値情報（鉄道データ）平成19年　国土交通省",
        "public_transport": "station",
        "railway": "station",
        "source": "KSJ2",
        "source_ref": "http://nlftp.mlit.go.jp/ksj/jpgis/datalist/KsjTmplt-N02-v1_1.html",
        "train": "yes",
        "wikidata": "Q5357033",
        "wikipedia": "ja:揖屋駅"
      }
    },
    {
      "id": "shimane_station_265995650",
      "osmId": 265995650,
      "osmType": "node",
      "prefectureId": "shimane",
      "type": "station",
      "subtype": "private",
      "name": "波根",
      "nameKana": null,
      "nameEn": "Hane",
      "operator": null,
      "network": null,
      "ref": null,
      "latitude": 35.2401325,
      "longitude": 132.5260182,
      "countryCode": "jp",
      "rawTags": {
        "KSJ2:LIN": "山陰線",
        "KSJ2:STN": "波根",
        "name": "波根",
        "name:en": "Hane",
        "name:ja": "波根",
        "name:ko": "하네",
        "note": "National-Land Numerical Information (Railway) 2007, MLIT Japan",
        "note:ja": "国土数値情報（鉄道データ）平成19年　国土交通省",
        "railway": "station",
        "source": "KSJ2",
        "source_ref": "http://nlftp.mlit.go.jp/ksj/jpgis/datalist/KsjTmplt-N02-v1_1.html",
        "wikidata": "Q5355802",
        "wikipedia": "ja:波根駅"
      }
    },
    {
      "id": "shimane_station_265996520",
      "osmId": 265996520,
      "osmType": "node",
      "prefectureId": "shimane",
      "type": "station",
      "subtype": "private",
      "name": "久手",
      "nameKana": null,
      "nameEn": "Kute",
      "operator": null,
      "network": null,
      "ref": null,
      "latitude": 35.2294547,
      "longitude": 132.5082435,
      "countryCode": "jp",
      "rawTags": {
        "KSJ2:LIN": "山陰線",
        "KSJ2:STN": "久手",
        "name": "久手",
        "name:en": "Kute",
        "name:ja": "久手",
        "name:ko": "구테",
        "note": "National-Land Numerical Information (Railway) 2007, MLIT Japan",
        "note:ja": "国土数値情報（鉄道データ）平成19年　国土交通省",
        "public_transport": "station",
        "railway": "station",
        "source": "KSJ2",
        "source_ref": "http://nlftp.mlit.go.jp/ksj/jpgis/datalist/KsjTmplt-N02-v1_1.html",
        "wikidata": "Q8009740",
        "wikipedia": "ja:久手駅"
      }
    },
    {
      "id": "shimane_station_265996531",
      "osmId": 265996531,
      "osmType": "node",
      "prefectureId": "shimane",
      "type": "station",
      "subtype": "private",
      "name": "仁万",
      "nameKana": null,
      "nameEn": "Nima",
      "operator": null,
      "network": null,
      "ref": null,
      "latitude": 35.1510621,
      "longitude": 132.4035483,
      "countryCode": "jp",
      "rawTags": {
        "KSJ2:LIN": "山陰線",
        "KSJ2:STN": "仁万",
        "name": "仁万",
        "name:en": "Nima",
        "name:ja": "仁万",
        "name:ko": "니마",
        "note": "National-Land Numerical Information (Railway) 2007, MLIT Japan",
        "note:ja": "国土数値情報（鉄道データ）平成19年　国土交通省",
        "public_transport": "station",
        "railway": "station",
        "source": "KSJ2",
        "source_ref": "http://nlftp.mlit.go.jp/ksj/jpgis/datalist/KsjTmplt-N02-v1_1.html",
        "wikidata": "Q5355961",
        "wikipedia": "ja:仁万駅"
      }
    },
    {
      "id": "shimane_station_265996543",
      "osmId": 265996543,
      "osmType": "node",
      "prefectureId": "shimane",
      "type": "station",
      "subtype": "private",
      "name": "五十猛",
      "nameKana": null,
      "nameEn": "Isotake",
      "operator": null,
      "network": null,
      "ref": null,
      "latitude": 35.1926455,
      "longitude": 132.4401876,
      "countryCode": "jp",
      "rawTags": {
        "KSJ2:LIN": "山陰線",
        "KSJ2:STN": "五十猛",
        "name": "五十猛",
        "name:en": "Isotake",
        "name:ja": "五十猛",
        "name:ko": "이소타케",
        "note": "National-Land Numerical Information (Railway) 2007, MLIT Japan",
        "note:ja": "国土数値情報（鉄道データ）平成19年　国土交通省",
        "public_transport": "station",
        "railway": "station",
        "source": "KSJ2",
        "source_ref": "http://nlftp.mlit.go.jp/ksj/jpgis/datalist/KsjTmplt-N02-v1_1.html",
        "wikidata": "Q5355692",
        "wikipedia": "ja:五十猛駅"
      }
    },
    {
      "id": "shimane_station_265996760",
      "osmId": 265996760,
      "osmType": "node",
      "prefectureId": "shimane",
      "type": "station",
      "subtype": "private",
      "name": "石見津田",
      "nameKana": null,
      "nameEn": "Iwami-Tsuda",
      "operator": null,
      "network": null,
      "ref": null,
      "latitude": 34.7227048,
      "longitude": 131.8647786,
      "countryCode": "jp",
      "rawTags": {
        "KSJ2:LIN": "山陰線",
        "KSJ2:STN": "石見津田",
        "name": "石見津田",
        "name:en": "Iwami-Tsuda",
        "name:ja": "石見津田",
        "name:ko": "이와미쓰다",
        "note": "National-Land Numerical Information (Railway) 2007, MLIT Japan",
        "note:ja": "国土数値情報（鉄道データ）平成19年　国土交通省",
        "public_transport": "station",
        "railway": "station",
        "source": "KSJ2",
        "source_ref": "http://nlftp.mlit.go.jp/ksj/jpgis/datalist/KsjTmplt-N02-v1_1.html",
        "wikidata": "Q6100471",
        "wikipedia": "ja:石見津田駅"
      }
    },
    {
      "id": "shimane_station_265996923",
      "osmId": 265996923,
      "osmType": "node",
      "prefectureId": "shimane",
      "type": "station",
      "subtype": "private",
      "name": "岡見",
      "nameKana": "おかみ",
      "nameEn": "Okami",
      "operator": null,
      "network": null,
      "ref": null,
      "latitude": 34.7718592,
      "longitude": 131.9126844,
      "countryCode": "jp",
      "rawTags": {
        "KSJ2:LIN": "山陰線",
        "KSJ2:STN": "岡見",
        "name": "岡見",
        "name:en": "Okami",
        "name:ja": "岡見",
        "name:ja-Hira": "おかみ",
        "name:ko": "오카미",
        "note": "National-Land Numerical Information (Railway) 2007, MLIT Japan",
        "note:ja": "国土数値情報（鉄道データ）平成19年　国土交通省",
        "public_transport": "station",
        "railway": "station",
        "source": "KSJ2",
        "source_ref": "http://nlftp.mlit.go.jp/ksj/jpgis/datalist/KsjTmplt-N02-v1_1.html",
        "wikidata": "Q7081763",
        "wikipedia": "ja:岡見駅"
      }
    },
    {
      "id": "shimane_station_265997159",
      "osmId": 265997159,
      "osmType": "node",
      "prefectureId": "shimane",
      "type": "station",
      "subtype": "private",
      "name": "周布",
      "nameKana": null,
      "nameEn": "Sufu",
      "operator": null,
      "network": null,
      "ref": null,
      "latitude": 34.8583757,
      "longitude": 132.0174234,
      "countryCode": "jp",
      "rawTags": {
        "KSJ2:LIN": "山陰線",
        "KSJ2:STN": "周布",
        "name": "周布",
        "name:en": "Sufu",
        "name:ja": "周布",
        "name:ko": "스후",
        "note": "National-Land Numerical Information (Railway) 2007, MLIT Japan",
        "note:ja": "国土数値情報（鉄道データ）平成19年　国土交通省",
        "public_transport": "station",
        "railway": "station",
        "source": "KSJ2",
        "source_ref": "http://nlftp.mlit.go.jp/ksj/jpgis/datalist/KsjTmplt-N02-v1_1.html",
        "wikidata": "Q3701458",
        "wikipedia": "ja:周布駅"
      }
    },
    {
      "id": "shimane_station_265997276",
      "osmId": 265997276,
      "osmType": "node",
      "prefectureId": "shimane",
      "type": "station",
      "subtype": "private",
      "name": "大田市",
      "nameKana": null,
      "nameEn": "Ōdashi",
      "operator": null,
      "network": null,
      "ref": null,
      "latitude": 35.2010087,
      "longitude": 132.4995041,
      "countryCode": "jp",
      "rawTags": {
        "KSJ2:LIN": "山陰線",
        "KSJ2:STN": "大田市",
        "contact:website": "https://www.jr-odekake.net/eki/top?id=0640748",
        "name": "大田市",
        "name:en": "Ōdashi",
        "name:ja": "大田市",
        "name:ko": "오다시",
        "note": "National-Land Numerical Information (Railway) 2007, MLIT Japan",
        "note:ja": "国土数値情報（鉄道データ）平成19年　国土交通省",
        "public_transport": "station",
        "railway": "station",
        "source": "KSJ2",
        "source_ref": "http://nlftp.mlit.go.jp/ksj/jpgis/datalist/KsjTmplt-N02-v1_1.html",
        "wikidata": "Q5356122",
        "wikipedia": "ja:大田市駅"
      }
    },
    {
      "id": "shimane_station_266026234",
      "osmId": 266026234,
      "osmType": "node",
      "prefectureId": "shimane",
      "type": "station",
      "subtype": "private",
      "name": "浅利",
      "nameKana": null,
      "nameEn": "Asari",
      "operator": null,
      "network": null,
      "ref": null,
      "latitude": 35.0370219,
      "longitude": 132.2748845,
      "countryCode": "jp",
      "rawTags": {
        "KSJ2:LIN": "山陰線",
        "KSJ2:STN": "浅利",
        "name": "浅利",
        "name:en": "Asari",
        "name:ja": "浅利",
        "name:ko": "아사리",
        "note": "National-Land Numerical Information (Railway) 2007, MLIT Japan",
        "note:ja": "国土数値情報（鉄道データ）平成19年　国土交通省",
        "railway": "station",
        "source": "KSJ2",
        "source_ref": "http://nlftp.mlit.go.jp/ksj/jpgis/datalist/KsjTmplt-N02-v1_1.html",
        "wikidata": "Q4803613",
        "wikipedia": "ja:浅利駅"
      }
    },
    {
      "id": "shimane_station_266026376",
      "osmId": 266026376,
      "osmType": "node",
      "prefectureId": "shimane",
      "type": "station",
      "subtype": "private",
      "name": "久代",
      "nameKana": null,
      "nameEn": "Kushiro",
      "operator": null,
      "network": null,
      "ref": null,
      "latitude": 34.9496285,
      "longitude": 132.1392853,
      "countryCode": "jp",
      "rawTags": {
        "KSJ2:LIN": "山陰線",
        "KSJ2:STN": "久代",
        "name": "久代",
        "name:en": "Kushiro",
        "name:ja": "久代",
        "name:ko": "구시로",
        "note": "National-Land Numerical Information (Railway) 2007, MLIT Japan",
        "note:ja": "国土数値情報（鉄道データ）平成19年　国土交通省",
        "railway": "station",
        "source": "KSJ2",
        "source_ref": "http://nlftp.mlit.go.jp/ksj/jpgis/datalist/KsjTmplt-N02-v1_1.html",
        "wikidata": "Q3969877",
        "wikipedia": "ja:久代駅"
      }
    },
    {
      "id": "shimane_station_266026708",
      "osmId": 266026708,
      "osmType": "node",
      "prefectureId": "shimane",
      "type": "station",
      "subtype": "private",
      "name": "静間",
      "nameKana": null,
      "nameEn": "Shizuma",
      "operator": null,
      "network": null,
      "ref": null,
      "latitude": 35.1954073,
      "longitude": 132.4680319,
      "countryCode": "jp",
      "rawTags": {
        "KSJ2:LIN": "山陰線",
        "KSJ2:STN": "静間",
        "name": "静間",
        "name:en": "Shizuma",
        "name:ja": "静間",
        "name:ko": "시즈마",
        "note": "National-Land Numerical Information (Railway) 2007, MLIT Japan",
        "note:ja": "国土数値情報（鉄道データ）平成19年　国土交通省",
        "public_transport": "station",
        "railway": "station",
        "source": "KSJ2",
        "source_ref": "http://nlftp.mlit.go.jp/ksj/jpgis/datalist/KsjTmplt-N02-v1_1.html",
        "wikidata": "Q5356765",
        "wikipedia": "ja:静間駅"
      }
    },
    {
      "id": "shimane_station_266027365",
      "osmId": 266027365,
      "osmType": "node",
      "prefectureId": "shimane",
      "type": "station",
      "subtype": "private",
      "name": "折居",
      "nameKana": null,
      "nameEn": "Orii",
      "operator": null,
      "network": null,
      "ref": null,
      "latitude": 34.8264137,
      "longitude": 131.9868236,
      "countryCode": "jp",
      "rawTags": {
        "KSJ2:LIN": "山陰線",
        "KSJ2:STN": "折居",
        "name": "折居",
        "name:en": "Orii",
        "name:ja": "折居",
        "name:ko": "오리이",
        "note": "National-Land Numerical Information (Railway) 2007, MLIT Japan",
        "note:ja": "国土数値情報（鉄道データ）平成19年　国土交通省",
        "public_transport": "station",
        "railway": "station",
        "source": "KSJ2",
        "source_ref": "http://nlftp.mlit.go.jp/ksj/jpgis/datalist/KsjTmplt-N02-v1_1.html",
        "wikidata": "Q7102659",
        "wikipedia": "ja:折居駅"
      }
    },
    {
      "id": "shimane_station_266027372",
      "osmId": 266027372,
      "osmType": "node",
      "prefectureId": "shimane",
      "type": "station",
      "subtype": "private",
      "name": "石見福光",
      "nameKana": null,
      "nameEn": "Iwami-Fukumitsu",
      "operator": null,
      "network": null,
      "ref": null,
      "latitude": 35.0766789,
      "longitude": 132.3291448,
      "countryCode": "jp",
      "rawTags": {
        "KSJ2:LIN": "山陰線",
        "KSJ2:STN": "石見福光",
        "name": "石見福光",
        "name:en": "Iwami-Fukumitsu",
        "name:ja": "石見福光",
        "name:ko": "이와미후쿠미쓰",
        "note": "National-Land Numerical Information (Railway) 2007, MLIT Japan",
        "note:ja": "国土数値情報（鉄道データ）平成19年　国土交通省",
        "railway": "station",
        "source": "KSJ2",
        "source_ref": "http://nlftp.mlit.go.jp/ksj/jpgis/datalist/KsjTmplt-N02-v1_1.html",
        "wikidata": "Q5355394",
        "wikipedia": "ja:石見福光駅"
      }
    },
    {
      "id": "shimane_station_266027386",
      "osmId": 266027386,
      "osmType": "node",
      "prefectureId": "shimane",
      "type": "station",
      "subtype": "private",
      "name": "戸田小浜",
      "nameKana": null,
      "nameEn": "Todakohama",
      "operator": null,
      "network": null,
      "ref": null,
      "latitude": 34.6731016,
      "longitude": 131.7383649,
      "countryCode": "jp",
      "rawTags": {
        "KSJ2:LIN": "山陰線",
        "KSJ2:STN": "戸田小浜",
        "name": "戸田小浜",
        "name:en": "Todakohama",
        "name:ja": "戸田小浜",
        "name:ko": "도다코하마",
        "note": "National-Land Numerical Information (Railway) 2007, MLIT Japan",
        "note:ja": "国土数値情報（鉄道データ）平成19年　国土交通省",
        "public_transport": "station",
        "railway": "station",
        "source": "KSJ2",
        "source_ref": "http://nlftp.mlit.go.jp/ksj/jpgis/datalist/KsjTmplt-N02-v1_1.html",
        "wikidata": "Q7812125",
        "wikipedia": "ja:戸田小浜駅"
      }
    },
    {
      "id": "shimane_station_266027978",
      "osmId": 266027978,
      "osmType": "node",
      "prefectureId": "shimane",
      "type": "station",
      "subtype": "private",
      "name": "鎌手",
      "nameKana": null,
      "nameEn": "Kamate",
      "operator": null,
      "network": null,
      "ref": null,
      "latitude": 34.7517803,
      "longitude": 131.8784934,
      "countryCode": "jp",
      "rawTags": {
        "KSJ2:LIN": "山陰線",
        "KSJ2:STN": "鎌手",
        "name": "鎌手",
        "name:en": "Kamate",
        "name:ja": "鎌手",
        "name:ko": "가마테",
        "note": "National-Land Numerical Information (Railway) 2007, MLIT Japan",
        "note:ja": "国土数値情報（鉄道データ）平成19年　国土交通省",
        "public_transport": "station",
        "railway": "station",
        "source": "KSJ2",
        "source_ref": "http://nlftp.mlit.go.jp/ksj/jpgis/datalist/KsjTmplt-N02-v1_1.html",
        "wikidata": "Q6356165",
        "wikipedia": "ja:鎌手駅"
      }
    },
    {
      "id": "shimane_station_266029757",
      "osmId": 266029757,
      "osmType": "node",
      "prefectureId": "shimane",
      "type": "station",
      "subtype": "private",
      "name": "都野津",
      "nameKana": null,
      "nameEn": "Tsunozu",
      "operator": null,
      "network": null,
      "ref": null,
      "latitude": 34.9896909,
      "longitude": 132.1875155,
      "countryCode": "jp",
      "rawTags": {
        "KSJ2:LIN": "山陰線",
        "KSJ2:STN": "都野津",
        "name": "都野津",
        "name:en": "Tsunozu",
        "name:ja": "都野津",
        "name:ko": "쓰노즈",
        "note": "National-Land Numerical Information (Railway) 2007, MLIT Japan",
        "note:ja": "国土数値情報（鉄道データ）平成19年　国土交通省",
        "railway": "station",
        "source": "KSJ2",
        "source_ref": "http://nlftp.mlit.go.jp/ksj/jpgis/datalist/KsjTmplt-N02-v1_1.html",
        "wikidata": "Q7850238",
        "wikipedia": "ja:都野津駅"
      }
    },
    {
      "id": "shimane_station_266029815",
      "osmId": 266029815,
      "osmType": "node",
      "prefectureId": "shimane",
      "type": "station",
      "subtype": "private",
      "name": "湯里",
      "nameKana": null,
      "nameEn": "Yusato",
      "operator": null,
      "network": null,
      "ref": null,
      "latitude": 35.1064397,
      "longitude": 132.3755506,
      "countryCode": "jp",
      "rawTags": {
        "KSJ2:LIN": "山陰線",
        "KSJ2:STN": "湯里",
        "name": "湯里",
        "name:en": "Yusato",
        "name:ja": "湯里",
        "name:ko": "유사토",
        "note": "National-Land Numerical Information (Railway) 2007, MLIT Japan",
        "note:ja": "国土数値情報（鉄道データ）平成19年　国土交通省",
        "railway": "station",
        "source": "KSJ2",
        "source_ref": "http://nlftp.mlit.go.jp/ksj/jpgis/datalist/KsjTmplt-N02-v1_1.html",
        "wikidata": "Q5355643",
        "wikipedia": "ja:湯里駅"
      }
    },
    {
      "id": "shimane_station_266029820",
      "osmId": 266029820,
      "osmType": "node",
      "prefectureId": "shimane",
      "type": "station",
      "subtype": "private",
      "name": "馬路",
      "nameKana": null,
      "nameEn": "Maji",
      "operator": null,
      "network": null,
      "ref": null,
      "latitude": 35.1285664,
      "longitude": 132.3881677,
      "countryCode": "jp",
      "rawTags": {
        "KSJ2:LIN": "山陰線",
        "KSJ2:STN": "馬路",
        "name": "馬路",
        "name:en": "Maji",
        "name:ja": "馬路",
        "name:ko": "마지",
        "note": "National-Land Numerical Information (Railway) 2007, MLIT Japan",
        "note:ja": "国土数値情報（鉄道データ）平成19年　国土交通省",
        "public_transport": "station",
        "railway": "station",
        "source": "KSJ2",
        "source_ref": "http://nlftp.mlit.go.jp/ksj/jpgis/datalist/KsjTmplt-N02-v1_1.html",
        "wikidata": "Q5356662",
        "wikipedia": "ja:馬路駅"
      }
    },
    {
      "id": "shimane_station_266031564",
      "osmId": 266031564,
      "osmType": "node",
      "prefectureId": "shimane",
      "type": "station",
      "subtype": "private",
      "name": "飯浦",
      "nameKana": null,
      "nameEn": "Iinoura",
      "operator": null,
      "network": null,
      "ref": null,
      "latitude": 34.6688193,
      "longitude": 131.7021649,
      "countryCode": "jp",
      "rawTags": {
        "KSJ2:LIN": "山陰線",
        "KSJ2:STN": "飯浦",
        "name": "飯浦",
        "name:en": "Iinoura",
        "name:ja": "飯浦",
        "name:ko": "이노우라",
        "note": "National-Land Numerical Information (Railway) 2007, MLIT Japan",
        "note:ja": "国土数値情報（鉄道データ）平成19年　国土交通省",
        "railway": "station",
        "source": "KSJ2",
        "source_ref": "http://nlftp.mlit.go.jp/ksj/jpgis/datalist/KsjTmplt-N02-v1_1.html",
        "wikidata": "Q11666447",
        "wikipedia": "ja:飯浦駅"
      }
    },
    {
      "id": "shimane_station_266063809",
      "osmId": 266063809,
      "osmType": "node",
      "prefectureId": "shimane",
      "type": "station",
      "subtype": "private",
      "name": "本俣賀",
      "nameKana": null,
      "nameEn": "Honmataga",
      "operator": null,
      "network": null,
      "ref": null,
      "latitude": 34.6525586,
      "longitude": 131.8269928,
      "countryCode": "jp",
      "rawTags": {
        "KSJ2:LIN": "山口線",
        "KSJ2:STN": "本俣賀",
        "name": "本俣賀",
        "name:en": "Honmataga",
        "name:ja": "本俣賀",
        "name:ko": "혼마타가",
        "note": "National-Land Numerical Information (Railway) 2007, MLIT Japan",
        "note:ja": "国土数値情報（鉄道データ）平成19年　国土交通省",
        "railway": "station",
        "source": "KSJ2",
        "source_ref": "http://nlftp.mlit.go.jp/ksj/jpgis/datalist/KsjTmplt-N02-v1_1.html",
        "wikidata": "Q5896554",
        "wikipedia": "ja:本俣賀駅"
      }
    },
    {
      "id": "shimane_station_266063999",
      "osmId": 266063999,
      "osmType": "node",
      "prefectureId": "shimane",
      "type": "station",
      "subtype": "private",
      "name": "青野山",
      "nameKana": null,
      "nameEn": "Aonoyama",
      "operator": null,
      "network": null,
      "ref": null,
      "latitude": 34.481042,
      "longitude": 131.802836,
      "countryCode": "jp",
      "rawTags": {
        "KSJ2:LIN": "山口線",
        "KSJ2:STN": "青野山",
        "name": "青野山",
        "name:en": "Aonoyama",
        "name:ja": "青野山",
        "name:ko": "아오노야마",
        "note": "National-Land Numerical Information (Railway) 2007, MLIT Japan",
        "note:ja": "国土数値情報（鉄道データ）平成19年　国土交通省",
        "railway": "station",
        "source": "KSJ2",
        "source_ref": "http://nlftp.mlit.go.jp/ksj/jpgis/datalist/KsjTmplt-N02-v1_1.html",
        "wikidata": "Q4778712",
        "wikipedia": "ja:青野山駅"
      }
    },
    {
      "id": "shimane_station_266064370",
      "osmId": 266064370,
      "osmType": "node",
      "prefectureId": "shimane",
      "type": "station",
      "subtype": "private",
      "name": "津和野",
      "nameKana": null,
      "nameEn": "Tsuwano",
      "operator": null,
      "network": null,
      "ref": null,
      "latitude": 34.4731443,
      "longitude": 131.774024,
      "countryCode": "jp",
      "rawTags": {
        "KSJ2:LIN": "山口線",
        "KSJ2:STN": "津和野",
        "contact:website": "https://www.jr-odekake.net/eki/top?id=0801917",
        "name": "津和野",
        "name:en": "Tsuwano",
        "name:ja": "津和野",
        "name:ko": "쓰와노",
        "note": "National-Land Numerical Information (Railway) 2007, MLIT Japan",
        "note:ja": "国土数値情報（鉄道データ）平成19年　国土交通省",
        "public_transport": "station",
        "railway": "station",
        "source": "KSJ2",
        "source_ref": "http://nlftp.mlit.go.jp/ksj/jpgis/datalist/KsjTmplt-N02-v1_1.html",
        "wikidata": "Q7850356",
        "wikipedia": "ja:津和野駅"
      }
    },
    {
      "id": "shimane_station_266064887",
      "osmId": 266064887,
      "osmType": "node",
      "prefectureId": "shimane",
      "type": "station",
      "subtype": "private",
      "name": "青原",
      "nameKana": null,
      "nameEn": "Aohara",
      "operator": null,
      "network": null,
      "ref": null,
      "latitude": 34.5602093,
      "longitude": 131.8007579,
      "countryCode": "jp",
      "rawTags": {
        "KSJ2:LIN": "山口線",
        "KSJ2:STN": "青原",
        "name": "青原",
        "name:en": "Aohara",
        "name:ja": "青原",
        "name:ko": "아오하라",
        "note": "National-Land Numerical Information (Railway) 2007, MLIT Japan",
        "note:ja": "国土数値情報（鉄道データ）平成19年　国土交通省",
        "railway": "station",
        "source": "KSJ2",
        "source_ref": "http://nlftp.mlit.go.jp/ksj/jpgis/datalist/KsjTmplt-N02-v1_1.html",
        "wikidata": "Q4778611",
        "wikipedia": "ja:青原駅"
      }
    },
    {
      "id": "shimane_station_266078129",
      "osmId": 266078129,
      "osmType": "node",
      "prefectureId": "shimane",
      "type": "station",
      "subtype": "private",
      "name": "石見松原",
      "nameKana": null,
      "nameEn": "Iwami-Matsubara",
      "operator": null,
      "network": null,
      "ref": null,
      "latitude": 34.9931893,
      "longitude": 132.6150966,
      "countryCode": "jp",
      "rawTags": {
        "KSJ2:LIN": "三江線",
        "KSJ2:STN": "石見松原",
        "name": "石見松原",
        "name:en": "Iwami-Matsubara",
        "name:ja": "石見松原",
        "name:ko": "이와미마쓰바라",
        "note": "National-Land Numerical Information (Railway) 2007, MLIT Japan",
        "note:ja": "国土数値情報（鉄道データ）平成19年　国土交通省",
        "railway": "station",
        "source": "KSJ2",
        "source_ref": "http://nlftp.mlit.go.jp/ksj/jpgis/datalist/KsjTmplt-N02-v1_1.html",
        "wikidata": "Q6100483",
        "wikipedia": "ja:石見松原駅"
      }
    },
    {
      "id": "shimane_station_266078134",
      "osmId": 266078134,
      "osmType": "node",
      "prefectureId": "shimane",
      "type": "station",
      "subtype": "private",
      "name": "石見簗瀬",
      "nameKana": null,
      "nameEn": "Iwami-Yanaze",
      "operator": null,
      "network": null,
      "ref": null,
      "latitude": 35.0424097,
      "longitude": 132.5658669,
      "countryCode": "jp",
      "rawTags": {
        "KSJ2:LIN": "三江線",
        "KSJ2:STN": "石見簗瀬",
        "name": "石見簗瀬",
        "name:en": "Iwami-Yanaze",
        "name:ja": "石見簗瀬",
        "name:ko": "이와미야나제",
        "note": "National-Land Numerical Information (Railway) 2007, MLIT Japan",
        "note:ja": "国土数値情報（鉄道データ）平成19年　国土交通省",
        "railway": "station",
        "source": "KSJ2",
        "source_ref": "http://nlftp.mlit.go.jp/ksj/jpgis/datalist/KsjTmplt-N02-v1_1.html",
        "wikidata": "Q6100498",
        "wikipedia": "ja:石見簗瀬駅"
      }
    },
    {
      "id": "shimane_station_266078140",
      "osmId": 266078140,
      "osmType": "node",
      "prefectureId": "shimane",
      "type": "station",
      "subtype": "private",
      "name": "石見都賀",
      "nameKana": null,
      "nameEn": "Iwami-Tsuga",
      "operator": null,
      "network": null,
      "ref": null,
      "latitude": 34.9566074,
      "longitude": 132.6427262,
      "countryCode": "jp",
      "rawTags": {
        "KSJ2:LIN": "三江線",
        "KSJ2:STN": "石見都賀",
        "name": "石見都賀",
        "name:en": "Iwami-Tsuga",
        "name:ja": "石見都賀",
        "name:ko": "이와미쓰가",
        "note": "National-Land Numerical Information (Railway) 2007, MLIT Japan",
        "note:ja": "国土数値情報（鉄道データ）平成19年　国土交通省",
        "railway": "station",
        "source": "KSJ2",
        "source_ref": "http://nlftp.mlit.go.jp/ksj/jpgis/datalist/KsjTmplt-N02-v1_1.html",
        "wikidata": "Q3661739",
        "wikipedia": "ja:石見都賀駅"
      }
    },
    {
      "id": "shimane_station_266078144",
      "osmId": 266078144,
      "osmType": "node",
      "prefectureId": "shimane",
      "type": "station",
      "subtype": "private",
      "name": "明塚",
      "nameKana": null,
      "nameEn": "Akatsuka",
      "operator": null,
      "network": null,
      "ref": null,
      "latitude": 35.0492512,
      "longitude": 132.583902,
      "countryCode": "jp",
      "rawTags": {
        "KSJ2:LIN": "三江線",
        "KSJ2:STN": "明塚",
        "name": "明塚",
        "name:en": "Akatsuka",
        "name:ja": "明塚",
        "name:ko": "아카쓰카",
        "note": "National-Land Numerical Information (Railway) 2007, MLIT Japan",
        "note:ja": "国土数値情報（鉄道データ）平成19年　国土交通省",
        "railway": "station",
        "source": "KSJ2",
        "source_ref": "http://nlftp.mlit.go.jp/ksj/jpgis/datalist/KsjTmplt-N02-v1_1.html",
        "wikidata": "Q4700367",
        "wikipedia": "ja:明塚駅"
      }
    },
    {
      "id": "shimane_station_266078477",
      "osmId": 266078477,
      "osmType": "node",
      "prefectureId": "shimane",
      "type": "station",
      "subtype": "private",
      "name": "沢谷",
      "nameKana": null,
      "nameEn": "Sawadani",
      "operator": null,
      "network": null,
      "ref": null,
      "latitude": 35.0578234,
      "longitude": 132.6350442,
      "countryCode": "jp",
      "rawTags": {
        "KSJ2:LIN": "三江線",
        "KSJ2:STN": "沢谷",
        "name": "沢谷",
        "name:en": "Sawadani",
        "name:ja": "沢谷",
        "name:ko": "사와다니",
        "note": "National-Land Numerical Information (Railway) 2007, MLIT Japan",
        "note:ja": "国土数値情報（鉄道データ）平成19年　国土交通省",
        "railway": "station",
        "source": "KSJ2",
        "source_ref": "http://nlftp.mlit.go.jp/ksj/jpgis/datalist/KsjTmplt-N02-v1_1.html",
        "wikidata": "Q7428535",
        "wikipedia": "ja:沢谷駅"
      }
    },
    {
      "id": "shimane_station_266078479",
      "osmId": 266078479,
      "osmType": "node",
      "prefectureId": "shimane",
      "type": "station",
      "subtype": "private",
      "name": "潮",
      "nameKana": null,
      "nameEn": "Ushio",
      "operator": null,
      "network": null,
      "ref": null,
      "latitude": 35.0156311,
      "longitude": 132.6323353,
      "countryCode": "jp",
      "rawTags": {
        "KSJ2:LIN": "三江線",
        "KSJ2:STN": "潮",
        "name": "潮",
        "name:en": "Ushio",
        "name:ja": "潮",
        "name:ko": "우시오",
        "note": "National-Land Numerical Information (Railway) 2007, MLIT Japan",
        "note:ja": "国土数値情報（鉄道データ）平成19年　国土交通省",
        "railway": "station",
        "source": "KSJ2",
        "source_ref": "http://nlftp.mlit.go.jp/ksj/jpgis/datalist/KsjTmplt-N02-v1_1.html",
        "wikidata": "Q7901952",
        "wikipedia": "ja:潮駅"
      }
    },
    {
      "id": "shimane_station_266079048",
      "osmId": 266079048,
      "osmType": "node",
      "prefectureId": "shimane",
      "type": "station",
      "subtype": "private",
      "name": "浜原",
      "nameKana": null,
      "nameEn": "Hamahara",
      "operator": null,
      "network": null,
      "ref": null,
      "latitude": 35.0598737,
      "longitude": 132.5994329,
      "countryCode": "jp",
      "rawTags": {
        "KSJ2:LIN": "三江線",
        "KSJ2:STN": "浜原",
        "name": "浜原",
        "name:en": "Hamahara",
        "name:ja": "浜原",
        "name:ko": "하마하라",
        "note": "National-Land Numerical Information (Railway) 2007, MLIT Japan",
        "note:ja": "国土数値情報（鉄道データ）平成19年　国土交通省",
        "railway": "station",
        "source": "KSJ2",
        "source_ref": "http://nlftp.mlit.go.jp/ksj/jpgis/datalist/KsjTmplt-N02-v1_1.html",
        "wikidata": "Q5643997",
        "wikipedia": "ja:浜原駅"
      }
    },
    {
      "id": "shimane_station_266079050",
      "osmId": 266079050,
      "osmType": "node",
      "prefectureId": "shimane",
      "type": "station",
      "subtype": "private",
      "name": "粕淵",
      "nameKana": null,
      "nameEn": "Kasubuchi",
      "operator": null,
      "network": null,
      "ref": null,
      "latitude": 35.072514,
      "longitude": 132.593449,
      "countryCode": "jp",
      "rawTags": {
        "KSJ2:LIN": "三江線",
        "KSJ2:STN": "粕淵",
        "name": "粕淵",
        "name:en": "Kasubuchi",
        "name:ja": "粕淵",
        "name:ko": "가스부치",
        "note": "National-Land Numerical Information (Railway) 2007, MLIT Japan",
        "note:ja": "国土数値情報（鉄道データ）平成19年　国土交通省",
        "railway": "station",
        "source": "KSJ2",
        "source_ref": "http://nlftp.mlit.go.jp/ksj/jpgis/datalist/KsjTmplt-N02-v1_1.html",
        "wikidata": "Q6374865",
        "wikipedia": "ja:粕淵駅"
      }
    },
    {
      "id": "shimane_station_266079313",
      "osmId": 266079313,
      "osmType": "node",
      "prefectureId": "shimane",
      "type": "station",
      "subtype": "private",
      "name": "江平",
      "nameKana": null,
      "nameEn": "Gobira",
      "operator": null,
      "network": null,
      "ref": null,
      "latitude": 34.875702,
      "longitude": 132.702179,
      "countryCode": "jp",
      "rawTags": {
        "KSJ2:LIN": "三江線",
        "KSJ2:STN": "江平",
        "name": "江平",
        "name:en": "Gobira",
        "name:ja": "江平",
        "name:ja_rm": "Gōbira",
        "name:ko": "고비라",
        "note": "National-Land Numerical Information (Railway) 2007, MLIT Japan",
        "note:ja": "国土数値情報（鉄道データ）平成19年　国土交通省",
        "railway": "station",
        "source": "KSJ2",
        "source_ref": "http://nlftp.mlit.go.jp/ksj/jpgis/datalist/KsjTmplt-N02-v1_1.html",
        "wikidata": "Q5627745",
        "wikipedia": "ja:江平駅"
      }
    },
    {
      "id": "shimane_station_266079340",
      "osmId": 266079340,
      "osmType": "node",
      "prefectureId": "shimane",
      "type": "station",
      "subtype": "private",
      "name": "作木口",
      "nameKana": null,
      "nameEn": "Sakugiguchi",
      "operator": null,
      "network": null,
      "ref": null,
      "latitude": 34.860656,
      "longitude": 132.706725,
      "countryCode": "jp",
      "rawTags": {
        "KSJ2:LIN": "三江線",
        "KSJ2:STN": "作木口",
        "name": "作木口",
        "name:en": "Sakugiguchi",
        "name:ja": "作木口",
        "name:ko": "사쿠기구치",
        "note": "National-Land Numerical Information (Railway) 2007, MLIT Japan",
        "note:ja": "国土数値情報（鉄道データ）平成19年　国土交通省",
        "railway": "station",
        "source": "KSJ2",
        "source_ref": "http://nlftp.mlit.go.jp/ksj/jpgis/datalist/KsjTmplt-N02-v1_1.html",
        "wikidata": "Q3661704",
        "wikipedia": "ja:作木口駅"
      }
    },
    {
      "id": "shimane_station_266079582",
      "osmId": 266079582,
      "osmType": "node",
      "prefectureId": "shimane",
      "type": "station",
      "subtype": "private",
      "name": "宇都井",
      "nameKana": null,
      "nameEn": "Uzui",
      "operator": null,
      "network": null,
      "ref": null,
      "latitude": 34.906668,
      "longitude": 132.629625,
      "countryCode": "jp",
      "rawTags": {
        "KSJ2:LIN": "三江線",
        "KSJ2:STN": "宇都井",
        "name": "宇都井",
        "name:en": "Uzui",
        "name:ja": "宇都井",
        "name:ko": "우즈이",
        "note": "National-Land Numerical Information (Railway) 2007, MLIT Japan",
        "note:ja": "国土数値情報（鉄道データ）平成19年　国土交通省",
        "railway": "station",
        "source": "KSJ2",
        "source_ref": "http://nlftp.mlit.go.jp/ksj/jpgis/datalist/KsjTmplt-N02-v1_1.html",
        "wikidata": "Q7905135",
        "wikipedia": "ja:宇都井駅"
      }
    },
    {
      "id": "shimane_station_266081128",
      "osmId": 266081128,
      "osmType": "node",
      "prefectureId": "shimane",
      "type": "station",
      "subtype": "private",
      "name": "鹿賀",
      "nameKana": null,
      "nameEn": "Shikaga",
      "operator": null,
      "network": null,
      "ref": null,
      "latitude": 34.9630679,
      "longitude": 132.4456067,
      "countryCode": "jp",
      "rawTags": {
        "KSJ2:LIN": "三江線",
        "KSJ2:STN": "鹿賀",
        "name": "鹿賀",
        "name:en": "Shikaga",
        "name:ja": "鹿賀",
        "name:ko": "시카가",
        "note": "National-Land Numerical Information (Railway) 2007, MLIT Japan",
        "note:ja": "国土数値情報（鉄道データ）平成19年　国土交通省",
        "railway": "station",
        "source": "KSJ2",
        "source_ref": "http://nlftp.mlit.go.jp/ksj/jpgis/datalist/KsjTmplt-N02-v1_1.html",
        "wikidata": "Q7496530",
        "wikipedia": "ja:鹿賀駅"
      }
    },
    {
      "id": "shimane_station_266081256",
      "osmId": 266081256,
      "osmType": "node",
      "prefectureId": "shimane",
      "type": "station",
      "subtype": "private",
      "name": "千金",
      "nameKana": null,
      "nameEn": "Chigane",
      "operator": null,
      "network": null,
      "ref": null,
      "latitude": 35.0017784,
      "longitude": 132.2497367,
      "countryCode": "jp",
      "rawTags": {
        "KSJ2:LIN": "三江線",
        "KSJ2:STN": "千金",
        "name": "千金",
        "name:en": "Chigane",
        "name:ja": "千金",
        "name:ko": "지가네",
        "note": "National-Land Numerical Information (Railway) 2007, MLIT Japan",
        "note:ja": "国土数値情報（鉄道データ）平成19年　国土交通省",
        "railway": "station",
        "source": "KSJ2",
        "source_ref": "http://nlftp.mlit.go.jp/ksj/jpgis/datalist/KsjTmplt-N02-v1_1.html",
        "wikidata": "Q5097200",
        "wikipedia": "ja:千金駅"
      }
    },
    {
      "id": "shimane_station_266081268",
      "osmId": 266081268,
      "osmType": "node",
      "prefectureId": "shimane",
      "type": "station",
      "subtype": "private",
      "name": "木路原",
      "nameKana": null,
      "nameEn": "Kirohara",
      "operator": null,
      "network": null,
      "ref": null,
      "latitude": 34.9970918,
      "longitude": 132.5082627,
      "countryCode": "jp",
      "rawTags": {
        "KSJ2:LIN": "三江線",
        "KSJ2:STN": "木路原",
        "name": "木路原",
        "name:en": "Kirohara",
        "name:ja": "木路原",
        "name:ko": "기로하라",
        "note": "National-Land Numerical Information (Railway) 2007, MLIT Japan",
        "note:ja": "国土数値情報（鉄道データ）平成19年　国土交通省",
        "railway": "station",
        "source": "KSJ2",
        "source_ref": "http://nlftp.mlit.go.jp/ksj/jpgis/datalist/KsjTmplt-N02-v1_1.html",
        "wikidata": "Q11519383",
        "wikipedia": "ja:木路原駅"
      }
    },
    {
      "id": "shimane_station_266083948",
      "osmId": 266083948,
      "osmType": "node",
      "prefectureId": "shimane",
      "type": "station",
      "subtype": "private",
      "name": "石見川本",
      "nameKana": null,
      "nameEn": "Iwami-Kawamoto",
      "operator": null,
      "network": null,
      "ref": null,
      "latitude": 34.9914164,
      "longitude": 132.4926553,
      "countryCode": "jp",
      "rawTags": {
        "KSJ2:LIN": "三江線",
        "KSJ2:STN": "石見川本",
        "name": "石見川本",
        "name:en": "Iwami-Kawamoto",
        "name:ja": "石見川本",
        "name:ko": "이와미카와모토",
        "note": "National-Land Numerical Information (Railway) 2007, MLIT Japan",
        "note:ja": "国土数値情報（鉄道データ）平成19年　国土交通省",
        "railway": "station",
        "source": "KSJ2",
        "source_ref": "http://nlftp.mlit.go.jp/ksj/jpgis/datalist/KsjTmplt-N02-v1_1.html",
        "wikidata": "Q6100486",
        "wikipedia": "ja:石見川本駅"
      }
    },
    {
      "id": "shimane_station_266084053",
      "osmId": 266084053,
      "osmType": "node",
      "prefectureId": "shimane",
      "type": "station",
      "subtype": "private",
      "name": "竹",
      "nameKana": null,
      "nameEn": "Take",
      "operator": null,
      "network": null,
      "ref": null,
      "latitude": 35.0129863,
      "longitude": 132.5300466,
      "countryCode": "jp",
      "rawTags": {
        "KSJ2:LIN": "三江線",
        "KSJ2:STN": "竹",
        "name": "竹",
        "name:en": "Take",
        "name:ja": "竹",
        "name:ko": "다케",
        "note": "National-Land Numerical Information (Railway) 2007, MLIT Japan",
        "note:ja": "国土数値情報（鉄道データ）平成19年　国土交通省",
        "railway": "station",
        "source": "KSJ2",
        "source_ref": "http://nlftp.mlit.go.jp/ksj/jpgis/datalist/KsjTmplt-N02-v1_1.html",
        "wikidata": "Q7677791",
        "wikipedia": "ja:竹駅"
      }
    },
    {
      "id": "shimane_station_266084377",
      "osmId": 266084377,
      "osmType": "node",
      "prefectureId": "shimane",
      "type": "station",
      "subtype": "private",
      "name": "石見川越",
      "nameKana": null,
      "nameEn": "Iwami-Kawagoe",
      "operator": null,
      "network": null,
      "ref": null,
      "latitude": 34.9498247,
      "longitude": 132.4150967,
      "countryCode": "jp",
      "rawTags": {
        "KSJ2:LIN": "三江線",
        "KSJ2:STN": "石見川越",
        "name": "石見川越",
        "name:en": "Iwami-Kawagoe",
        "name:ja": "石見川越",
        "name:ko": "이와미카와고에",
        "note": "National-Land Numerical Information (Railway) 2007, MLIT Japan",
        "note:ja": "国土数値情報（鉄道データ）平成19年　国土交通省",
        "railway": "station",
        "source": "KSJ2",
        "source_ref": "http://nlftp.mlit.go.jp/ksj/jpgis/datalist/KsjTmplt-N02-v1_1.html",
        "wikidata": "Q11587182",
        "wikipedia": "ja:石見川越駅"
      }
    },
    {
      "id": "shimane_station_266084437",
      "osmId": 266084437,
      "osmType": "node",
      "prefectureId": "shimane",
      "type": "station",
      "subtype": "private",
      "name": "川戸",
      "nameKana": null,
      "nameEn": "Kawado",
      "operator": null,
      "network": null,
      "ref": null,
      "latitude": 34.9598687,
      "longitude": 132.3334492,
      "countryCode": "jp",
      "rawTags": {
        "KSJ2:LIN": "三江線",
        "KSJ2:STN": "川戸",
        "name": "川戸",
        "name:en": "Kawado",
        "name:ja": "川戸",
        "name:ko": "가와도",
        "note": "National-Land Numerical Information (Railway) 2007, MLIT Japan",
        "note:ja": "国土数値情報（鉄道データ）平成19年　国土交通省",
        "railway": "station",
        "source": "KSJ2",
        "source_ref": "http://nlftp.mlit.go.jp/ksj/jpgis/datalist/KsjTmplt-N02-v1_1.html",
        "wikidata": "Q6379483",
        "wikipedia": "ja:川戸駅"
      }
    },
    {
      "id": "shimane_station_266084664",
      "osmId": 266084664,
      "osmType": "node",
      "prefectureId": "shimane",
      "type": "station",
      "subtype": "private",
      "name": "川平",
      "nameKana": null,
      "nameEn": "Kawahira",
      "operator": null,
      "network": null,
      "ref": null,
      "latitude": 34.9968834,
      "longitude": 132.2849596,
      "countryCode": "jp",
      "rawTags": {
        "KSJ2:LIN": "三江線",
        "KSJ2:STN": "川平",
        "name": "川平",
        "name:en": "Kawahira",
        "name:ja": "川平",
        "name:ko": "가와히라",
        "note": "National-Land Numerical Information (Railway) 2007, MLIT Japan",
        "note:ja": "国土数値情報（鉄道データ）平成19年　国土交通省",
        "railway": "station",
        "source": "KSJ2",
        "source_ref": "http://nlftp.mlit.go.jp/ksj/jpgis/datalist/KsjTmplt-N02-v1_1.html",
        "wikidata": "Q6379515",
        "wikipedia": "ja:川平駅"
      }
    },
    {
      "id": "shimane_station_266084761",
      "osmId": 266084761,
      "osmType": "node",
      "prefectureId": "shimane",
      "type": "station",
      "subtype": "private",
      "name": "乙原",
      "nameKana": null,
      "nameEn": "Ombara",
      "operator": null,
      "network": null,
      "ref": null,
      "latitude": 35.026529,
      "longitude": 132.54764,
      "countryCode": "jp",
      "rawTags": {
        "KSJ2:LIN": "三江線",
        "KSJ2:STN": "乙原",
        "name": "乙原",
        "name:en": "Ombara",
        "name:ja": "乙原",
        "name:ko": "온바라",
        "note": "National-Land Numerical Information (Railway) 2007, MLIT Japan",
        "note:ja": "国土数値情報（鉄道データ）平成19年　国土交通省",
        "railway": "station",
        "source": "KSJ2",
        "source_ref": "http://nlftp.mlit.go.jp/ksj/jpgis/datalist/KsjTmplt-N02-v1_1.html",
        "wikidata": "Q7091743",
        "wikipedia": "ja:乙原駅 (島根県)"
      }
    },
    {
      "id": "shimane_station_266085113",
      "osmId": 266085113,
      "osmType": "node",
      "prefectureId": "shimane",
      "type": "station",
      "subtype": "private",
      "name": "江津本町",
      "nameKana": null,
      "nameEn": "Gotsuhommachi",
      "operator": null,
      "network": null,
      "ref": null,
      "latitude": 35.006865,
      "longitude": 132.23051,
      "countryCode": "jp",
      "rawTags": {
        "KSJ2:LIN": "三江線",
        "KSJ2:STN": "江津本町",
        "name": "江津本町",
        "name:en": "Gotsuhommachi",
        "name:ja": "江津本町",
        "name:ko": "고쓰혼마치",
        "note": "National-Land Numerical Information (Railway) 2007, MLIT Japan",
        "note:ja": "国土数値情報（鉄道データ）平成19年　国土交通省",
        "railway": "station",
        "source": "KSJ2",
        "source_ref": "http://nlftp.mlit.go.jp/ksj/jpgis/datalist/KsjTmplt-N02-v1_1.html",
        "wikidata": "Q11551237",
        "wikipedia": "ja:江津本町駅"
      }
    },
    {
      "id": "shimane_station_266085118",
      "osmId": 266085118,
      "osmType": "node",
      "prefectureId": "shimane",
      "type": "station",
      "subtype": "private",
      "name": "田津",
      "nameKana": null,
      "nameEn": "Tazu",
      "operator": null,
      "network": null,
      "ref": null,
      "latitude": 34.9517089,
      "longitude": 132.3854045,
      "countryCode": "jp",
      "rawTags": {
        "KSJ2:LIN": "三江線",
        "KSJ2:STN": "田津",
        "name": "田津",
        "name:en": "Tazu",
        "name:ja": "田津",
        "name:ko": "다즈",
        "note": "National-Land Numerical Information (Railway) 2007, MLIT Japan",
        "note:ja": "国土数値情報（鉄道データ）平成19年　国土交通省",
        "railway": "station",
        "source": "KSJ2",
        "source_ref": "http://nlftp.mlit.go.jp/ksj/jpgis/datalist/KsjTmplt-N02-v1_1.html",
        "wikidata": "Q7690475",
        "wikipedia": "ja:田津駅"
      }
    },
    {
      "id": "shimane_station_266913453",
      "osmId": 266913453,
      "osmType": "node",
      "prefectureId": "shimane",
      "type": "station",
      "subtype": "private",
      "name": "出雲三成",
      "nameKana": null,
      "nameEn": "Izumo-Minari",
      "operator": null,
      "network": null,
      "ref": null,
      "latitude": 35.1964823,
      "longitude": 133.00992,
      "countryCode": "jp",
      "rawTags": {
        "KSJ2:LIN": "木次線",
        "KSJ2:STN": "出雲三成",
        "name": "出雲三成",
        "name:en": "Izumo-Minari",
        "name:ja": "出雲三成",
        "name:ko": "이즈모미나리",
        "note": "National-Land Numerical Information (Railway) 2007, MLIT Japan",
        "note:ja": "国土数値情報（鉄道データ）平成19年　国土交通省",
        "public_transport": "station",
        "railway": "station",
        "source": "KSJ2",
        "source_ref": "http://nlftp.mlit.go.jp/ksj/jpgis/datalist/KsjTmplt-N02-v1_1.html",
        "wikidata": "Q6102396",
        "wikipedia": "ja:出雲三成駅"
      }
    },
    {
      "id": "shimane_station_266914070",
      "osmId": 266914070,
      "osmType": "node",
      "prefectureId": "shimane",
      "type": "station",
      "subtype": "private",
      "name": "下久野",
      "nameKana": null,
      "nameEn": "Shimokuno",
      "operator": null,
      "network": null,
      "ref": null,
      "latitude": 35.2648144,
      "longitude": 132.9922714,
      "countryCode": "jp",
      "rawTags": {
        "KSJ2:LIN": "木次線",
        "KSJ2:STN": "下久野",
        "name": "下久野",
        "name:en": "Shimokuno",
        "name:ja": "下久野",
        "name:ko": "시모쿠노",
        "note": "National-Land Numerical Information (Railway) 2007, MLIT Japan",
        "note:ja": "国土数値情報（鉄道データ）平成19年　国土交通省",
        "public_transport": "station",
        "railway": "station",
        "source": "KSJ2",
        "source_ref": "http://nlftp.mlit.go.jp/ksj/jpgis/datalist/KsjTmplt-N02-v1_1.html",
        "wikidata": "Q7496977",
        "wikipedia": "ja:下久野駅"
      }
    },
    {
      "id": "shimane_station_266914178",
      "osmId": 266914178,
      "osmType": "node",
      "prefectureId": "shimane",
      "type": "station",
      "subtype": "private",
      "name": "出雲八代",
      "nameKana": null,
      "nameEn": "Izumo-Yashiro",
      "operator": null,
      "network": null,
      "ref": null,
      "latitude": 35.2272687,
      "longitude": 133.0014627,
      "countryCode": "jp",
      "rawTags": {
        "KSJ2:LIN": "木次線",
        "KSJ2:STN": "出雲八代",
        "name": "出雲八代",
        "name:en": "Izumo-Yashiro",
        "name:ja": "出雲八代",
        "name:ko": "이즈모야시로",
        "note": "National-Land Numerical Information (Railway) 2007, MLIT Japan",
        "note:ja": "国土数値情報（鉄道データ）平成19年　国土交通省",
        "public_transport": "station",
        "railway": "station",
        "source": "KSJ2",
        "source_ref": "http://nlftp.mlit.go.jp/ksj/jpgis/datalist/KsjTmplt-N02-v1_1.html",
        "wikidata": "Q6102418",
        "wikipedia": "ja:出雲八代駅"
      }
    },
    {
      "id": "shimane_station_266914180",
      "osmId": 266914180,
      "osmType": "node",
      "prefectureId": "shimane",
      "type": "station",
      "subtype": "private",
      "name": "出雲横田",
      "nameKana": null,
      "nameEn": "Izumo-Yokota",
      "operator": null,
      "network": null,
      "ref": null,
      "latitude": 35.177469,
      "longitude": 133.0921583,
      "countryCode": "jp",
      "rawTags": {
        "KSJ2:LIN": "木次線",
        "KSJ2:STN": "出雲横田",
        "name": "出雲横田",
        "name:en": "Izumo-Yokota",
        "name:ja": "出雲横田",
        "name:ko": "이즈모요코타",
        "note": "National-Land Numerical Information (Railway) 2007, MLIT Japan",
        "note:ja": "国土数値情報（鉄道データ）平成19年　国土交通省",
        "public_transport": "station",
        "railway": "station",
        "source": "KSJ2",
        "source_ref": "http://nlftp.mlit.go.jp/ksj/jpgis/datalist/KsjTmplt-N02-v1_1.html",
        "wikidata": "Q11395894",
        "wikipedia": "ja:出雲横田駅"
      }
    },
    {
      "id": "shimane_station_266914183",
      "osmId": 266914183,
      "osmType": "node",
      "prefectureId": "shimane",
      "type": "station",
      "subtype": "private",
      "name": "幡屋",
      "nameKana": null,
      "nameEn": "Hataya",
      "operator": null,
      "network": null,
      "ref": null,
      "latitude": 35.3348104,
      "longitude": 132.9393875,
      "countryCode": "jp",
      "rawTags": {
        "KSJ2:LIN": "木次線",
        "KSJ2:STN": "幡屋",
        "name": "幡屋",
        "name:en": "Hataya",
        "name:ja": "幡屋",
        "name:ko": "하타야",
        "note": "National-Land Numerical Information (Railway) 2007, MLIT Japan",
        "note:ja": "国土数値情報（鉄道データ）平成19年　国土交通省",
        "public_transport": "station",
        "railway": "station",
        "source": "KSJ2",
        "source_ref": "http://nlftp.mlit.go.jp/ksj/jpgis/datalist/KsjTmplt-N02-v1_1.html",
        "wikidata": "Q5680995",
        "wikipedia": "ja:幡屋駅"
      }
    },
    {
      "id": "shimane_station_266914403",
      "osmId": 266914403,
      "osmType": "node",
      "prefectureId": "shimane",
      "type": "station",
      "subtype": "private",
      "name": "亀嵩",
      "nameKana": null,
      "nameEn": "Kamedake",
      "operator": null,
      "network": null,
      "ref": null,
      "latitude": 35.206545,
      "longitude": 133.05331,
      "countryCode": "jp",
      "rawTags": {
        "KSJ2:LIN": "木次線",
        "KSJ2:STN": "亀嵩",
        "name": "亀嵩",
        "name:en": "Kamedake",
        "name:ja": "亀嵩",
        "name:ko": "가메다케",
        "note": "National-Land Numerical Information (Railway) 2007, MLIT Japan",
        "note:ja": "国土数値情報（鉄道データ）平成19年　国土交通省",
        "railway": "station",
        "source": "KSJ2",
        "source_ref": "http://nlftp.mlit.go.jp/ksj/jpgis/datalist/KsjTmplt-N02-v1_1.html",
        "wikidata": "Q11370946",
        "wikipedia": "ja:亀嵩駅"
      }
    },
    {
      "id": "shimane_station_266914465",
      "osmId": 266914465,
      "osmType": "node",
      "prefectureId": "shimane",
      "type": "station",
      "subtype": "private",
      "name": "南宍道",
      "nameKana": null,
      "nameEn": "Minami-Shinji",
      "operator": null,
      "network": null,
      "ref": null,
      "latitude": 35.380054,
      "longitude": 132.917843,
      "countryCode": "jp",
      "rawTags": {
        "KSJ2:LIN": "木次線",
        "KSJ2:STN": "南宍道",
        "name": "南宍道",
        "name:en": "Minami-Shinji",
        "name:ja": "南宍道",
        "name:ko": "미나미신지",
        "note": "National-Land Numerical Information (Railway) 2007, MLIT Japan",
        "note:ja": "国土数値情報（鉄道データ）平成19年　国土交通省",
        "public_transport": "station",
        "railway": "station",
        "source": "KSJ2",
        "source_ref": "http://nlftp.mlit.go.jp/ksj/jpgis/datalist/KsjTmplt-N02-v1_1.html",
        "wikidata": "Q6863049",
        "wikipedia": "ja:南宍道駅"
      }
    },
    {
      "id": "shimane_station_266914468",
      "osmId": 266914468,
      "osmType": "node",
      "prefectureId": "shimane",
      "type": "station",
      "subtype": "private",
      "name": "日登",
      "nameKana": null,
      "nameEn": "Hinobori",
      "operator": null,
      "network": null,
      "ref": null,
      "latitude": 35.2764078,
      "longitude": 132.931235,
      "countryCode": "jp",
      "rawTags": {
        "KSJ2:LIN": "木次線",
        "KSJ2:STN": "日登",
        "name": "日登",
        "name:en": "Hinobori",
        "name:ja": "日登",
        "name:ko": "히노보리",
        "note": "National-Land Numerical Information (Railway) 2007, MLIT Japan",
        "note:ja": "国土数値情報（鉄道データ）平成19年　国土交通省",
        "railway": "station",
        "source": "KSJ2",
        "source_ref": "http://nlftp.mlit.go.jp/ksj/jpgis/datalist/KsjTmplt-N02-v1_1.html",
        "wikidata": "Q5767403",
        "wikipedia": "ja:日登駅"
      }
    },
    {
      "id": "shimane_station_266915272",
      "osmId": 266915272,
      "osmType": "node",
      "prefectureId": "shimane",
      "type": "station",
      "subtype": "private",
      "name": "南大東",
      "nameKana": null,
      "nameEn": "Minami-Daitō",
      "operator": null,
      "network": null,
      "ref": null,
      "latitude": 35.3079602,
      "longitude": 132.9283746,
      "countryCode": "jp",
      "rawTags": {
        "KSJ2:LIN": "木次線",
        "KSJ2:STN": "南大東",
        "name": "南大東",
        "name:en": "Minami-Daitō",
        "name:ja": "南大東",
        "name:ko": "미나미다이토",
        "note": "National-Land Numerical Information (Railway) 2007, MLIT Japan",
        "note:ja": "国土数値情報（鉄道データ）平成19年　国土交通省",
        "railway": "station",
        "source": "KSJ2",
        "source_ref": "http://nlftp.mlit.go.jp/ksj/jpgis/datalist/KsjTmplt-N02-v1_1.html",
        "wikidata": "Q6863040",
        "wikipedia": "ja:南大東駅"
      }
    },
    {
      "id": "shimane_station_266915398",
      "osmId": 266915398,
      "osmType": "node",
      "prefectureId": "shimane",
      "type": "station",
      "subtype": "private",
      "name": "三井野原",
      "nameKana": null,
      "nameEn": "Miinohara",
      "operator": null,
      "network": null,
      "ref": null,
      "latitude": 35.0912688,
      "longitude": 133.1162723,
      "countryCode": "jp",
      "rawTags": {
        "KSJ2:LIN": "木次線",
        "KSJ2:STN": "三井野原",
        "name": "三井野原",
        "name:en": "Miinohara",
        "name:ja": "三井野原",
        "name:ko": "미노하라",
        "note": "National-Land Numerical Information (Railway) 2007, MLIT Japan",
        "note:ja": "国土数値情報（鉄道データ）平成19年　国土交通省",
        "public_transport": "station",
        "railway": "station",
        "source": "KSJ2",
        "source_ref": "http://nlftp.mlit.go.jp/ksj/jpgis/datalist/KsjTmplt-N02-v1_1.html",
        "wikidata": "Q6845439",
        "wikipedia": "ja:三井野原駅"
      }
    },
    {
      "id": "shimane_station_266915701",
      "osmId": 266915701,
      "osmType": "node",
      "prefectureId": "shimane",
      "type": "station",
      "subtype": "private",
      "name": "出雲坂根",
      "nameKana": null,
      "nameEn": "Izumo-Sakane",
      "operator": null,
      "network": null,
      "ref": null,
      "latitude": 35.1024693,
      "longitude": 133.1205013,
      "countryCode": "jp",
      "rawTags": {
        "KSJ2:LIN": "木次線",
        "KSJ2:STN": "出雲坂根",
        "name": "出雲坂根",
        "name:en": "Izumo-Sakane",
        "name:ja": "出雲坂根",
        "name:ko": "이즈모사카네",
        "note": "National-Land Numerical Information (Railway) 2007, MLIT Japan",
        "note:ja": "国土数値情報（鉄道データ）平成19年　国土交通省",
        "public_transport": "station",
        "railway": "station",
        "source": "KSJ2",
        "source_ref": "http://nlftp.mlit.go.jp/ksj/jpgis/datalist/KsjTmplt-N02-v1_1.html",
        "wikidata": "Q6102403",
        "wikipedia": "ja:出雲坂根駅"
      }
    },
    {
      "id": "shimane_station_266915846",
      "osmId": 266915846,
      "osmType": "node",
      "prefectureId": "shimane",
      "type": "station",
      "subtype": "private",
      "name": "八川",
      "nameKana": null,
      "nameEn": "Yakawa",
      "operator": null,
      "network": null,
      "ref": null,
      "latitude": 35.149251,
      "longitude": 133.089616,
      "countryCode": "jp",
      "rawTags": {
        "KSJ2:LIN": "木次線",
        "KSJ2:STN": "八川",
        "name": "八川",
        "name:en": "Yakawa",
        "name:ja": "八川",
        "name:ko": "야카와",
        "note": "National-Land Numerical Information (Railway) 2007, MLIT Japan",
        "note:ja": "国土数値情報（鉄道データ）平成19年　国土交通省",
        "railway": "station",
        "source": "KSJ2",
        "source_ref": "http://nlftp.mlit.go.jp/ksj/jpgis/datalist/KsjTmplt-N02-v1_1.html",
        "wikidata": "Q8047057",
        "wikipedia": "ja:八川駅"
      }
    },
    {
      "id": "shimane_station_335653116",
      "osmId": 335653116,
      "osmType": "node",
      "prefectureId": "shimane",
      "type": "station",
      "subtype": "private",
      "name": "出雲大社前",
      "nameKana": null,
      "nameEn": "Izumo Taisha-mae",
      "operator": "一畑電車",
      "network": "一畑電車大社線",
      "ref": null,
      "latitude": 35.3934708,
      "longitude": 132.6872506,
      "countryCode": "jp",
      "rawTags": {
        "KSJ2:LIN": "大社線",
        "KSJ2:STN": "出雲大社前",
        "name": "出雲大社前",
        "name:en": "Izumo Taisha-mae",
        "name:ja": "出雲大社前",
        "network": "一畑電車大社線",
        "note": "National-Land Numerical Information (Railway) 2007, MLIT Japan",
        "note:ja": "国土数値情報（鉄道データ）平成19年　国土交通省",
        "operator": "一畑電車",
        "operator:en": "Ichibata Electric Railway",
        "operator:ja": "一畑電車",
        "public_transport": "station",
        "railway": "station",
        "source": "KSJ2; ja:出雲大社前駅",
        "source_ref": "http://nlftp.mlit.go.jp/ksj/jpgis/datalist/KsjTmplt-N02-v1_1.html",
        "wikidata": "Q11240833",
        "wikipedia": "ja:出雲大社前駅"
      }
    },
    {
      "id": "shimane_station_335653434",
      "osmId": 335653434,
      "osmType": "node",
      "prefectureId": "shimane",
      "type": "station",
      "subtype": "private",
      "name": "電鉄出雲市",
      "nameKana": null,
      "nameEn": "Dentetsu-Izumoshi",
      "operator": "一畑電鉄",
      "network": null,
      "ref": null,
      "latitude": 35.3611716,
      "longitude": 132.7583731,
      "countryCode": "jp",
      "rawTags": {
        "KSJ2:LIN": "北松江線",
        "KSJ2:STN": "電鉄出雲市",
        "name": "電鉄出雲市",
        "name:en": "Dentetsu-Izumoshi",
        "name:ja": "電鉄出雲市",
        "name:ko": "이즈모시",
        "note": "National-Land Numerical Information (Railway) 2007, MLIT Japan",
        "note:ja": "国土数値情報（鉄道データ）平成19年　国土交通省",
        "operator": "一畑電鉄",
        "public_transport": "station",
        "railway": "station",
        "source": "KSJ2",
        "source_ref": "http://nlftp.mlit.go.jp/ksj/jpgis/datalist/KsjTmplt-N02-v1_1.html",
        "train": "yes",
        "wikidata": "Q860288",
        "wikipedia": "ja:出雲市駅"
      }
    },
    {
      "id": "shimane_station_335654931",
      "osmId": 335654931,
      "osmType": "node",
      "prefectureId": "shimane",
      "type": "station",
      "subtype": "private",
      "name": "松江しんじ湖温泉",
      "nameKana": null,
      "nameEn": "Matsue-Shinjiko-Onsen",
      "operator": null,
      "network": null,
      "ref": null,
      "latitude": 35.4672774,
      "longitude": 133.0458458,
      "countryCode": "jp",
      "rawTags": {
        "KSJ2:LIN": "北松江線",
        "KSJ2:STN": "松江しんじ湖温泉",
        "alt_name:ko": "마쓰에시지코온센",
        "name": "松江しんじ湖温泉",
        "name:en": "Matsue-Shinjiko-Onsen",
        "name:ja": "松江しんじ湖温泉",
        "name:ko": "마쓰에신지호온천",
        "note": "National-Land Numerical Information (Railway) 2007, MLIT Japan",
        "note:ja": "国土数値情報（鉄道データ）平成19年　国土交通省",
        "public_transport": "station",
        "railway": "station",
        "source": "KSJ2",
        "source_ref": "http://nlftp.mlit.go.jp/ksj/jpgis/datalist/KsjTmplt-N02-v1_1.html",
        "wikidata": "Q11531631",
        "wikipedia": "ja:松江しんじ湖温泉駅"
      }
    },
    {
      "id": "shimane_ferry_terminal_1562515522",
      "osmId": 1562515522,
      "osmType": "node",
      "prefectureId": "shimane",
      "type": "ferry_terminal",
      "subtype": null,
      "name": "堀川遊覧船 大手前広場乗船場",
      "nameKana": null,
      "nameEn": null,
      "operator": null,
      "network": null,
      "ref": null,
      "latitude": 35.4737806,
      "longitude": 133.0527431,
      "countryCode": "jp",
      "rawTags": {
        "amenity": "ferry_terminal",
        "ferry": "yes",
        "name": "堀川遊覧船 大手前広場乗船場",
        "public_transport": "station"
      }
    },
    {
      "id": "shimane_ferry_terminal_4311266780",
      "osmId": 4311266780,
      "osmType": "node",
      "prefectureId": "shimane",
      "type": "ferry_terminal",
      "subtype": null,
      "name": "内航船いそかぜ乗り場",
      "nameKana": null,
      "nameEn": null,
      "operator": "隠岐観光",
      "network": null,
      "ref": null,
      "latitude": 36.1073082,
      "longitude": 133.0421124,
      "countryCode": "jp",
      "rawTags": {
        "amenity": "ferry_terminal",
        "ferry": "yes",
        "name": "内航船いそかぜ乗り場",
        "operator": "隠岐観光",
        "public_transport": "station"
      }
    },
    {
      "id": "shimane_ferry_terminal_4311266781",
      "osmId": 4311266781,
      "osmType": "node",
      "prefectureId": "shimane",
      "type": "ferry_terminal",
      "subtype": null,
      "name": "高速船レインボージェット乗り場",
      "nameKana": null,
      "nameEn": null,
      "operator": "隠岐汽船",
      "network": null,
      "ref": null,
      "latitude": 36.1072822,
      "longitude": 133.043269,
      "countryCode": "jp",
      "rawTags": {
        "amenity": "ferry_terminal",
        "ferry": "yes",
        "name": "高速船レインボージェット乗り場",
        "operator": "隠岐汽船",
        "public_transport": "station"
      }
    },
    {
      "id": "shimane_ferry_terminal_4311266782",
      "osmId": 4311266782,
      "osmType": "node",
      "prefectureId": "shimane",
      "type": "ferry_terminal",
      "subtype": null,
      "name": "隠岐汽船フェリー乗り場",
      "nameKana": null,
      "nameEn": null,
      "operator": null,
      "network": null,
      "ref": null,
      "latitude": 36.1078165,
      "longitude": 133.0417934,
      "countryCode": "jp",
      "rawTags": {
        "amenity": "ferry_terminal",
        "ferry": "yes",
        "name": "隠岐汽船フェリー乗り場",
        "public_transport": "station"
      }
    },
    {
      "id": "shimane_ferry_terminal_4311266783",
      "osmId": 4311266783,
      "osmType": "node",
      "prefectureId": "shimane",
      "type": "ferry_terminal",
      "subtype": null,
      "name": "内航船フェリーどうぜん乗り場",
      "nameKana": null,
      "nameEn": null,
      "operator": null,
      "network": null,
      "ref": null,
      "latitude": 36.1088267,
      "longitude": 133.0411866,
      "countryCode": "jp",
      "rawTags": {
        "amenity": "ferry_terminal",
        "ferry": "yes",
        "name": "内航船フェリーどうぜん乗り場",
        "public_transport": "station"
      }
    },
    {
      "id": "shimane_ferry_terminal_4759071529",
      "osmId": 4759071529,
      "osmType": "node",
      "prefectureId": "shimane",
      "type": "ferry_terminal",
      "subtype": null,
      "name": "堀川遊覧船 ふれあい広場乗船場",
      "nameKana": null,
      "nameEn": null,
      "operator": null,
      "network": null,
      "ref": null,
      "latitude": 35.4782566,
      "longitude": 133.0456147,
      "countryCode": "jp",
      "rawTags": {
        "amenity": "ferry_terminal",
        "ferry": "yes",
        "name": "堀川遊覧船 ふれあい広場乗船場",
        "public_transport": "station"
      }
    },
    {
      "id": "shimane_bus_terminal_5434608684",
      "osmId": 5434608684,
      "osmType": "node",
      "prefectureId": "shimane",
      "type": "bus_terminal",
      "subtype": null,
      "name": "津和野バスセンター",
      "nameKana": null,
      "nameEn": null,
      "operator": null,
      "network": null,
      "ref": null,
      "latitude": 34.4679577,
      "longitude": 131.7724587,
      "countryCode": "jp",
      "rawTags": {
        "amenity": "bus_station",
        "bus": "yes",
        "name": "津和野バスセンター",
        "public_transport": "station"
      }
    },
    {
      "id": "shimane_station_5729648683",
      "osmId": 5729648683,
      "osmType": "node",
      "prefectureId": "shimane",
      "type": "station",
      "subtype": "private",
      "name": "出雲大東",
      "nameKana": null,
      "nameEn": "Izumo-Daitō",
      "operator": null,
      "network": null,
      "ref": null,
      "latitude": 35.3254768,
      "longitude": 132.9579806,
      "countryCode": "jp",
      "rawTags": {
        "KSJ2:LIN": "木次線",
        "KSJ2:STN": "出雲大東",
        "name": "出雲大東",
        "name:en": "Izumo-Daitō",
        "name:ja": "出雲大東",
        "name:ko": "이즈모다이토",
        "public_transport": "station",
        "railway": "station",
        "wikidata": "Q11395862",
        "wikipedia": "ja:出雲大東駅"
      }
    },
    {
      "id": "shimane_station_6007414238",
      "osmId": 6007414238,
      "osmType": "node",
      "prefectureId": "shimane",
      "type": "station",
      "subtype": "private",
      "name": "玉造温泉",
      "nameKana": null,
      "nameEn": "Tamatsukuri-Onsen",
      "operator": null,
      "network": null,
      "ref": null,
      "latitude": 35.43084,
      "longitude": 133.0121881,
      "countryCode": "jp",
      "rawTags": {
        "KSJ2:LIN": "山陰線",
        "KSJ2:STN": "玉造温泉",
        "contact:website": "https://www.jr-odekake.net/eki/top?id=0640736",
        "name": "玉造温泉",
        "name:en": "Tamatsukuri-Onsen",
        "name:ja": "玉造温泉",
        "name:ko": "다마쓰쿠리온센",
        "note": "National-Land Numerical Information (Railway) 2007, MLIT Japan",
        "note:ja": "国土数値情報（鉄道データ）平成19年　国土交通省",
        "public_transport": "station",
        "railway": "station",
        "source": "KSJ2",
        "source_ref": "http://nlftp.mlit.go.jp/ksj/jpgis/datalist/KsjTmplt-N02-v1_1.html",
        "train": "yes",
        "wikidata": "Q3611066",
        "wikipedia": "ja:玉造温泉駅"
      }
    },
    {
      "id": "shimane_station_6050807473",
      "osmId": 6050807473,
      "osmType": "node",
      "prefectureId": "shimane",
      "type": "station",
      "subtype": "private",
      "name": "下府",
      "nameKana": null,
      "nameEn": "Shimokō",
      "operator": null,
      "network": null,
      "ref": null,
      "latitude": 34.9272248,
      "longitude": 132.1105635,
      "countryCode": "jp",
      "rawTags": {
        "KSJ2:LIN": "山陰線",
        "KSJ2:STN": "下府",
        "name": "下府",
        "name:en": "Shimokō",
        "name:ja": "下府",
        "name:ko": "시모코",
        "note": "National-Land Numerical Information (Railway) 2007, MLIT Japan",
        "note:ja": "国土数値情報（鉄道データ）平成19年　国土交通省",
        "railway": "station",
        "wikidata": "Q7496976",
        "wikipedia": "ja:下府駅"
      }
    },
    {
      "id": "shimane_station_6373837978",
      "osmId": 6373837978,
      "osmType": "node",
      "prefectureId": "shimane",
      "type": "station",
      "subtype": "private",
      "name": "一畑口",
      "nameKana": null,
      "nameEn": "Ichibataguchi",
      "operator": "一畑電車",
      "network": "一畑電車北松江線",
      "ref": null,
      "latitude": 35.4644876,
      "longitude": 132.8827393,
      "countryCode": "jp",
      "rawTags": {
        "KSJ2:LIN": "北松江線",
        "KSJ2:STN": "一畑口",
        "name": "一畑口",
        "name:en": "Ichibataguchi",
        "name:ja": "一畑口",
        "name:ko": "이치바타구치",
        "network": "一畑電車北松江線",
        "network:en": "Ichibata Electric Railway Kita Matsue Line",
        "note": "National-Land Numerical Information (Railway) 2007, MLIT Japan",
        "note:ja": "国土数値情報（鉄道データ）平成19年　国土交通省",
        "operator": "一畑電車",
        "operator:en": "Ichibata Electric Railway",
        "operator:ja": "一畑電車",
        "public_transport": "station",
        "railway": "station",
        "source": "KSJ2",
        "source_ref": "http://nlftp.mlit.go.jp/ksj/jpgis/datalist/KsjTmplt-N02-v1_1.html",
        "wikidata": "Q11352958",
        "wikipedia": "ja:一畑口駅"
      }
    },
    {
      "id": "shimane_station_6379761110",
      "osmId": 6379761110,
      "osmType": "node",
      "prefectureId": "shimane",
      "type": "station",
      "subtype": "private",
      "name": "益田",
      "nameKana": null,
      "nameEn": "Masuda",
      "operator": null,
      "network": null,
      "ref": null,
      "latitude": 34.6782113,
      "longitude": 131.8392389,
      "countryCode": "jp",
      "rawTags": {
        "contact:website": "https://www.jr-odekake.net/eki/top?id=0640772",
        "name": "益田",
        "name:en": "Masuda",
        "name:ja": "益田",
        "name:ko": "마스다",
        "public_transport": "station",
        "railway": "station",
        "wikidata": "Q6785654",
        "wikipedia": "ja:益田駅"
      }
    },
    {
      "id": "shimane_station_6379763068",
      "osmId": 6379763068,
      "osmType": "node",
      "prefectureId": "shimane",
      "type": "station",
      "subtype": "private",
      "name": "口羽",
      "nameKana": null,
      "nameEn": "Kuchiba",
      "operator": null,
      "network": null,
      "ref": null,
      "latitude": 34.8847846,
      "longitude": 132.6709601,
      "countryCode": "jp",
      "rawTags": {
        "KSJ2:LIN": "三江線",
        "KSJ2:STN": "口羽",
        "name": "口羽",
        "name:en": "Kuchiba",
        "name:ja": "口羽",
        "name:ko": "구치바",
        "railway": "station",
        "wikidata": "Q3661756",
        "wikipedia": "ja:口羽駅"
      }
    },
    {
      "id": "shimane_ferry_terminal_7058887783",
      "osmId": 7058887783,
      "osmType": "node",
      "prefectureId": "shimane",
      "type": "ferry_terminal",
      "subtype": null,
      "name": "フェリーどうぜん乗り場",
      "nameKana": null,
      "nameEn": null,
      "operator": "島前町村組合",
      "network": null,
      "ref": null,
      "latitude": 36.0247636,
      "longitude": 133.0400763,
      "countryCode": "jp",
      "rawTags": {
        "amenity": "ferry_terminal",
        "ferry": "yes",
        "name": "フェリーどうぜん乗り場",
        "operator": "島前町村組合",
        "public_transport": "station"
      }
    },
    {
      "id": "shimane_station_7255210721",
      "osmId": 7255210721,
      "osmType": "node",
      "prefectureId": "shimane",
      "type": "station",
      "subtype": "private",
      "name": "西浜田",
      "nameKana": null,
      "nameEn": "Nishi-Hamada",
      "operator": null,
      "network": null,
      "ref": null,
      "latitude": 34.8693794,
      "longitude": 132.0508374,
      "countryCode": "jp",
      "rawTags": {
        "KSJ2:LIN": "山陰線",
        "KSJ2:STN": "西浜田",
        "name": "西浜田",
        "name:en": "Nishi-Hamada",
        "name:ja": "西浜田",
        "name:ko": "니시하마다",
        "note": "National-Land Numerical Information (Railway) 2007, MLIT Japan",
        "note:ja": "国土数値情報（鉄道データ）平成19年　国土交通省",
        "public_transport": "station",
        "railway": "station",
        "source": "KSJ2",
        "source_ref": "http://nlftp.mlit.go.jp/ksj/jpgis/datalist/KsjTmplt-N02-v1_1.html",
        "wikidata": "Q7040341",
        "wikipedia": "ja:西浜田駅"
      }
    },
    {
      "id": "shimane_station_7276273488",
      "osmId": 7276273488,
      "osmType": "node",
      "prefectureId": "shimane",
      "type": "station",
      "subtype": "private",
      "name": "敬川",
      "nameKana": null,
      "nameEn": "Uyagawa",
      "operator": null,
      "network": null,
      "ref": null,
      "latitude": 34.9778608,
      "longitude": 132.1740527,
      "countryCode": "jp",
      "rawTags": {
        "KSJ2:LIN": "山陰線",
        "KSJ2:STN": "敬川",
        "name": "敬川",
        "name:en": "Uyagawa",
        "name:ja": "敬川",
        "name:ko": "우야가와",
        "note": "National-Land Numerical Information (Railway) 2007, MLIT Japan",
        "note:ja": "国土数値情報（鉄道データ）平成19年　国土交通省",
        "railway": "station",
        "source_ref": "http://nlftp.mlit.go.jp/ksj/jpgis/datalist/KsjTmplt-N02-v1_1.html",
        "wikidata": "Q7904087",
        "wikipedia": "ja:敬川駅"
      }
    },
    {
      "id": "shimane_station_8202335920",
      "osmId": 8202335920,
      "osmType": "node",
      "prefectureId": "shimane",
      "type": "station",
      "subtype": "private",
      "name": "伊野灘",
      "nameKana": null,
      "nameEn": "Inonada",
      "operator": "一畑電車",
      "network": "一畑電車北松江線",
      "ref": null,
      "latitude": 35.4612773,
      "longitude": 132.9007718,
      "countryCode": "jp",
      "rawTags": {
        "name": "伊野灘",
        "name:en": "Inonada",
        "name:ja": "伊野灘",
        "name:ko": "이노나다",
        "network": "一畑電車北松江線",
        "network:en": "Ichibata Electric Railway Kita Matsue Line",
        "note": "National-Land Numerical Information (Railway) 2007, MLIT Japan",
        "note:ja": "国土数値情報（鉄道データ）平成19年　国土交通省",
        "operator": "一畑電車",
        "operator:en": "Ichibata Electric Railway",
        "operator:ja": "一畑電車",
        "public_transport": "station",
        "railway": "station",
        "source": "KSJ2",
        "source_ref": "http://nlftp.mlit.go.jp/ksj/jpgis/datalist/KsjTmplt-N02-v1_1.html",
        "wikidata": "Q11380933",
        "wikipedia": "ja:伊野灘駅"
      }
    },
    {
      "id": "shimane_station_8207630290",
      "osmId": 8207630290,
      "osmType": "node",
      "prefectureId": "shimane",
      "type": "station",
      "subtype": "private",
      "name": "浜山公園北口",
      "nameKana": null,
      "nameEn": "Hamayamakoen-Kitaguchi",
      "operator": "一畑電車",
      "network": "一畑電車大社線",
      "ref": null,
      "latitude": 35.3891773,
      "longitude": 132.7080698,
      "countryCode": "jp",
      "rawTags": {
        "alt_name:ko": "하마야마코엔키타구치",
        "name": "浜山公園北口",
        "name:en": "Hamayamakoen-Kitaguchi",
        "name:ja": "浜山公園北口",
        "name:ko": "하마야마공원북문",
        "network": "一畑電車大社線",
        "note": "National-Land Numerical Information (Railway) 2007, MLIT Japan",
        "note:ja": "国土数値情報（鉄道データ）平成19年　国土交通省",
        "operator": "一畑電車",
        "operator:ja": "一畑電車",
        "public_transport": "station",
        "railway": "station",
        "source": "KSJ2",
        "source_ref": "http://nlftp.mlit.go.jp/ksj/jpgis/datalist/KsjTmplt-N02-v1_1.html",
        "wikidata": "Q11557649",
        "wikipedia": "ja:浜山公園北口駅"
      }
    },
    {
      "id": "shimane_station_8207630291",
      "osmId": 8207630291,
      "osmType": "node",
      "prefectureId": "shimane",
      "type": "station",
      "subtype": "private",
      "name": "遥堪",
      "nameKana": "ようかん",
      "nameEn": "Youkan",
      "operator": "一畑電車",
      "network": "一畑電車大社線",
      "ref": null,
      "latitude": 35.3892905,
      "longitude": 132.7258529,
      "countryCode": "jp",
      "rawTags": {
        "name": "遥堪",
        "name:en": "Youkan",
        "name:ja": "遥堪",
        "name:ja-Hira": "ようかん",
        "name:ko": "요우칸",
        "network": "一畑電車大社線",
        "note": "National-Land Numerical Information (Railway) 2007, MLIT Japan",
        "note:ja": "国土数値情報（鉄道データ）平成19年　国土交通省",
        "operator": "一畑電車",
        "operator:en": "Ichibata Electric Railway Taisha Line",
        "operator:ja": "一畑電車",
        "public_transport": "station",
        "railway": "station",
        "source": "KSJ2",
        "source_ref": "http://nlftp.mlit.go.jp/ksj/jpgis/datalist/KsjTmplt-N02-v1_1.html",
        "wikidata": "Q11641919",
        "wikipedia": "ja:遙堪駅"
      }
    },
    {
      "id": "shimane_station_8207630292",
      "osmId": 8207630292,
      "osmType": "node",
      "prefectureId": "shimane",
      "type": "station",
      "subtype": "private",
      "name": "高浜",
      "nameKana": null,
      "nameEn": "Takahama",
      "operator": "一畑電車",
      "network": "一畑電車大社線",
      "ref": null,
      "latitude": 35.390814,
      "longitude": 132.7466447,
      "countryCode": "jp",
      "rawTags": {
        "name": "高浜",
        "name:en": "Takahama",
        "name:ja": "高浜",
        "name:ko": "다카하마",
        "network": "一畑電車大社線",
        "note": "National-Land Numerical Information (Railway) 2007, MLIT Japan",
        "note:ja": "国土数値情報（鉄道データ）平成19年　国土交通省",
        "operator": "一畑電車",
        "operator:en": "Ichibata Electric Railway Taisha Line",
        "operator:ja": "一畑電車",
        "public_transport": "station",
        "railway": "station",
        "source": "KSJ2",
        "source_ref": "http://nlftp.mlit.go.jp/ksj/jpgis/datalist/KsjTmplt-N02-v1_1.html",
        "wikidata": "Q11671849",
        "wikipedia": "ja:高浜駅 (島根県)"
      }
    },
    {
      "id": "shimane_station_8207630293",
      "osmId": 8207630293,
      "osmType": "node",
      "prefectureId": "shimane",
      "type": "station",
      "subtype": "private",
      "name": "川跡",
      "nameKana": null,
      "nameEn": "Kawato",
      "operator": "一畑電車",
      "network": null,
      "ref": null,
      "latitude": 35.3950685,
      "longitude": 132.7762744,
      "countryCode": "jp",
      "rawTags": {
        "name": "川跡",
        "name:en": "Kawato",
        "name:ja": "川跡",
        "name:ko": "가와토",
        "note": "National-Land Numerical Information (Railway) 2007, MLIT Japan",
        "note:ja": "国土数値情報（鉄道データ）平成19年　国土交通省",
        "operator": "一畑電車",
        "public_transport": "station",
        "railway": "station",
        "source": "KSJ2",
        "source_ref": "http://nlftp.mlit.go.jp/ksj/jpgis/datalist/KsjTmplt-N02-v1_1.html",
        "wikidata": "Q11055952",
        "wikipedia": "ja:川跡駅"
      }
    },
    {
      "id": "shimane_station_8207956840",
      "osmId": 8207956840,
      "osmType": "node",
      "prefectureId": "shimane",
      "type": "station",
      "subtype": "private",
      "name": "大津町",
      "nameKana": null,
      "nameEn": "Ozu",
      "operator": "一畑電車",
      "network": "一畑電車北松江線",
      "ref": null,
      "latitude": 35.3692038,
      "longitude": 132.7744129,
      "countryCode": "jp",
      "rawTags": {
        "name": "大津町",
        "name:en": "Ozu",
        "name:ja": "大津町",
        "name:ko": "오쓰마치",
        "network": "一畑電車北松江線",
        "note": "National-Land Numerical Information (Railway) 2007, MLIT Japan",
        "note:ja": "国土数値情報（鉄道データ）平成19年　国土交通省",
        "operator": "一畑電車",
        "operator:en": "Ichibata Electric Railway Kita Matsue Line",
        "operator:ja": "一畑電車",
        "public_transport": "station",
        "railway": "station",
        "source": "KSJ2",
        "source_ref": "http://nlftp.mlit.go.jp/ksj/jpgis/datalist/KsjTmplt-N02-v1_1.html",
        "wikidata": "Q11437350",
        "wikipedia": "ja:大津町駅"
      }
    },
    {
      "id": "shimane_station_8208100507",
      "osmId": 8208100507,
      "osmType": "node",
      "prefectureId": "shimane",
      "type": "station",
      "subtype": "private",
      "name": "布崎",
      "nameKana": null,
      "nameEn": "Nunozaki",
      "operator": "一畑電車",
      "network": "一畑電車北松江線",
      "ref": null,
      "latitude": 35.4502281,
      "longitude": 132.8548302,
      "countryCode": "jp",
      "rawTags": {
        "name": "布崎",
        "name:en": "Nunozaki",
        "name:ja": "布崎",
        "name:ko": "누노자키",
        "network": "一畑電車北松江線",
        "network:en": "Ichibata Electric Railway Kita Matsue Line",
        "note": "National-Land Numerical Information (Railway) 2007, MLIT Japan",
        "note:ja": "国土数値情報（鉄道データ）平成19年　国土交通省",
        "operator": "一畑電車",
        "operator:en": "Ichibata Electric Railway",
        "operator:ja": "一畑電車",
        "public_transport": "station",
        "railway": "station",
        "source": "KSJ2",
        "source_ref": "http://nlftp.mlit.go.jp/ksj/jpgis/datalist/KsjTmplt-N02-v1_1.html",
        "wikidata": "Q11480776",
        "wikipedia": "ja:布崎駅"
      }
    },
    {
      "id": "shimane_station_8208100508",
      "osmId": 8208100508,
      "osmType": "node",
      "prefectureId": "shimane",
      "type": "station",
      "subtype": "private",
      "name": "雲州平田",
      "nameKana": null,
      "nameEn": "Unshu-Hirata",
      "operator": "一畑電車",
      "network": "一畑電車北松江線",
      "ref": null,
      "latitude": 35.4321765,
      "longitude": 132.823728,
      "countryCode": "jp",
      "rawTags": {
        "name": "雲州平田",
        "name:en": "Unshu-Hirata",
        "name:ja": "雲州平田",
        "name:ko": "운슈히라타",
        "network": "一畑電車北松江線",
        "note": "National-Land Numerical Information (Railway) 2007, MLIT Japan",
        "note:ja": "国土数値情報（鉄道データ）平成19年　国土交通省",
        "operator": "一畑電車",
        "operator:en": "Ichibata Electric Railway",
        "operator:ja": "一畑電車",
        "public_transport": "station",
        "railway": "station",
        "source": "KSJ2",
        "source_ref": "http://nlftp.mlit.go.jp/ksj/jpgis/datalist/KsjTmplt-N02-v1_1.html",
        "wikidata": "Q11660057",
        "wikipedia": "ja:雲州平田駅"
      }
    },
    {
      "id": "shimane_station_8208110426",
      "osmId": 8208110426,
      "osmType": "node",
      "prefectureId": "shimane",
      "type": "station",
      "subtype": "private",
      "name": "朝日ヶ丘",
      "nameKana": null,
      "nameEn": "Asahigaoka",
      "operator": "一畑電車",
      "network": "一畑電車北松江線",
      "ref": null,
      "latitude": 35.4809028,
      "longitude": 132.9877742,
      "countryCode": "jp",
      "rawTags": {
        "name": "朝日ヶ丘",
        "name:en": "Asahigaoka",
        "name:ja": "朝日ヶ丘",
        "name:ko": "아사히가오카",
        "network": "一畑電車北松江線",
        "note": "National-Land Numerical Information (Railway) 2007, MLIT Japan",
        "note:ja": "国土数値情報（鉄道データ）平成19年　国土交通省",
        "operator": "一畑電車",
        "public_transport": "station",
        "railway": "station",
        "source": "KSJ2",
        "source_ref": "http://nlftp.mlit.go.jp/ksj/jpgis/datalist/KsjTmplt-N02-v1_1.html",
        "wikidata": "Q11517448",
        "wikipedia": "ja:朝日ヶ丘駅"
      }
    },
    {
      "id": "shimane_station_8208110427",
      "osmId": 8208110427,
      "osmType": "node",
      "prefectureId": "shimane",
      "type": "station",
      "subtype": "private",
      "name": "長江",
      "nameKana": null,
      "nameEn": "Nagae",
      "operator": "一畑電車",
      "network": "一畑電車北松江線",
      "ref": null,
      "latitude": 35.4800339,
      "longitude": 132.9739773,
      "countryCode": "jp",
      "rawTags": {
        "KSJ2:LIN": "北松江線",
        "KSJ2:STN": "長江",
        "name": "長江",
        "name:en": "Nagae",
        "name:ja": "長江",
        "name:ko": "나가에",
        "network": "一畑電車北松江線",
        "note": "National-Land Numerical Information (Railway) 2007, MLIT Japan",
        "note:ja": "国土数値情報（鉄道データ）平成19年　国土交通省",
        "operator": "一畑電車",
        "public_transport": "station",
        "railway": "station",
        "source": "KSJ2",
        "source_ref": "http://nlftp.mlit.go.jp/ksj/jpgis/datalist/KsjTmplt-N02-v1_1.html",
        "wikidata": "Q11653147",
        "wikipedia": "ja:長江駅"
      }
    },
    {
      "id": "shimane_station_8208110428",
      "osmId": 8208110428,
      "osmType": "node",
      "prefectureId": "shimane",
      "type": "station",
      "subtype": "private",
      "name": "松江フォーゲルパーク",
      "nameKana": null,
      "nameEn": "Matsue Vogel Park",
      "operator": "一畑電車",
      "network": "一畑電車北松江線",
      "ref": null,
      "latitude": 35.47495,
      "longitude": 132.943726,
      "countryCode": "jp",
      "rawTags": {
        "name": "松江フォーゲルパーク",
        "name:en": "Matsue Vogel Park",
        "name:ja": "松江フォーゲルパーク",
        "name:ko": "마쓰에보겔파크",
        "network": "一畑電車北松江線",
        "note": "National-Land Numerical Information (Railway) 2007, MLIT Japan",
        "note:ja": "国土数値情報（鉄道データ）平成19年　国土交通省",
        "operator": "一畑電車",
        "public_transport": "station",
        "railway": "station",
        "source": "KSJ2",
        "source_ref": "http://nlftp.mlit.go.jp/ksj/jpgis/datalist/KsjTmplt-N02-v1_1.html",
        "wikidata": "Q11531636",
        "wikipedia": "ja:松江フォーゲルパーク駅"
      }
    },
    {
      "id": "shimane_station_8208110429",
      "osmId": 8208110429,
      "osmType": "node",
      "prefectureId": "shimane",
      "type": "station",
      "subtype": "private",
      "name": "高ノ宮",
      "nameKana": null,
      "nameEn": "Takanomiya",
      "operator": "一畑電車",
      "network": "一畑電車北松江線",
      "ref": null,
      "latitude": 35.4718996,
      "longitude": 132.9305121,
      "countryCode": "jp",
      "rawTags": {
        "name": "高ノ宮",
        "name:en": "Takanomiya",
        "name:ja": "高ノ宮",
        "name:ko": "다카노미야",
        "network": "一畑電車北松江線",
        "note": "National-Land Numerical Information (Railway) 2007, MLIT Japan",
        "note:ja": "国土数値情報（鉄道データ）平成19年　国土交通省",
        "operator": "一畑電車",
        "public_transport": "station",
        "railway": "station",
        "source": "KSJ2",
        "source_ref": "http://nlftp.mlit.go.jp/ksj/jpgis/datalist/KsjTmplt-N02-v1_1.html",
        "wikidata": "Q11668632",
        "wikipedia": "ja:高ノ宮駅"
      }
    },
    {
      "id": "shimane_station_8208110430",
      "osmId": 8208110430,
      "osmType": "node",
      "prefectureId": "shimane",
      "type": "station",
      "subtype": "private",
      "name": "園",
      "nameKana": null,
      "nameEn": "Sono",
      "operator": "一畑電車",
      "network": "一畑電車北松江線",
      "ref": null,
      "latitude": 35.4564086,
      "longitude": 132.8683425,
      "countryCode": "jp",
      "rawTags": {
        "name": "園",
        "name:en": "Sono",
        "name:ja": "園",
        "name:ko": "소노",
        "network": "一畑電車北松江線",
        "network:en": "Ichibata Electric Railway Kita Matsue Line",
        "note": "National-Land Numerical Information (Railway) 2007, MLIT Japan",
        "note:ja": "国土数値情報（鉄道データ）平成19年　国土交通省",
        "operator": "一畑電車",
        "operator:en": "Ichibata Electric Railway",
        "operator:ja": "一畑電車",
        "public_transport": "station",
        "railway": "station",
        "source": "KSJ2",
        "source_ref": "http://nlftp.mlit.go.jp/ksj/jpgis/datalist/KsjTmplt-N02-v1_1.html",
        "wikidata": "Q11422898",
        "wikipedia": "ja:園駅"
      }
    },
    {
      "id": "shimane_station_8208110431",
      "osmId": 8208110431,
      "osmType": "node",
      "prefectureId": "shimane",
      "type": "station",
      "subtype": "private",
      "name": "湖遊館新駅",
      "nameKana": null,
      "nameEn": "Koyukanshin-Eki",
      "operator": "一畑電車",
      "network": "一畑電車北松江線",
      "ref": null,
      "latitude": 35.4524589,
      "longitude": 132.8618362,
      "countryCode": "jp",
      "rawTags": {
        "name": "湖遊館新駅",
        "name:en": "Koyukanshin-Eki",
        "name:ja": "湖遊館新駅",
        "name:ko": "고유칸신에키",
        "network": "一畑電車北松江線",
        "network:en": "Ichibata Electric Railway Kita Matsue Line",
        "note": "National-Land Numerical Information (Railway) 2007, MLIT Japan",
        "note:ja": "国土数値情報（鉄道データ）平成19年　国土交通省",
        "operator": "一畑電車",
        "operator:en": "Ichibata Electric Railway",
        "operator:ja": "一畑電車",
        "public_transport": "station",
        "railway": "station",
        "source": "KSJ2",
        "source_ref": "http://nlftp.mlit.go.jp/ksj/jpgis/datalist/KsjTmplt-N02-v1_1.html",
        "wikidata": "Q11563269",
        "wikipedia": "ja:湖遊館新駅駅"
      }
    },
    {
      "id": "shimane_station_8208111828",
      "osmId": 8208111828,
      "osmType": "node",
      "prefectureId": "shimane",
      "type": "station",
      "subtype": "private",
      "name": "旅伏",
      "nameKana": null,
      "nameEn": "Tabushi",
      "operator": "一畑電車",
      "network": "一畑電車北松江線",
      "ref": null,
      "latitude": 35.4213806,
      "longitude": 132.8071728,
      "countryCode": "jp",
      "rawTags": {
        "name": "旅伏",
        "name:en": "Tabushi",
        "name:ja": "旅伏",
        "name:ko": "다부시",
        "network": "一畑電車北松江線",
        "network:en": "Ichibata Electric Railway Kita Matsue Line",
        "note": "National-Land Numerical Information (Railway) 2007, MLIT Japan",
        "note:ja": "国土数値情報（鉄道データ）平成19年　国土交通省",
        "operator": "一畑電車",
        "operator:en": "Ichibata Electric Railway",
        "operator:ja": "一畑電車",
        "public_transport": "station",
        "railway": "station",
        "source": "KSJ2",
        "source_ref": "http://nlftp.mlit.go.jp/ksj/jpgis/datalist/KsjTmplt-N02-v1_1.html",
        "wikidata": "Q11504488",
        "wikipedia": "ja:旅伏駅"
      }
    },
    {
      "id": "shimane_station_8208111829",
      "osmId": 8208111829,
      "osmType": "node",
      "prefectureId": "shimane",
      "type": "station",
      "subtype": "private",
      "name": "美談",
      "nameKana": null,
      "nameEn": "Midami",
      "operator": "一畑電車",
      "network": "一畑電車北松江線",
      "ref": null,
      "latitude": 35.4126371,
      "longitude": 132.7981914,
      "countryCode": "jp",
      "rawTags": {
        "name": "美談",
        "name:en": "Midami",
        "name:ja": "美談",
        "name:ko": "미다미",
        "network": "一畑電車北松江線",
        "network:en": "Ichibata Electric Railway Kita Matsue Line",
        "note": "National-Land Numerical Information (Railway) 2007, MLIT Japan",
        "note:ja": "国土数値情報（鉄道データ）平成19年　国土交通省",
        "operator": "一畑電車",
        "operator:ja": "一畑電車",
        "public_transport": "station",
        "railway": "station",
        "source": "KSJ2",
        "source_ref": "http://nlftp.mlit.go.jp/ksj/jpgis/datalist/KsjTmplt-N02-v1_1.html",
        "wikidata": "Q11609382",
        "wikipedia": "ja:美談駅"
      }
    },
    {
      "id": "shimane_station_8208111830",
      "osmId": 8208111830,
      "osmType": "node",
      "prefectureId": "shimane",
      "type": "station",
      "subtype": "private",
      "name": "大寺",
      "nameKana": null,
      "nameEn": "Otera",
      "operator": "一畑電車",
      "network": "一畑電車北松江線",
      "ref": null,
      "latitude": 35.404302,
      "longitude": 132.7871346,
      "countryCode": "jp",
      "rawTags": {
        "name": "大寺",
        "name:en": "Otera",
        "name:ja": "大寺",
        "name:ko": "오테라",
        "network": "一畑電車北松江線",
        "note": "National-Land Numerical Information (Railway) 2007, MLIT Japan",
        "note:ja": "国土数値情報（鉄道データ）平成19年　国土交通省",
        "operator": "一畑電車",
        "operator:en": "Ichibata Electric Railway",
        "operator:ja": "一畑電車",
        "public_transport": "station",
        "railway": "station",
        "source": "KSJ2",
        "source_ref": "http://nlftp.mlit.go.jp/ksj/jpgis/datalist/KsjTmplt-N02-v1_1.html",
        "wikidata": "Q11434521",
        "wikipedia": "ja:大寺駅"
      }
    },
    {
      "id": "shimane_station_8208111831",
      "osmId": 8208111831,
      "osmType": "node",
      "prefectureId": "shimane",
      "type": "station",
      "subtype": "private",
      "name": "武志",
      "nameKana": null,
      "nameEn": "Takeshi",
      "operator": "一畑電車",
      "network": "一畑電車北松江線",
      "ref": null,
      "latitude": 35.3881392,
      "longitude": 132.7732502,
      "countryCode": "jp",
      "rawTags": {
        "name": "武志",
        "name:en": "Takeshi",
        "name:ja": "武志",
        "name:ko": "다케시",
        "network": "一畑電車北松江線",
        "note": "National-Land Numerical Information (Railway) 2007, MLIT Japan",
        "note:ja": "国土数値情報（鉄道データ）平成19年　国土交通省",
        "operator": "一畑電車",
        "operator:en": "Ichibata Electric Railwat",
        "operator:ja": "一畑電車",
        "public_transport": "station",
        "railway": "station",
        "source": "KSJ2",
        "source_ref": "http://nlftp.mlit.go.jp/ksj/jpgis/datalist/KsjTmplt-N02-v1_1.html",
        "wikidata": "Q11545998",
        "wikipedia": "ja:武志駅"
      }
    },
    {
      "id": "shimane_station_8208111832",
      "osmId": 8208111832,
      "osmType": "node",
      "prefectureId": "shimane",
      "type": "station",
      "subtype": "private",
      "name": "出雲科学館パークタウン前",
      "nameKana": null,
      "nameEn": "Izumo Science Center-Parktown",
      "operator": null,
      "network": null,
      "ref": null,
      "latitude": 35.362853,
      "longitude": 132.7661202,
      "countryCode": "jp",
      "rawTags": {
        "alt_name:ko": "이즈모카가쿠칸파크타운마에",
        "name": "出雲科学館パークタウン前",
        "name:en": "Izumo Science Center-Parktown",
        "name:ja": "出雲科学館パークタウン前",
        "name:ko": "이즈모과학관파크타운앞",
        "note": "National-Land Numerical Information (Railway) 2007, MLIT Japan",
        "note:ja": "国土数値情報（鉄道データ）平成19年　国土交通省",
        "public_transport": "station",
        "railway": "station",
        "source": "KSJ2",
        "source_ref": "http://nlftp.mlit.go.jp/ksj/jpgis/datalist/KsjTmplt-N02-v1_1.html",
        "wikidata": "Q11395900",
        "wikipedia": "ja:出雲科学館パークタウン前駅"
      }
    },
    {
      "id": "shimane_station_8208111836",
      "osmId": 8208111836,
      "osmType": "node",
      "prefectureId": "shimane",
      "type": "station",
      "subtype": "private",
      "name": "松江イングリッシュガーデン前",
      "nameKana": null,
      "nameEn": "Matsue English Garden-Mae",
      "operator": "一畑電車",
      "network": "一畑電車北松江線",
      "ref": null,
      "latitude": 35.4774418,
      "longitude": 133.0038431,
      "countryCode": "jp",
      "rawTags": {
        "alt_name:ko": "마쓰에잉글리시가든마에",
        "name": "松江イングリッシュガーデン前",
        "name:en": "Matsue English Garden-Mae",
        "name:ja": "松江イングリッシュガーデン前",
        "name:ko": "마쓰에잉글리시가든앞",
        "network": "一畑電車北松江線",
        "network:en": "Ichibata Electric Railway Kita Matsue Line",
        "note": "National-Land Numerical Information (Railway) 2007, MLIT Japan",
        "note:ja": "国土数値情報（鉄道データ）平成19年　国土交通省",
        "operator": "一畑電車",
        "operator:en": "Ichibata Electric Railway",
        "operator:ja": "一畑電車",
        "public_transport": "station",
        "railway": "station",
        "source": "KSJ2",
        "source_ref": "http://nlftp.mlit.go.jp/ksj/jpgis/datalist/KsjTmplt-N02-v1_1.html",
        "wikidata": "Q6788088",
        "wikipedia": "ja:松江イングリッシュガーデン前駅"
      }
    },
    {
      "id": "shimane_station_8208111838",
      "osmId": 8208111838,
      "osmType": "node",
      "prefectureId": "shimane",
      "type": "station",
      "subtype": "private",
      "name": "秋鹿町",
      "nameKana": null,
      "nameEn": "Aikamachi",
      "operator": "北松江線",
      "network": "北松江線",
      "ref": null,
      "latitude": 35.4771387,
      "longitude": 132.9565188,
      "countryCode": "jp",
      "rawTags": {
        "name": "秋鹿町",
        "name:en": "Aikamachi",
        "name:ja": "秋鹿町",
        "name:ko": "아이카마치",
        "network": "北松江線",
        "note": "National-Land Numerical Information (Railway) 2007, MLIT Japan",
        "note:ja": "国土数値情報（鉄道データ）平成19年　国土交通省",
        "operator": "北松江線",
        "public_transport": "station",
        "railway": "station",
        "source": "KSJ2",
        "source_ref": "http://nlftp.mlit.go.jp/ksj/jpgis/datalist/KsjTmplt-N02-v1_1.html",
        "start_date": "1928年-4月-5日",
        "wikidata": "Q11595886",
        "wikipedia": "ja:秋鹿町駅"
      }
    },
    {
      "id": "shimane_station_8208111843",
      "osmId": 8208111843,
      "osmType": "node",
      "prefectureId": "shimane",
      "type": "station",
      "subtype": "private",
      "name": "津ノ森",
      "nameKana": null,
      "nameEn": "Tsunomori",
      "operator": "一畑電車",
      "network": "一畑電車北松江線",
      "ref": null,
      "latitude": 35.4663674,
      "longitude": 132.9187158,
      "countryCode": "jp",
      "rawTags": {
        "name": "津ノ森",
        "name:en": "Tsunomori",
        "name:ja": "津ノ森",
        "name:ko": "쓰노모리",
        "network": "一畑電車北松江線",
        "network:en": "Ichibata Electric Railway Kita Matsue Line",
        "note": "National-Land Numerical Information (Railway) 2007, MLIT Japan",
        "note:ja": "国土数値情報（鉄道データ）平成19年　国土交通省",
        "operator": "一畑電車",
        "public_transport": "station",
        "railway": "station",
        "source": "KSJ2",
        "source_ref": "http://nlftp.mlit.go.jp/ksj/jpgis/datalist/KsjTmplt-N02-v1_1.html",
        "wikidata": "Q11555896",
        "wikipedia": "ja:津ノ森駅"
      }
    },
    {
      "id": "shimane_ferry_terminal_9895110216",
      "osmId": 9895110216,
      "osmType": "node",
      "prefectureId": "shimane",
      "type": "ferry_terminal",
      "subtype": null,
      "name": "堀川遊覧船 カラコロ広場乗船場",
      "nameKana": null,
      "nameEn": null,
      "operator": null,
      "network": null,
      "ref": null,
      "latitude": 35.46993,
      "longitude": 133.0543661,
      "countryCode": "jp",
      "rawTags": {
        "amenity": "ferry_terminal",
        "ferry": "yes",
        "name": "堀川遊覧船 カラコロ広場乗船場",
        "public_transport": "station"
      }
    },
    {
      "id": "shimane_station_9897487807",
      "osmId": 9897487807,
      "osmType": "node",
      "prefectureId": "shimane",
      "type": "station",
      "subtype": "private",
      "name": "旧出雲広瀬駅",
      "nameKana": null,
      "nameEn": null,
      "operator": null,
      "network": null,
      "ref": null,
      "latitude": 35.3632323,
      "longitude": 133.1738072,
      "countryCode": "jp",
      "rawTags": {
        "name": "旧出雲広瀬駅",
        "public_transport": "station",
        "railway": "station",
        "train": "yes"
      }
    },
    {
      "id": "shimane_station_9925791508",
      "osmId": 9925791508,
      "osmType": "node",
      "prefectureId": "shimane",
      "type": "station",
      "subtype": "private",
      "name": "東青原",
      "nameKana": null,
      "nameEn": "Higashi-Aohara",
      "operator": null,
      "network": null,
      "ref": null,
      "latitude": 34.5850882,
      "longitude": 131.7973982,
      "countryCode": "jp",
      "rawTags": {
        "KSJ2:LIN": "山口線",
        "KSJ2:STN": "東青原",
        "name": "東青原",
        "name:en": "Higashi-Aohara",
        "name:ja": "東青原",
        "name:ko": "히가시아오하라",
        "note": "National-Land Numerical Information (Railway) 2007, MLIT Japan",
        "note:ja": "国土数値情報（鉄道データ）平成19年　国土交通省",
        "railway": "station",
        "source": "KSJ2",
        "source_ref": "http://nlftp.mlit.go.jp/ksj/jpgis/datalist/KsjTmplt-N02-v1_1.html",
        "wikidata": "Q5753468",
        "wikipedia": "ja:東青原駅"
      }
    },
    {
      "id": "shimane_ferry_terminal_10064368684",
      "osmId": 10064368684,
      "osmType": "node",
      "prefectureId": "shimane",
      "type": "ferry_terminal",
      "subtype": null,
      "name": "七類港",
      "nameKana": null,
      "nameEn": null,
      "operator": null,
      "network": null,
      "ref": null,
      "latitude": 35.5711733,
      "longitude": 133.2291744,
      "countryCode": "jp",
      "rawTags": {
        "amenity": "ferry_terminal",
        "ferry": "yes",
        "name": "七類港",
        "public_transport": "station"
      }
    },
    {
      "id": "shimane_ferry_terminal_10083311517",
      "osmId": 10083311517,
      "osmType": "node",
      "prefectureId": "shimane",
      "type": "ferry_terminal",
      "subtype": null,
      "name": "潜戸観光遊覧船",
      "nameKana": null,
      "nameEn": null,
      "operator": null,
      "network": null,
      "ref": null,
      "latitude": 35.5649999,
      "longitude": 133.0576407,
      "countryCode": "jp",
      "rawTags": {
        "amenity": "ferry_terminal",
        "ferry": "yes",
        "name": "潜戸観光遊覧船",
        "public_transport": "station"
      }
    },
    {
      "id": "shimane_ferry_terminal_10104446438",
      "osmId": 10104446438,
      "osmType": "node",
      "prefectureId": "shimane",
      "type": "ferry_terminal",
      "subtype": null,
      "name": "宍道湖観光遊覧船 第2乗船場",
      "nameKana": null,
      "nameEn": null,
      "operator": null,
      "network": null,
      "ref": null,
      "latitude": 35.4670347,
      "longitude": 133.0613908,
      "countryCode": "jp",
      "rawTags": {
        "amenity": "ferry_terminal",
        "ferry": "yes",
        "name": "宍道湖観光遊覧船 第2乗船場",
        "public_transport": "station"
      }
    },
    {
      "id": "shimane_ferry_terminal_10104446439",
      "osmId": 10104446439,
      "osmType": "node",
      "prefectureId": "shimane",
      "type": "ferry_terminal",
      "subtype": null,
      "name": "宍道湖観光遊覧船 第1乗船場",
      "nameKana": null,
      "nameEn": null,
      "operator": null,
      "network": null,
      "ref": null,
      "latitude": 35.4649533,
      "longitude": 133.0716689,
      "countryCode": "jp",
      "rawTags": {
        "amenity": "ferry_terminal",
        "ferry": "yes",
        "name": "宍道湖観光遊覧船 第1乗船場",
        "public_transport": "station"
      }
    },
    {
      "id": "shimane_station_11964351860",
      "osmId": 11964351860,
      "osmType": "node",
      "prefectureId": "shimane",
      "type": "station",
      "subtype": "private",
      "name": "加茂中",
      "nameKana": null,
      "nameEn": "Kamonaka",
      "operator": null,
      "network": null,
      "ref": null,
      "latitude": 35.3446436,
      "longitude": 132.9109254,
      "countryCode": "jp",
      "rawTags": {
        "KSJ2:LIN": "木次線",
        "KSJ2:STN": "加茂中",
        "name": "加茂中",
        "name:en": "Kamonaka",
        "name:ja": "加茂中",
        "name:ko": "가모나카",
        "note": "National-Land Numerical Information (Railway) 2007, MLIT Japan",
        "note:ja": "国土数値情報（鉄道データ）平成19年　国土交通省",
        "public_transport": "station",
        "railway": "station",
        "source": "KSJ2",
        "source_ref": "http://nlftp.mlit.go.jp/ksj/jpgis/datalist/KsjTmplt-N02-v1_1.html",
        "wikidata": "Q11398828",
        "wikipedia": "ja:加茂中駅"
      }
    },
    {
      "id": "shimane_station_12903211876",
      "osmId": 12903211876,
      "osmType": "node",
      "prefectureId": "shimane",
      "type": "station",
      "subtype": "private",
      "name": "出雲市",
      "nameKana": "いずもし",
      "nameEn": "Izumoshi",
      "operator": null,
      "network": null,
      "ref": null,
      "latitude": 35.3607587,
      "longitude": 132.7566624,
      "countryCode": "jp",
      "rawTags": {
        "KSJ2:LIN": "山陰線",
        "KSJ2:STN": "出雲市",
        "contact:website": "https://www.jr-odekake.net/eki/top?id=0640741",
        "name": "出雲市",
        "name:en": "Izumoshi",
        "name:ja": "出雲市",
        "name:ja-Hira": "いずもし",
        "name:ja-Latn": "Izumoshi",
        "name:ko": "이즈모시",
        "note": "National-Land Numerical Information (Railway) 2007, MLIT Japan",
        "note:ja": "国土数値情報（鉄道データ）平成19年 国土交通省",
        "public_transport": "station",
        "railway": "station",
        "source": "KSJ2",
        "source_ref": "http://nlftp.mlit.go.jp/ksj/jpgis/datalist/KsjTmplt-N02-v1_1.html",
        "train": "yes",
        "wikidata": "Q860288",
        "wikimedia_commons": "File:Izumoshi_Station_at_night_2022_Dec_31_various.jpeg",
        "wikipedia": "ja:出雲市駅"
      }
    },
    {
      "id": "shimane_station_12903211889",
      "osmId": 12903211889,
      "osmType": "node",
      "prefectureId": "shimane",
      "type": "station",
      "subtype": "private",
      "name": "温泉津",
      "nameKana": null,
      "nameEn": "Yunotsu",
      "operator": null,
      "network": null,
      "ref": null,
      "latitude": 35.0913125,
      "longitude": 132.3507151,
      "countryCode": "jp",
      "rawTags": {
        "KSJ2:LIN": "山陰線",
        "KSJ2:STN": "温泉津",
        "contact:website": "https://www.jr-odekake.net/eki/top?id=0640754",
        "name": "温泉津",
        "name:en": "Yunotsu",
        "name:ja": "温泉津",
        "name:ko": "유노쓰",
        "note": "National-Land Numerical Information (Railway) 2007, MLIT Japan",
        "note:ja": "国土数値情報（鉄道データ）平成19年　国土交通省",
        "public_transport": "station",
        "railway": "station",
        "source": "KSJ2",
        "source_ref": "http://nlftp.mlit.go.jp/ksj/jpgis/datalist/KsjTmplt-N02-v1_1.html",
        "wikidata": "Q5355671",
        "wikipedia": "ja:温泉津駅"
      }
    },
    {
      "id": "shimane_station_12903211891",
      "osmId": 12903211891,
      "osmType": "node",
      "prefectureId": "shimane",
      "type": "station",
      "subtype": "private",
      "name": "江津",
      "nameKana": null,
      "nameEn": "Gotsu",
      "operator": null,
      "network": null,
      "ref": null,
      "latitude": 35.012803,
      "longitude": 132.2231899,
      "countryCode": "jp",
      "rawTags": {
        "KSJ2:LIN": "山陰線",
        "KSJ2:STN": "江津",
        "contact:website": "https://www.jr-odekake.net/eki/top?id=0640758",
        "name": "江津",
        "name:en": "Gotsu",
        "name:ja": "江津",
        "name:ko": "고쓰",
        "note": "National-Land Numerical Information (Railway) 2007, MLIT Japan",
        "note:ja": "国土数値情報（鉄道データ）平成19年　国土交通省",
        "public_transport": "station",
        "railway": "station",
        "source": "KSJ2",
        "source_ref": "http://nlftp.mlit.go.jp/ksj/jpgis/datalist/KsjTmplt-N02-v1_1.html",
        "wikidata": "Q3611257",
        "wikipedia": "ja:江津駅"
      }
    },
    {
      "id": "shimane_station_12903211892",
      "osmId": 12903211892,
      "osmType": "node",
      "prefectureId": "shimane",
      "type": "station",
      "subtype": "private",
      "name": "波子",
      "nameKana": null,
      "nameEn": "Hashi",
      "operator": null,
      "network": null,
      "ref": null,
      "latitude": 34.9644156,
      "longitude": 132.1512855,
      "countryCode": "jp",
      "rawTags": {
        "KSJ2:LIN": "山陰線",
        "KSJ2:STN": "波子",
        "contact:website": "https://www.jr-odekake.net/eki/top?id=0640761",
        "name": "波子",
        "name:en": "Hashi",
        "name:ja": "波子",
        "name:ko": "하시",
        "note": "National-Land Numerical Information (Railway) 2007, MLIT Japan",
        "note:ja": "国土数値情報（鉄道データ）平成19年　国土交通省",
        "public_transport": "station",
        "railway": "station",
        "source": "KSJ2",
        "source_ref": "http://nlftp.mlit.go.jp/ksj/jpgis/datalist/KsjTmplt-N02-v1_1.html",
        "wikidata": "Q5678948",
        "wikipedia": "ja:波子駅"
      }
    },
    {
      "id": "shimane_station_12903211895",
      "osmId": 12903211895,
      "osmType": "node",
      "prefectureId": "shimane",
      "type": "station",
      "subtype": "private",
      "name": "浜田",
      "nameKana": null,
      "nameEn": "Hamada",
      "operator": null,
      "network": null,
      "ref": null,
      "latitude": 34.9027291,
      "longitude": 132.0887323,
      "countryCode": "jp",
      "rawTags": {
        "KSJ2:LIN": "山陰線",
        "KSJ2:STN": "浜田",
        "contact:website": "https://www.jr-odekake.net/eki/top?id=0640764",
        "name": "浜田",
        "name:en": "Hamada",
        "name:ja": "浜田",
        "name:ko": "하마다",
        "note": "National-Land Numerical Information (Railway) 2007, MLIT Japan",
        "note:ja": "国土数値情報（鉄道データ）平成19年　国土交通省",
        "public_transport": "station",
        "railway": "station",
        "source": "KSJ2",
        "source_ref": "http://nlftp.mlit.go.jp/ksj/jpgis/datalist/KsjTmplt-N02-v1_1.html",
        "wikidata": "Q5643969",
        "wikipedia": "ja:浜田駅"
      }
    },
    {
      "id": "shimane_station_12903211898",
      "osmId": 12903211898,
      "osmType": "node",
      "prefectureId": "shimane",
      "type": "station",
      "subtype": "private",
      "name": "三保三隅",
      "nameKana": "みほみすみ",
      "nameEn": "Miho-Misumi",
      "operator": null,
      "network": null,
      "ref": null,
      "latitude": 34.7958838,
      "longitude": 131.9561286,
      "countryCode": "jp",
      "rawTags": {
        "KSJ2:LIN": "山陰線",
        "KSJ2:STN": "三保三隅",
        "contact:website": "https://www.jr-odekake.net/eki/top?id=0640768",
        "name": "三保三隅",
        "name:en": "Miho-Misumi",
        "name:ja": "三保三隅",
        "name:ja-Hira": "みほみすみ",
        "name:ko": "미호미스미",
        "note": "National-Land Numerical Information (Railway) 2007, MLIT Japan",
        "note:ja": "国土数値情報（鉄道データ）平成19年　国土交通省",
        "public_transport": "station",
        "railway": "station",
        "source": "KSJ2",
        "source_ref": "http://nlftp.mlit.go.jp/ksj/jpgis/datalist/KsjTmplt-N02-v1_1.html",
        "wikidata": "Q6845309",
        "wikipedia": "ja:三保三隅駅"
      }
    },
    {
      "id": "shimane_station_12903226313",
      "osmId": 12903226313,
      "osmType": "node",
      "prefectureId": "shimane",
      "type": "station",
      "subtype": "private",
      "name": "石見横田",
      "nameKana": null,
      "nameEn": "Iwami-Yokota",
      "operator": null,
      "network": null,
      "ref": null,
      "latitude": 34.6185332,
      "longitude": 131.8050505,
      "countryCode": "jp",
      "rawTags": {
        "KSJ2:LIN": "山口線",
        "KSJ2:STN": "石見横田",
        "name": "石見横田",
        "name:en": "Iwami-Yokota",
        "name:ja": "石見横田",
        "name:ko": "이와미요코타",
        "note": "National-Land Numerical Information (Railway) 2007, MLIT Japan",
        "note:ja": "国土数値情報（鉄道データ）平成19年　国土交通省",
        "public_transport": "station",
        "railway": "station",
        "source": "KSJ2",
        "source_ref": "http://nlftp.mlit.go.jp/ksj/jpgis/datalist/KsjTmplt-N02-v1_1.html",
        "wikidata": "Q6100474",
        "wikipedia": "ja:石見横田駅"
      }
    },
    {
      "id": "shimane_station_12903226323",
      "osmId": 12903226323,
      "osmType": "node",
      "prefectureId": "shimane",
      "type": "station",
      "subtype": "private",
      "name": "日原",
      "nameKana": null,
      "nameEn": "Nichihara",
      "operator": null,
      "network": null,
      "ref": null,
      "latitude": 34.5327796,
      "longitude": 131.8318404,
      "countryCode": "jp",
      "rawTags": {
        "KSJ2:LIN": "山口線",
        "KSJ2:STN": "日原",
        "contact:website": "https://www.jr-odekake.net/eki/top?id=0801918",
        "name": "日原",
        "name:en": "Nichihara",
        "name:ja": "日原",
        "name:ko": "니치하라",
        "note": "National-Land Numerical Information (Railway) 2007, MLIT Japan",
        "note:ja": "国土数値情報（鉄道データ）平成19年　国土交通省",
        "public_transport": "station",
        "railway": "station",
        "source": "KSJ2",
        "source_ref": "http://nlftp.mlit.go.jp/ksj/jpgis/datalist/KsjTmplt-N02-v1_1.html",
        "wikidata": "Q7024834",
        "wikipedia": "ja:日原駅"
      }
    },
    {
      "id": "shimane_airport_57010769",
      "osmId": 57010769,
      "osmType": "way",
      "prefectureId": "shimane",
      "type": "airport",
      "subtype": "domestic",
      "name": "隠岐空港",
      "nameKana": null,
      "nameEn": "Oki Airport",
      "operator": null,
      "network": null,
      "ref": "OKI",
      "latitude": 36.1787124,
      "longitude": 133.3232425,
      "countryCode": "jp",
      "rawTags": {
        "KSJ2:AAC": "32528",
        "KSJ2:AAC_label": "島根県, *",
        "KSJ2:AD2": "5",
        "KSJ2:AD2_label": "都道府県",
        "KSJ2:ARP": "36.1783333333 133.3233333333",
        "KSJ2:ATB": "36.1780189200 133.3298597000",
        "KSJ2:CLT": "17 00",
        "KSJ2:COA": "空港整備法に基づく第三種空港",
        "KSJ2:CompositeCurve": "cv30Airport",
        "KSJ2:DSA": "特定飛行場以外",
        "KSJ2:INP": "5",
        "KSJ2:INP_label": "都道府県",
        "KSJ2:IUC": "供用中",
        "KSJ2:NA3": "隠岐空港",
        "KSJ2:OPT": "09 00",
        "KSJ2:REF": "2",
        "KSJ2:REF_label": "プロペラ定期便が就航している場合",
        "KSJ2:airport_id": "cf02_1",
        "KSJ2:runways": "2000 45",
        "aeroway": "aerodrome",
        "fence": "yes",
        "iata": "OKI",
        "icao": "RJNO",
        "layer": "1",
        "name": "隠岐空港",
        "name:en": "Oki Airport",
        "name:ja": "隠岐空港",
        "name:ja_rm": "Oki Kuko",
        "name:ko": "오키공항",
        "note": "National-Land Numerical Information (Airport) 2007, MLIT Japan",
        "note:ja": "国土数値情報（空港データ）平成19年 国土交通省",
        "source": "KSJ2",
        "source_ref": "http://nlftp.mlit.go.jp/ksj/jpgis/datalist/KsjTmplt-C28-v1_1.html",
        "wikidata": "Q1148447",
        "wikipedia": "ja:隠岐空港"
      }
    },
    {
      "id": "shimane_airport_57010831",
      "osmId": 57010831,
      "osmType": "way",
      "prefectureId": "shimane",
      "type": "airport",
      "subtype": "domestic",
      "name": "石見空港",
      "nameKana": null,
      "nameEn": "Iwami Airport",
      "operator": null,
      "network": null,
      "ref": "IWJ",
      "latitude": 34.6764077,
      "longitude": 131.7909755,
      "countryCode": "jp",
      "rawTags": {
        "KSJ2:AAC": "32204",
        "KSJ2:AAC_label": "島根県益田市",
        "KSJ2:AD2": "5",
        "KSJ2:AD2_label": "都道府県",
        "KSJ2:ARP": "34.6763888889 131.7902777778",
        "KSJ2:ATB": "34.6785277800 131.7965833000",
        "KSJ2:CLT": "19 30",
        "KSJ2:COA": "空港整備法に基づく第三種空港",
        "KSJ2:CompositeCurve": "cv48Airport",
        "KSJ2:DSA": "特定飛行場以外",
        "KSJ2:INP": "5",
        "KSJ2:INP_label": "都道府県",
        "KSJ2:IUC": "供用中",
        "KSJ2:NA3": "石見空港",
        "KSJ2:OPT": "08 00",
        "KSJ2:REF": "2",
        "KSJ2:REF_label": "プロペラ定期便が就航している場合",
        "KSJ2:airport_id": "cf02_79",
        "KSJ2:runways": "2000 45",
        "KSJ2:survey_year_LFD_NPD": "1981 0 3,1982 0 3,1983 0 0,1984 0 0,1985 0 0,1986 0 0,1987 0 0,1988 0 0,1989 0 0,1990 0 0,1991 0 0,1992 0 0,1993 2 0,1994 4 0,1995 3 208,1996 3 4,1997 3 389,1998 4 374,1999 4 426,2000 4 479,2001 4 513,2002 4 398,2003 3 447,2004 3 409,2005 3 287",
        "aeroway": "aerodrome",
        "ele": "54",
        "fence": "yes",
        "iata": "IWJ",
        "icao": "RJOW",
        "layer": "1",
        "name": "石見空港",
        "name:en": "Iwami Airport",
        "name:ja": "石見空港",
        "name:ja_rm": "Iwami Kuko",
        "name:ko": "이와미공항",
        "natural": "heath",
        "note": "National-Land Numerical Information (Airport) 2007, MLIT Japan",
        "note:ja": "国土数値情報（空港データ）平成19年　国土交通省",
        "source": "KSJ2",
        "source_ref": "http://nlftp.mlit.go.jp/ksj/jpgis/datalist/KsjTmplt-C28-v1_1.html",
        "wikipedia": "ja:石見空港",
        "wikipedia:en": "Iwami Airport"
      }
    },
    {
      "id": "shimane_ferry_terminal_431893262",
      "osmId": 431893262,
      "osmType": "way",
      "prefectureId": "shimane",
      "type": "ferry_terminal",
      "subtype": null,
      "name": "別府港第1ターミナル",
      "nameKana": null,
      "nameEn": null,
      "operator": "島根県",
      "network": null,
      "ref": null,
      "latitude": 36.1076766,
      "longitude": 133.0415553,
      "countryCode": "jp",
      "rawTags": {
        "addr:city": "西ノ島町",
        "addr:housenumber": "4386-3",
        "addr:postcode": "684-0303",
        "addr:street": "美田",
        "amenity": "ferry_terminal",
        "building": "yes",
        "ferry": "yes",
        "name": "別府港第1ターミナル",
        "operator": "島根県",
        "public_transport": "station"
      }
    },
    {
      "id": "shimane_ferry_terminal_431893264",
      "osmId": 431893264,
      "osmType": "way",
      "prefectureId": "shimane",
      "type": "ferry_terminal",
      "subtype": null,
      "name": "別府港第2ターミナル",
      "nameKana": null,
      "nameEn": null,
      "operator": "島根県",
      "network": null,
      "ref": null,
      "latitude": 36.107411,
      "longitude": 133.0418933,
      "countryCode": "jp",
      "rawTags": {
        "addr:city": "西ノ島町",
        "addr:housenumber": "4386-3",
        "addr:postcode": "684-0303",
        "addr:street": "美田",
        "amenity": "ferry_terminal",
        "building": "yes",
        "ferry": "yes",
        "name": "別府港第2ターミナル",
        "operator": "島根県",
        "public_transport": "station"
      }
    },
    {
      "id": "shimane_bus_terminal_647119177",
      "osmId": 647119177,
      "osmType": "way",
      "prefectureId": "shimane",
      "type": "bus_terminal",
      "subtype": null,
      "name": "八雲バスターミナル",
      "nameKana": null,
      "nameEn": null,
      "operator": null,
      "network": null,
      "ref": null,
      "latitude": 35.4125154,
      "longitude": 133.0970328,
      "countryCode": "jp",
      "rawTags": {
        "amenity": "bus_station",
        "bus": "yes",
        "name": "八雲バスターミナル",
        "public_transport": "station"
      }
    },
    {
      "id": "shimane_bus_terminal_666072463",
      "osmId": 666072463,
      "osmType": "way",
      "prefectureId": "shimane",
      "type": "bus_terminal",
      "subtype": null,
      "name": "一畑 山の駅",
      "nameKana": null,
      "nameEn": null,
      "operator": null,
      "network": null,
      "ref": null,
      "latitude": 35.4930799,
      "longitude": 132.8740989,
      "countryCode": "jp",
      "rawTags": {
        "amenity": "bus_station",
        "building": "yes",
        "bus": "yes",
        "name": "一畑 山の駅",
        "public_transport": "station"
      }
    },
    {
      "id": "shimane_ferry_terminal_670996075",
      "osmId": 670996075,
      "osmType": "way",
      "prefectureId": "shimane",
      "type": "ferry_terminal",
      "subtype": null,
      "name": "西郷港フェリーターミナル",
      "nameKana": null,
      "nameEn": "Saigo Port Ferry Terminal",
      "operator": null,
      "network": null,
      "ref": null,
      "latitude": 36.2034607,
      "longitude": 133.3350804,
      "countryCode": "jp",
      "rawTags": {
        "amenity": "ferry_terminal",
        "building": "yes",
        "ferry": "yes",
        "name": "西郷港フェリーターミナル",
        "name:en": "Saigo Port Ferry Terminal",
        "public_transport": "station"
      }
    },
    {
      "id": "shimane_ferry_terminal_789152252",
      "osmId": 789152252,
      "osmType": "way",
      "prefectureId": "shimane",
      "type": "ferry_terminal",
      "subtype": null,
      "name": "来居港フェリーターミナル",
      "nameKana": null,
      "nameEn": "Kurii Port Ferry Terminal",
      "operator": null,
      "network": null,
      "ref": null,
      "latitude": 36.0249446,
      "longitude": 133.0393975,
      "countryCode": "jp",
      "rawTags": {
        "amenity": "ferry_terminal",
        "building": "yes",
        "ferry": "yes",
        "name": "来居港フェリーターミナル",
        "name:en": "Kurii Port Ferry Terminal",
        "public_transport": "station"
      }
    },
    {
      "id": "shimane_ferry_terminal_789153345",
      "osmId": 789153345,
      "osmType": "way",
      "prefectureId": "shimane",
      "type": "ferry_terminal",
      "subtype": null,
      "name": "内航船待合室",
      "nameKana": null,
      "nameEn": null,
      "operator": null,
      "network": null,
      "ref": null,
      "latitude": 36.0243478,
      "longitude": 133.0400338,
      "countryCode": "jp",
      "rawTags": {
        "amenity": "ferry_terminal",
        "building": "yes",
        "ferry": "yes",
        "name": "内航船待合室",
        "public_transport": "station"
      }
    },
    {
      "id": "shimane_bus_terminal_1078951549",
      "osmId": 1078951549,
      "osmType": "way",
      "prefectureId": "shimane",
      "type": "bus_terminal",
      "subtype": null,
      "name": "一畑バス　玉造案内所",
      "nameKana": null,
      "nameEn": null,
      "operator": null,
      "network": null,
      "ref": null,
      "latitude": 35.4141805,
      "longitude": 133.0099203,
      "countryCode": "jp",
      "rawTags": {
        "amenity": "bus_station",
        "building": "yes",
        "bus": "yes",
        "name": "一畑バス　玉造案内所",
        "public_transport": "station"
      }
    },
    {
      "id": "shimane_bus_terminal_1079769987",
      "osmId": 1079769987,
      "osmType": "way",
      "prefectureId": "shimane",
      "type": "bus_terminal",
      "subtype": null,
      "name": "広瀬バスターミナル",
      "nameKana": null,
      "nameEn": null,
      "operator": null,
      "network": null,
      "ref": null,
      "latitude": 35.3632417,
      "longitude": 133.1736978,
      "countryCode": "jp",
      "rawTags": {
        "amenity": "bus_station",
        "building": "yes",
        "bus": "yes",
        "name": "広瀬バスターミナル",
        "public_transport": "station"
      }
    },
    {
      "id": "shimane_bus_terminal_1095612226",
      "osmId": 1095612226,
      "osmType": "way",
      "prefectureId": "shimane",
      "type": "bus_terminal",
      "subtype": null,
      "name": "平成町車庫",
      "nameKana": null,
      "nameEn": null,
      "operator": null,
      "network": null,
      "ref": null,
      "latitude": 35.429712,
      "longitude": 133.058516,
      "countryCode": "jp",
      "rawTags": {
        "amenity": "bus_station",
        "bus": "yes",
        "name": "平成町車庫",
        "public_transport": "station"
      }
    },
    {
      "id": "shimane_bus_terminal_1097546612",
      "osmId": 1097546612,
      "osmType": "way",
      "prefectureId": "shimane",
      "type": "bus_terminal",
      "subtype": null,
      "name": "松江しんじ湖温泉駅",
      "nameKana": null,
      "nameEn": null,
      "operator": null,
      "network": null,
      "ref": null,
      "latitude": 35.4675835,
      "longitude": 133.0463444,
      "countryCode": "jp",
      "rawTags": {
        "amenity": "bus_station",
        "bus": "yes",
        "name": "松江しんじ湖温泉駅",
        "public_transport": "station"
      }
    },
    {
      "id": "shimane_bus_terminal_1097547308",
      "osmId": 1097547308,
      "osmType": "way",
      "prefectureId": "shimane",
      "type": "bus_terminal",
      "subtype": null,
      "name": "松江駅",
      "nameKana": null,
      "nameEn": null,
      "operator": null,
      "network": null,
      "ref": null,
      "latitude": 35.4641791,
      "longitude": 133.0628502,
      "countryCode": "jp",
      "rawTags": {
        "amenity": "bus_station",
        "bus": "yes",
        "name": "松江駅",
        "public_transport": "station"
      }
    },
    {
      "id": "shimane_bus_terminal_1097706697",
      "osmId": 1097706697,
      "osmType": "way",
      "prefectureId": "shimane",
      "type": "bus_terminal",
      "subtype": null,
      "name": "一畑バス本社",
      "nameKana": null,
      "nameEn": null,
      "operator": null,
      "network": null,
      "ref": null,
      "latitude": 35.4702038,
      "longitude": 133.0716098,
      "countryCode": "jp",
      "rawTags": {
        "amenity": "bus_station",
        "bus": "yes",
        "name": "一畑バス本社",
        "public_transport": "station"
      }
    },
    {
      "id": "shimane_ferry_terminal_1101504860",
      "osmId": 1101504860,
      "osmType": "way",
      "prefectureId": "shimane",
      "type": "ferry_terminal",
      "subtype": null,
      "name": "大橋川観光遊覧船 矢田の渡し",
      "nameKana": null,
      "nameEn": null,
      "operator": null,
      "network": null,
      "ref": null,
      "latitude": 35.4533913,
      "longitude": 133.1031364,
      "countryCode": "jp",
      "rawTags": {
        "amenity": "ferry_terminal",
        "building": "yes",
        "ferry": "yes",
        "name": "大橋川観光遊覧船 矢田の渡し",
        "public_transport": "station",
        "wikipedia": "ja:矢田の渡し"
      }
    },
    {
      "id": "shimane_bus_terminal_1104199175",
      "osmId": 1104199175,
      "osmType": "way",
      "prefectureId": "shimane",
      "type": "bus_terminal",
      "subtype": null,
      "name": "美保関(万原)バスターミナル",
      "nameKana": null,
      "nameEn": null,
      "operator": null,
      "network": null,
      "ref": null,
      "latitude": 35.5350556,
      "longitude": 133.1645093,
      "countryCode": "jp",
      "rawTags": {
        "amenity": "bus_station",
        "bus": "yes",
        "name": "美保関(万原)バスターミナル",
        "public_transport": "station"
      }
    },
    {
      "id": "shimane_station_1365521454",
      "osmId": 1365521454,
      "osmType": "way",
      "prefectureId": "shimane",
      "type": "station",
      "subtype": "jr",
      "name": "木次駅",
      "nameKana": null,
      "nameEn": "Kisuki",
      "operator": "西日本旅客鉄道",
      "network": "JR木次線",
      "ref": null,
      "latitude": 35.2946507,
      "longitude": 132.9018607,
      "countryCode": "jp",
      "rawTags": {
        "KSJ2:LIN": "木次線",
        "KSJ2:STN": "木次",
        "building": "yes",
        "name": "木次駅",
        "name:en": "Kisuki",
        "name:ja": "木次",
        "name:ko": "기스키",
        "network": "JR木次線",
        "note": "National-Land Numerical Information (Railway) 2007, MLIT Japan",
        "note:ja": "国土数値情報（鉄道データ）平成19年　国土交通省",
        "operator": "西日本旅客鉄道",
        "public_transport": "station",
        "railway": "station",
        "source": "KSJ2",
        "source_ref": "http://nlftp.mlit.go.jp/ksj/jpgis/datalist/KsjTmplt-N02-v1_1.html",
        "train": "yes",
        "wikidata": "Q6417340",
        "wikipedia": "ja:木次駅"
      }
    },
    {
      "id": "shimane_airport_6121880",
      "osmId": 6121880,
      "osmType": "relation",
      "prefectureId": "shimane",
      "type": "airport",
      "subtype": "domestic",
      "name": "出雲空港",
      "nameKana": null,
      "nameEn": "Izumo Airport",
      "operator": null,
      "network": null,
      "ref": "IZO",
      "latitude": 35.413325,
      "longitude": 132.8891997,
      "countryCode": "jp",
      "rawTags": {
        "KSJ2:AAC": "32401",
        "KSJ2:AAC_label": "島根県簸川郡斐川町",
        "KSJ2:AD2": "5",
        "KSJ2:AD2_label": "都道府県",
        "KSJ2:ARP": "35.4136111111 132.8900000000",
        "KSJ2:ATB": "35.4148611100 132.8860556000",
        "KSJ2:CLT": "20 30",
        "KSJ2:COA": "空港整備法に基づく第三種空港",
        "KSJ2:CompositeCurve": "cv40Airport",
        "KSJ2:DSA": "特定飛行場以外",
        "KSJ2:INP": "5",
        "KSJ2:INP_label": "都道府県",
        "KSJ2:IUC": "供用中",
        "KSJ2:NA3": "出雲空港",
        "KSJ2:OPT": "07 30",
        "KSJ2:REF": "1",
        "KSJ2:REF_label": "ジェット定期便が就航している場合",
        "KSJ2:airport_id": "cf02_77",
        "KSJ2:runways": "2000 45",
        "aerodrome:type": "public",
        "aeroway": "aerodrome",
        "closest_town": "Shimane",
        "ele": "1.8",
        "fenced": "yes",
        "iata": "IZO",
        "icao": "RJOC",
        "name": "出雲空港",
        "name:en": "Izumo Airport",
        "name:ja": "出雲空港",
        "name:ja_rm": "Izumo Kūkō",
        "name:ko": "이즈모공항",
        "note": "National-Land Numerical Information (Airport) 2007, MLIT Japan",
        "note:ja": "国土数値情報（空港データ）平成19年　国土交通省",
        "source": "KSJ2;wikipedia",
        "source_ref": "http://nlftp.mlit.go.jp/ksj/jpgis/datalist/KsjTmplt-C28-v1_1.html",
        "type": "multipolygon",
        "wikidata": "Q1139412",
        "wikipedia": "en:Izumo Airport"
      }
    }
  ]
}