{
  "fetchedAt": "2025-12-12T05:23:04.675Z",
  "prefectureId": "tochigi",
  "prefectureName": "栃木県",
  "stats": {
    "station": 115,
    "airport": 2,
    "ferry_terminal": 5,
    "bus_terminal": 9,
    "total": 131
  },
  "data": [
    {
      "id": "tochigi_station_264180326",
      "osmId": 264180326,
      "osmType": "node",
      "prefectureId": "tochigi",
      "type": "station",
      "subtype": "private",
      "name": "黒田原",
      "nameKana": "くろだはら",
      "nameEn": "Kurodahara",
      "operator": null,
      "network": null,
      "ref": null,
      "latitude": 37.0227939,
      "longitude": 140.1196133,
      "countryCode": "jp",
      "rawTags": {
        "name": "黒田原",
        "name:en": "Kurodahara",
        "name:ja-Hira": "くろだはら",
        "name:ja-Latn": "Kurodahara",
        "name:ru": "Куродахара",
        "public_transport": "station",
        "railway": "station",
        "source": "KSJ2",
        "train": "yes",
        "wikidata": "Q873269",
        "wikipedia": "ja:黒田原駅"
      }
    },
    {
      "id": "tochigi_station_264180828",
      "osmId": 264180828,
      "osmType": "node",
      "prefectureId": "tochigi",
      "type": "station",
      "subtype": "private",
      "name": "蒲須坂",
      "nameKana": "かますさか",
      "nameEn": "Kamasusaka",
      "operator": null,
      "network": null,
      "ref": null,
      "latitude": 36.7212122,
      "longitude": 139.9502693,
      "countryCode": "jp",
      "rawTags": {
        "name": "蒲須坂",
        "name:de": "Kamasusaka",
        "name:en": "Kamasusaka",
        "name:ja-Hira": "かますさか",
        "name:ja-Latn": "Kamasusaka",
        "name:ru": "Камасусака",
        "public_transport": "station",
        "railway": "station",
        "source": "KSJ2",
        "train": "yes",
        "wikidata": "Q872618",
        "wikipedia": "ja:蒲須坂駅"
      }
    },
    {
      "id": "tochigi_station_264181231",
      "osmId": 264181231,
      "osmType": "node",
      "prefectureId": "tochigi",
      "type": "station",
      "subtype": "private",
      "name": "豊原",
      "nameKana": "とよはら",
      "nameEn": "Toyohara",
      "operator": null,
      "network": null,
      "ref": null,
      "latitude": 37.0554937,
      "longitude": 140.1556233,
      "countryCode": "jp",
      "rawTags": {
        "name": "豊原",
        "name:en": "Toyohara",
        "name:ja-Hira": "とよはら",
        "name:ja-Latn": "Toyohara",
        "name:ru": "Тоёхара",
        "public_transport": "station",
        "railway": "station",
        "source": "KSJ2",
        "train": "yes",
        "wikidata": "Q872944",
        "wikipedia": "ja:豊原駅"
      }
    },
    {
      "id": "tochigi_station_264183498",
      "osmId": 264183498,
      "osmType": "node",
      "prefectureId": "tochigi",
      "type": "station",
      "subtype": "private",
      "name": "野崎",
      "nameKana": "のざき",
      "nameEn": "Nozaki",
      "operator": null,
      "network": null,
      "ref": null,
      "latitude": 36.8437535,
      "longitude": 139.9579832,
      "countryCode": "jp",
      "rawTags": {
        "name": "野崎",
        "name:de": "Nozaki",
        "name:en": "Nozaki",
        "name:ja-Hira": "のざき",
        "name:ja-Latn": "Nozaki",
        "name:ru": "Нодзаки",
        "public_transport": "station",
        "railway": "station",
        "source": "KSJ2",
        "train": "yes",
        "wikidata": "Q872751",
        "wikipedia": "ja:野崎駅 (栃木県)"
      }
    },
    {
      "id": "tochigi_station_264183592",
      "osmId": 264183592,
      "osmType": "node",
      "prefectureId": "tochigi",
      "type": "station",
      "subtype": "private",
      "name": "氏家",
      "nameKana": "うじいえ",
      "nameEn": "Ujiie",
      "operator": null,
      "network": null,
      "ref": null,
      "latitude": 36.681443,
      "longitude": 139.962198,
      "countryCode": "jp",
      "rawTags": {
        "name": "氏家",
        "name:de": "Ujiie",
        "name:en": "Ujiie",
        "name:ja-Hira": "うじいえ",
        "name:ja-Latn": "Ujiie",
        "name:ru": "Удзииэ",
        "public_transport": "station",
        "railway": "station",
        "source": "KSJ2",
        "train": "yes",
        "wikidata": "Q872732",
        "wikipedia": "ja:氏家駅"
      }
    },
    {
      "id": "tochigi_station_264184513",
      "osmId": 264184513,
      "osmType": "node",
      "prefectureId": "tochigi",
      "type": "station",
      "subtype": "jr",
      "name": "間々田",
      "nameKana": "ままだ",
      "nameEn": "Mamada",
      "operator": "東日本旅客鉄道",
      "network": null,
      "ref": null,
      "latitude": 36.258002,
      "longitude": 139.761192,
      "countryCode": "jp",
      "rawTags": {
        "name": "間々田",
        "name:de": "Mamada",
        "name:en": "Mamada",
        "name:ja": "間々田",
        "name:ja-Hira": "ままだ",
        "name:ja-Latn": "Mamada",
        "name:ru": "Мамада",
        "operator": "東日本旅客鉄道",
        "operator:en": "East Japan Railway Company",
        "public_transport": "station",
        "railway": "station",
        "source": "KSJ2",
        "wikidata": "Q873320",
        "wikipedia": "ja:間々田駅"
      }
    },
    {
      "id": "tochigi_station_264223680",
      "osmId": 264223680,
      "osmType": "node",
      "prefectureId": "tochigi",
      "type": "station",
      "subtype": "private",
      "name": "男鹿高原",
      "nameKana": null,
      "nameEn": "Ojika-Kogen",
      "operator": null,
      "network": null,
      "ref": null,
      "latitude": 37.0476111,
      "longitude": 139.7242453,
      "countryCode": "jp",
      "rawTags": {
        "KSJ2:LIN": "会津鬼怒川線",
        "KSJ2:STN": "男鹿高原",
        "name": "男鹿高原",
        "name:en": "Ojika-Kogen",
        "name:ja": "男鹿高原",
        "name:ja_rm": "Ojika-Kōgen",
        "name:ko": "오지카코겐",
        "note": "National-Land Numerical Information (Railway) 2007, MLIT Japan",
        "note:ja": "国土数値情報（鉄道データ）平成19年　国土交通省",
        "public_transport": "station",
        "railway": "station",
        "source": "KSJ2",
        "source_ref": "http://nlftp.mlit.go.jp/ksj/jpgis/datalist/KsjTmplt-N02-v1_1.html",
        "wikidata": "Q7081627",
        "wikipedia": "ja:男鹿高原駅"
      }
    },
    {
      "id": "tochigi_station_264224142",
      "osmId": 264224142,
      "osmType": "node",
      "prefectureId": "tochigi",
      "type": "station",
      "subtype": "private",
      "name": "湯西川温泉",
      "nameKana": null,
      "nameEn": "Yunishigawa-Onsen",
      "operator": null,
      "network": null,
      "ref": null,
      "latitude": 36.9298348,
      "longitude": 139.6884914,
      "countryCode": "jp",
      "rawTags": {
        "KSJ2:LIN": "会津鬼怒川線",
        "KSJ2:STN": "湯西川温泉",
        "alt_name:ko": "유니시가와온센",
        "name": "湯西川温泉",
        "name:en": "Yunishigawa-Onsen",
        "name:ja": "湯西川温泉",
        "name:ja_rm": "Yunishigawa-Onsen",
        "name:ko": "유니시가와온천",
        "note": "National-Land Numerical Information (Railway) 2007, MLIT Japan",
        "note:ja": "国土数値情報（鉄道データ）平成19年　国土交通省",
        "public_transport": "station",
        "railway": "station",
        "source": "KSJ2",
        "source_ref": "http://nlftp.mlit.go.jp/ksj/jpgis/datalist/KsjTmplt-N02-v1_1.html",
        "wikidata": "Q8061299",
        "wikipedia": "ja:湯西川温泉駅"
      }
    },
    {
      "id": "tochigi_station_264224261",
      "osmId": 264224261,
      "osmType": "node",
      "prefectureId": "tochigi",
      "type": "station",
      "subtype": "private",
      "name": "川治温泉",
      "nameKana": null,
      "nameEn": "Kawaji-Onsen",
      "operator": null,
      "network": null,
      "ref": null,
      "latitude": 36.8844617,
      "longitude": 139.7038831,
      "countryCode": "jp",
      "rawTags": {
        "KSJ2:LIN": "会津鬼怒川線",
        "KSJ2:STN": "川治温泉",
        "alt_name:ko": "가와지온센",
        "name": "川治温泉",
        "name:en": "Kawaji-Onsen",
        "name:ja": "川治温泉",
        "name:ja_rm": "Kawaji-Onsen",
        "name:ko": "가와지온천",
        "public_transport": "station",
        "railway": "station",
        "source": "KSJ2",
        "train": "yes",
        "wikidata": "Q6379551",
        "wikipedia": "ja:川治温泉駅"
      }
    },
    {
      "id": "tochigi_station_264224451",
      "osmId": 264224451,
      "osmType": "node",
      "prefectureId": "tochigi",
      "type": "station",
      "subtype": "private",
      "name": "新藤原",
      "nameKana": null,
      "nameEn": "Shinfujiwara",
      "operator": null,
      "network": null,
      "ref": "TN58",
      "latitude": 36.8528343,
      "longitude": 139.7327706,
      "countryCode": "jp",
      "rawTags": {
        "name": "新藤原",
        "name:en": "Shinfujiwara",
        "name:ja": "新藤原",
        "name:ja_rm": "Shinfujiwara",
        "name:ko": "신후지와라",
        "note": "National-Land Numerical Information (Railway) 2007, MLIT Japan",
        "note:ja": "国土数値情報（鉄道データ）平成19年　国土交通省",
        "public_transport": "station",
        "railway": "station",
        "ref": "TN58",
        "source": "KSJ2",
        "source_ref": "http://nlftp.mlit.go.jp/ksj/jpgis/datalist/KsjTmplt-N02-v1_1.html",
        "wikidata": "Q7497085",
        "wikipedia": "ja:新藤原駅"
      }
    },
    {
      "id": "tochigi_station_264224643",
      "osmId": 264224643,
      "osmType": "node",
      "prefectureId": "tochigi",
      "type": "station",
      "subtype": "private",
      "name": "川治湯元",
      "nameKana": null,
      "nameEn": "Kawaji-Yumoto",
      "operator": null,
      "network": null,
      "ref": null,
      "latitude": 36.8953088,
      "longitude": 139.7027779,
      "countryCode": "jp",
      "rawTags": {
        "KSJ2:LIN": "会津鬼怒川線",
        "KSJ2:STN": "川治湯元",
        "name": "川治湯元",
        "name:en": "Kawaji-Yumoto",
        "name:ja": "川治湯元",
        "name:ja_rm": "Kawaji-Yumoto",
        "name:ko": "가와지유모토",
        "note": "National-Land Numerical Information (Railway) 2007, MLIT Japan",
        "note:ja": "国土数値情報（鉄道データ）平成19年　国土交通省",
        "public_transport": "station",
        "railway": "station",
        "source": "KSJ2",
        "source_ref": "http://nlftp.mlit.go.jp/ksj/jpgis/datalist/KsjTmplt-N02-v1_1.html",
        "wikidata": "Q6379552",
        "wikipedia": "ja:川治湯元駅"
      }
    },
    {
      "id": "tochigi_station_264224990",
      "osmId": 264224990,
      "osmType": "node",
      "prefectureId": "tochigi",
      "type": "station",
      "subtype": "private",
      "name": "龍王峡",
      "nameKana": null,
      "nameEn": "Ryuokyo",
      "operator": null,
      "network": null,
      "ref": null,
      "latitude": 36.8611042,
      "longitude": 139.7185535,
      "countryCode": "jp",
      "rawTags": {
        "KSJ2:LIN": "会津鬼怒川線",
        "KSJ2:STN": "龍王峡",
        "name": "龍王峡",
        "name:en": "Ryuokyo",
        "name:ja": "龍王峡",
        "name:ja_rm": "Ryūōkyō",
        "name:ko": "류오쿄",
        "note": "National-Land Numerical Information (Railway) 2007, MLIT Japan",
        "note:ja": "国土数値情報（鉄道データ）平成19年　国土交通省",
        "public_transport": "station",
        "railway": "station",
        "source": "KSJ2",
        "source_ref": "http://nlftp.mlit.go.jp/ksj/jpgis/datalist/KsjTmplt-N02-v1_1.html",
        "wikidata": "Q7385662",
        "wikipedia": "ja:龍王峡駅"
      }
    },
    {
      "id": "tochigi_station_264412395",
      "osmId": 264412395,
      "osmType": "node",
      "prefectureId": "tochigi",
      "type": "station",
      "subtype": "private",
      "name": "鹿沼",
      "nameKana": "かぬま",
      "nameEn": "Kanuma",
      "operator": null,
      "network": null,
      "ref": null,
      "latitude": 36.5709476,
      "longitude": 139.7630742,
      "countryCode": "jp",
      "rawTags": {
        "name": "鹿沼",
        "name:en": "Kanuma",
        "name:it": "Kanuma",
        "name:ja": "鹿沼",
        "name:ja-Hira": "かぬま",
        "name:ja-Latn": "Kanuma",
        "name:ko": "가누마",
        "note": "National-Land Numerical Information (Railway) 2007, MLIT Japan",
        "public_transport": "station",
        "railway": "station",
        "source": "KSJ2",
        "source_ref": "http://nlftp.mlit.go.jp/ksj/jpgis/datalist/KsjTmplt-N02-v1_1.html",
        "wikidata": "Q6365667",
        "wikipedia": "ja:鹿沼駅"
      }
    },
    {
      "id": "tochigi_station_264412544",
      "osmId": 264412544,
      "osmType": "node",
      "prefectureId": "tochigi",
      "type": "station",
      "subtype": "private",
      "name": "文挟",
      "nameKana": null,
      "nameEn": "Fubasami",
      "operator": null,
      "network": null,
      "ref": null,
      "latitude": 36.637253,
      "longitude": 139.728009,
      "countryCode": "jp",
      "rawTags": {
        "KSJ2:LIN": "日光線",
        "KSJ2:STN": "文挟",
        "name": "文挟",
        "name:en": "Fubasami",
        "name:it": "Fubasami",
        "name:ja": "文挟",
        "name:ja-Latn": "Fubasami",
        "name:ko": "후바사미",
        "note": "National-Land Numerical Information (Railway) 2007, MLIT Japan",
        "note:ja": "国土数値情報（鉄道データ）平成19年　国土交通省",
        "public_transport": "station",
        "railway": "station",
        "source": "KSJ2",
        "source_ref": "http://nlftp.mlit.go.jp/ksj/jpgis/datalist/KsjTmplt-N02-v1_1.html",
        "wikidata": "Q5506909",
        "wikipedia": "ja:文挟駅"
      }
    },
    {
      "id": "tochigi_station_264414251",
      "osmId": 264414251,
      "osmType": "node",
      "prefectureId": "tochigi",
      "type": "station",
      "subtype": "private",
      "name": "小俣",
      "nameKana": null,
      "nameEn": "Omata",
      "operator": null,
      "network": null,
      "ref": null,
      "latitude": 36.3751771,
      "longitude": 139.3741668,
      "countryCode": "jp",
      "rawTags": {
        "KSJ2:LIN": "両毛線",
        "KSJ2:STN": "小俣",
        "name": "小俣",
        "name:en": "Omata",
        "name:ja": "小俣",
        "name:ja_rm": "Omata",
        "name:ko": "오마타",
        "note": "National-Land Numerical Information (Railway) 2007, MLIT Japan",
        "note:ja": "国土数値情報（鉄道データ）平成19年　国土交通省",
        "public_transport": "station",
        "railway": "station",
        "source": "KSJ2",
        "source_ref": "http://nlftp.mlit.go.jp/ksj/jpgis/datalist/KsjTmplt-N02-v1_1.html",
        "wikidata": "Q7089903",
        "wikipedia": "ja:小俣駅 (栃木県)"
      }
    },
    {
      "id": "tochigi_station_264414867",
      "osmId": 264414867,
      "osmType": "node",
      "prefectureId": "tochigi",
      "type": "station",
      "subtype": "private",
      "name": "富田",
      "nameKana": null,
      "nameEn": "Tomita",
      "operator": null,
      "network": null,
      "ref": null,
      "latitude": 36.3161615,
      "longitude": 139.5288074,
      "countryCode": "jp",
      "rawTags": {
        "KSJ2:LIN": "両毛線",
        "KSJ2:STN": "富田",
        "name": "富田",
        "name:en": "Tomita",
        "name:ja": "富田",
        "name:ja_rm": "Tomita",
        "name:ko": "도미타",
        "note": "National-Land Numerical Information (Railway) 2007, MLIT Japan",
        "note:ja": "国土数値情報（鉄道データ）平成19年　国土交通省",
        "public_transport": "station",
        "railway": "station",
        "source": "KSJ2",
        "source_ref": "http://nlftp.mlit.go.jp/ksj/jpgis/datalist/KsjTmplt-N02-v1_1.html",
        "wikidata": "Q7818979",
        "wikipedia": "ja:富田駅 (栃木県)"
      }
    },
    {
      "id": "tochigi_station_264414923",
      "osmId": 264414923,
      "osmType": "node",
      "prefectureId": "tochigi",
      "type": "station",
      "subtype": "private",
      "name": "足利",
      "nameKana": null,
      "nameEn": "Ashikaga",
      "operator": "足利市",
      "network": null,
      "ref": null,
      "latitude": 36.3319671,
      "longitude": 139.4562493,
      "countryCode": "jp",
      "rawTags": {
        "KSJ2:LIN": "両毛線",
        "KSJ2:STN": "足利",
        "addr:city": "足利市",
        "addr:county": "宇都宮",
        "addr:province": "栃木県",
        "name": "足利",
        "name:en": "Ashikaga",
        "name:ja": "足利",
        "name:ja_rm": "Ashikaga",
        "name:ko": "아시카가",
        "note": "National-Land Numerical Information (Railway) 2007, MLIT Japan",
        "note:ja": "国土数値情報（鉄道データ）平成19年　国土交通省",
        "operator": "足利市",
        "public_transport": "station",
        "railway": "station",
        "source": "KSJ2",
        "source_ref": "http://nlftp.mlit.go.jp/ksj/jpgis/datalist/KsjTmplt-N02-v1_1.html",
        "wikidata": "Q1004362",
        "wikipedia": "ja:足利駅"
      }
    },
    {
      "id": "tochigi_station_264415083",
      "osmId": 264415083,
      "osmType": "node",
      "prefectureId": "tochigi",
      "type": "station",
      "subtype": "private",
      "name": "山前",
      "nameKana": null,
      "nameEn": "Yama-mae",
      "operator": null,
      "network": null,
      "ref": null,
      "latitude": 36.347362,
      "longitude": 139.4112837,
      "countryCode": "jp",
      "rawTags": {
        "KSJ2:LIN": "両毛線",
        "KSJ2:STN": "山前",
        "name": "山前",
        "name:en": "Yama-mae",
        "name:ja": "山前",
        "name:ja_rm": "Yama-mae",
        "name:ko": "야마마에",
        "note": "National-Land Numerical Information (Railway) 2007, MLIT Japan",
        "note:ja": "国土数値情報（鉄道データ）平成19年　国土交通省",
        "public_transport": "station",
        "railway": "station",
        "source": "KSJ2",
        "source_ref": "http://nlftp.mlit.go.jp/ksj/jpgis/datalist/KsjTmplt-N02-v1_1.html",
        "wikidata": "Q8047852",
        "wikipedia": "ja:山前駅"
      }
    },
    {
      "id": "tochigi_station_264460504",
      "osmId": 264460504,
      "osmType": "node",
      "prefectureId": "tochigi",
      "type": "station",
      "subtype": "private",
      "name": "通洞",
      "nameKana": null,
      "nameEn": "Tsudo",
      "operator": null,
      "network": null,
      "ref": null,
      "latitude": 36.6370412,
      "longitude": 139.4399735,
      "countryCode": "jp",
      "rawTags": {
        "KSJ2:LIN": "わたらせ渓谷線",
        "KSJ2:STN": "通洞",
        "name": "通洞",
        "name:en": "Tsudo",
        "name:ja": "通洞",
        "name:ja_rm": "Tsudo",
        "name:ko": "쓰도",
        "note": "National-Land Numerical Information (Railway) 2007, MLIT Japan",
        "note:ja": "国土数値情報（鉄道データ）平成19年　国土交通省",
        "public_transport": "station",
        "railway": "station",
        "source": "KSJ2",
        "source_ref": "http://nlftp.mlit.go.jp/ksj/jpgis/datalist/KsjTmplt-N02-v1_1.html",
        "wikidata": "Q7850448",
        "wikipedia": "ja:通洞駅"
      }
    },
    {
      "id": "tochigi_station_264460505",
      "osmId": 264460505,
      "osmType": "node",
      "prefectureId": "tochigi",
      "type": "station",
      "subtype": "private",
      "name": "原向",
      "nameKana": null,
      "nameEn": "Haramuko",
      "operator": null,
      "network": null,
      "ref": null,
      "latitude": 36.6176632,
      "longitude": 139.4209693,
      "countryCode": "jp",
      "rawTags": {
        "KSJ2:LIN": "わたらせ渓谷線",
        "KSJ2:STN": "原向",
        "name": "原向",
        "name:en": "Haramuko",
        "name:ja": "原向",
        "name:ja_rm": "Haramuko",
        "name:ko": "하라무코",
        "note": "National-Land Numerical Information (Railway) 2007, MLIT Japan",
        "note:ja": "国土数値情報（鉄道データ）平成19年　国土交通省",
        "public_transport": "station",
        "railway": "station",
        "source": "KSJ2",
        "source_ref": "http://nlftp.mlit.go.jp/ksj/jpgis/datalist/KsjTmplt-N02-v1_1.html",
        "wikidata": "Q5654104",
        "wikipedia": "ja:原向駅"
      }
    },
    {
      "id": "tochigi_station_823274691",
      "osmId": 823274691,
      "osmType": "node",
      "prefectureId": "tochigi",
      "type": "station",
      "subtype": "private",
      "name": "笹原田",
      "nameKana": null,
      "nameEn": "Sasaharada",
      "operator": "真岡鐵道",
      "network": null,
      "ref": null,
      "latitude": 36.5336707,
      "longitude": 140.1454147,
      "countryCode": "jp",
      "rawTags": {
        "name": "笹原田",
        "name:en": "Sasaharada",
        "name:ja": "笹原田",
        "name:ja_rm": "Sasaharada",
        "name:ko": "사사하라다",
        "note": "National-Land Numerical Information (Railway) 2007, MLIT Japan",
        "note:ja": "国土数値情報（鉄道データ）平成19年　国土交通省",
        "operator": "真岡鐵道",
        "operator:en": "Mooka Railway",
        "public_transport": "station",
        "railway": "station",
        "source": "KSJ2",
        "source_ref": "http://nlftp.mlit.go.jp/ksj/jpgis/datalist/KsjTmplt-N02-v1_1.html",
        "wikidata": "Q7424980",
        "wikipedia": "ja:笹原田駅"
      }
    },
    {
      "id": "tochigi_station_823274752",
      "osmId": 823274752,
      "osmType": "node",
      "prefectureId": "tochigi",
      "type": "station",
      "subtype": "private",
      "name": "益子",
      "nameKana": null,
      "nameEn": "Mashiko",
      "operator": "真岡鐵道",
      "network": null,
      "ref": null,
      "latitude": 36.4632043,
      "longitude": 140.0887212,
      "countryCode": "jp",
      "rawTags": {
        "name": "益子",
        "name:en": "Mashiko",
        "name:ja": "益子",
        "name:ja_rm": "Mashiko",
        "name:ko": "마시코",
        "note": "National-Land Numerical Information (Railway) 2007, MLIT Japan",
        "note:ja": "国土数値情報（鉄道データ）平成19年　国土交通省",
        "operator": "真岡鐵道",
        "operator:en": "Mooka Railway",
        "public_transport": "station",
        "railway": "station",
        "source": "KSJ2",
        "source_ref": "http://nlftp.mlit.go.jp/ksj/jpgis/datalist/KsjTmplt-N02-v1_1.html",
        "wikidata": "Q6783153",
        "wikipedia": "ja:益子駅"
      }
    },
    {
      "id": "tochigi_station_823275153",
      "osmId": 823275153,
      "osmType": "node",
      "prefectureId": "tochigi",
      "type": "station",
      "subtype": "private",
      "name": "七井",
      "nameKana": null,
      "nameEn": "Nanai",
      "operator": "真岡鐵道",
      "network": null,
      "ref": null,
      "latitude": 36.4922043,
      "longitude": 140.0944136,
      "countryCode": "jp",
      "rawTags": {
        "name": "七井",
        "name:en": "Nanai",
        "name:ja": "七井",
        "name:ja_rm": "Nanai",
        "name:ko": "나나이",
        "note": "National-Land Numerical Information (Railway) 2007, MLIT Japan",
        "note:ja": "国土数値情報（鉄道データ）平成19年　国土交通省",
        "operator": "真岡鐵道",
        "operator:en": "Mooka Railway",
        "public_transport": "station",
        "railway": "station",
        "source": "KSJ2",
        "source_ref": "http://nlftp.mlit.go.jp/ksj/jpgis/datalist/KsjTmplt-N02-v1_1.html",
        "wikidata": "Q6962361",
        "wikipedia": "ja:七井駅"
      }
    },
    {
      "id": "tochigi_station_823275182",
      "osmId": 823275182,
      "osmType": "node",
      "prefectureId": "tochigi",
      "type": "station",
      "subtype": "private",
      "name": "真岡",
      "nameKana": null,
      "nameEn": "Mooka",
      "operator": "真岡鐵道",
      "network": null,
      "ref": null,
      "latitude": 36.4393792,
      "longitude": 140.002758,
      "countryCode": "jp",
      "rawTags": {
        "name": "真岡",
        "name:en": "Mooka",
        "name:ja": "真岡",
        "name:ja_rm": "Mooka",
        "name:ko": "모카",
        "note": "National-Land Numerical Information (Railway) 2007, MLIT Japan",
        "operator": "真岡鐵道",
        "operator:en": "Mooka Railway",
        "public_transport": "station",
        "railway": "station",
        "source": "KSJ2",
        "source_ref": "http://nlftp.mlit.go.jp/ksj/jpgis/datalist/KsjTmplt-N02-v1_1.html",
        "wikidata": "Q6907305",
        "wikipedia": "ja:真岡駅"
      }
    },
    {
      "id": "tochigi_station_823275390",
      "osmId": 823275390,
      "osmType": "node",
      "prefectureId": "tochigi",
      "type": "station",
      "subtype": "private",
      "name": "寺内",
      "nameKana": null,
      "nameEn": "Terauchi",
      "operator": "真岡鐵道",
      "network": null,
      "ref": null,
      "latitude": 36.4110352,
      "longitude": 139.9801004,
      "countryCode": "jp",
      "rawTags": {
        "name": "寺内",
        "name:en": "Terauchi",
        "name:ja": "寺内",
        "name:ja_rm": "Terauchi",
        "name:ko": "데라우치",
        "note": "National-Land Numerical Information (Railway) 2007, MLIT Japan",
        "operator": "真岡鐵道",
        "operator:en": "Mooka Railway",
        "public_transport": "station",
        "railway": "station",
        "source": "KSJ2",
        "source_ref": "http://nlftp.mlit.go.jp/ksj/jpgis/datalist/KsjTmplt-N02-v1_1.html",
        "train": "yes",
        "wikidata": "Q7701643",
        "wikipedia": "ja:寺内駅"
      }
    },
    {
      "id": "tochigi_station_823275908",
      "osmId": 823275908,
      "osmType": "node",
      "prefectureId": "tochigi",
      "type": "station",
      "subtype": "private",
      "name": "茂木",
      "nameKana": null,
      "nameEn": "Motegi",
      "operator": "真岡鐵道",
      "network": null,
      "ref": null,
      "latitude": 36.5307389,
      "longitude": 140.1814246,
      "countryCode": "jp",
      "rawTags": {
        "name": "茂木",
        "name:en": "Motegi",
        "name:ja": "茂木",
        "name:ja_rm": "Motegi",
        "name:ko": "모테기",
        "note": "National-Land Numerical Information (Railway) 2007, MLIT Japan",
        "note:ja": "国土数値情報（鉄道データ）平成19年　国土交通省",
        "operator": "真岡鐵道",
        "operator:en": "Mooka Railway",
        "public_transport": "station",
        "railway": "station",
        "source": "KSJ2",
        "source_ref": "http://nlftp.mlit.go.jp/ksj/jpgis/datalist/KsjTmplt-N02-v1_1.html",
        "wikidata": "Q6917169",
        "wikipedia": "ja:茂木駅"
      }
    },
    {
      "id": "tochigi_station_823276794",
      "osmId": 823276794,
      "osmType": "node",
      "prefectureId": "tochigi",
      "type": "station",
      "subtype": "private",
      "name": "西田井",
      "nameKana": null,
      "nameEn": "Nishidai",
      "operator": "真岡鐵道",
      "network": null,
      "ref": null,
      "latitude": 36.4533933,
      "longitude": 140.0487194,
      "countryCode": "jp",
      "rawTags": {
        "KSJ2:LIN": "真岡線",
        "KSJ2:RAS": "eb03_3381",
        "KSJ2:STN": "西田井",
        "KSJ2:segment": "eb02_6862",
        "name": "西田井",
        "name:en": "Nishidai",
        "name:ja": "西田井",
        "name:ja_rm": "Nishidai",
        "name:ko": "니시다이",
        "note": "National-Land Numerical Information (Railway) 2007, MLIT Japan",
        "note:ja": "国土数値情報（鉄道データ）平成19年　国土交通省",
        "operator": "真岡鐵道",
        "operator:en": "Mooka Railway",
        "public_transport": "station",
        "railway": "station",
        "source": "KSJ2",
        "source_ref": "http://nlftp.mlit.go.jp/ksj/jpgis/datalist/KsjTmplt-N02-v1_1.html",
        "wikidata": "Q337972",
        "wikipedia": "ja:西田井駅"
      }
    },
    {
      "id": "tochigi_station_823276903",
      "osmId": 823276903,
      "osmType": "node",
      "prefectureId": "tochigi",
      "type": "station",
      "subtype": "private",
      "name": "北山",
      "nameKana": null,
      "nameEn": "Kitayama",
      "operator": "真岡鐵道",
      "network": null,
      "ref": null,
      "latitude": 36.4557094,
      "longitude": 140.0676491,
      "countryCode": "jp",
      "rawTags": {
        "KSJ2:LIN": "真岡線",
        "KSJ2:RAS": "eb03_3380",
        "KSJ2:STN": "北山",
        "KSJ2:segment": "eb02_6859",
        "name": "北山",
        "name:en": "Kitayama",
        "name:ja": "北山",
        "name:ja_rm": "Kitayama",
        "name:ko": "기타야마",
        "note": "National-Land Numerical Information (Railway) 2007, MLIT Japan",
        "note:ja": "国土数値情報（鉄道データ）平成19年　国土交通省",
        "operator": "真岡鐵道",
        "operator:en": "Mooka Railway",
        "public_transport": "station",
        "railway": "station",
        "source": "KSJ2",
        "source_ref": "http://nlftp.mlit.go.jp/ksj/jpgis/datalist/KsjTmplt-N02-v1_1.html",
        "wikidata": "Q6417936",
        "wikipedia": "ja:北山駅 (栃木県)"
      }
    },
    {
      "id": "tochigi_station_823277344",
      "osmId": 823277344,
      "osmType": "node",
      "prefectureId": "tochigi",
      "type": "station",
      "subtype": "private",
      "name": "天矢場",
      "nameKana": null,
      "nameEn": "Ten-yaba",
      "operator": "真岡鐵道",
      "network": null,
      "ref": null,
      "latitude": 36.5292839,
      "longitude": 140.1559496,
      "countryCode": "jp",
      "rawTags": {
        "name": "天矢場",
        "name:en": "Ten-yaba",
        "name:ja": "天矢場",
        "name:ja_rm": "Ten'yaba",
        "name:ko": "덴야바",
        "note": "National-Land Numerical Information (Railway) 2007, MLIT Japan",
        "note:ja": "国土数値情報（鉄道データ）平成19年　国土交通省",
        "operator": "真岡鐵道",
        "operator:en": "Mooka Railway",
        "public_transport": "station",
        "railway": "station",
        "source": "KSJ2",
        "source_ref": "http://nlftp.mlit.go.jp/ksj/jpgis/datalist/KsjTmplt-N02-v1_1.html",
        "wikidata": "Q7699102",
        "wikipedia": "ja:天矢場駅"
      }
    },
    {
      "id": "tochigi_station_823277385",
      "osmId": 823277385,
      "osmType": "node",
      "prefectureId": "tochigi",
      "type": "station",
      "subtype": "private",
      "name": "市塙",
      "nameKana": null,
      "nameEn": "Ichihana",
      "operator": "真岡鐵道",
      "network": null,
      "ref": null,
      "latitude": 36.5381552,
      "longitude": 140.1103587,
      "countryCode": "jp",
      "rawTags": {
        "name": "市塙",
        "name:en": "Ichihana",
        "name:ja": "市塙",
        "name:ja_rm": "Ichihana",
        "name:ko": "이치하나",
        "note": "National-Land Numerical Information (Railway) 2007, MLIT Japan",
        "note:ja": "国土数値情報（鉄道データ）平成19年　国土交通省",
        "operator": "真岡鐵道",
        "operator:en": "Mooka Railway",
        "public_transport": "station",
        "railway": "station",
        "source": "KSJ2",
        "source_ref": "http://nlftp.mlit.go.jp/ksj/jpgis/datalist/KsjTmplt-N02-v1_1.html",
        "wikidata": "Q5986130",
        "wikipedia": "ja:市塙駅"
      }
    },
    {
      "id": "tochigi_station_823277442",
      "osmId": 823277442,
      "osmType": "node",
      "prefectureId": "tochigi",
      "type": "station",
      "subtype": "private",
      "name": "多田羅",
      "nameKana": null,
      "nameEn": "Tatara",
      "operator": "真岡鐵道",
      "network": null,
      "ref": null,
      "latitude": 36.5158951,
      "longitude": 140.0899057,
      "countryCode": "jp",
      "rawTags": {
        "name": "多田羅",
        "name:en": "Tatara",
        "name:ja": "多田羅",
        "name:ja_rm": "Tatara",
        "name:ko": "다타라",
        "note": "National-Land Numerical Information (Railway) 2007, MLIT Japan",
        "note:ja": "国土数値情報（鉄道データ）平成19年　国土交通省",
        "operator": "真岡鐵道",
        "operator:en": "Mooka Railway",
        "public_transport": "station",
        "railway": "station",
        "source": "KSJ2",
        "source_ref": "http://nlftp.mlit.go.jp/ksj/jpgis/datalist/KsjTmplt-N02-v1_1.html",
        "wikidata": "Q7687886",
        "wikipedia": "ja:多田羅駅"
      }
    },
    {
      "id": "tochigi_station_823277559",
      "osmId": 823277559,
      "osmType": "node",
      "prefectureId": "tochigi",
      "type": "station",
      "subtype": "private",
      "name": "北真岡",
      "nameKana": null,
      "nameEn": "Kita-Moka",
      "operator": "真岡鐵道",
      "network": null,
      "ref": null,
      "latitude": 36.4490851,
      "longitude": 140.0138697,
      "countryCode": "jp",
      "rawTags": {
        "KSJ2:LIN": "真岡線",
        "KSJ2:RAS": "eb03_3383",
        "KSJ2:STN": "北真岡",
        "KSJ2:segment": "eb02_6856",
        "name": "北真岡",
        "name:en": "Kita-Moka",
        "name:ja": "北真岡",
        "name:ja_rm": "Kita-Mōka",
        "name:ko": "기타모카",
        "note": "National-Land Numerical Information (Railway) 2007, MLIT Japan",
        "note:ja": "国土数値情報（鉄道データ）平成19年　国土交通省",
        "operator": "真岡鐵道",
        "operator:en": "Mooka Railway",
        "public_transport": "station",
        "railway": "station",
        "source": "KSJ2",
        "source_ref": "http://nlftp.mlit.go.jp/ksj/jpgis/datalist/KsjTmplt-N02-v1_1.html",
        "wikidata": "Q6417569",
        "wikipedia": "ja:北真岡駅"
      }
    },
    {
      "id": "tochigi_station_823277653",
      "osmId": 823277653,
      "osmType": "node",
      "prefectureId": "tochigi",
      "type": "station",
      "subtype": "private",
      "name": "久下田",
      "nameKana": null,
      "nameEn": "Kugeta",
      "operator": "真岡鐵道",
      "network": null,
      "ref": null,
      "latitude": 36.375811,
      "longitude": 139.9715254,
      "countryCode": "jp",
      "rawTags": {
        "name": "久下田",
        "name:en": "Kugeta",
        "name:ja": "久下田",
        "name:ja_rm": "Kugeta",
        "name:ko": "구게타",
        "note": "National-Land Numerical Information (Railway) 2007, MLIT Japan",
        "operator": "真岡鐵道",
        "operator:en": "Moka Railway",
        "public_transport": "station",
        "railway": "station",
        "source": "KSJ2",
        "source_ref": "http://nlftp.mlit.go.jp/ksj/jpgis/datalist/KsjTmplt-N02-v1_1.html",
        "train": "yes",
        "wikidata": "Q6441968",
        "wikipedia": "ja:久下田駅"
      }
    },
    {
      "id": "tochigi_station_925345480",
      "osmId": 925345480,
      "osmType": "node",
      "prefectureId": "tochigi",
      "type": "station",
      "subtype": "private",
      "name": "新高徳",
      "nameKana": null,
      "nameEn": "Shin-Takatoku Station",
      "operator": null,
      "network": null,
      "ref": null,
      "latitude": 36.779461,
      "longitude": 139.7111778,
      "countryCode": "jp",
      "rawTags": {
        "name": "新高徳",
        "name:en": "Shin-Takatoku Station",
        "name:ja": "新高徳",
        "name:ja_rm": "Shin-Takatoku",
        "name:ko": "신타카토쿠",
        "public_transport": "station",
        "railway": "station",
        "source": "KSJ2",
        "train": "yes",
        "wikidata": "Q7497134",
        "wikipedia": "ja:新高徳駅"
      }
    },
    {
      "id": "tochigi_station_925345920",
      "osmId": 925345920,
      "osmType": "node",
      "prefectureId": "tochigi",
      "type": "station",
      "subtype": "private",
      "name": "鬼怒川公園",
      "nameKana": "きぬがわこうえん",
      "nameEn": "Kinugawa-Koen",
      "operator": null,
      "network": null,
      "ref": "TN57",
      "latitude": 36.8409402,
      "longitude": 139.722832,
      "countryCode": "jp",
      "rawTags": {
        "alt_name:ko": "기누가와코엔",
        "name": "鬼怒川公園",
        "name:en": "Kinugawa-Koen",
        "name:ja": "鬼怒川公園",
        "name:ja_kana": "きぬがわこうえん",
        "name:ja_rm": "Kinugawa-Koen",
        "name:ko": "기누가와공원",
        "note": "National-Land Numerical Information (Railway) 2007, MLIT Japan",
        "note:ja": "国土数値情報（鉄道データ）平成19年　国土交通省",
        "public_transport": "station",
        "railway": "station",
        "ref": "TN57",
        "source": "KSJ2",
        "source_ref": "http://nlftp.mlit.go.jp/ksj/jpgis/datalist/KsjTmplt-N02-v1_1.html",
        "wikidata": "Q6414416",
        "wikipedia": "ja:鬼怒川公園駅"
      }
    },
    {
      "id": "tochigi_station_925346262",
      "osmId": 925346262,
      "osmType": "node",
      "prefectureId": "tochigi",
      "type": "station",
      "subtype": "private",
      "name": "大谷向",
      "nameKana": "だいやむこう",
      "nameEn": "Daiyamuko",
      "operator": null,
      "network": null,
      "ref": null,
      "latitude": 36.7324624,
      "longitude": 139.691952,
      "countryCode": "jp",
      "rawTags": {
        "name": "大谷向",
        "name:en": "Daiyamuko",
        "name:ja": "大谷向",
        "name:ja_kana": "だいやむこう",
        "name:ja_rm": "Daiya-Mukō",
        "name:ko": "다이야무코",
        "public_transport": "station",
        "railway": "station",
        "source": "KSJ2",
        "train": "yes",
        "wikidata": "Q5209838",
        "wikipedia": "ja:大谷向駅"
      }
    },
    {
      "id": "tochigi_station_925346278",
      "osmId": 925346278,
      "osmType": "node",
      "prefectureId": "tochigi",
      "type": "station",
      "subtype": "private",
      "name": "小佐越",
      "nameKana": null,
      "nameEn": "Kosagoe",
      "operator": null,
      "network": null,
      "ref": null,
      "latitude": 36.8023132,
      "longitude": 139.706617,
      "countryCode": "jp",
      "rawTags": {
        "name": "小佐越",
        "name:en": "Kosagoe",
        "name:ja": "小佐越",
        "name:ja_rm": "Kosagoe",
        "name:ko": "고사고에",
        "public_transport": "station",
        "railway": "station",
        "source": "KSJ2",
        "train": "yes",
        "wikidata": "Q6432945",
        "wikipedia": "ja:小佐越駅"
      }
    },
    {
      "id": "tochigi_station_3721336949",
      "osmId": 3721336949,
      "osmType": "node",
      "prefectureId": "tochigi",
      "type": "station",
      "subtype": "private",
      "name": "小山",
      "nameKana": null,
      "nameEn": "Oyama",
      "operator": null,
      "network": null,
      "ref": null,
      "latitude": 36.3129364,
      "longitude": 139.8065054,
      "countryCode": "jp",
      "rawTags": {
        "highspeed": "yes",
        "name": "小山",
        "name:de": "Oyama",
        "name:en": "Oyama",
        "name:ja": "小山",
        "name:ja_rm": "Oyama",
        "name:ru": "Ояма",
        "public_transport": "station",
        "railway": "station",
        "source": "KSJ2",
        "train": "yes",
        "wikidata": "Q801312",
        "wikipedia": "ja:小山駅"
      }
    },
    {
      "id": "tochigi_station_3721336950",
      "osmId": 3721336950,
      "osmType": "node",
      "prefectureId": "tochigi",
      "type": "station",
      "subtype": "private",
      "name": "宇都宮",
      "nameKana": "うつのみや",
      "nameEn": "Utsunomiya",
      "operator": "東日本旅客鉃道",
      "network": null,
      "ref": null,
      "latitude": 36.5592983,
      "longitude": 139.8981571,
      "countryCode": "jp",
      "rawTags": {
        "highspeed": "yes",
        "name": "宇都宮",
        "name:de": "Utsunomiya",
        "name:en": "Utsunomiya",
        "name:it": "Utsunomiya",
        "name:ja-Hira": "うつのみや",
        "name:ja-Latn": "Utsunomiya",
        "name:ru": "Уцуномия",
        "operator": "東日本旅客鉃道",
        "public_transport": "station",
        "railway": "station",
        "source": "KSJ2",
        "toilets:wheelchair": "yes",
        "train": "yes",
        "wheelchair": "yes",
        "wikidata": "Q801549",
        "wikipedia": "ja:宇都宮駅"
      }
    },
    {
      "id": "tochigi_station_3721641451",
      "osmId": 3721641451,
      "osmType": "node",
      "prefectureId": "tochigi",
      "type": "station",
      "subtype": "private",
      "name": "東武日光",
      "nameKana": null,
      "nameEn": "Tobu-Nikko",
      "operator": null,
      "network": null,
      "ref": "TN25",
      "latitude": 36.7478743,
      "longitude": 139.6194559,
      "countryCode": "jp",
      "rawTags": {
        "amenity": "luggage_locker",
        "name": "東武日光",
        "name:en": "Tobu-Nikko",
        "name:it": "Tobu-Nikko",
        "name:ja": "東武日光",
        "name:ja-Latn": "Tōbu-Nikkō",
        "note": "National-Land Numerical Information (Railway) 2007, MLIT Japan",
        "note:ja": "国土数値情報（鉄道データ）平成19年　国土交通省",
        "public_transport": "station",
        "railway": "station",
        "ref": "TN25",
        "source": "KSJ2",
        "source_ref": "http://nlftp.mlit.go.jp/ksj/jpgis/datalist/KsjTmplt-N02-v1_1.html",
        "wikidata": "Q7862640",
        "wikipedia": "ja:東武日光駅"
      }
    },
    {
      "id": "tochigi_station_3721641452",
      "osmId": 3721641452,
      "osmType": "node",
      "prefectureId": "tochigi",
      "type": "station",
      "subtype": "private",
      "name": "栃木",
      "nameKana": "とちぎ",
      "nameEn": "Tochigi",
      "operator": null,
      "network": null,
      "ref": null,
      "latitude": 36.3717284,
      "longitude": 139.7314038,
      "countryCode": "jp",
      "rawTags": {
        "name": "栃木",
        "name:en": "Tochigi",
        "name:ja": "栃木",
        "name:ja_kana": "とちぎ",
        "name:ja_rm": "Tochigi",
        "name:ko": "도치기",
        "name:zh": "栃木站",
        "note": "National-Land Numerical Information (Railway) 2007, MLIT Japan",
        "public_transport": "station",
        "railway": "station",
        "source": "KSJ2",
        "source_ref": "http://nlftp.mlit.go.jp/ksj/jpgis/datalist/KsjTmplt-N02-v1_1.html",
        "wikidata": "Q7811990",
        "wikipedia": "ja:栃木駅"
      }
    },
    {
      "id": "tochigi_station_3729515013",
      "osmId": 3729515013,
      "osmType": "node",
      "prefectureId": "tochigi",
      "type": "station",
      "subtype": "private",
      "name": "佐野",
      "nameKana": null,
      "nameEn": "Sano",
      "operator": null,
      "network": null,
      "ref": null,
      "latitude": 36.3166754,
      "longitude": 139.5789733,
      "countryCode": "jp",
      "rawTags": {
        "KSJ2:LIN": "佐野線",
        "KSJ2:RAS": "eb03_8595",
        "KSJ2:STN": "佐野",
        "KSJ2:segment": "eb02_18333",
        "name": "佐野",
        "name:en": "Sano",
        "name:ja": "佐野",
        "name:ja_rm": "Sano",
        "name:ko": "사노",
        "note": "National-Land Numerical Information (Railway) 2007, MLIT Japan",
        "note:ja": "国土数値情報（鉄道データ）平成19年　国土交通省",
        "public_transport": "station",
        "railway": "station",
        "source": "KSJ2",
        "source_ref": "http://nlftp.mlit.go.jp/ksj/jpgis/datalist/KsjTmplt-N02-v1_1.html",
        "wikidata": "Q7418881",
        "wikipedia": "ja:佐野駅"
      }
    },
    {
      "id": "tochigi_station_3730051723",
      "osmId": 3730051723,
      "osmType": "node",
      "prefectureId": "tochigi",
      "type": "station",
      "subtype": "private",
      "name": "下今市",
      "nameKana": "しもいまいち",
      "nameEn": "Shimo-Imaichi",
      "operator": null,
      "network": null,
      "ref": "TN23",
      "latitude": 36.725635,
      "longitude": 139.6927992,
      "countryCode": "jp",
      "rawTags": {
        "name": "下今市",
        "name:en": "Shimo-Imaichi",
        "name:ja": "下今市",
        "name:ja_kana": "しもいまいち",
        "name:ja_rm": "Shimo-Imaichi",
        "name:ko": "시모이마이치",
        "note": "National-Land Numerical Information (Railway) 2007, MLIT Japan",
        "note:ja": "国土数値情報（鉄道データ）平成19年　国土交通省",
        "public_transport": "station",
        "railway": "station",
        "ref": "TN23",
        "source": "KSJ2",
        "source_ref": "http://nlftp.mlit.go.jp/ksj/jpgis/datalist/KsjTmplt-N02-v1_1.html",
        "wikidata": "Q7496924",
        "wikipedia": "ja:下今市駅"
      }
    },
    {
      "id": "tochigi_station_3730128013",
      "osmId": 3730128013,
      "osmType": "node",
      "prefectureId": "tochigi",
      "type": "station",
      "subtype": "private",
      "name": "今市",
      "nameKana": "いまいち",
      "nameEn": "Imaichi",
      "operator": null,
      "network": null,
      "ref": null,
      "latitude": 36.720468,
      "longitude": 139.6872715,
      "countryCode": "jp",
      "rawTags": {
        "KSJ2:LIN": "日光線",
        "KSJ2:STN": "今市",
        "name": "今市",
        "name:en": "Imaichi",
        "name:es": "Imaichi",
        "name:it": "Imaichi",
        "name:ja": "今市",
        "name:ja-Hira": "いまいち",
        "name:ja-Latn": "Imaichi",
        "name:ko": "이마이치",
        "note": "National-Land Numerical Information (Railway) 2007, MLIT Japan",
        "note:ja": "国土数値情報（鉄道データ）平成19年　国土交通省",
        "public_transport": "station",
        "railway": "station",
        "source": "KSJ2",
        "source_ref": "http://nlftp.mlit.go.jp/ksj/jpgis/datalist/KsjTmplt-N02-v1_1.html",
        "wikidata": "Q8190599",
        "wikipedia": "ja:今市駅"
      }
    },
    {
      "id": "tochigi_station_3730128014",
      "osmId": 3730128014,
      "osmType": "node",
      "prefectureId": "tochigi",
      "type": "station",
      "subtype": "private",
      "name": "上今市",
      "nameKana": "かみいまいち",
      "nameEn": "Kami-Imaichi",
      "operator": null,
      "network": null,
      "ref": null,
      "latitude": 36.7277842,
      "longitude": 139.6814776,
      "countryCode": "jp",
      "rawTags": {
        "KSJ2:LIN": "日光線",
        "KSJ2:STN": "上今市",
        "name": "上今市",
        "name:en": "Kami-Imaichi",
        "name:ja": "上今市",
        "name:ja_kana": "かみいまいち",
        "name:ja_rm": "Kami-Imaichi",
        "name:ko": "가미이마이치",
        "note": "National-Land Numerical Information (Railway) 2007, MLIT Japan",
        "note:ja": "国土数値情報（鉄道データ）平成19年　国土交通省",
        "public_transport": "station",
        "railway": "station",
        "source": "KSJ2",
        "source_ref": "http://nlftp.mlit.go.jp/ksj/jpgis/datalist/KsjTmplt-N02-v1_1.html",
        "wikidata": "Q6357139",
        "wikipedia": "ja:上今市駅"
      }
    },
    {
      "id": "tochigi_station_3730128015",
      "osmId": 3730128015,
      "osmType": "node",
      "prefectureId": "tochigi",
      "type": "station",
      "subtype": "private",
      "name": "鬼怒川温泉",
      "nameKana": null,
      "nameEn": "Kinugawa-onsen",
      "operator": "東武鉄道",
      "network": null,
      "ref": "TN56",
      "latitude": 36.8226329,
      "longitude": 139.7165045,
      "countryCode": "jp",
      "rawTags": {
        "alt_name:ko": "기누가와온센",
        "name": "鬼怒川温泉",
        "name:en": "Kinugawa-onsen",
        "name:ja": "鬼怒川温泉",
        "name:ja_rm": "Kinugawa-Onsen",
        "name:ko": "기누가와온천",
        "operator": "東武鉄道",
        "platforms": "2",
        "public_transport": "station",
        "railway": "station",
        "ref": "TN56",
        "source": "KSJ2",
        "wikidata": "Q6414419",
        "wikipedia": "ja:鬼怒川温泉駅"
      }
    },
    {
      "id": "tochigi_station_3730128016",
      "osmId": 3730128016,
      "osmType": "node",
      "prefectureId": "tochigi",
      "type": "station",
      "subtype": "private",
      "name": "明神",
      "nameKana": null,
      "nameEn": "Myojin",
      "operator": null,
      "network": null,
      "ref": null,
      "latitude": 36.6766205,
      "longitude": 139.7123688,
      "countryCode": "jp",
      "rawTags": {
        "KSJ2:LIN": "日光線",
        "KSJ2:STN": "明神",
        "name": "明神",
        "name:en": "Myojin",
        "name:ja": "明神",
        "name:ja_rm": "Myōjin",
        "name:ko": "묘진",
        "note": "National-Land Numerical Information (Railway) 2007, MLIT Japan",
        "note:ja": "国土数値情報（鉄道データ）平成19年　国土交通省",
        "public_transport": "station",
        "railway": "station",
        "source": "KSJ2",
        "source_ref": "http://nlftp.mlit.go.jp/ksj/jpgis/datalist/KsjTmplt-N02-v1_1.html",
        "wikidata": "Q6949386",
        "wikipedia": "ja:明神駅"
      }
    },
    {
      "id": "tochigi_station_3730128017",
      "osmId": 3730128017,
      "osmType": "node",
      "prefectureId": "tochigi",
      "type": "station",
      "subtype": "private",
      "name": "日光",
      "nameKana": "にっこう",
      "nameEn": "Nikko",
      "operator": null,
      "network": null,
      "ref": null,
      "latitude": 36.7471805,
      "longitude": 139.6219414,
      "countryCode": "jp",
      "rawTags": {
        "name": "日光",
        "name:en": "Nikko",
        "name:ja": "日光",
        "name:ja-Hira": "にっこう",
        "name:ja-Latn": "Nikkō",
        "public_transport": "station",
        "railway": "station",
        "train": "yes",
        "wikidata": "Q1048777"
      }
    },
    {
      "id": "tochigi_station_3828076592",
      "osmId": 3828076592,
      "osmType": "node",
      "prefectureId": "tochigi",
      "type": "station",
      "subtype": "private",
      "name": "宝積寺",
      "nameKana": "ほうしゃくじ",
      "nameEn": "Hoshakuji",
      "operator": null,
      "network": null,
      "ref": null,
      "latitude": 36.6314909,
      "longitude": 139.979591,
      "countryCode": "jp",
      "rawTags": {
        "name": "宝積寺",
        "name:de": "Hoshakuji",
        "name:en": "Hoshakuji",
        "name:ja-Hira": "ほうしゃくじ",
        "name:ja-Latn": "Hōshakuji",
        "name:ru": "Хосякудзи",
        "public_transport": "station",
        "railway": "station",
        "source": "KSJ2",
        "train": "yes",
        "wikidata": "Q872554",
        "wikipedia": "ja:宝積寺駅"
      }
    },
    {
      "id": "tochigi_station_3898269403",
      "osmId": 3898269403,
      "osmType": "node",
      "prefectureId": "tochigi",
      "type": "station",
      "subtype": "private",
      "name": "新栃木",
      "nameKana": null,
      "nameEn": "Shin-Tochigi",
      "operator": null,
      "network": null,
      "ref": "TN12",
      "latitude": 36.3898235,
      "longitude": 139.7424779,
      "countryCode": "jp",
      "rawTags": {
        "name": "新栃木",
        "name:en": "Shin-Tochigi",
        "name:ja": "新栃木",
        "name:ja_rm": "Shin-Tochigi",
        "name:ko": "신토치기",
        "note": "National-Land Numerical Information (Railway) 2007, MLIT Japan",
        "public_transport": "station",
        "railway": "station",
        "ref": "TN12",
        "source": "KSJ2",
        "source_ref": "http://nlftp.mlit.go.jp/ksj/jpgis/datalist/KsjTmplt-N02-v1_1.html",
        "wikidata": "Q7497137",
        "wikipedia": "ja:新栃木駅"
      }
    },
    {
      "id": "tochigi_station_3993074365",
      "osmId": 3993074365,
      "osmType": "node",
      "prefectureId": "tochigi",
      "type": "station",
      "subtype": "private",
      "name": "大平下",
      "nameKana": null,
      "nameEn": "Ohirashita",
      "operator": null,
      "network": null,
      "ref": null,
      "latitude": 36.3443513,
      "longitude": 139.6975422,
      "countryCode": "jp",
      "rawTags": {
        "name": "大平下",
        "name:en": "Ohirashita",
        "name:ja": "大平下",
        "name:ja_rm": "Ōhirashita",
        "name:ko": "오히라시타",
        "note": "National-Land Numerical Information (Railway) 2007, MLIT Japan",
        "public_transport": "station",
        "railway": "station",
        "source": "Bing",
        "wikidata": "Q8081496",
        "wikipedia": "ja:大平下駅"
      }
    },
    {
      "id": "tochigi_station_4098109337",
      "osmId": 4098109337,
      "osmType": "node",
      "prefectureId": "tochigi",
      "type": "station",
      "subtype": "jr",
      "name": "岡本",
      "nameKana": "おかもと",
      "nameEn": "Okamoto",
      "operator": "東日本旅客鉄道",
      "network": null,
      "ref": null,
      "latitude": 36.5984145,
      "longitude": 139.9444481,
      "countryCode": "jp",
      "rawTags": {
        "name": "岡本",
        "name:en": "Okamoto",
        "name:ja-Hira": "おかもと",
        "name:ja-Latn": "Okamoto",
        "name:ru": "Окамото",
        "operator": "東日本旅客鉄道",
        "public_transport": "station",
        "railway": "station",
        "source": "KSJ2",
        "train": "yes",
        "wikidata": "Q873979",
        "wikipedia": "ja:岡本駅 (栃木県)"
      }
    },
    {
      "id": "tochigi_station_4098109338",
      "osmId": 4098109338,
      "osmType": "node",
      "prefectureId": "tochigi",
      "type": "station",
      "subtype": "private",
      "name": "鶴田",
      "nameKana": "つるた",
      "nameEn": "Tsuruta",
      "operator": null,
      "network": null,
      "ref": null,
      "latitude": 36.5382007,
      "longitude": 139.8586506,
      "countryCode": "jp",
      "rawTags": {
        "name": "鶴田",
        "name:en": "Tsuruta",
        "name:it": "Tsuruta",
        "name:ja-Hira": "つるた",
        "name:ja-Latn": "Tsuruta",
        "public_transport": "station",
        "railway": "station",
        "source": "KSJ2",
        "train": "yes",
        "wikidata": "Q1305535",
        "wikipedia": "ja:鶴田駅"
      }
    },
    {
      "id": "tochigi_station_4098306775",
      "osmId": 4098306775,
      "osmType": "node",
      "prefectureId": "tochigi",
      "type": "station",
      "subtype": "private",
      "name": "東武宇都宮",
      "nameKana": "とうぶうつのみや",
      "nameEn": "Tobu-Utsunomiya",
      "operator": "東武鉄道",
      "network": null,
      "ref": "TN40",
      "latitude": 36.5590664,
      "longitude": 139.8805997,
      "countryCode": "jp",
      "rawTags": {
        "name": "東武宇都宮",
        "name:de": "Tobu-Utsunomiya",
        "name:en": "Tobu-Utsunomiya",
        "name:ja": "東武宇都宮",
        "name:ja_kana": "とうぶうつのみや",
        "name:ja_rm": "Tobu-Utsunomiya",
        "name:ko": "도부우쓰노미야",
        "note": "National-Land Numerical Information (Railway) 2007, MLIT Japan",
        "operator": "東武鉄道",
        "public_transport": "station",
        "railway": "station",
        "ref": "TN40",
        "source": "KSJ2",
        "source_ref": "http://nlftp.mlit.go.jp/ksj/jpgis/datalist/KsjTmplt-N02-v1_1.html",
        "wheelchair": "limited",
        "wikidata": "Q7862642",
        "wikipedia": "ja:東武宇都宮駅"
      }
    },
    {
      "id": "tochigi_ferry_terminal_4114492402",
      "osmId": 4114492402,
      "osmType": "node",
      "prefectureId": "tochigi",
      "type": "ferry_terminal",
      "subtype": null,
      "name": "立木観音前",
      "nameKana": null,
      "nameEn": "Tachikikannon Statue",
      "operator": null,
      "network": null,
      "ref": null,
      "latitude": 36.7315397,
      "longitude": 139.4905193,
      "countryCode": "jp",
      "rawTags": {
        "amenity": "ferry_terminal",
        "ferry": "yes",
        "name": "立木観音前",
        "name:en": "Tachikikannon Statue",
        "name:ja": "立木観音前",
        "public_transport": "station"
      }
    },
    {
      "id": "tochigi_ferry_terminal_4114493634",
      "osmId": 4114493634,
      "osmType": "node",
      "prefectureId": "tochigi",
      "type": "ferry_terminal",
      "subtype": null,
      "name": "菖蒲ヶ浜",
      "nameKana": null,
      "nameEn": "Shobugahama Excursion Ship Pier",
      "operator": null,
      "network": null,
      "ref": null,
      "latitude": 36.7511965,
      "longitude": 139.4551041,
      "countryCode": "jp",
      "rawTags": {
        "amenity": "ferry_terminal",
        "name": "菖蒲ヶ浜",
        "name:en": "Shobugahama Excursion Ship Pier",
        "name:ja": "菖蒲ヶ浜"
      }
    },
    {
      "id": "tochigi_ferry_terminal_4114497017",
      "osmId": 4114497017,
      "osmType": "node",
      "prefectureId": "tochigi",
      "type": "ferry_terminal",
      "subtype": null,
      "name": "船の駅中禅寺",
      "nameKana": null,
      "nameEn": "Excursion Ship Pier",
      "operator": null,
      "network": null,
      "ref": null,
      "latitude": 36.739198,
      "longitude": 139.4927888,
      "countryCode": "jp",
      "rawTags": {
        "amenity": "ferry_terminal",
        "ferry": "yes",
        "name": "船の駅中禅寺",
        "name:en": "Excursion Ship Pier",
        "name:ja": "船の駅中禅寺",
        "public_transport": "station"
      }
    },
    {
      "id": "tochigi_ferry_terminal_4114501795",
      "osmId": 4114501795,
      "osmType": "node",
      "prefectureId": "tochigi",
      "type": "ferry_terminal",
      "subtype": null,
      "name": "千手ヶ浜",
      "nameKana": null,
      "nameEn": "Senjugahama",
      "operator": null,
      "network": null,
      "ref": null,
      "latitude": 36.7483825,
      "longitude": 139.4226011,
      "countryCode": "jp",
      "rawTags": {
        "amenity": "ferry_terminal",
        "name": "千手ヶ浜",
        "name:en": "Senjugahama",
        "name:ja": "千手ヶ浜"
      }
    },
    {
      "id": "tochigi_station_4358153720",
      "osmId": 4358153720,
      "osmType": "node",
      "prefectureId": "tochigi",
      "type": "station",
      "subtype": "private",
      "name": "国谷",
      "nameKana": null,
      "nameEn": "Kuniya",
      "operator": null,
      "network": null,
      "ref": "TN34",
      "latitude": 36.4515561,
      "longitude": 139.8238137,
      "countryCode": "jp",
      "rawTags": {
        "name": "国谷",
        "name:en": "Kuniya",
        "name:ja": "国谷",
        "name:ja_rm": "Kuniya",
        "name:ko": "구니야",
        "note": "National-Land Numerical Information (Railway) 2007, MLIT Japan",
        "public_transport": "station",
        "railway": "station",
        "ref": "TN34",
        "source": "KSJ2",
        "source_ref": "http://nlftp.mlit.go.jp/ksj/jpgis/datalist/KsjTmplt-N02-v1_1.html",
        "wikidata": "Q11421382",
        "wikipedia": "ja:国谷駅"
      }
    },
    {
      "id": "tochigi_station_4358153721",
      "osmId": 4358153721,
      "osmType": "node",
      "prefectureId": "tochigi",
      "type": "station",
      "subtype": "private",
      "name": "壬生",
      "nameKana": null,
      "nameEn": "Mibu",
      "operator": null,
      "network": null,
      "ref": "TN33",
      "latitude": 36.4226613,
      "longitude": 139.8051121,
      "countryCode": "jp",
      "rawTags": {
        "name": "壬生",
        "name:en": "Mibu",
        "name:ja": "壬生",
        "name:ja_rm": "Mibu",
        "name:ko": "미부",
        "note": "National-Land Numerical Information (Railway) 2007, MLIT Japan",
        "public_transport": "station",
        "railway": "station",
        "ref": "TN33",
        "source": "KSJ2",
        "source_ref": "http://nlftp.mlit.go.jp/ksj/jpgis/datalist/KsjTmplt-N02-v1_1.html",
        "wikidata": "Q6827788",
        "wikipedia": "ja:壬生駅"
      }
    },
    {
      "id": "tochigi_station_4358903093",
      "osmId": 4358903093,
      "osmType": "node",
      "prefectureId": "tochigi",
      "type": "station",
      "subtype": "jr",
      "name": "石橋",
      "nameKana": "いしばし",
      "nameEn": "Ishibashi",
      "operator": "東日本旅客鉄道",
      "network": null,
      "ref": null,
      "latitude": 36.4364953,
      "longitude": 139.8665122,
      "countryCode": "jp",
      "rawTags": {
        "name": "石橋",
        "name:de": "Ishibashi",
        "name:en": "Ishibashi",
        "name:ja": "石橋",
        "name:ja-Hira": "いしばし",
        "name:ja-Latn": "Ishibashi",
        "name:ru": "Исибаси",
        "operator": "東日本旅客鉄道",
        "public_transport": "station",
        "railway": "station",
        "toilets:wheelchair": "yes",
        "wheelchair": "yes",
        "wikidata": "Q866078",
        "wikipedia": "ja:石橋阪大前駅"
      }
    },
    {
      "id": "tochigi_station_4437997066",
      "osmId": 4437997066,
      "osmType": "node",
      "prefectureId": "tochigi",
      "type": "station",
      "subtype": "private",
      "name": "黒磯",
      "nameKana": "くろいそ",
      "nameEn": "Kuroiso",
      "operator": null,
      "network": null,
      "ref": null,
      "latitude": 36.9701908,
      "longitude": 140.0601121,
      "countryCode": "jp",
      "rawTags": {
        "name": "黒磯",
        "name:de": "Kuroiso",
        "name:en": "Kuroiso",
        "name:ja": "黒磯",
        "name:ja-Hira": "くろいそ",
        "name:ja-Latn": "Kuroiso",
        "name:ko": "구로이소",
        "name:ru": "Куроисо",
        "public_transport": "station",
        "railway": "station",
        "source": "KSJ2",
        "train": "yes",
        "wikidata": "Q843174",
        "wikipedia": "ja:黒磯駅"
      }
    },
    {
      "id": "tochigi_bus_terminal_5287453561",
      "osmId": 5287453561,
      "osmType": "node",
      "prefectureId": "tochigi",
      "type": "bus_terminal",
      "subtype": null,
      "name": "東武西口",
      "nameKana": null,
      "nameEn": null,
      "operator": null,
      "network": null,
      "ref": null,
      "latitude": 36.5594147,
      "longitude": 139.8798475,
      "countryCode": "jp",
      "rawTags": {
        "amenity": "bus_station",
        "name": "東武西口"
      }
    },
    {
      "id": "tochigi_station_5536927326",
      "osmId": 5536927326,
      "osmType": "node",
      "prefectureId": "tochigi",
      "type": "station",
      "subtype": "private",
      "name": "あしかがフラワーパーク",
      "nameKana": null,
      "nameEn": "Ashikaga Flower Park",
      "operator": null,
      "network": null,
      "ref": null,
      "latitude": 36.3151578,
      "longitude": 139.5183925,
      "countryCode": "jp",
      "rawTags": {
        "name": "あしかがフラワーパーク",
        "name:en": "Ashikaga Flower Park",
        "name:ja": "あしかがフラワーパーク",
        "name:ko": "아시카가 플라워 파크",
        "name:zh": "足利花卉公园",
        "name:zh-Hans": "足利花卉公园",
        "name:zh-Hant": "足利花卉公園",
        "public_transport": "station",
        "railway": "station",
        "source": "survey",
        "wikidata": "Q45875891",
        "wikipedia": "ja:あしかがフラワーパーク駅"
      }
    },
    {
      "id": "tochigi_station_5586958187",
      "osmId": 5586958187,
      "osmType": "node",
      "prefectureId": "tochigi",
      "type": "station",
      "subtype": "private",
      "name": "新鹿沼",
      "nameKana": "しんかぬま",
      "nameEn": "Shin-Kanuma",
      "operator": null,
      "network": null,
      "ref": null,
      "latitude": 36.5572113,
      "longitude": 139.7449379,
      "countryCode": "jp",
      "rawTags": {
        "name": "新鹿沼",
        "name:en": "Shin-Kanuma",
        "name:ja": "新鹿沼",
        "name:ja_kana": "しんかぬま",
        "name:ja_rm": "Shin-Kanuma",
        "name:ko": "신카누마",
        "note": "National-Land Numerical Information (Railway) 2007, MLIT Japan",
        "public_transport": "station",
        "railway": "station",
        "source": "KSJ2",
        "source_ref": "http://nlftp.mlit.go.jp/ksj/jpgis/datalist/KsjTmplt-N02-v1_1.html",
        "wikidata": "Q7497103",
        "wikipedia": "ja:新鹿沼駅"
      }
    },
    {
      "id": "tochigi_station_5586958219",
      "osmId": 5586958219,
      "osmType": "node",
      "prefectureId": "tochigi",
      "type": "station",
      "subtype": "private",
      "name": "樅山",
      "nameKana": "もみやま",
      "nameEn": "Momiyama",
      "operator": null,
      "network": null,
      "ref": null,
      "latitude": 36.5330893,
      "longitude": 139.7418934,
      "countryCode": "jp",
      "rawTags": {
        "name": "樅山",
        "name:en": "Momiyama",
        "name:ja": "樅山",
        "name:ja_kana": "もみやま",
        "name:ja_rm": "Momiyama",
        "name:ko": "모미야마",
        "note": "National-Land Numerical Information (Railway) 2007, MLIT Japan",
        "public_transport": "station",
        "railway": "station",
        "source": "KSJ2",
        "source_ref": "http://nlftp.mlit.go.jp/ksj/jpgis/datalist/KsjTmplt-N02-v1_1.html",
        "wikidata": "Q6897322",
        "wikipedia": "ja:樅山駅"
      }
    },
    {
      "id": "tochigi_station_5587060435",
      "osmId": 5587060435,
      "osmType": "node",
      "prefectureId": "tochigi",
      "type": "station",
      "subtype": "private",
      "name": "下小代",
      "nameKana": null,
      "nameEn": "Shimo-Goshiro",
      "operator": null,
      "network": null,
      "ref": null,
      "latitude": 36.6513639,
      "longitude": 139.713918,
      "countryCode": "jp",
      "rawTags": {
        "name": "下小代",
        "name:en": "Shimo-Goshiro",
        "name:ja": "下小代",
        "name:ja_rm": "Shimo-Goshiro",
        "name:ko": "시모고시로",
        "note": "National-Land Numerical Information (Railway) 2007, MLIT Japan",
        "note:ja": "国土数値情報（鉄道データ）平成19年　国土交通省",
        "public_transport": "station",
        "railway": "station",
        "source": "KSJ2",
        "source_ref": "http://nlftp.mlit.go.jp/ksj/jpgis/datalist/KsjTmplt-N02-v1_1.html",
        "wikidata": "Q11360791",
        "wikipedia": "ja:下小代駅"
      }
    },
    {
      "id": "tochigi_station_5587062040",
      "osmId": 5587062040,
      "osmType": "node",
      "prefectureId": "tochigi",
      "type": "station",
      "subtype": "private",
      "name": "板荷",
      "nameKana": null,
      "nameEn": "Itaga",
      "operator": null,
      "network": null,
      "ref": null,
      "latitude": 36.6202016,
      "longitude": 139.7076968,
      "countryCode": "jp",
      "rawTags": {
        "name": "板荷",
        "name:en": "Itaga",
        "name:ja": "板荷",
        "name:ja_rm": "Itaga",
        "name:ko": "이타가",
        "note": "National-Land Numerical Information (Railway) 2007, MLIT Japan",
        "public_transport": "station",
        "railway": "station",
        "source": "KSJ2",
        "source_ref": "http://nlftp.mlit.go.jp/ksj/jpgis/datalist/KsjTmplt-N02-v1_1.html",
        "wikidata": "Q6092365",
        "wikipedia": "ja:板荷駅"
      }
    },
    {
      "id": "tochigi_station_5729363569",
      "osmId": 5729363569,
      "osmType": "node",
      "prefectureId": "tochigi",
      "type": "station",
      "subtype": "private",
      "name": "中三依温泉",
      "nameKana": null,
      "nameEn": "Nakamiyori-Onsen",
      "operator": null,
      "network": null,
      "ref": null,
      "latitude": 36.9852804,
      "longitude": 139.6992817,
      "countryCode": "jp",
      "rawTags": {
        "alt_name:ko": "나카미요리온센",
        "name": "中三依温泉",
        "name:en": "Nakamiyori-Onsen",
        "name:ja": "中三依温泉",
        "name:ja_rm": "Nakamiyori-Onsen",
        "name:ko": "나카미요리온천",
        "note": "National-Land Numerical Information (Railway) 2007, MLIT Japan",
        "note:ja": "国土数値情報（鉄道データ）平成19年　国土交通省",
        "public_transport": "station",
        "railway": "station",
        "source": "KSJ2",
        "source_ref": "http://nlftp.mlit.go.jp/ksj/jpgis/datalist/KsjTmplt-N02-v1_1.html",
        "wikidata": "Q6960218",
        "wikipedia": "ja:中三依温泉駅"
      }
    },
    {
      "id": "tochigi_station_5825602938",
      "osmId": 5825602938,
      "osmType": "node",
      "prefectureId": "tochigi",
      "type": "station",
      "subtype": "private",
      "name": "高久",
      "nameKana": "たかく",
      "nameEn": "Takaku",
      "operator": null,
      "network": null,
      "ref": null,
      "latitude": 36.9966464,
      "longitude": 140.0873071,
      "countryCode": "jp",
      "rawTags": {
        "name": "高久",
        "name:en": "Takaku",
        "name:ja-Hira": "たかく",
        "name:ja-Latn": "Takaku",
        "name:ru": "Такаку",
        "public_transport": "station",
        "railway": "station",
        "source": "KSJ2",
        "train": "yes",
        "wikidata": "Q872928",
        "wikipedia": "ja:高久駅"
      }
    },
    {
      "id": "tochigi_station_5826641576",
      "osmId": 5826641576,
      "osmType": "node",
      "prefectureId": "tochigi",
      "type": "station",
      "subtype": "private",
      "name": "西那須野",
      "nameKana": "にしなすの",
      "nameEn": "Nishi-Nasuno",
      "operator": null,
      "network": null,
      "ref": null,
      "latitude": 36.8844145,
      "longitude": 139.9867128,
      "countryCode": "jp",
      "rawTags": {
        "name": "西那須野",
        "name:de": "Nishi-Nasuno",
        "name:en": "Nishi-Nasuno",
        "name:ja": "西那須野",
        "name:ja-Hira": "にしなすの",
        "name:ja-Latn": "Nishinasuno",
        "name:ko": "니시나스노",
        "name:ru": "Ниси-Насуно",
        "public_transport": "station",
        "railway": "station",
        "source": "KSJ2",
        "train": "yes",
        "wikidata": "Q872877",
        "wikipedia": "ja:西那須野駅"
      }
    },
    {
      "id": "tochigi_station_5826868234",
      "osmId": 5826868234,
      "osmType": "node",
      "prefectureId": "tochigi",
      "type": "station",
      "subtype": "private",
      "name": "片岡",
      "nameKana": "かたおか",
      "nameEn": "Kataoka",
      "operator": null,
      "network": null,
      "ref": null,
      "latitude": 36.7542157,
      "longitude": 139.9459854,
      "countryCode": "jp",
      "rawTags": {
        "name": "片岡",
        "name:de": "Kataoka",
        "name:en": "Kataoka",
        "name:ja-Hira": "かたおか",
        "name:ja-Latn": "Kataoka",
        "name:ru": "Катаока",
        "public_transport": "station",
        "railway": "station",
        "source": "KSJ2",
        "train": "yes",
        "wikidata": "Q873013",
        "wikipedia": "ja:片岡駅"
      }
    },
    {
      "id": "tochigi_station_5827279832",
      "osmId": 5827279832,
      "osmType": "node",
      "prefectureId": "tochigi",
      "type": "station",
      "subtype": "private",
      "name": "小金井",
      "nameKana": "こがねい",
      "nameEn": "Koganei",
      "operator": null,
      "network": null,
      "ref": null,
      "latitude": 36.3743446,
      "longitude": 139.8419693,
      "countryCode": "jp",
      "rawTags": {
        "name": "小金井",
        "name:de": "Koganei",
        "name:en": "Koganei",
        "name:ja": "小金井",
        "name:ja-Hira": "こがねい",
        "name:ja-Latn": "Koganei",
        "name:ru": "Коганеи",
        "public_transport": "station",
        "railway": "station",
        "source": "KSJ2",
        "wheelchair": "yes",
        "wikidata": "Q861505",
        "wikipedia": "ja:小金井駅"
      }
    },
    {
      "id": "tochigi_station_5827279863",
      "osmId": 5827279863,
      "osmType": "node",
      "prefectureId": "tochigi",
      "type": "station",
      "subtype": "private",
      "name": "自治医大",
      "nameKana": "じちいだい",
      "nameEn": "Jichi Medical University",
      "operator": null,
      "network": null,
      "ref": null,
      "latitude": 36.3953175,
      "longitude": 139.8545254,
      "countryCode": "jp",
      "rawTags": {
        "name": "自治医大",
        "name:de": "Jichiidai",
        "name:en": "Jichi Medical University",
        "name:ja": "自治医大",
        "name:ja-Hira": "じちいだい",
        "name:ja-Latn": "Jichiidai",
        "name:ru": "Дзитиидай",
        "public_transport": "station",
        "railway": "station",
        "source": "KSJ2",
        "wikidata": "Q873156",
        "wikipedia": "ja:自治医大駅"
      }
    },
    {
      "id": "tochigi_station_5832832679",
      "osmId": 5832832679,
      "osmType": "node",
      "prefectureId": "tochigi",
      "type": "station",
      "subtype": "jr",
      "name": "野木",
      "nameKana": "のぎ",
      "nameEn": "Nogi",
      "operator": "東日本旅客鉄道",
      "network": null,
      "ref": null,
      "latitude": 36.2303052,
      "longitude": 139.735052,
      "countryCode": "jp",
      "rawTags": {
        "name": "野木",
        "name:de": "Nogi",
        "name:en": "Nogi",
        "name:ja": "野木",
        "name:ja-Hira": "のぎ",
        "name:ja-Latn": "Nogi",
        "name:ru": "Ноги",
        "operator": "東日本旅客鉄道",
        "operator:en": "East Japan Railway Company",
        "public_transport": "station",
        "railway": "station",
        "source": "KSJ2",
        "wikidata": "Q861563",
        "wikipedia": "ja:野木駅"
      }
    },
    {
      "id": "tochigi_station_6050500242",
      "osmId": 6050500242,
      "osmType": "node",
      "prefectureId": "tochigi",
      "type": "station",
      "subtype": "private",
      "name": "楡木",
      "nameKana": "にれぎ",
      "nameEn": "Niregi",
      "operator": null,
      "network": null,
      "ref": null,
      "latitude": 36.5071518,
      "longitude": 139.7453712,
      "countryCode": "jp",
      "rawTags": {
        "name": "楡木",
        "name:en": "Niregi",
        "name:ja": "楡木",
        "name:ja_kana": "にれぎ",
        "name:ja_rm": "Niregi",
        "name:ko": "니레기",
        "note": "National-Land Numerical Information (Railway) 2007, MLIT Japan",
        "public_transport": "station",
        "railway": "station",
        "wikidata": "Q7039945",
        "wikipedia": "ja:楡木駅"
      }
    },
    {
      "id": "tochigi_station_6050512200",
      "osmId": 6050512200,
      "osmType": "node",
      "prefectureId": "tochigi",
      "type": "station",
      "subtype": "private",
      "name": "田島",
      "nameKana": null,
      "nameEn": "Tajima",
      "operator": null,
      "network": null,
      "ref": null,
      "latitude": 36.2905968,
      "longitude": 139.5649449,
      "countryCode": "jp",
      "rawTags": {
        "KSJ2:LIN": "佐野線",
        "KSJ2:RAS": "eb03_8596",
        "KSJ2:STN": "田島",
        "KSJ2:segment": "eb02_18334",
        "name": "田島",
        "name:en": "Tajima",
        "name:ja": "田島",
        "name:ja_rm": "Tajima",
        "name:ko": "다지마",
        "public_transport": "station",
        "railway": "station",
        "wikidata": "Q7676868",
        "wikipedia": "ja:田島駅"
      }
    },
    {
      "id": "tochigi_station_6050596452",
      "osmId": 6050596452,
      "osmType": "node",
      "prefectureId": "tochigi",
      "type": "station",
      "subtype": "private",
      "name": "藤岡",
      "nameKana": null,
      "nameEn": "Fujioka",
      "operator": null,
      "network": null,
      "ref": null,
      "latitude": 36.2560128,
      "longitude": 139.6458638,
      "countryCode": "jp",
      "rawTags": {
        "name": "藤岡",
        "name:en": "Fujioka",
        "name:ja": "藤岡",
        "name:ja_rm": "Fujioka",
        "name:ko": "후지오카",
        "note": "National-Land Numerical Information (Railway) 2007, MLIT Japan",
        "public_transport": "station",
        "railway": "station",
        "source": "KSJ2",
        "source_ref": "http://nlftp.mlit.go.jp/ksj/jpgis/datalist/KsjTmplt-N02-v1_1.html",
        "wikidata": "Q5507472",
        "wikipedia": "ja:藤岡駅"
      }
    },
    {
      "id": "tochigi_station_6095556272",
      "osmId": 6095556272,
      "osmType": "node",
      "prefectureId": "tochigi",
      "type": "station",
      "subtype": "private",
      "name": "矢板",
      "nameKana": "やいた",
      "nameEn": "Yaita",
      "operator": null,
      "network": null,
      "ref": null,
      "latitude": 36.8067528,
      "longitude": 139.9328265,
      "countryCode": "jp",
      "rawTags": {
        "name": "矢板",
        "name:de": "Yaita",
        "name:en": "Yaita",
        "name:ja-Hira": "やいた",
        "name:ja-Latn": "Yaita",
        "name:ru": "Яита",
        "public_transport": "station",
        "railway": "station",
        "source": "KSJ2",
        "train": "yes",
        "wikidata": "Q872871",
        "wikipedia": "ja:矢板駅"
      }
    },
    {
      "id": "tochigi_station_6095556279",
      "osmId": 6095556279,
      "osmType": "node",
      "prefectureId": "tochigi",
      "type": "station",
      "subtype": "private",
      "name": "那須塩原",
      "nameKana": "なすしおばら",
      "nameEn": "Nasushiobara",
      "operator": null,
      "network": null,
      "ref": null,
      "latitude": 36.9315625,
      "longitude": 140.0206943,
      "countryCode": "jp",
      "rawTags": {
        "highspeed": "yes",
        "name": "那須塩原",
        "name:de": "Nasushiobara",
        "name:en": "Nasushiobara",
        "name:ja": "那須塩原",
        "name:ja-Hira": "なすしおばら",
        "name:ja-Latn": "Nasushiobara",
        "name:ko": "나스시오바라",
        "name:ru": "Насу-Сиобара",
        "public_transport": "station",
        "railway": "station",
        "source": "KSJ2",
        "train": "yes",
        "wikidata": "Q369523",
        "wikipedia": "ja:那須塩原駅"
      }
    },
    {
      "id": "tochigi_station_6101409049",
      "osmId": 6101409049,
      "osmType": "node",
      "prefectureId": "tochigi",
      "type": "station",
      "subtype": "private",
      "name": "烏山",
      "nameKana": "からすやま",
      "nameEn": "Karasuyama",
      "operator": null,
      "network": null,
      "ref": null,
      "latitude": 36.6504536,
      "longitude": 140.1550367,
      "countryCode": "jp",
      "rawTags": {
        "name": "烏山",
        "name:en": "Karasuyama",
        "name:ja-Hira": "からすやま",
        "name:ja-Latn": "Karasuyama",
        "public_transport": "station",
        "railway": "station",
        "source": "KSJ2",
        "train": "yes",
        "wikidata": "Q6368662",
        "wikipedia": "ja:烏山駅"
      }
    },
    {
      "id": "tochigi_station_6101409050",
      "osmId": 6101409050,
      "osmType": "node",
      "prefectureId": "tochigi",
      "type": "station",
      "subtype": "private",
      "name": "滝",
      "nameKana": "たき",
      "nameEn": "Taki",
      "operator": null,
      "network": null,
      "ref": null,
      "latitude": 36.6485524,
      "longitude": 140.1384258,
      "countryCode": "jp",
      "rawTags": {
        "name": "滝",
        "name:en": "Taki",
        "name:ja-Hira": "たき",
        "name:ja-Latn": "Taki",
        "public_transport": "station",
        "railway": "station",
        "source": "KSJ2",
        "train": "yes",
        "wikidata": "Q7678283",
        "wikipedia": "ja:滝駅 (栃木県)"
      }
    },
    {
      "id": "tochigi_station_6101409051",
      "osmId": 6101409051,
      "osmType": "node",
      "prefectureId": "tochigi",
      "type": "station",
      "subtype": "private",
      "name": "小塙",
      "nameKana": "こばな",
      "nameEn": "Kobana",
      "operator": null,
      "network": null,
      "ref": null,
      "latitude": 36.642957,
      "longitude": 140.1168501,
      "countryCode": "jp",
      "rawTags": {
        "name": "小塙",
        "name:en": "Kobana",
        "name:ja-Hira": "こばな",
        "name:ja-Latn": "Kobana",
        "public_transport": "station",
        "railway": "station",
        "source": "KSJ2",
        "train": "yes",
        "wikidata": "Q6424264",
        "wikipedia": "ja:小塙駅"
      }
    },
    {
      "id": "tochigi_station_6101409060",
      "osmId": 6101409060,
      "osmType": "node",
      "prefectureId": "tochigi",
      "type": "station",
      "subtype": "private",
      "name": "大金",
      "nameKana": "おおがね",
      "nameEn": "Ogane",
      "operator": null,
      "network": null,
      "ref": null,
      "latitude": 36.6564475,
      "longitude": 140.0956392,
      "countryCode": "jp",
      "rawTags": {
        "name": "大金",
        "name:en": "Ogane",
        "name:ja-Hira": "おおがね",
        "name:ja-Latn": "Ōgane",
        "public_transport": "station",
        "railway": "station",
        "source": "KSJ2",
        "train": "yes",
        "wikidata": "Q8081465",
        "wikipedia": "ja:大金駅"
      }
    },
    {
      "id": "tochigi_station_6101410890",
      "osmId": 6101410890,
      "osmType": "node",
      "prefectureId": "tochigi",
      "type": "station",
      "subtype": "private",
      "name": "鴻野山",
      "nameKana": "こうのやま",
      "nameEn": "Konoyama",
      "operator": null,
      "network": null,
      "ref": null,
      "latitude": 36.6664381,
      "longitude": 140.0516757,
      "countryCode": "jp",
      "rawTags": {
        "name": "鴻野山",
        "name:en": "Konoyama",
        "name:ja-Hira": "こうのやま",
        "name:ja-Latn": "Kōnoyama",
        "public_transport": "station",
        "railway": "station",
        "source": "KSJ2",
        "train": "yes",
        "wikidata": "Q6455244",
        "wikipedia": "ja:鴻野山駅"
      }
    },
    {
      "id": "tochigi_station_6101410916",
      "osmId": 6101410916,
      "osmType": "node",
      "prefectureId": "tochigi",
      "type": "station",
      "subtype": "private",
      "name": "仁井田",
      "nameKana": "にいた",
      "nameEn": "Niita",
      "operator": null,
      "network": null,
      "ref": null,
      "latitude": 36.6572135,
      "longitude": 140.0298581,
      "countryCode": "jp",
      "rawTags": {
        "name": "仁井田",
        "name:en": "Niita",
        "name:ja": "仁井田",
        "name:ja-Hira": "にいた",
        "name:ja-Latn": "Niita",
        "name:ko": "니타",
        "public_transport": "station",
        "railway": "station",
        "source": "KSJ2",
        "train": "yes",
        "wikidata": "Q7034487",
        "wikipedia": "ja:仁井田駅 (栃木県)"
      }
    },
    {
      "id": "tochigi_station_6101410937",
      "osmId": 6101410937,
      "osmType": "node",
      "prefectureId": "tochigi",
      "type": "station",
      "subtype": "private",
      "name": "下野花岡",
      "nameKana": "しもつけはなおか",
      "nameEn": "Shimotsuke-Hanaoka",
      "operator": null,
      "network": null,
      "ref": null,
      "latitude": 36.6499587,
      "longitude": 140.0085667,
      "countryCode": "jp",
      "rawTags": {
        "name": "下野花岡",
        "name:en": "Shimotsuke-Hanaoka",
        "name:ja": "下野花岡",
        "name:ja-Hira": "しもつけはなおか",
        "name:ja-Latn": "Shimotsuke-Hanaoka",
        "name:ko": "시모쓰케하나오카",
        "public_transport": "station",
        "railway": "station",
        "source": "KSJ2",
        "train": "yes",
        "wikidata": "Q7497017",
        "wikipedia": "ja:下野花岡駅"
      }
    },
    {
      "id": "tochigi_station_7057400206",
      "osmId": 7057400206,
      "osmType": "node",
      "prefectureId": "tochigi",
      "type": "station",
      "subtype": "private",
      "name": "岩舟",
      "nameKana": null,
      "nameEn": "Iwafune",
      "operator": null,
      "network": null,
      "ref": null,
      "latitude": 36.3266804,
      "longitude": 139.6577238,
      "countryCode": "jp",
      "rawTags": {
        "name": "岩舟",
        "name:en": "Iwafune",
        "name:ja": "岩舟",
        "name:ja_rm": "Iwafune",
        "name:ko": "이와후네",
        "note": "National-Land Numerical Information (Railway) 2007, MLIT Japan",
        "public_transport": "station",
        "railway": "station",
        "source": "KSJ2",
        "source_ref": "http://nlftp.mlit.go.jp/ksj/jpgis/datalist/KsjTmplt-N02-v1_1.html",
        "wikidata": "Q11475586",
        "wikipedia": "ja:岩舟駅"
      }
    },
    {
      "id": "tochigi_station_7088398595",
      "osmId": 7088398595,
      "osmType": "node",
      "prefectureId": "tochigi",
      "type": "station",
      "subtype": "private",
      "name": "野州山辺",
      "nameKana": null,
      "nameEn": "Yashu-Yamabe",
      "operator": null,
      "network": null,
      "ref": null,
      "latitude": 36.3262876,
      "longitude": 139.4318755,
      "countryCode": "jp",
      "rawTags": {
        "KSJ2:LIN": "伊勢崎線",
        "KSJ2:RAS": "eb03_8507",
        "KSJ2:STN": "野州山辺",
        "KSJ2:segment": "eb02_18156",
        "name": "野州山辺",
        "name:en": "Yashu-Yamabe",
        "name:ja": "野州山辺",
        "name:ja_rm": "Yashū-Yamabe",
        "name:ko": "야슈야마베",
        "note": "National-Land Numerical Information (Railway) 2007, MLIT Japan",
        "note:ja": "国土数値情報（鉄道データ）平成19年　国土交通省",
        "public_transport": "station",
        "railway": "station",
        "source": "KSJ2",
        "source_ref": "http://nlftp.mlit.go.jp/ksj/jpgis/datalist/KsjTmplt-N02-v1_1.html",
        "wikidata": "Q8049781",
        "wikipedia": "ja:野州山辺駅"
      }
    },
    {
      "id": "tochigi_station_7111058199",
      "osmId": 7111058199,
      "osmType": "node",
      "prefectureId": "tochigi",
      "type": "station",
      "subtype": "private",
      "name": "東武和泉",
      "nameKana": null,
      "nameEn": "Tobu Izumi",
      "operator": null,
      "network": null,
      "ref": null,
      "latitude": 36.3151474,
      "longitude": 139.4552889,
      "countryCode": "jp",
      "rawTags": {
        "KSJ2:LIN": "伊勢崎線",
        "KSJ2:RAS": "eb03_8506",
        "KSJ2:STN": "東武和泉",
        "KSJ2:segment": "eb02_18177",
        "name": "東武和泉",
        "name:en": "Tobu Izumi",
        "name:ja": "東武和泉",
        "name:ja_rm": "Tōbu-Izumi",
        "name:ko": "도부이즈미",
        "note": "National-Land Numerical Information (Railway) 2007, MLIT Japan",
        "note:ja": "国土数値情報（鉄道データ）平成19年　国土交通省",
        "public_transport": "station",
        "railway": "station",
        "source": "KSJ2",
        "source_ref": "http://nlftp.mlit.go.jp/ksj/jpgis/datalist/KsjTmplt-N02-v1_1.html",
        "wikidata": "Q7862633",
        "wikipedia": "ja:東武和泉駅"
      }
    },
    {
      "id": "tochigi_station_7182935492",
      "osmId": 7182935492,
      "osmType": "node",
      "prefectureId": "tochigi",
      "type": "station",
      "subtype": "private",
      "name": "県",
      "nameKana": null,
      "nameEn": "Agata",
      "operator": "東武鉄道",
      "network": "伊勢崎線",
      "ref": null,
      "latitude": 36.2909024,
      "longitude": 139.4717407,
      "countryCode": "jp",
      "rawTags": {
        "KSJ2:LIN": "伊勢崎線",
        "KSJ2:RAS": "eb03_8496",
        "KSJ2:STN": "県",
        "KSJ2:segment": "eb02_18171",
        "name": "県",
        "name:en": "Agata",
        "name:ja": "県",
        "name:ja_rm": "Agata",
        "name:ko": "아가타",
        "network": "伊勢崎線",
        "note": "National-Land Numerical Information (Railway) 2007, MLIT Japan",
        "note:ja": "国土数値情報（鉄道データ）平成19年　国土交通省",
        "operator": "東武鉄道",
        "public_transport": "station",
        "railway": "station",
        "source": "KSJ2",
        "source_ref": "http://nlftp.mlit.go.jp/ksj/jpgis/datalist/KsjTmplt-N02-v1_1.html",
        "start_date": "1928-05-01",
        "wikidata": "Q4691472",
        "wikipedia": "ja:県駅"
      }
    },
    {
      "id": "tochigi_station_7967910516",
      "osmId": 7967910516,
      "osmType": "node",
      "prefectureId": "tochigi",
      "type": "station",
      "subtype": "private",
      "name": "福居",
      "nameKana": null,
      "nameEn": "Fukui",
      "operator": null,
      "network": null,
      "ref": null,
      "latitude": 36.3057491,
      "longitude": 139.4584671,
      "countryCode": "jp",
      "rawTags": {
        "KSJ2:LIN": "伊勢崎線",
        "KSJ2:RAS": "eb03_8494",
        "KSJ2:STN": "福居",
        "KSJ2:segment": "eb02_18148",
        "name": "福居",
        "name:en": "Fukui",
        "name:ja": "福居",
        "name:ja_rm": "Fukui",
        "name:ko": "후쿠이",
        "note": "National-Land Numerical Information (Railway) 2007, MLIT Japan",
        "note:ja": "国土数値情報（鉄道データ）平成19年　国土交通省",
        "public_transport": "station",
        "railway": "station",
        "source": "KSJ2",
        "source_ref": "http://nlftp.mlit.go.jp/ksj/jpgis/datalist/KsjTmplt-N02-v1_1.html",
        "wikidata": "Q5507654",
        "wikipedia": "ja:福居駅"
      }
    },
    {
      "id": "tochigi_station_7967910517",
      "osmId": 7967910517,
      "osmType": "node",
      "prefectureId": "tochigi",
      "type": "station",
      "subtype": "private",
      "name": "足利市",
      "nameKana": null,
      "nameEn": "Ashikagashi",
      "operator": null,
      "network": null,
      "ref": null,
      "latitude": 36.329373,
      "longitude": 139.4482747,
      "countryCode": "jp",
      "rawTags": {
        "KSJ2:LIN": "伊勢崎線",
        "KSJ2:RAS": "eb03_8510",
        "KSJ2:STN": "足利市",
        "KSJ2:segment": "eb02_18168",
        "name": "足利市",
        "name:en": "Ashikagashi",
        "name:ja": "足利市",
        "name:ja_rm": "Ashikagashi",
        "name:ko": "아시카가시",
        "note": "National-Land Numerical Information (Railway) 2007, MLIT Japan",
        "note:ja": "国土数値情報（鉄道データ）平成19年　国土交通省",
        "public_transport": "station",
        "railway": "station",
        "source": "KSJ2",
        "source_ref": "http://nlftp.mlit.go.jp/ksj/jpgis/datalist/KsjTmplt-N02-v1_1.html",
        "wikidata": "Q1000572",
        "wikipedia": "ja:足利市駅"
      }
    },
    {
      "id": "tochigi_station_8022247082",
      "osmId": 8022247082,
      "osmType": "node",
      "prefectureId": "tochigi",
      "type": "station",
      "subtype": "private",
      "name": "合戦場",
      "nameKana": null,
      "nameEn": "Kassemba",
      "operator": null,
      "network": null,
      "ref": null,
      "latitude": 36.4079871,
      "longitude": 139.7412861,
      "countryCode": "jp",
      "rawTags": {
        "name": "合戦場",
        "name:en": "Kassemba",
        "name:ja": "合戦場",
        "name:ja_rm": "Kassenba",
        "name:ko": "갓센바",
        "note": "National-Land Numerical Information (Railway) 2007, MLIT Japan",
        "public_transport": "station",
        "railway": "station",
        "source": "KSJ2",
        "source_ref": "http://nlftp.mlit.go.jp/ksj/jpgis/datalist/KsjTmplt-N02-v1_1.html",
        "wikidata": "Q6374725",
        "wikipedia": "ja:合戦場駅"
      }
    },
    {
      "id": "tochigi_station_8022247371",
      "osmId": 8022247371,
      "osmType": "node",
      "prefectureId": "tochigi",
      "type": "station",
      "subtype": "private",
      "name": "家中",
      "nameKana": null,
      "nameEn": "Ienaka",
      "operator": null,
      "network": null,
      "ref": null,
      "latitude": 36.4293476,
      "longitude": 139.7473143,
      "countryCode": "jp",
      "rawTags": {
        "name": "家中",
        "name:en": "Ienaka",
        "name:ja": "家中",
        "name:ja_rm": "Ienaka",
        "name:ko": "이에나카",
        "note": "National-Land Numerical Information (Railway) 2007, MLIT Japan",
        "public_transport": "station",
        "railway": "station",
        "source": "KSJ2",
        "source_ref": "http://nlftp.mlit.go.jp/ksj/jpgis/datalist/KsjTmplt-N02-v1_1.html",
        "wikidata": "Q5990042",
        "wikipedia": "ja:家中駅"
      }
    },
    {
      "id": "tochigi_station_8022247377",
      "osmId": 8022247377,
      "osmType": "node",
      "prefectureId": "tochigi",
      "type": "station",
      "subtype": "private",
      "name": "静和",
      "nameKana": null,
      "nameEn": "Shizuwa",
      "operator": "東武鉄道(株)",
      "network": null,
      "ref": null,
      "latitude": 36.3166326,
      "longitude": 139.6849914,
      "countryCode": "jp",
      "rawTags": {
        "internet_access": "no",
        "name": "静和",
        "name:en": "Shizuwa",
        "name:ja": "静和",
        "name:ja_rm": "Shizuwa",
        "name:ko": "시즈와",
        "note": "National-Land Numerical Information (Railway) 2007, MLIT Japan",
        "operator": "東武鉄道(株)",
        "public_transport": "station",
        "railway": "station",
        "source": "KSJ2",
        "source_ref": "http://nlftp.mlit.go.jp/ksj/jpgis/datalist/KsjTmplt-N02-v1_1.html",
        "wikidata": "Q7499516",
        "wikipedia": "ja:静和駅"
      }
    },
    {
      "id": "tochigi_station_8053974913",
      "osmId": 8053974913,
      "osmType": "node",
      "prefectureId": "tochigi",
      "type": "station",
      "subtype": "private",
      "name": "東武ワールドスクウェア",
      "nameKana": null,
      "nameEn": "Tobu World Square",
      "operator": "東武鉄道",
      "network": "東武鉄道",
      "ref": "TN55",
      "latitude": 36.8086594,
      "longitude": 139.7093088,
      "countryCode": "jp",
      "rawTags": {
        "name": "東武ワールドスクウェア",
        "name:en": "Tobu World Square",
        "name:ja": "東武ワールドスクウェア",
        "network": "東武鉄道",
        "network:en": "Tobu Railway",
        "network:ja": "東武鉄道",
        "network:wikidata": "Q1321914",
        "operator": "東武鉄道",
        "public_transport": "station",
        "railway": "station",
        "ref": "TN55",
        "train": "yes",
        "wikidata": "Q27923776",
        "wikipedia": "ja:東武ワールドスクウェア駅"
      }
    },
    {
      "id": "tochigi_station_8057359078",
      "osmId": 8057359078,
      "osmType": "node",
      "prefectureId": "tochigi",
      "type": "station",
      "subtype": "private",
      "name": "佐野市",
      "nameKana": null,
      "nameEn": "Sanoshi",
      "operator": null,
      "network": null,
      "ref": null,
      "latitude": 36.30607,
      "longitude": 139.5751145,
      "countryCode": "jp",
      "rawTags": {
        "KSJ2:LIN": "佐野線",
        "KSJ2:RAS": "eb03_8592",
        "KSJ2:STN": "佐野市",
        "KSJ2:segment": "eb02_18332",
        "name": "佐野市",
        "name:en": "Sanoshi",
        "name:ja": "佐野市",
        "name:ja_rm": "Sanoshi",
        "name:ko": "사노시",
        "note": "National-Land Numerical Information (Railway) 2007, MLIT Japan",
        "note:ja": "国土数値情報（鉄道データ）平成19年　国土交通省",
        "public_transport": "station",
        "railway": "station",
        "source": "KSJ2",
        "source_ref": "http://nlftp.mlit.go.jp/ksj/jpgis/datalist/KsjTmplt-N02-v1_1.html",
        "train": "yes",
        "wikidata": "Q7418896",
        "wikipedia": "ja:佐野市駅"
      }
    },
    {
      "id": "tochigi_station_8057414616",
      "osmId": 8057414616,
      "osmType": "node",
      "prefectureId": "tochigi",
      "type": "station",
      "subtype": "private",
      "name": "葛生",
      "nameKana": null,
      "nameEn": "Kuzu",
      "operator": null,
      "network": null,
      "ref": null,
      "latitude": 36.3981905,
      "longitude": 139.6093007,
      "countryCode": "jp",
      "rawTags": {
        "name": "葛生",
        "name:en": "Kuzu",
        "name:ja": "葛生",
        "name:ja_rm": "Kuzū",
        "name:ko": "구즈",
        "note": "National-Land Numerical Information (Railway) 2007, MLIT Japan",
        "public_transport": "station",
        "railway": "station",
        "source": "KSJ2",
        "source_ref": "http://nlftp.mlit.go.jp/ksj/jpgis/datalist/KsjTmplt-N02-v1_1.html",
        "wikidata": "Q845948",
        "wikipedia": "ja:葛生駅"
      }
    },
    {
      "id": "tochigi_station_8062667099",
      "osmId": 8062667099,
      "osmType": "node",
      "prefectureId": "tochigi",
      "type": "station",
      "subtype": "private",
      "name": "多田",
      "nameKana": null,
      "nameEn": "Tada",
      "operator": null,
      "network": null,
      "ref": null,
      "latitude": 36.3782804,
      "longitude": 139.5930737,
      "countryCode": "jp",
      "rawTags": {
        "name": "多田",
        "name:en": "Tada",
        "name:ja": "多田",
        "name:ja_rm": "Tada",
        "name:ko": "다다",
        "note": "National-Land Numerical Information (Railway) 2007, MLIT Japan",
        "public_transport": "station",
        "railway": "station",
        "source": "KSJ2",
        "source_ref": "http://nlftp.mlit.go.jp/ksj/jpgis/datalist/KsjTmplt-N02-v1_1.html",
        "wikidata": "Q7674268",
        "wikipedia": "ja:多田駅 (栃木県)"
      }
    },
    {
      "id": "tochigi_station_8062667101",
      "osmId": 8062667101,
      "osmType": "node",
      "prefectureId": "tochigi",
      "type": "station",
      "subtype": "private",
      "name": "田沼",
      "nameKana": null,
      "nameEn": "Tanuma",
      "operator": null,
      "network": null,
      "ref": null,
      "latitude": 36.3669606,
      "longitude": 139.5817468,
      "countryCode": "jp",
      "rawTags": {
        "name": "田沼",
        "name:en": "Tanuma",
        "name:ja": "田沼",
        "name:ja_rm": "Tanuma",
        "name:ko": "다누마",
        "note": "National-Land Numerical Information (Railway) 2007, MLIT Japan",
        "public_transport": "station",
        "railway": "station",
        "source": "KSJ2",
        "source_ref": "http://nlftp.mlit.go.jp/ksj/jpgis/datalist/KsjTmplt-N02-v1_1.html",
        "wikidata": "Q7683909",
        "wikipedia": "ja:田沼駅"
      }
    },
    {
      "id": "tochigi_station_8062667103",
      "osmId": 8062667103,
      "osmType": "node",
      "prefectureId": "tochigi",
      "type": "station",
      "subtype": "private",
      "name": "吉水",
      "nameKana": null,
      "nameEn": "Yoshimizu",
      "operator": null,
      "network": null,
      "ref": null,
      "latitude": 36.3450254,
      "longitude": 139.5790923,
      "countryCode": "jp",
      "rawTags": {
        "KSJ2:LIN": "佐野線",
        "KSJ2:RAS": "eb03_8594",
        "KSJ2:STN": "吉水",
        "KSJ2:segment": "eb02_18338",
        "name": "吉水",
        "name:en": "Yoshimizu",
        "name:ja": "吉水",
        "name:ja_rm": "Yoshimizu",
        "name:ko": "요시미즈",
        "note": "National-Land Numerical Information (Railway) 2007, MLIT Japan",
        "note:ja": "国土数値情報（鉄道データ）平成19年　国土交通省",
        "public_transport": "station",
        "railway": "station",
        "source": "KSJ2",
        "source_ref": "http://nlftp.mlit.go.jp/ksj/jpgis/datalist/KsjTmplt-N02-v1_1.html",
        "wikidata": "Q8056175",
        "wikipedia": "ja:吉水駅"
      }
    },
    {
      "id": "tochigi_station_8062667107",
      "osmId": 8062667107,
      "osmType": "node",
      "prefectureId": "tochigi",
      "type": "station",
      "subtype": "private",
      "name": "堀米",
      "nameKana": "ほりごめ",
      "nameEn": "Horigome",
      "operator": null,
      "network": null,
      "ref": null,
      "latitude": 36.3283579,
      "longitude": 139.5803507,
      "countryCode": "jp",
      "rawTags": {
        "KSJ2:LIN": "佐野線",
        "KSJ2:RAS": "eb03_8591",
        "KSJ2:STN": "堀米",
        "KSJ2:segment": "eb02_18331",
        "name": "堀米",
        "name:en": "Horigome",
        "name:ja": "堀米",
        "name:ja-Hira": "ほりごめ",
        "name:ja_rm": "Horigome",
        "name:ko": "호리고메",
        "note": "National-Land Numerical Information (Railway) 2007, MLIT Japan",
        "note:ja": "国土数値情報（鉄道データ）平成19年　国土交通省",
        "public_transport": "station",
        "railway": "station",
        "source": "KSJ2",
        "source_ref": "http://nlftp.mlit.go.jp/ksj/jpgis/datalist/KsjTmplt-N02-v1_1.html",
        "wikidata": "Q5903233",
        "wikipedia": "ja:堀米駅"
      }
    },
    {
      "id": "tochigi_station_8062880433",
      "osmId": 8062880433,
      "osmType": "node",
      "prefectureId": "tochigi",
      "type": "station",
      "subtype": "private",
      "name": "北鹿沼",
      "nameKana": null,
      "nameEn": "Kita-Kanuma",
      "operator": null,
      "network": null,
      "ref": null,
      "latitude": 36.5806929,
      "longitude": 139.7378941,
      "countryCode": "jp",
      "rawTags": {
        "name": "北鹿沼",
        "name:en": "Kita-Kanuma",
        "name:ja": "北鹿沼",
        "name:ja_rm": "Kita-Kanuma",
        "name:ko": "기타카누마",
        "note": "National-Land Numerical Information (Railway) 2007, MLIT Japan",
        "public_transport": "station",
        "railway": "station",
        "source": "KSJ2",
        "source_ref": "http://nlftp.mlit.go.jp/ksj/jpgis/datalist/KsjTmplt-N02-v1_1.html",
        "wikidata": "Q6417558",
        "wikipedia": "ja:北鹿沼駅"
      }
    },
    {
      "id": "tochigi_station_8063060775",
      "osmId": 8063060775,
      "osmType": "node",
      "prefectureId": "tochigi",
      "type": "station",
      "subtype": "private",
      "name": "東武金崎",
      "nameKana": null,
      "nameEn": "Tōbu Kanasaki",
      "operator": null,
      "network": null,
      "ref": null,
      "latitude": 36.4661485,
      "longitude": 139.7494138,
      "countryCode": "jp",
      "rawTags": {
        "name": "東武金崎",
        "name:en": "Tōbu Kanasaki",
        "name:ja": "東武金崎",
        "name:ja_rm": "Tōbu-Kanasaki",
        "name:ko": "도부가나사키",
        "note": "National-Land Numerical Information (Railway) 2007, MLIT Japan",
        "public_transport": "station",
        "railway": "station",
        "source": "KSJ2",
        "source_ref": "http://nlftp.mlit.go.jp/ksj/jpgis/datalist/KsjTmplt-N02-v1_1.html",
        "wikidata": "Q7862636",
        "wikipedia": "ja:東武金崎駅"
      }
    },
    {
      "id": "tochigi_station_8067285757",
      "osmId": 8067285757,
      "osmType": "node",
      "prefectureId": "tochigi",
      "type": "station",
      "subtype": "private",
      "name": "新大平下",
      "nameKana": null,
      "nameEn": "Shin-Ohirashita",
      "operator": null,
      "network": null,
      "ref": null,
      "latitude": 36.3384188,
      "longitude": 139.7015718,
      "countryCode": "jp",
      "rawTags": {
        "name": "新大平下",
        "name:en": "Shin-Ohirashita",
        "name:ja": "新大平下",
        "name:ja_rm": "Shin-Ōhirashita",
        "name:ko": "신오히라시타",
        "note": "National-Land Numerical Information (Railway) 2007, MLIT Japan",
        "public_transport": "station",
        "railway": "station",
        "source": "KSJ2",
        "source_ref": "http://nlftp.mlit.go.jp/ksj/jpgis/datalist/KsjTmplt-N02-v1_1.html",
        "wikidata": "Q7497153",
        "wikipedia": "ja:新大平下駅"
      }
    },
    {
      "id": "tochigi_station_8076485974",
      "osmId": 8076485974,
      "osmType": "node",
      "prefectureId": "tochigi",
      "type": "station",
      "subtype": "private",
      "name": "大桑",
      "nameKana": null,
      "nameEn": "Okuwa",
      "operator": null,
      "network": null,
      "ref": null,
      "latitude": 36.7604507,
      "longitude": 139.71335,
      "countryCode": "jp",
      "rawTags": {
        "name": "大桑",
        "name:en": "Okuwa",
        "name:ja": "大桑",
        "name:ja_rm": "Ōkuwa",
        "name:ko": "오쿠와",
        "note": "National-Land Numerical Information (Railway) 2007, MLIT Japan",
        "note:ja": "国土数値情報（鉄道データ）平成19年　国土交通省",
        "public_transport": "station",
        "railway": "station",
        "source": "KSJ2",
        "source_ref": "http://nlftp.mlit.go.jp/ksj/jpgis/datalist/KsjTmplt-N02-v1_1.html",
        "wikidata": "Q8081590",
        "wikipedia": "ja:大桑駅 (栃木県)"
      }
    },
    {
      "id": "tochigi_station_8147921977",
      "osmId": 8147921977,
      "osmType": "node",
      "prefectureId": "tochigi",
      "type": "station",
      "subtype": "private",
      "name": "おもちゃのまち",
      "nameKana": null,
      "nameEn": "Omocha-no-Machi",
      "operator": null,
      "network": null,
      "ref": "TN35",
      "latitude": 36.4662182,
      "longitude": 139.8293442,
      "countryCode": "jp",
      "rawTags": {
        "name": "おもちゃのまち",
        "name:en": "Omocha-no-Machi",
        "name:ja": "おもちゃのまち",
        "name:ja_rm": "Omocha-no-Machi",
        "name:ko": "오모차노마치",
        "note": "National-Land Numerical Information (Railway) 2007, MLIT Japan",
        "public_transport": "station",
        "railway": "station",
        "ref": "TN35",
        "source": "KSJ2",
        "source_ref": "http://nlftp.mlit.go.jp/ksj/jpgis/datalist/KsjTmplt-N02-v1_1.html",
        "wikidata": "Q7090437",
        "wikipedia": "ja:おもちゃのまち駅"
      }
    },
    {
      "id": "tochigi_station_8147921979",
      "osmId": 8147921979,
      "osmType": "node",
      "prefectureId": "tochigi",
      "type": "station",
      "subtype": "private",
      "name": "安塚",
      "nameKana": null,
      "nameEn": "Yasuzuka",
      "operator": null,
      "network": null,
      "ref": "TN36",
      "latitude": 36.4853953,
      "longitude": 139.835528,
      "countryCode": "jp",
      "rawTags": {
        "name": "安塚",
        "name:en": "Yasuzuka",
        "name:ja": "安塚",
        "name:ja_rm": "Yasuzuka",
        "name:ko": "야스즈카",
        "note": "National-Land Numerical Information (Railway) 2007, MLIT Japan",
        "public_transport": "station",
        "railway": "station",
        "ref": "TN36",
        "source": "KSJ2",
        "source_ref": "http://nlftp.mlit.go.jp/ksj/jpgis/datalist/KsjTmplt-N02-v1_1.html",
        "wikidata": "Q8050142",
        "wikipedia": "ja:安塚駅"
      }
    },
    {
      "id": "tochigi_station_8147921981",
      "osmId": 8147921981,
      "osmType": "node",
      "prefectureId": "tochigi",
      "type": "station",
      "subtype": "private",
      "name": "西川田",
      "nameKana": null,
      "nameEn": "Nishi-Kawada",
      "operator": null,
      "network": null,
      "ref": "TN37",
      "latitude": 36.5146817,
      "longitude": 139.8504746,
      "countryCode": "jp",
      "rawTags": {
        "name": "西川田",
        "name:en": "Nishi-Kawada",
        "name:ja": "西川田",
        "name:ja_rm": "Nishi-Kawada",
        "name:ko": "니시카와다",
        "note": "National-Land Numerical Information (Railway) 2007, MLIT Japan",
        "public_transport": "station",
        "railway": "station",
        "ref": "TN37",
        "source": "KSJ2",
        "source_ref": "http://nlftp.mlit.go.jp/ksj/jpgis/datalist/KsjTmplt-N02-v1_1.html",
        "wikidata": "Q11628148",
        "wikipedia": "ja:西川田駅"
      }
    },
    {
      "id": "tochigi_station_8147921982",
      "osmId": 8147921982,
      "osmType": "node",
      "prefectureId": "tochigi",
      "type": "station",
      "subtype": "private",
      "name": "野州大塚",
      "nameKana": null,
      "nameEn": "Yashu-Otsuka",
      "operator": null,
      "network": null,
      "ref": "TN32",
      "latitude": 36.4089576,
      "longitude": 139.7730325,
      "countryCode": "jp",
      "rawTags": {
        "name": "野州大塚",
        "name:en": "Yashu-Otsuka",
        "name:ja": "野州大塚",
        "name:ja_rm": "Yashū-Ōtsuka",
        "name:ko": "야슈오쓰카",
        "note": "National-Land Numerical Information (Railway) 2007, MLIT Japan",
        "public_transport": "station",
        "railway": "station",
        "ref": "TN32",
        "source": "KSJ2",
        "source_ref": "http://nlftp.mlit.go.jp/ksj/jpgis/datalist/KsjTmplt-N02-v1_1.html",
        "wikidata": "Q8049778",
        "wikipedia": "ja:野州大塚駅"
      }
    },
    {
      "id": "tochigi_station_8147921987",
      "osmId": 8147921987,
      "osmType": "node",
      "prefectureId": "tochigi",
      "type": "station",
      "subtype": "private",
      "name": "江曽島",
      "nameKana": null,
      "nameEn": "Esojima",
      "operator": null,
      "network": null,
      "ref": "TN38",
      "latitude": 36.5313091,
      "longitude": 139.8610143,
      "countryCode": "jp",
      "rawTags": {
        "name": "江曽島",
        "name:en": "Esojima",
        "name:ja": "江曽島",
        "name:ja_rm": "Esojima",
        "name:ko": "에소지마",
        "note": "National-Land Numerical Information (Railway) 2007, MLIT Japan",
        "public_transport": "station",
        "railway": "station",
        "ref": "TN38",
        "source": "KSJ2",
        "source_ref": "http://nlftp.mlit.go.jp/ksj/jpgis/datalist/KsjTmplt-N02-v1_1.html",
        "wikidata": "Q5398613",
        "wikipedia": "ja:江曽島駅"
      }
    },
    {
      "id": "tochigi_station_8147921988",
      "osmId": 8147921988,
      "osmType": "node",
      "prefectureId": "tochigi",
      "type": "station",
      "subtype": "private",
      "name": "南宇都宮",
      "nameKana": null,
      "nameEn": "Minami-Utsunomiya",
      "operator": null,
      "network": null,
      "ref": "TN39",
      "latitude": 36.5436177,
      "longitude": 139.8717284,
      "countryCode": "jp",
      "rawTags": {
        "name": "南宇都宮",
        "name:en": "Minami-Utsunomiya",
        "name:ja": "南宇都宮",
        "name:ja_rm": "Minami-Utsunomiya",
        "name:ko": "미나미우쓰노미야",
        "note": "National-Land Numerical Information (Railway) 2007, MLIT Japan",
        "public_transport": "station",
        "railway": "station",
        "ref": "TN39",
        "source": "KSJ2",
        "source_ref": "http://nlftp.mlit.go.jp/ksj/jpgis/datalist/KsjTmplt-N02-v1_1.html",
        "wikidata": "Q6862982",
        "wikipedia": "ja:南宇都宮駅"
      }
    },
    {
      "id": "tochigi_station_8147921993",
      "osmId": 8147921993,
      "osmType": "node",
      "prefectureId": "tochigi",
      "type": "station",
      "subtype": "private",
      "name": "野州平川",
      "nameKana": null,
      "nameEn": "Yashu-Hirakawa",
      "operator": null,
      "network": null,
      "ref": "TN31",
      "latitude": 36.4016815,
      "longitude": 139.7540881,
      "countryCode": "jp",
      "rawTags": {
        "name": "野州平川",
        "name:en": "Yashu-Hirakawa",
        "name:ja": "野州平川",
        "name:ja_rm": "Yashū-Hirakawa",
        "name:ko": "야슈히라카와",
        "note": "National-Land Numerical Information (Railway) 2007, MLIT Japan",
        "public_transport": "station",
        "railway": "station",
        "ref": "TN31",
        "source": "KSJ2",
        "source_ref": "http://nlftp.mlit.go.jp/ksj/jpgis/datalist/KsjTmplt-N02-v1_1.html",
        "wikidata": "Q8049775",
        "wikipedia": "ja:野州平川駅"
      }
    },
    {
      "id": "tochigi_station_8832005298",
      "osmId": 8832005298,
      "osmType": "node",
      "prefectureId": "tochigi",
      "type": "station",
      "subtype": "private",
      "name": "思川",
      "nameKana": null,
      "nameEn": "Omoigawa",
      "operator": null,
      "network": null,
      "ref": null,
      "latitude": 36.3507283,
      "longitude": 139.7816502,
      "countryCode": "jp",
      "rawTags": {
        "name": "思川",
        "name:en": "Omoigawa",
        "name:ja": "思川",
        "name:ja_rm": "Omoigawa",
        "name:ko": "오모이가와",
        "note": "National-Land Numerical Information (Railway) 2007, MLIT Japan",
        "public_transport": "station",
        "railway": "station",
        "source": "KSJ2",
        "source_ref": "http://nlftp.mlit.go.jp/ksj/jpgis/datalist/KsjTmplt-N02-v1_1.html",
        "wikidata": "Q7090612",
        "wikipedia": "ja:思川駅"
      }
    },
    {
      "id": "tochigi_station_11166511809",
      "osmId": 11166511809,
      "osmType": "node",
      "prefectureId": "tochigi",
      "type": "station",
      "subtype": "private",
      "name": "下野大沢",
      "nameKana": null,
      "nameEn": "Shimotsuke-Osawa",
      "operator": null,
      "network": null,
      "ref": null,
      "latitude": 36.686353,
      "longitude": 139.7324588,
      "countryCode": "jp",
      "rawTags": {
        "KSJ2:LIN": "日光線",
        "KSJ2:STN": "下野大沢",
        "name": "下野大沢",
        "name:en": "Shimotsuke-Osawa",
        "name:it": "Shimotsuke-Osawa",
        "name:ja": "下野大沢",
        "name:ja-Latn": "Shimotsuke-Ōsawa",
        "name:ko": "시모쓰케오사와",
        "note": "National-Land Numerical Information (Railway) 2007, MLIT Japan",
        "note:ja": "国土数値情報（鉄道データ）平成19年　国土交通省",
        "public_transport": "station",
        "railway": "station",
        "source": "KSJ2",
        "source_ref": "http://nlftp.mlit.go.jp/ksj/jpgis/datalist/KsjTmplt-N02-v1_1.html",
        "wikidata": "Q7497018",
        "wikipedia": "ja:下野大沢駅"
      }
    },
    {
      "id": "tochigi_station_11196857410",
      "osmId": 11196857410,
      "osmType": "node",
      "prefectureId": "tochigi",
      "type": "station",
      "subtype": "private",
      "name": "間藤",
      "nameKana": null,
      "nameEn": "Mato",
      "operator": null,
      "network": null,
      "ref": null,
      "latitude": 36.6531194,
      "longitude": 139.4498771,
      "countryCode": "jp",
      "rawTags": {
        "KSJ2:LIN": "わたらせ渓谷線",
        "KSJ2:STN": "間藤",
        "name": "間藤",
        "name:en": "Mato",
        "name:ja": "間藤",
        "name:ja_rm": "Mato",
        "name:ko": "마토",
        "note": "National-Land Numerical Information (Railway) 2007, MLIT Japan",
        "note:ja": "国土数値情報（鉄道データ）平成19年　国土交通省",
        "public_transport": "station",
        "railway": "station",
        "source": "KSJ2",
        "source_ref": "http://nlftp.mlit.go.jp/ksj/jpgis/datalist/KsjTmplt-N02-v1_1.html",
        "wikidata": "Q6792161",
        "wikipedia": "ja:間藤駅"
      }
    },
    {
      "id": "tochigi_station_11225116577",
      "osmId": 11225116577,
      "osmType": "node",
      "prefectureId": "tochigi",
      "type": "station",
      "subtype": "private",
      "name": "足尾",
      "nameKana": null,
      "nameEn": "Ashio",
      "operator": null,
      "network": null,
      "ref": null,
      "latitude": 36.6417269,
      "longitude": 139.4479775,
      "countryCode": "jp",
      "rawTags": {
        "KSJ2:LIN": "わたらせ渓谷線",
        "KSJ2:STN": "足尾",
        "name": "足尾",
        "name:en": "Ashio",
        "name:ja": "足尾",
        "name:ja_rm": "Ashio",
        "name:ko": "아시오",
        "note": "National-Land Numerical Information (Railway) 2007, MLIT Japan",
        "note:ja": "国土数値情報（鉄道データ）平成19年　国土交通省",
        "public_transport": "station",
        "railway": "station",
        "source": "KSJ2",
        "source_ref": "http://nlftp.mlit.go.jp/ksj/jpgis/datalist/KsjTmplt-N02-v1_1.html",
        "wikidata": "Q4805122",
        "wikipedia": "ja:足尾駅"
      }
    },
    {
      "id": "tochigi_station_11240185368",
      "osmId": 11240185368,
      "osmType": "node",
      "prefectureId": "tochigi",
      "type": "station",
      "subtype": "private",
      "name": "上三依塩原温泉口",
      "nameKana": null,
      "nameEn": "Kamimiyori-Shiobara-Onsenguchi",
      "operator": null,
      "network": null,
      "ref": null,
      "latitude": 37.013896,
      "longitude": 139.7275289,
      "countryCode": "jp",
      "rawTags": {
        "name": "上三依塩原温泉口",
        "name:en": "Kamimiyori-Shiobara-Onsenguchi",
        "name:ja": "上三依塩原温泉口",
        "name:ja_rm": "Kamimiyori-Shiobara-Onsenguchi",
        "name:ko": "가미미요리시오바라온센구치",
        "note": "National-Land Numerical Information (Railway) 2007, MLIT Japan",
        "note:ja": "国土数値情報（鉄道データ）平成19年　国土交通省",
        "public_transport": "station",
        "railway": "station",
        "source": "KSJ2",
        "source_ref": "http://nlftp.mlit.go.jp/ksj/jpgis/datalist/KsjTmplt-N02-v1_1.html",
        "wikidata": "Q6358122",
        "wikipedia": "ja:上三依塩原温泉口駅"
      }
    },
    {
      "id": "tochigi_station_11451819162",
      "osmId": 11451819162,
      "osmType": "node",
      "prefectureId": "tochigi",
      "type": "station",
      "subtype": "jr",
      "name": "雀宮",
      "nameKana": "すずめのみや",
      "nameEn": "Suzumenomiya",
      "operator": "東日本旅客鉄道",
      "network": null,
      "ref": null,
      "latitude": 36.4939255,
      "longitude": 139.8770003,
      "countryCode": "jp",
      "rawTags": {
        "name": "雀宮",
        "name:en": "Suzumenomiya",
        "name:ja": "雀宮",
        "name:ja-Hira": "すずめのみや",
        "name:ja-Latn": "Suzumenomiya",
        "operator": "東日本旅客鉄道",
        "public_transport": "station",
        "railway": "station",
        "toilets:wheelchair": "yes",
        "wheelchair": "yes",
        "wikidata": "Q872950",
        "wikipedia": "ja:雀宮駅"
      }
    },
    {
      "id": "tochigi_ferry_terminal_12015511467",
      "osmId": 12015511467,
      "osmType": "node",
      "prefectureId": "tochigi",
      "type": "ferry_terminal",
      "subtype": null,
      "name": "大使館別荘記念公園",
      "nameKana": null,
      "nameEn": "Embassy Villa Memorial Park Pier",
      "operator": null,
      "network": null,
      "ref": null,
      "latitude": 36.7239544,
      "longitude": 139.4839576,
      "countryCode": "jp",
      "rawTags": {
        "amenity": "ferry_terminal",
        "name": "大使館別荘記念公園",
        "name:en": "Embassy Villa Memorial Park Pier"
      }
    },
    {
      "id": "tochigi_airport_100584058",
      "osmId": 100584058,
      "osmType": "way",
      "prefectureId": "tochigi",
      "type": "airport",
      "subtype": "military",
      "name": "陸上自衛隊北宇都宮駐屯地;陸上自衛隊宇都宮飛行場",
      "nameKana": null,
      "nameEn": "Utsunomiya Airfield",
      "operator": "JGSDF",
      "network": null,
      "ref": "RJTU",
      "latitude": 36.5146111,
      "longitude": 139.872205,
      "countryCode": "jp",
      "rawTags": {
        "aeroway": "aerodrome",
        "description": "航空学校宇都宮校、第12ヘリコプター隊",
        "icao": "RJTU",
        "landuse": "military",
        "military": "airfield",
        "name": "陸上自衛隊北宇都宮駐屯地;陸上自衛隊宇都宮飛行場",
        "name:en": "Utsunomiya Airfield",
        "name:ja": "陸上自衛隊北宇都宮駐屯地;宇都宮飛行場",
        "name:ru": "Уцуномия",
        "operator": "JGSDF",
        "wikidata": "Q7903279",
        "wikipedia": "ja:北宇都宮駐屯地"
      }
    },
    {
      "id": "tochigi_bus_terminal_195072228",
      "osmId": 195072228,
      "osmType": "way",
      "prefectureId": "tochigi",
      "type": "bus_terminal",
      "subtype": null,
      "name": "中禅寺温泉",
      "nameKana": "ちゅうぜんじおんせん",
      "nameEn": "Chuzenji Onsen",
      "operator": null,
      "network": null,
      "ref": null,
      "latitude": 36.7388833,
      "longitude": 139.4994595,
      "countryCode": "jp",
      "rawTags": {
        "amenity": "bus_station",
        "name": "中禅寺温泉",
        "name:en": "Chuzenji Onsen",
        "name:ja_kana": "ちゅうぜんじおんせん",
        "name:ja_rm": "Chūzenji onsen"
      }
    },
    {
      "id": "tochigi_bus_terminal_365458524",
      "osmId": 365458524,
      "osmType": "way",
      "prefectureId": "tochigi",
      "type": "bus_terminal",
      "subtype": null,
      "name": "関東自動車駒生営業所",
      "nameKana": null,
      "nameEn": null,
      "operator": null,
      "network": null,
      "ref": null,
      "latitude": 36.5845565,
      "longitude": 139.8418563,
      "countryCode": "jp",
      "rawTags": {
        "amenity": "bus_station",
        "building": "yes",
        "bus": "yes",
        "name": "関東自動車駒生営業所",
        "public_transport": "station"
      }
    },
    {
      "id": "tochigi_bus_terminal_365788476",
      "osmId": 365788476,
      "osmType": "way",
      "prefectureId": "tochigi",
      "type": "bus_terminal",
      "subtype": null,
      "name": "関東自動車",
      "nameKana": null,
      "nameEn": null,
      "operator": null,
      "network": null,
      "ref": null,
      "latitude": 36.5799042,
      "longitude": 139.9316213,
      "countryCode": "jp",
      "rawTags": {
        "amenity": "bus_station",
        "building": "yes",
        "bus": "yes",
        "name": "関東自動車",
        "public_transport": "station"
      }
    },
    {
      "id": "tochigi_bus_terminal_380033527",
      "osmId": 380033527,
      "osmType": "way",
      "prefectureId": "tochigi",
      "type": "bus_terminal",
      "subtype": null,
      "name": "JRバス関東 塩原温泉駅",
      "nameKana": null,
      "nameEn": null,
      "operator": null,
      "network": null,
      "ref": null,
      "latitude": 36.9724311,
      "longitude": 139.8189498,
      "countryCode": "jp",
      "rawTags": {
        "amenity": "bus_station",
        "building": "yes",
        "name": "JRバス関東 塩原温泉駅"
      }
    },
    {
      "id": "tochigi_bus_terminal_428686787",
      "osmId": 428686787,
      "osmType": "way",
      "prefectureId": "tochigi",
      "type": "bus_terminal",
      "subtype": null,
      "name": "鬼怒川温泉駅",
      "nameKana": null,
      "nameEn": null,
      "operator": null,
      "network": null,
      "ref": null,
      "latitude": 36.8237082,
      "longitude": 139.7168889,
      "countryCode": "jp",
      "rawTags": {
        "amenity": "bus_station",
        "name": "鬼怒川温泉駅"
      }
    },
    {
      "id": "tochigi_bus_terminal_450034040",
      "osmId": 450034040,
      "osmType": "way",
      "prefectureId": "tochigi",
      "type": "bus_terminal",
      "subtype": null,
      "name": "佐野新都市バスターミナル",
      "nameKana": null,
      "nameEn": null,
      "operator": null,
      "network": null,
      "ref": null,
      "latitude": 36.2948645,
      "longitude": 139.6015911,
      "countryCode": "jp",
      "rawTags": {
        "amenity": "bus_station",
        "name": "佐野新都市バスターミナル"
      }
    },
    {
      "id": "tochigi_bus_terminal_450217632",
      "osmId": 450217632,
      "osmType": "way",
      "prefectureId": "tochigi",
      "type": "bus_terminal",
      "subtype": null,
      "name": "Kanto Transportation Inc., Utsunomiya Station - Commuter Pass Center",
      "nameKana": null,
      "nameEn": null,
      "operator": null,
      "network": null,
      "ref": null,
      "latitude": 36.5582288,
      "longitude": 139.8968309,
      "countryCode": "jp",
      "rawTags": {
        "amenity": "bus_station",
        "building": "yes",
        "bus": "yes",
        "name": "Kanto Transportation Inc., Utsunomiya Station - Commuter Pass Center",
        "public_transport": "station",
        "website": "https://www.kantobus.co.jp/route/center.html"
      }
    },
    {
      "id": "tochigi_airport_1136938529",
      "osmId": 1136938529,
      "osmType": "way",
      "prefectureId": "tochigi",
      "type": "airport",
      "subtype": "heliport",
      "name": "栃木ヘリポート",
      "nameKana": null,
      "nameEn": null,
      "operator": "栃木県",
      "network": null,
      "ref": null,
      "latitude": 36.5600352,
      "longitude": 140.0067016,
      "countryCode": "jp",
      "rawTags": {
        "aeroway": "aerodrome",
        "name": "栃木ヘリポート",
        "operator": "栃木県",
        "start_date": "1990-06-01",
        "wikidata": "Q11535125",
        "wikipedia": "ja:栃木ヘリポート"
      }
    },
    {
      "id": "tochigi_bus_terminal_1422426658",
      "osmId": 1422426658,
      "osmType": "way",
      "prefectureId": "tochigi",
      "type": "bus_terminal",
      "subtype": null,
      "name": "湯元温泉",
      "nameKana": null,
      "nameEn": "Nikko Yumoto-onsen",
      "operator": "東武バス日光",
      "network": null,
      "ref": "46",
      "latitude": 36.8068119,
      "longitude": 139.4230555,
      "countryCode": "jp",
      "rawTags": {
        "amenity": "bus_station",
        "building": "yes",
        "bus": "yes",
        "name": "湯元温泉",
        "name:en": "Nikko Yumoto-onsen",
        "name:ja": "湯元温泉",
        "operator": "東武バス日光",
        "public_transport": "station",
        "ref": "46",
        "wikidata": "Q11504887",
        "wikipedia": "ja:日光湯元温泉"
      }
    }
  ]
}