{
  "fetchedAt": "2025-12-12T05:34:20.388Z",
  "prefectureId": "tokushima",
  "prefectureName": "徳島県",
  "stats": {
    "station": 72,
    "airport": 1,
    "ferry_terminal": 9,
    "bus_terminal": 10,
    "total": 92
  },
  "data": [
    {
      "id": "tokushima_station_265016752",
      "osmId": 265016752,
      "osmType": "node",
      "prefectureId": "tokushima",
      "type": "station",
      "subtype": "jr",
      "name": "西原",
      "nameKana": null,
      "nameEn": "Nishibara",
      "operator": "四国旅客鉄道",
      "network": null,
      "ref": null,
      "latitude": 33.9483192,
      "longitude": 134.644836,
      "countryCode": "jp",
      "rawTags": {
        "KSJ2:LIN": "牟岐線",
        "KSJ2:STN": "西原",
        "name": "西原",
        "name:en": "Nishibara",
        "name:ja": "西原",
        "name:ko": "니시바라",
        "note": "National-Land Numerical Information (Railway) 2007, MLIT Japan",
        "note:ja": "国土数値情報（鉄道データ）平成19年　国土交通省",
        "operator": "四国旅客鉄道",
        "operator:ja": "四国旅客鉄道",
        "public_transport": "station",
        "railway": "station",
        "source": "KSJ2",
        "source_ref": "http://nlftp.mlit.go.jp/ksj/jpgis/datalist/KsjTmplt-N02-v1_1.html",
        "wikidata": "Q8190635",
        "wikipedia": "ja:西原駅 (徳島県)"
      }
    },
    {
      "id": "tokushima_station_265016753",
      "osmId": 265016753,
      "osmType": "node",
      "prefectureId": "tokushima",
      "type": "station",
      "subtype": "jr",
      "name": "阿波中島",
      "nameKana": null,
      "nameEn": "Awa-Nakashima",
      "operator": "四国旅客鉄道",
      "network": null,
      "ref": null,
      "latitude": 33.9411958,
      "longitude": 134.6649863,
      "countryCode": "jp",
      "rawTags": {
        "KSJ2:LIN": "牟岐線",
        "KSJ2:STN": "阿波中島",
        "name": "阿波中島",
        "name:en": "Awa-Nakashima",
        "name:ja": "阿波中島",
        "name:ko": "아와나카시마",
        "note": "National-Land Numerical Information (Railway) 2007, MLIT Japan",
        "note:ja": "国土数値情報（鉄道データ）平成19年　国土交通省",
        "operator": "四国旅客鉄道",
        "operator:ja": "四国旅客鉄道",
        "public_transport": "station",
        "railway": "station",
        "source": "KSJ2",
        "source_ref": "http://nlftp.mlit.go.jp/ksj/jpgis/datalist/KsjTmplt-N02-v1_1.html",
        "wikidata": "Q4829620",
        "wikipedia": "ja:阿波中島駅"
      }
    },
    {
      "id": "tokushima_station_265016774",
      "osmId": 265016774,
      "osmType": "node",
      "prefectureId": "tokushima",
      "type": "station",
      "subtype": "jr",
      "name": "立江",
      "nameKana": null,
      "nameEn": "Tatsue",
      "operator": "四国旅客鉄道",
      "network": null,
      "ref": null,
      "latitude": 33.9701856,
      "longitude": 134.6087294,
      "countryCode": "jp",
      "rawTags": {
        "KSJ2:LIN": "牟岐線",
        "KSJ2:STN": "立江",
        "name": "立江",
        "name:en": "Tatsue",
        "name:ja": "立江",
        "name:ko": "다쓰에",
        "note": "National-Land Numerical Information (Railway) 2007, MLIT Japan",
        "note:ja": "国土数値情報（鉄道データ）平成19年　国土交通省",
        "operator": "四国旅客鉄道",
        "operator:ja": "四国旅客鉄道",
        "public_transport": "station",
        "railway": "station",
        "source": "KSJ2",
        "source_ref": "http://nlftp.mlit.go.jp/ksj/jpgis/datalist/KsjTmplt-N02-v1_1.html",
        "wikidata": "Q7688271",
        "wikipedia": "ja:立江駅"
      }
    },
    {
      "id": "tokushima_station_265016779",
      "osmId": 265016779,
      "osmType": "node",
      "prefectureId": "tokushima",
      "type": "station",
      "subtype": "jr",
      "name": "阿波福井",
      "nameKana": "あわふくい",
      "nameEn": "Awa-Fukui",
      "operator": "四国旅客鉄道",
      "network": null,
      "ref": null,
      "latitude": 33.8240623,
      "longitude": 134.6053659,
      "countryCode": "jp",
      "rawTags": {
        "KSJ2:LIN": "牟岐線",
        "KSJ2:STN": "阿波福井",
        "name": "阿波福井",
        "name:en": "Awa-Fukui",
        "name:ja": "阿波福井",
        "name:ja-Hira": "あわふくい",
        "name:ko": "아와후쿠이",
        "note": "National-Land Numerical Information (Railway) 2007, MLIT Japan",
        "note:ja": "国土数値情報（鉄道データ）平成19年　国土交通省",
        "operator": "四国旅客鉄道",
        "operator:ja": "四国旅客鉄道",
        "public_transport": "station",
        "railway": "station",
        "source": "KSJ2",
        "source_ref": "http://nlftp.mlit.go.jp/ksj/jpgis/datalist/KsjTmplt-N02-v1_1.html",
        "wikidata": "Q4829613",
        "wikipedia": "ja:阿波福井駅"
      }
    },
    {
      "id": "tokushima_station_265016821",
      "osmId": 265016821,
      "osmType": "node",
      "prefectureId": "tokushima",
      "type": "station",
      "subtype": "jr",
      "name": "阿波赤石",
      "nameKana": null,
      "nameEn": "Awa-Akaishi",
      "operator": "四国旅客鉄道",
      "network": null,
      "ref": null,
      "latitude": 33.982114,
      "longitude": 134.6057394,
      "countryCode": "jp",
      "rawTags": {
        "KSJ2:LIN": "牟岐線",
        "name": "阿波赤石",
        "name:en": "Awa-Akaishi",
        "note": "National-Land Numerical Information (Railway) 2007, MLIT Japan",
        "note:ja": "国土数値情報（鉄道データ）平成19年　国土交通省",
        "operator": "四国旅客鉄道",
        "operator:ja": "四国旅客鉄道",
        "public_transport": "station",
        "railway": "station",
        "source": "KSJ2",
        "source_ref": "http://nlftp.mlit.go.jp/ksj/jpgis/datalist/KsjTmplt-N02-v1_1.html",
        "wikidata": "Q4829610",
        "wikipedia": "ja:阿波赤石駅"
      }
    },
    {
      "id": "tokushima_station_265016884",
      "osmId": 265016884,
      "osmType": "node",
      "prefectureId": "tokushima",
      "type": "station",
      "subtype": "jr",
      "name": "見能林",
      "nameKana": "みのばやし",
      "nameEn": "Minobayashi",
      "operator": "四国旅客鉄道",
      "network": null,
      "ref": null,
      "latitude": 33.9033645,
      "longitude": 134.6672263,
      "countryCode": "jp",
      "rawTags": {
        "KSJ2:LIN": "牟岐線",
        "KSJ2:STN": "見能林",
        "name": "見能林",
        "name:en": "Minobayashi",
        "name:ja": "見能林",
        "name:ja-Hira": "みのばやし",
        "name:ko": "미노바야시",
        "note": "National-Land Numerical Information (Railway) 2007, MLIT Japan",
        "note:ja": "国土数値情報（鉄道データ）平成19年　国土交通省",
        "operator": "四国旅客鉄道",
        "operator:ja": "四国旅客鉄道",
        "public_transport": "station",
        "railway": "station",
        "source": "KSJ2",
        "source_ref": "http://nlftp.mlit.go.jp/ksj/jpgis/datalist/KsjTmplt-N02-v1_1.html",
        "wikidata": "Q6868933",
        "wikipedia": "ja:見能林駅"
      }
    },
    {
      "id": "tokushima_station_265017159",
      "osmId": 265017159,
      "osmType": "node",
      "prefectureId": "tokushima",
      "type": "station",
      "subtype": "jr",
      "name": "田井ノ浜",
      "nameKana": "たいのはま",
      "nameEn": "Tainohama",
      "operator": "四国旅客鉄道",
      "network": null,
      "ref": null,
      "latitude": 33.7727706,
      "longitude": 134.5838377,
      "countryCode": "jp",
      "rawTags": {
        "KSJ2:LIN": "牟岐線",
        "KSJ2:STN": "田井ノ浜",
        "description": "臨時駅（海水浴シーズンのみ営業）",
        "description:en": "Open only during the summer",
        "name": "田井ノ浜",
        "name:en": "Tainohama",
        "name:ja": "田井ノ浜",
        "name:ja-Hira": "たいのはま",
        "name:ko": "다이노하마",
        "note": "National-Land Numerical Information (Railway) 2007, MLIT Japan",
        "note:ja": "国土数値情報（鉄道データ）平成19年　国土交通省",
        "operator": "四国旅客鉄道",
        "operator:ja": "四国旅客鉄道",
        "public_transport": "station",
        "railway": "station",
        "seasonal": "summer",
        "source": "KSJ2",
        "source_ref": "http://nlftp.mlit.go.jp/ksj/jpgis/datalist/KsjTmplt-N02-v1_1.html",
        "wikidata": "Q860801",
        "wikipedia": "ja:田井ノ浜駅"
      }
    },
    {
      "id": "tokushima_station_265017851",
      "osmId": 265017851,
      "osmType": "node",
      "prefectureId": "tokushima",
      "type": "station",
      "subtype": "jr",
      "name": "木岐",
      "nameKana": null,
      "nameEn": "Kiki",
      "operator": "四国旅客鉄道",
      "network": null,
      "ref": null,
      "latitude": 33.7665162,
      "longitude": 134.5694466,
      "countryCode": "jp",
      "rawTags": {
        "KSJ2:LIN": "牟岐線",
        "KSJ2:STN": "木岐",
        "name": "木岐",
        "name:en": "Kiki",
        "name:ja": "木岐",
        "name:ko": "기키",
        "note": "National-Land Numerical Information (Railway) 2007, MLIT Japan",
        "note:ja": "国土数値情報（鉄道データ）平成19年　国土交通省",
        "operator": "四国旅客鉄道",
        "operator:ja": "四国旅客鉄道",
        "public_transport": "station",
        "railway": "station",
        "source": "KSJ2",
        "source_ref": "http://nlftp.mlit.go.jp/ksj/jpgis/datalist/KsjTmplt-N02-v1_1.html",
        "wikidata": "Q6406270",
        "wikipedia": "ja:木岐駅"
      }
    },
    {
      "id": "tokushima_station_265017870",
      "osmId": 265017870,
      "osmType": "node",
      "prefectureId": "tokushima",
      "type": "station",
      "subtype": "jr",
      "name": "地蔵橋",
      "nameKana": "じぞうばし",
      "nameEn": "Jizōbashi",
      "operator": "四国旅客鉄道",
      "network": null,
      "ref": "M04",
      "latitude": 34.0267401,
      "longitude": 134.5470403,
      "countryCode": "jp",
      "rawTags": {
        "KSJ2:LIN": "牟岐線",
        "name": "地蔵橋",
        "name:en": "Jizōbashi",
        "name:ja-Hira": "じぞうばし",
        "note": "National-Land Numerical Information (Railway) 2007, MLIT Japan",
        "note:ja": "国土数値情報（鉄道データ）平成19年　国土交通省",
        "operator": "四国旅客鉄道",
        "operator:ja": "四国旅客鉄道",
        "public_transport": "station",
        "railway": "station",
        "ref": "M04",
        "source": "KSJ2",
        "source_ref": "http://nlftp.mlit.go.jp/ksj/jpgis/datalist/KsjTmplt-N02-v1_1.html",
        "wikidata": "Q6203576",
        "wikipedia": "ja:地蔵橋駅"
      }
    },
    {
      "id": "tokushima_station_265018746",
      "osmId": 265018746,
      "osmType": "node",
      "prefectureId": "tokushima",
      "type": "station",
      "subtype": "jr",
      "name": "文化の森",
      "nameKana": "ぶんかのもり",
      "nameEn": "Bunkanomori",
      "operator": "四国旅客鉄道",
      "network": null,
      "ref": "M03",
      "latitude": 34.0440493,
      "longitude": 134.5431985,
      "countryCode": "jp",
      "rawTags": {
        "KSJ2:LIN": "牟岐線",
        "KSJ2:STN": "文化の森",
        "name": "文化の森",
        "name:en": "Bunkanomori",
        "name:ja": "文化の森",
        "name:ja-Hira": "ぶんかのもり",
        "name:ko": "분카노모리",
        "note": "National-Land Numerical Information (Railway) 2007, MLIT Japan",
        "note:ja": "国土数値情報（鉄道データ）平成19年　国土交通省",
        "operator": "四国旅客鉄道",
        "operator:ja": "四国旅客鉄道",
        "public_transport": "station",
        "railway": "station",
        "ref": "M03",
        "source": "KSJ2",
        "source_ref": "http://nlftp.mlit.go.jp/ksj/jpgis/datalist/KsjTmplt-N02-v1_1.html",
        "wikidata": "Q4997739",
        "wikipedia": "ja:文化の森駅"
      }
    },
    {
      "id": "tokushima_station_265018777",
      "osmId": 265018777,
      "osmType": "node",
      "prefectureId": "tokushima",
      "type": "station",
      "subtype": "jr",
      "name": "二軒屋",
      "nameKana": null,
      "nameEn": "Nikenya",
      "operator": "四国旅客鉄道",
      "network": null,
      "ref": null,
      "latitude": 34.0545653,
      "longitude": 134.5467037,
      "countryCode": "jp",
      "rawTags": {
        "KSJ2:LIN": "牟岐線",
        "KSJ2:STN": "二軒屋",
        "name": "二軒屋",
        "name:en": "Nikenya",
        "name:ja": "二軒屋",
        "name:ko": "니켄야",
        "note": "National-Land Numerical Information (Railway) 2007, MLIT Japan",
        "note:ja": "国土数値情報（鉄道データ）平成19年　国土交通省",
        "operator": "四国旅客鉄道",
        "operator:ja": "四国旅客鉄道",
        "public_transport": "station",
        "railway": "station",
        "source": "KSJ2",
        "source_ref": "http://nlftp.mlit.go.jp/ksj/jpgis/datalist/KsjTmplt-N02-v1_1.html",
        "wikidata": "Q10880415",
        "wikipedia": "ja:二軒屋駅"
      }
    },
    {
      "id": "tokushima_station_265018891",
      "osmId": 265018891,
      "osmType": "node",
      "prefectureId": "tokushima",
      "type": "station",
      "subtype": "private",
      "name": "海部",
      "nameKana": "かいふ",
      "nameEn": "Kaifu",
      "operator": "阿佐海岸鉄道",
      "network": null,
      "ref": null,
      "latitude": 33.5937727,
      "longitude": 134.3520863,
      "countryCode": "jp",
      "rawTags": {
        "disused:ref": "AK28",
        "name": "海部",
        "name:en": "Kaifu",
        "name:ja": "海部",
        "name:ja-Hira": "かいふ",
        "name:ko": "가이후",
        "note": "National-Land Numerical Information (Railway) 2007, MLIT Japan",
        "note:ja": "国土数値情報（鉄道データ）平成19年　国土交通省",
        "operator": "阿佐海岸鉄道",
        "public_transport": "station",
        "railway": "station",
        "source": "KSJ2",
        "source_ref": "http://nlftp.mlit.go.jp/ksj/jpgis/datalist/KsjTmplt-N02-v1_1.html",
        "wikidata": "Q8190333",
        "wikipedia": "ja:海部駅"
      }
    },
    {
      "id": "tokushima_station_300337455",
      "osmId": 300337455,
      "osmType": "node",
      "prefectureId": "tokushima",
      "type": "station",
      "subtype": "jr",
      "name": "中田",
      "nameKana": null,
      "nameEn": "Chūden",
      "operator": "四国旅客鉄道",
      "network": null,
      "ref": null,
      "latitude": 34.0103853,
      "longitude": 134.569601,
      "countryCode": "jp",
      "rawTags": {
        "name": "中田",
        "name:en": "Chūden",
        "name:ja": "中田",
        "name:ko": "주덴",
        "operator": "四国旅客鉄道",
        "operator:ja": "四国旅客鉄道",
        "public_transport": "station",
        "railway": "station",
        "wikidata": "Q5119016",
        "wikipedia": "ja:中田駅 (徳島県)"
      }
    },
    {
      "id": "tokushima_station_369987265",
      "osmId": 369987265,
      "osmType": "node",
      "prefectureId": "tokushima",
      "type": "station",
      "subtype": "jr",
      "name": "北河内",
      "nameKana": "きたがわち",
      "nameEn": "Kitagawachi",
      "operator": "四国旅客鉄道",
      "network": null,
      "ref": null,
      "latitude": 33.7433137,
      "longitude": 134.535385,
      "countryCode": "jp",
      "rawTags": {
        "name": "北河内",
        "name:en": "Kitagawachi",
        "name:ja": "北河内",
        "name:ja-Hira": "きたがわち",
        "name:ko": "기타가와치",
        "operator": "四国旅客鉄道",
        "operator:ja": "四国旅客鉄道",
        "public_transport": "station",
        "railway": "station",
        "wikidata": "Q6417705",
        "wikipedia": "ja:北河内駅 (徳島県)"
      }
    },
    {
      "id": "tokushima_bus_terminal_389352039",
      "osmId": 389352039,
      "osmType": "node",
      "prefectureId": "tokushima",
      "type": "bus_terminal",
      "subtype": null,
      "name": "商業高校前",
      "nameKana": null,
      "nameEn": null,
      "operator": null,
      "network": null,
      "ref": null,
      "latitude": 34.0741166,
      "longitude": 134.5741274,
      "countryCode": "jp",
      "rawTags": {
        "amenity": "bus_station",
        "name": "商業高校前"
      }
    },
    {
      "id": "tokushima_station_822932927",
      "osmId": 822932927,
      "osmType": "node",
      "prefectureId": "tokushima",
      "type": "station",
      "subtype": "private",
      "name": "宍喰",
      "nameKana": "ししくい",
      "nameEn": "Shishikui",
      "operator": null,
      "network": null,
      "ref": null,
      "latitude": 33.566853,
      "longitude": 134.3007168,
      "countryCode": "jp",
      "rawTags": {
        "disused:ref": "AK29",
        "name": "宍喰",
        "name:en": "Shishikui",
        "name:ja": "宍喰",
        "name:ja-Hira": "ししくい",
        "name:ko": "시시쿠이",
        "note": "National-Land Numerical Information (Railway) 2007, MLIT Japan",
        "note:ja": "国土数値情報（鉄道データ）平成19年　国土交通省",
        "public_transport": "station",
        "railway": "station",
        "source": "KSJ2",
        "source_ref": "http://nlftp.mlit.go.jp/ksj/jpgis/datalist/KsjTmplt-N02-v1_1.html",
        "wheelchair": "yes",
        "wikidata": "Q7499082",
        "wikipedia": "ja:宍喰駅"
      }
    },
    {
      "id": "tokushima_bus_terminal_2222486665",
      "osmId": 2222486665,
      "osmType": "node",
      "prefectureId": "tokushima",
      "type": "bus_terminal",
      "subtype": null,
      "name": "徳島バス南部 川口本社",
      "nameKana": null,
      "nameEn": null,
      "operator": null,
      "network": null,
      "ref": null,
      "latitude": 33.8017455,
      "longitude": 134.468657,
      "countryCode": "jp",
      "rawTags": {
        "amenity": "bus_station",
        "bus": "yes",
        "name": "徳島バス南部 川口本社",
        "public_transport": "station"
      }
    },
    {
      "id": "tokushima_bus_terminal_2621733175",
      "osmId": 2621733175,
      "osmType": "node",
      "prefectureId": "tokushima",
      "type": "bus_terminal",
      "subtype": null,
      "name": "阿波池田バスターミナル",
      "nameKana": null,
      "nameEn": null,
      "operator": null,
      "network": null,
      "ref": null,
      "latitude": 34.0272283,
      "longitude": 133.8074623,
      "countryCode": "jp",
      "rawTags": {
        "amenity": "bus_station",
        "name": "阿波池田バスターミナル",
        "source": "bing",
        "wikidata": "Q11657555",
        "wikipedia": "ja:阿波池田バスターミナル"
      }
    },
    {
      "id": "tokushima_ferry_terminal_2993380255",
      "osmId": 2993380255,
      "osmType": "node",
      "prefectureId": "tokushima",
      "type": "ferry_terminal",
      "subtype": null,
      "name": "ひょうたん島周遊船のりば",
      "nameKana": null,
      "nameEn": null,
      "operator": null,
      "network": null,
      "ref": null,
      "latitude": 34.0692339,
      "longitude": 134.5507845,
      "countryCode": "jp",
      "rawTags": {
        "amenity": "ferry_terminal",
        "name": "ひょうたん島周遊船のりば",
        "opening_hours": "Mo-Su 11:00-15:40",
        "website": "http://www.city.tokushima.tokushima.jp/kankou/kankoushisetsu/hyoutanjima.html",
        "wheelchair": "yes"
      }
    },
    {
      "id": "tokushima_bus_terminal_3159480663",
      "osmId": 3159480663,
      "osmType": "node",
      "prefectureId": "tokushima",
      "type": "bus_terminal",
      "subtype": null,
      "name": "徳島駅前バスターミナル",
      "nameKana": null,
      "nameEn": null,
      "operator": null,
      "network": null,
      "ref": null,
      "latitude": 34.074044,
      "longitude": 134.5507847,
      "countryCode": "jp",
      "rawTags": {
        "amenity": "bus_station",
        "name": "徳島駅前バスターミナル",
        "wheelchair": "yes"
      }
    },
    {
      "id": "tokushima_bus_terminal_3184482239",
      "osmId": 3184482239,
      "osmType": "node",
      "prefectureId": "tokushima",
      "type": "bus_terminal",
      "subtype": null,
      "name": "紺屋町",
      "nameKana": null,
      "nameEn": null,
      "operator": "徳島バス",
      "network": null,
      "ref": null,
      "latitude": 34.0672694,
      "longitude": 134.5484929,
      "countryCode": "jp",
      "rawTags": {
        "amenity": "bus_station",
        "name": "紺屋町",
        "operator": "徳島バス"
      }
    },
    {
      "id": "tokushima_bus_terminal_3281570324",
      "osmId": 3281570324,
      "osmType": "node",
      "prefectureId": "tokushima",
      "type": "bus_terminal",
      "subtype": null,
      "name": "徳島駅前",
      "nameKana": null,
      "nameEn": null,
      "operator": null,
      "network": null,
      "ref": null,
      "latitude": 34.0737688,
      "longitude": 134.5511051,
      "countryCode": "jp",
      "rawTags": {
        "amenity": "bus_station",
        "name": "徳島駅前",
        "wheelchair": "yes"
      }
    },
    {
      "id": "tokushima_ferry_terminal_5274579741",
      "osmId": 5274579741,
      "osmType": "node",
      "prefectureId": "tokushima",
      "type": "ferry_terminal",
      "subtype": null,
      "name": "黒崎渡船乗り場",
      "nameKana": null,
      "nameEn": null,
      "operator": null,
      "network": null,
      "ref": null,
      "latitude": 34.1974546,
      "longitude": 134.5977475,
      "countryCode": "jp",
      "rawTags": {
        "amenity": "ferry_terminal",
        "name": "黒崎渡船乗り場"
      }
    },
    {
      "id": "tokushima_ferry_terminal_5314381725",
      "osmId": 5314381725,
      "osmType": "node",
      "prefectureId": "tokushima",
      "type": "ferry_terminal",
      "subtype": null,
      "name": "徳島",
      "nameKana": null,
      "nameEn": null,
      "operator": null,
      "network": null,
      "ref": null,
      "latitude": 34.0538709,
      "longitude": 134.595873,
      "countryCode": "jp",
      "rawTags": {
        "amenity": "ferry_terminal",
        "ferry": "yes",
        "name": "徳島",
        "public_transport": "station"
      }
    },
    {
      "id": "tokushima_ferry_terminal_7874584642",
      "osmId": 7874584642,
      "osmType": "node",
      "prefectureId": "tokushima",
      "type": "ferry_terminal",
      "subtype": null,
      "name": "牟岐港",
      "nameKana": null,
      "nameEn": null,
      "operator": null,
      "network": null,
      "ref": null,
      "latitude": 33.6675253,
      "longitude": 134.4216168,
      "countryCode": "jp",
      "rawTags": {
        "amenity": "ferry_terminal",
        "cargo": "passengers",
        "name": "牟岐港"
      }
    },
    {
      "id": "tokushima_ferry_terminal_7874584681",
      "osmId": 7874584681,
      "osmType": "node",
      "prefectureId": "tokushima",
      "type": "ferry_terminal",
      "subtype": null,
      "name": "出羽島",
      "nameKana": null,
      "nameEn": null,
      "operator": null,
      "network": null,
      "ref": null,
      "latitude": 33.6363945,
      "longitude": 134.4243816,
      "countryCode": "jp",
      "rawTags": {
        "amenity": "ferry_terminal",
        "cargo": "passengers",
        "name": "出羽島"
      }
    },
    {
      "id": "tokushima_station_8119625805",
      "osmId": 8119625805,
      "osmType": "node",
      "prefectureId": "tokushima",
      "type": "station",
      "subtype": "private",
      "name": "板野",
      "nameKana": null,
      "nameEn": "Itano",
      "operator": null,
      "network": null,
      "ref": "T07",
      "latitude": 34.1420587,
      "longitude": 134.4657683,
      "countryCode": "jp",
      "rawTags": {
        "name": "板野",
        "name:en": "Itano",
        "name:es": "Itano",
        "name:ja": "板野",
        "name:ja_rm": "Itano",
        "name:ko": "이타노",
        "public_transport": "station",
        "railway": "station",
        "ref": "T07",
        "source": "MLIT Japan",
        "wikidata": "Q8190673",
        "wikipedia": "ja:板野駅"
      }
    },
    {
      "id": "tokushima_station_8316082328",
      "osmId": 8316082328,
      "osmType": "node",
      "prefectureId": "tokushima",
      "type": "station",
      "subtype": "jr",
      "name": "教会前",
      "nameKana": null,
      "nameEn": "Kyokaimae",
      "operator": "四国旅客鉄道",
      "network": null,
      "ref": "N07",
      "latitude": 34.1675662,
      "longitude": 134.5772363,
      "countryCode": "jp",
      "rawTags": {
        "name": "教会前",
        "name:en": "Kyokaimae",
        "name:ja-Latn": "Kyōkaimae",
        "operator": "四国旅客鉄道",
        "public_transport": "station",
        "railway": "station",
        "ref": "N07",
        "wikidata": "Q6453053",
        "wikipedia": "ja:教会前駅"
      }
    },
    {
      "id": "tokushima_station_8316082393",
      "osmId": 8316082393,
      "osmType": "node",
      "prefectureId": "tokushima",
      "type": "station",
      "subtype": "jr",
      "name": "佐古",
      "nameKana": null,
      "nameEn": "Sako",
      "operator": "四国旅客鉄道",
      "network": null,
      "ref": "T01;B01",
      "latitude": 34.0805638,
      "longitude": 134.5386755,
      "countryCode": "jp",
      "rawTags": {
        "KSJ2:LIN": "高徳線",
        "KSJ2:STN": "佐古",
        "modified": "yes",
        "name": "佐古",
        "name:en": "Sako",
        "name:ja": "佐古",
        "name:ko": "사코",
        "note": "National-Land Numerical Information (Railway) 2007, MLIT Japan",
        "note:ja": "国土数値情報（鉄道データ）平成19年　国土交通省",
        "operator": "四国旅客鉄道",
        "public_transport": "station",
        "railway": "station",
        "ref": "T01;B01",
        "source": "KSJ2",
        "source_ref": "http://nlftp.mlit.go.jp/ksj/jpgis/datalist/KsjTmplt-N02-v1_1.html",
        "wikidata": "Q7403047",
        "wikipedia": "ja:佐古駅"
      }
    },
    {
      "id": "tokushima_station_8383600961",
      "osmId": 8383600961,
      "osmType": "node",
      "prefectureId": "tokushima",
      "type": "station",
      "subtype": "jr",
      "name": "坪尻",
      "nameKana": null,
      "nameEn": "Tsubojiri",
      "operator": "四国旅客鉄道",
      "network": null,
      "ref": "D19",
      "latitude": 34.0539617,
      "longitude": 133.8237226,
      "countryCode": "jp",
      "rawTags": {
        "KSJ2:LIN": "土讃線",
        "KSJ2:STN": "坪尻",
        "name": "坪尻",
        "name:en": "Tsubojiri",
        "name:ja": "坪尻",
        "name:ko": "쓰보지리",
        "note": "National-Land Numerical Information (Railway) 2007, MLIT Japan",
        "note:ja": "国土数値情報（鉄道データ）平成19年　国土交通省",
        "operator": "四国旅客鉄道",
        "public_transport": "station",
        "railway": "station",
        "ref": "D19",
        "source": "KSJ2",
        "source_ref": "http://nlftp.mlit.go.jp/ksj/jpgis/datalist/KsjTmplt-N02-v1_1.html",
        "wikidata": "Q900196",
        "wikipedia": "ja:坪尻駅"
      }
    },
    {
      "id": "tokushima_station_8383601414",
      "osmId": 8383601414,
      "osmType": "node",
      "prefectureId": "tokushima",
      "type": "station",
      "subtype": "jr",
      "name": "三縄",
      "nameKana": "みなわ",
      "nameEn": "Minawa",
      "operator": "四国旅客鉄道",
      "network": null,
      "ref": null,
      "latitude": 34.0069906,
      "longitude": 133.7873679,
      "countryCode": "jp",
      "rawTags": {
        "KSJ2:LIN": "土讃線",
        "KSJ2:STN": "三縄",
        "name": "三縄",
        "name:en": "Minawa",
        "name:ja": "三縄",
        "name:ja-Hira": "みなわ",
        "name:ko": "미나와",
        "note": "National-Land Numerical Information (Railway) 2007, MLIT Japan",
        "note:ja": "国土数値情報（鉄道データ）平成19年　国土交通省",
        "operator": "四国旅客鉄道",
        "public_transport": "station",
        "railway": "station",
        "source": "KSJ2",
        "source_ref": "http://nlftp.mlit.go.jp/ksj/jpgis/datalist/KsjTmplt-N02-v1_1.html",
        "wikidata": "Q901365",
        "wikipedia": "ja:三縄駅"
      }
    },
    {
      "id": "tokushima_station_8674455794",
      "osmId": 8674455794,
      "osmType": "node",
      "prefectureId": "tokushima",
      "type": "station",
      "subtype": "jr",
      "name": "池谷",
      "nameKana": "いけのたに",
      "nameEn": "Ikenotani",
      "operator": "四国旅客鉄道",
      "network": null,
      "ref": "T04;N04",
      "latitude": 34.1526648,
      "longitude": 134.5290215,
      "countryCode": "jp",
      "rawTags": {
        "name": "池谷",
        "name:en": "Ikenotani",
        "name:ja": "池谷",
        "name:ja-Hira": "いけのたに",
        "name:ja-Latn": "Ikenotani",
        "name:ko": "이케노타니",
        "operator": "四国旅客鉄道",
        "public_transport": "station",
        "railway": "station",
        "ref": "T04;N04",
        "seats": "yes",
        "toilets": "yes",
        "wikidata": "Q8193606",
        "wikipedia": "ja:池谷駅"
      }
    },
    {
      "id": "tokushima_station_8701075528",
      "osmId": 8701075528,
      "osmType": "node",
      "prefectureId": "tokushima",
      "type": "station",
      "subtype": "private",
      "name": "石井",
      "nameKana": "いしい",
      "nameEn": "Ishii",
      "operator": null,
      "network": null,
      "ref": "B05",
      "latitude": 34.070253,
      "longitude": 134.4441605,
      "countryCode": "jp",
      "rawTags": {
        "name": "石井",
        "name:en": "Ishii",
        "name:ja": "石井",
        "name:ja-Hira": "いしい",
        "name:ko": "이시이",
        "public_transport": "station",
        "railway": "station",
        "ref": "B05",
        "train": "yes",
        "wikidata": "Q6080215",
        "wikipedia": "ja:石井駅 (徳島県)"
      }
    },
    {
      "id": "tokushima_station_8706560152",
      "osmId": 8706560152,
      "osmType": "node",
      "prefectureId": "tokushima",
      "type": "station",
      "subtype": "jr",
      "name": "府中",
      "nameKana": null,
      "nameEn": "Kō",
      "operator": "四国旅客鉄道",
      "network": null,
      "ref": null,
      "latitude": 34.0742194,
      "longitude": 134.4829358,
      "countryCode": "jp",
      "rawTags": {
        "name": "府中",
        "name:en": "Kō",
        "name:ja": "府中",
        "name:ko": "고",
        "operator": "四国旅客鉄道",
        "public_transport": "station",
        "railway": "station",
        "wikidata": "Q6455068",
        "wikipedia": "ja:府中駅 (徳島県)"
      }
    },
    {
      "id": "tokushima_station_8707630256",
      "osmId": 8707630256,
      "osmType": "node",
      "prefectureId": "tokushima",
      "type": "station",
      "subtype": "private",
      "name": "蔵本",
      "nameKana": "くらもと",
      "nameEn": "Kuramoto",
      "operator": null,
      "network": null,
      "ref": "B02",
      "latitude": 34.0793919,
      "longitude": 134.5186716,
      "countryCode": "jp",
      "rawTags": {
        "KSJ2:LIN": "徳島線",
        "KSJ2:STN": "蔵本",
        "name": "蔵本",
        "name:en": "Kuramoto",
        "name:ja": "蔵本",
        "name:ja-Hira": "くらもと",
        "name:ko": "구라모토",
        "railway": "station",
        "ref": "B02",
        "train": "yes",
        "wikidata": "Q6445576",
        "wikipedia": "ja:蔵本駅"
      }
    },
    {
      "id": "tokushima_station_8711082703",
      "osmId": 8711082703,
      "osmType": "node",
      "prefectureId": "tokushima",
      "type": "station",
      "subtype": "jr",
      "name": "吉成",
      "nameKana": null,
      "nameEn": "Yoshinari",
      "operator": "四国旅客鉄道",
      "network": null,
      "ref": "T02",
      "latitude": 34.1185148,
      "longitude": 134.5308407,
      "countryCode": "jp",
      "rawTags": {
        "KSJ2:LIN": "高徳線",
        "KSJ2:STN": "吉成",
        "name": "吉成",
        "name:en": "Yoshinari",
        "name:ja": "吉成",
        "name:ko": "요시나리",
        "operator": "四国旅客鉄道",
        "public_transport": "station",
        "railway": "station",
        "ref": "T02",
        "train": "yes",
        "wikidata": "Q8056189",
        "wikipedia": "ja:吉成駅"
      }
    },
    {
      "id": "tokushima_station_8713393444",
      "osmId": 8713393444,
      "osmType": "node",
      "prefectureId": "tokushima",
      "type": "station",
      "subtype": "jr",
      "name": "阿波大谷",
      "nameKana": null,
      "nameEn": "Awa-Ōtani",
      "operator": "四国旅客鉄道",
      "network": null,
      "ref": "N05",
      "latitude": 34.1580198,
      "longitude": 134.5404531,
      "countryCode": "jp",
      "rawTags": {
        "KSJ2:LIN": "鳴門線",
        "KSJ2:STN": "阿波大谷",
        "name": "阿波大谷",
        "name:en": "Awa-Ōtani",
        "name:ja": "阿波大谷",
        "name:ko": "아와오타니",
        "operator": "四国旅客鉄道",
        "public_transport": "station",
        "railway": "station",
        "ref": "N05",
        "wikidata": "Q4829630",
        "wikipedia": "ja:阿波大谷駅"
      }
    },
    {
      "id": "tokushima_station_8713393624",
      "osmId": 8713393624,
      "osmType": "node",
      "prefectureId": "tokushima",
      "type": "station",
      "subtype": "jr",
      "name": "勝瑞",
      "nameKana": null,
      "nameEn": "Shōzui",
      "operator": "四国旅客鉄道",
      "network": null,
      "ref": "T03",
      "latitude": 34.1284617,
      "longitude": 134.5281015,
      "countryCode": "jp",
      "rawTags": {
        "KSJ2:LIN": "高徳線",
        "KSJ2:STN": "勝瑞",
        "name": "勝瑞",
        "name:en": "Shōzui",
        "name:ja": "勝瑞",
        "name:ko": "쇼즈이",
        "operator": "四国旅客鉄道",
        "public_transport": "station",
        "railway": "station",
        "ref": "T03",
        "train": "yes",
        "wikidata": "Q8190586",
        "wikipedia": "ja:勝瑞駅"
      }
    },
    {
      "id": "tokushima_station_8723123078",
      "osmId": 8723123078,
      "osmType": "node",
      "prefectureId": "tokushima",
      "type": "station",
      "subtype": "jr",
      "name": "立道",
      "nameKana": null,
      "nameEn": "Tatsumichi",
      "operator": "四国旅客鉄道",
      "network": null,
      "ref": "N06",
      "latitude": 34.1619929,
      "longitude": 134.5576122,
      "countryCode": "jp",
      "rawTags": {
        "KSJ2:LIN": "鳴門線",
        "KSJ2:STN": "立道",
        "name": "立道",
        "name:en": "Tatsumichi",
        "name:ja": "立道",
        "name:ko": "다쓰미치",
        "operator": "四国旅客鉄道",
        "public_transport": "station",
        "railway": "station",
        "ref": "N06",
        "wikidata": "Q7688301",
        "wikipedia": "ja:立道駅"
      }
    },
    {
      "id": "tokushima_station_8726429967",
      "osmId": 8726429967,
      "osmType": "node",
      "prefectureId": "tokushima",
      "type": "station",
      "subtype": "jr",
      "name": "金比羅前",
      "nameKana": null,
      "nameEn": "Konpiramae",
      "operator": "四国旅客鉄道",
      "network": null,
      "ref": "N08",
      "latitude": 34.1698986,
      "longitude": 134.5854177,
      "countryCode": "jp",
      "rawTags": {
        "KSJ2:LIN": "鳴門線",
        "KSJ2:STN": "金比羅前",
        "name": "金比羅前",
        "name:en": "Konpiramae",
        "name:ja": "金比羅前",
        "name:ko": "곤피라마에",
        "operator": "四国旅客鉄道",
        "public_transport": "station",
        "railway": "station",
        "ref": "N08",
        "wikidata": "Q8190757",
        "wikipedia": "ja:金比羅前駅"
      }
    },
    {
      "id": "tokushima_station_8736172802",
      "osmId": 8736172802,
      "osmType": "node",
      "prefectureId": "tokushima",
      "type": "station",
      "subtype": "jr",
      "name": "撫養",
      "nameKana": null,
      "nameEn": "Muya",
      "operator": "四国旅客鉄道",
      "network": null,
      "ref": "N09",
      "latitude": 34.1732348,
      "longitude": 134.6008048,
      "countryCode": "jp",
      "rawTags": {
        "KSJ2:LIN": "鳴門線",
        "KSJ2:STN": "撫養",
        "name": "撫養",
        "name:en": "Muya",
        "name:ja": "撫養",
        "name:ko": "무야",
        "operator": "四国旅客鉄道",
        "public_transport": "station",
        "railway": "station",
        "ref": "N09",
        "wikidata": "Q8191321",
        "wikipedia": "ja:撫養駅"
      }
    },
    {
      "id": "tokushima_station_8739460410",
      "osmId": 8739460410,
      "osmType": "node",
      "prefectureId": "tokushima",
      "type": "station",
      "subtype": "jr",
      "name": "鳴門",
      "nameKana": null,
      "nameEn": "Naruto",
      "operator": "四国旅客鉄道",
      "network": null,
      "ref": "N10",
      "latitude": 34.1788965,
      "longitude": 134.6084176,
      "countryCode": "jp",
      "rawTags": {
        "KSJ2:LIN": "鳴門線",
        "KSJ2:STN": "鳴門",
        "name": "鳴門",
        "name:en": "Naruto",
        "name:ja": "鳴門",
        "name:ko": "나루토",
        "operator": "四国旅客鉄道",
        "public_transport": "station",
        "railway": "station",
        "ref": "N10",
        "train": "yes",
        "wikidata": "Q6966484",
        "wikipedia": "ja:鳴門駅"
      }
    },
    {
      "id": "tokushima_station_8744063083",
      "osmId": 8744063083,
      "osmType": "node",
      "prefectureId": "tokushima",
      "type": "station",
      "subtype": "private",
      "name": "山瀬",
      "nameKana": null,
      "nameEn": "Yamase",
      "operator": null,
      "network": null,
      "ref": "B13",
      "latitude": 34.0601315,
      "longitude": 134.2562918,
      "countryCode": "jp",
      "rawTags": {
        "name": "山瀬",
        "name:en": "Yamase",
        "name:ja": "山瀬",
        "name:ko": "야마세",
        "public_transport": "station",
        "railway": "station",
        "ref": "B13",
        "wikidata": "Q8047928",
        "wikipedia": "ja:山瀬駅"
      }
    },
    {
      "id": "tokushima_station_8749850716",
      "osmId": 8749850716,
      "osmType": "node",
      "prefectureId": "tokushima",
      "type": "station",
      "subtype": "private",
      "name": "学",
      "nameKana": null,
      "nameEn": "Gaku",
      "operator": null,
      "network": null,
      "ref": "B12",
      "latitude": 34.0576711,
      "longitude": 134.2862903,
      "countryCode": "jp",
      "rawTags": {
        "KSJ2:LIN": "徳島線",
        "KSJ2:STN": "学",
        "name": "学",
        "name:en": "Gaku",
        "name:ja": "学",
        "name:ko": "가쿠",
        "public_transport": "station",
        "railway": "station",
        "ref": "B12",
        "wikidata": "Q5517697",
        "wikipedia": "ja:学駅"
      }
    },
    {
      "id": "tokushima_station_8755033466",
      "osmId": 8755033466,
      "osmType": "node",
      "prefectureId": "tokushima",
      "type": "station",
      "subtype": "private",
      "name": "阿波川島",
      "nameKana": "あわかわしま",
      "nameEn": "Awa-Kawashima",
      "operator": null,
      "network": null,
      "ref": "B11",
      "latitude": 34.0617772,
      "longitude": 134.3208991,
      "countryCode": "jp",
      "rawTags": {
        "name": "阿波川島",
        "name:en": "Awa-Kawashima",
        "name:ja": "阿波川島",
        "name:ja-Hira": "あわかわしま",
        "name:ko": "아와카와시마",
        "public_transport": "station",
        "railway": "station",
        "ref": "B11",
        "train": "yes",
        "wikidata": "Q4829616",
        "wikipedia": "ja:阿波川島駅"
      }
    },
    {
      "id": "tokushima_station_8762605018",
      "osmId": 8762605018,
      "osmType": "node",
      "prefectureId": "tokushima",
      "type": "station",
      "subtype": "private",
      "name": "鴨島",
      "nameKana": "かもじま",
      "nameEn": "Kamojima",
      "operator": null,
      "network": null,
      "ref": "B09",
      "latitude": 34.0737051,
      "longitude": 134.35653,
      "countryCode": "jp",
      "rawTags": {
        "name": "鴨島",
        "name:en": "Kamojima",
        "name:ja": "鴨島",
        "name:ja-Hira": "かもじま",
        "name:ko": "가모지마",
        "railway": "station",
        "ref": "B09",
        "train": "yes",
        "wikidata": "Q11675540",
        "wikipedia": "ja:鴨島駅"
      }
    },
    {
      "id": "tokushima_station_8766369590",
      "osmId": 8766369590,
      "osmType": "node",
      "prefectureId": "tokushima",
      "type": "station",
      "subtype": "private",
      "name": "牛島",
      "nameKana": null,
      "nameEn": "Ushinoshima",
      "operator": null,
      "network": null,
      "ref": "B07",
      "latitude": 34.0767888,
      "longitude": 134.397374,
      "countryCode": "jp",
      "rawTags": {
        "KSJ2:LIN": "徳島線",
        "KSJ2:STN": "牛島",
        "name": "牛島",
        "name:en": "Ushinoshima",
        "name:ja": "牛島",
        "name:ko": "우시노시마",
        "railway": "station",
        "ref": "B07",
        "train": "yes",
        "wikidata": "Q11570130",
        "wikipedia": "ja:牛島駅"
      }
    },
    {
      "id": "tokushima_station_8766399779",
      "osmId": 8766399779,
      "osmType": "node",
      "prefectureId": "tokushima",
      "type": "station",
      "subtype": "jr",
      "name": "阿波池田",
      "nameKana": "あわいけだ",
      "nameEn": "Awa-Ikeda",
      "operator": "四国旅客鉄道",
      "network": null,
      "ref": "B25;D22",
      "latitude": 34.0269238,
      "longitude": 133.8045871,
      "countryCode": "jp",
      "rawTags": {
        "KSJ2:LIN": "土讃線",
        "KSJ2:STN": "阿波池田",
        "name": "阿波池田",
        "name:en": "Awa-Ikeda",
        "name:ja": "阿波池田",
        "name:ja-Hira": "あわいけだ",
        "name:ko": "아와이케다",
        "operator": "四国旅客鉄道",
        "public_transport": "station",
        "railway": "station",
        "ref": "B25;D22",
        "wikidata": "Q578436",
        "wikipedia": "ja:阿波池田駅"
      }
    },
    {
      "id": "tokushima_station_8809844003",
      "osmId": 8809844003,
      "osmType": "node",
      "prefectureId": "tokushima",
      "type": "station",
      "subtype": "private",
      "name": "佃",
      "nameKana": "つくだ",
      "nameEn": "Tsukuda",
      "operator": null,
      "network": null,
      "ref": "B24;D21",
      "latitude": 34.0324404,
      "longitude": 133.8572408,
      "countryCode": "jp",
      "rawTags": {
        "name": "佃",
        "name:en": "Tsukuda",
        "name:ja": "佃",
        "name:ja-Hira": "つくだ",
        "public_transport": "station",
        "railway": "station",
        "ref": "B24;D21",
        "train": "yes",
        "wikidata": "Q578112",
        "wikipedia": "ja:佃駅"
      }
    },
    {
      "id": "tokushima_station_8818154992",
      "osmId": 8818154992,
      "osmType": "node",
      "prefectureId": "tokushima",
      "type": "station",
      "subtype": "private",
      "name": "辻",
      "nameKana": "つじ",
      "nameEn": "Tsuji",
      "operator": null,
      "network": null,
      "ref": "B23",
      "latitude": 34.0291645,
      "longitude": 133.8737911,
      "countryCode": "jp",
      "rawTags": {
        "KSJ2:LIN": "徳島線",
        "name": "辻",
        "name:en": "Tsuji",
        "name:ja": "辻",
        "name:ja-Hira": "つじ",
        "name:ko": "쓰지",
        "public_transport": "station",
        "railway": "station",
        "ref": "B23",
        "train": "yes",
        "wikidata": "Q577894",
        "wikipedia": "ja:辻駅"
      }
    },
    {
      "id": "tokushima_station_8819100616",
      "osmId": 8819100616,
      "osmType": "node",
      "prefectureId": "tokushima",
      "type": "station",
      "subtype": "private",
      "name": "阿波加茂",
      "nameKana": "あわかも",
      "nameEn": "Awakamo",
      "operator": null,
      "network": null,
      "ref": "B22",
      "latitude": 34.036842,
      "longitude": 133.9269058,
      "countryCode": "jp",
      "rawTags": {
        "KSJ2:LIN": "徳島線",
        "KSJ2:STN": "阿波加茂",
        "name": "阿波加茂",
        "name:en": "Awakamo",
        "name:ja": "阿波加茂",
        "name:ja-Hira": "あわかも",
        "name:ko": "아와카모",
        "public_transport": "station",
        "railway": "station",
        "ref": "B22",
        "train": "yes",
        "wikidata": "Q4829611",
        "wikipedia": "ja:阿波加茂駅"
      }
    },
    {
      "id": "tokushima_station_8829683025",
      "osmId": 8829683025,
      "osmType": "node",
      "prefectureId": "tokushima",
      "type": "station",
      "subtype": "private",
      "name": "三加茂",
      "nameKana": "みかも",
      "nameEn": "Mikamo",
      "operator": null,
      "network": null,
      "ref": "B21",
      "latitude": 34.0358418,
      "longitude": 133.9487011,
      "countryCode": "jp",
      "rawTags": {
        "KSJ2:LIN": "徳島線",
        "KSJ2:STN": "三加茂",
        "name": "三加茂",
        "name:en": "Mikamo",
        "name:ja": "三加茂",
        "name:ja-Hira": "みかも",
        "name:ko": "미카모",
        "public_transport": "station",
        "railway": "station",
        "ref": "B21",
        "train": "yes",
        "wikidata": "Q6845701",
        "wikipedia": "ja:三加茂駅"
      }
    },
    {
      "id": "tokushima_station_8830750045",
      "osmId": 8830750045,
      "osmType": "node",
      "prefectureId": "tokushima",
      "type": "station",
      "subtype": "private",
      "name": "貞光",
      "nameKana": "さがみつ",
      "nameEn": "Sadamitsu",
      "operator": null,
      "network": null,
      "ref": "B18",
      "latitude": 34.0394803,
      "longitude": 134.0589108,
      "countryCode": "jp",
      "rawTags": {
        "KSJ2:LIN": "徳島線",
        "name": "貞光",
        "name:en": "Sadamitsu",
        "name:ja": "貞光",
        "name:ja-Hira": "さがみつ",
        "name:ko": "사다미쓰",
        "public_transport": "station",
        "railway": "station",
        "ref": "B18",
        "train": "yes",
        "wikidata": "Q7397535",
        "wikipedia": "ja:貞光駅"
      }
    },
    {
      "id": "tokushima_station_8830766458",
      "osmId": 8830766458,
      "osmType": "node",
      "prefectureId": "tokushima",
      "type": "station",
      "subtype": "private",
      "name": "江口",
      "nameKana": "えぐち",
      "nameEn": "Eguchi",
      "operator": null,
      "network": null,
      "ref": "B20",
      "latitude": 34.0371904,
      "longitude": 133.9737379,
      "countryCode": "jp",
      "rawTags": {
        "KSJ2:LIN": "徳島線",
        "KSJ2:STN": "江口",
        "name": "江口",
        "name:en": "Eguchi",
        "name:ja": "江口",
        "name:ja-Hira": "えぐち",
        "name:ko": "에구치",
        "public_transport": "station",
        "railway": "station",
        "ref": "B20",
        "train": "yes",
        "wikidata": "Q5348274",
        "wikipedia": "ja:江口駅"
      }
    },
    {
      "id": "tokushima_station_8830767872",
      "osmId": 8830767872,
      "osmType": "node",
      "prefectureId": "tokushima",
      "type": "station",
      "subtype": "private",
      "name": "小島",
      "nameKana": null,
      "nameEn": "Oshima",
      "operator": null,
      "network": null,
      "ref": "B17",
      "latitude": 34.0503771,
      "longitude": 134.1068271,
      "countryCode": "jp",
      "rawTags": {
        "name": "小島",
        "name:en": "Oshima",
        "name:ja": "小島",
        "name:ko": "오시마",
        "public_transport": "station",
        "railway": "station",
        "ref": "B17",
        "train": "yes",
        "wikidata": "Q7106623",
        "wikipedia": "ja:小島駅"
      }
    },
    {
      "id": "tokushima_station_8833668761",
      "osmId": 8833668761,
      "osmType": "node",
      "prefectureId": "tokushima",
      "type": "station",
      "subtype": "private",
      "name": "穴吹",
      "nameKana": "あなぶき",
      "nameEn": "Anabuki",
      "operator": null,
      "network": null,
      "ref": "B16",
      "latitude": 34.0560105,
      "longitude": 134.163482,
      "countryCode": "jp",
      "rawTags": {
        "name": "穴吹",
        "name:en": "Anabuki",
        "name:ja-Hira": "あなぶき",
        "public_transport": "station",
        "railway": "station",
        "ref": "B16",
        "train": "yes",
        "wikidata": "Q4750609",
        "wikipedia": "ja:穴吹駅"
      }
    },
    {
      "id": "tokushima_station_8837132923",
      "osmId": 8837132923,
      "osmType": "node",
      "prefectureId": "tokushima",
      "type": "station",
      "subtype": "jr",
      "name": "川田",
      "nameKana": null,
      "nameEn": "Kawata",
      "operator": "四国旅客鉄道",
      "network": null,
      "ref": null,
      "latitude": 34.0613981,
      "longitude": 134.204202,
      "countryCode": "jp",
      "rawTags": {
        "KSJ2:LIN": "徳島線",
        "KSJ2:STN": "川田",
        "name": "川田",
        "name:en": "Kawata",
        "name:ja": "川田",
        "name:ko": "가와타",
        "operator": "四国旅客鉄道",
        "public_transport": "station",
        "railway": "station",
        "train": "yes",
        "wikidata": "Q430650",
        "wikipedia": "ja:川田駅"
      }
    },
    {
      "id": "tokushima_station_8873488621",
      "osmId": 8873488621,
      "osmType": "node",
      "prefectureId": "tokushima",
      "type": "station",
      "subtype": "jr",
      "name": "大歩危",
      "nameKana": "おおぼけ",
      "nameEn": "Oboke",
      "operator": "四国旅客鉄道",
      "network": null,
      "ref": "D27",
      "latitude": 33.8765063,
      "longitude": 133.767185,
      "countryCode": "jp",
      "rawTags": {
        "KSJ2:LIN": "土讃線",
        "KSJ2:STN": "大歩危",
        "local_ref": "1",
        "name": "大歩危",
        "name:en": "Oboke",
        "name:ja": "大歩危",
        "name:ja-Hira": "おおぼけ",
        "name:ko": "오보케",
        "operator": "四国旅客鉄道",
        "public_transport": "station",
        "railway": "station",
        "ref": "D27",
        "train": "yes",
        "wikidata": "Q900681",
        "wikipedia": "ja:大歩危駅"
      }
    },
    {
      "id": "tokushima_station_8873501919",
      "osmId": 8873501919,
      "osmType": "node",
      "prefectureId": "tokushima",
      "type": "station",
      "subtype": "jr",
      "name": "小歩危",
      "nameKana": "こぼけ",
      "nameEn": "Koboke",
      "operator": "四国旅客鉄道",
      "network": null,
      "ref": "D26",
      "latitude": 33.9234499,
      "longitude": 133.7588232,
      "countryCode": "jp",
      "rawTags": {
        "KSJ2:LIN": "土讃線",
        "KSJ2:STN": "小歩危",
        "name": "小歩危",
        "name:en": "Koboke",
        "name:ja": "小歩危",
        "name:ja-Hira": "こぼけ",
        "name:ko": "고보케",
        "operator": "四国旅客鉄道",
        "public_transport": "station",
        "railway": "station",
        "ref": "D26",
        "wikidata": "Q900985",
        "wikipedia": "ja:小歩危駅"
      }
    },
    {
      "id": "tokushima_station_8878542749",
      "osmId": 8878542749,
      "osmType": "node",
      "prefectureId": "tokushima",
      "type": "station",
      "subtype": "jr",
      "name": "祖谷口",
      "nameKana": "いやぐち",
      "nameEn": "Iyaguchi",
      "operator": "四国旅客鉄道",
      "network": null,
      "ref": "D24",
      "latitude": 33.9725028,
      "longitude": 133.7803536,
      "countryCode": "jp",
      "rawTags": {
        "KSJ2:LIN": "土讃線",
        "KSJ2:STN": "祖谷口",
        "name": "祖谷口",
        "name:en": "Iyaguchi",
        "name:ja": "祖谷口",
        "name:ja-Hira": "いやぐち",
        "name:ko": "이야구치",
        "operator": "四国旅客鉄道",
        "public_transport": "station",
        "railway": "station",
        "ref": "D24",
        "wikidata": "Q901383",
        "wikipedia": "ja:祖谷口駅"
      }
    },
    {
      "id": "tokushima_station_8878551220",
      "osmId": 8878551220,
      "osmType": "node",
      "prefectureId": "tokushima",
      "type": "station",
      "subtype": "jr",
      "name": "阿波川口",
      "nameKana": "あわかわぐち",
      "nameEn": "Awakawaguchi",
      "operator": "四国旅客鉄道",
      "network": null,
      "ref": "D25",
      "latitude": 33.9637236,
      "longitude": 133.7547154,
      "countryCode": "jp",
      "rawTags": {
        "KSJ2:LIN": "土讃線",
        "KSJ2:STN": "阿波川口",
        "name": "阿波川口",
        "name:en": "Awakawaguchi",
        "name:ja": "阿波川口",
        "name:ja-Hira": "あわかわぐち",
        "name:ko": "아와카와구치",
        "operator": "四国旅客鉄道",
        "public_transport": "station",
        "railway": "station",
        "ref": "D25",
        "wikidata": "Q900674",
        "wikipedia": "ja:阿波川口駅"
      }
    },
    {
      "id": "tokushima_station_8935793410",
      "osmId": 8935793410,
      "osmType": "node",
      "prefectureId": "tokushima",
      "type": "station",
      "subtype": "jr",
      "name": "箸蔵",
      "nameKana": null,
      "nameEn": "Hashikura",
      "operator": "四国旅客鉄道",
      "network": "JR土讃線",
      "ref": "D20",
      "latitude": 34.0404944,
      "longitude": 133.8488958,
      "countryCode": "jp",
      "rawTags": {
        "name": "箸蔵",
        "name:en": "Hashikura",
        "network": "JR土讃線",
        "operator": "四国旅客鉄道",
        "public_transport": "station",
        "railway": "station",
        "ref": "D20",
        "wikidata": "Q900476",
        "wikipedia": "ja:箸蔵駅"
      }
    },
    {
      "id": "tokushima_station_9430424224",
      "osmId": 9430424224,
      "osmType": "node",
      "prefectureId": "tokushima",
      "type": "station",
      "subtype": "jr",
      "name": "山河内",
      "nameKana": "やまがわち",
      "nameEn": "Yamagawachi",
      "operator": "四国旅客鉄道",
      "network": null,
      "ref": null,
      "latitude": 33.7150588,
      "longitude": 134.4850963,
      "countryCode": "jp",
      "rawTags": {
        "KSJ2:LIN": "牟岐線",
        "KSJ2:STN": "山河内",
        "name": "山河内",
        "name:en": "Yamagawachi",
        "name:ja": "山河内",
        "name:ja-Hira": "やまがわち",
        "name:ko": "야마가와치",
        "note": "National-Land Numerical Information (Railway) 2007, MLIT Japan",
        "note:ja": "国土数値情報（鉄道データ）平成19年　国土交通省",
        "operator": "四国旅客鉄道",
        "operator:ja": "四国旅客鉄道",
        "public_transport": "station",
        "railway": "station",
        "source": "KSJ2",
        "source_ref": "http://nlftp.mlit.go.jp/ksj/jpgis/datalist/KsjTmplt-N02-v1_1.html",
        "wikidata": "Q8047629",
        "wikipedia": "ja:山河内駅"
      }
    },
    {
      "id": "tokushima_station_9430424226",
      "osmId": 9430424226,
      "osmType": "node",
      "prefectureId": "tokushima",
      "type": "station",
      "subtype": "jr",
      "name": "辺川",
      "nameKana": "へがわ",
      "nameEn": "Hegawa",
      "operator": "四国旅客鉄道",
      "network": null,
      "ref": null,
      "latitude": 33.6949617,
      "longitude": 134.4349021,
      "countryCode": "jp",
      "rawTags": {
        "KSJ2:LIN": "牟岐線",
        "KSJ2:STN": "辺川",
        "name": "辺川",
        "name:en": "Hegawa",
        "name:ja": "辺川",
        "name:ja-Hira": "へがわ",
        "name:ko": "헤가와",
        "note": "National-Land Numerical Information (Railway) 2007, MLIT Japan",
        "note:ja": "国土数値情報（鉄道データ）平成19年　国土交通省",
        "operator": "四国旅客鉄道",
        "operator:ja": "四国旅客鉄道",
        "public_transport": "station",
        "railway": "station",
        "source": "KSJ2",
        "source_ref": "http://nlftp.mlit.go.jp/ksj/jpgis/datalist/KsjTmplt-N02-v1_1.html",
        "wikidata": "Q5698324",
        "wikipedia": "ja:辺川駅"
      }
    },
    {
      "id": "tokushima_station_9430425124",
      "osmId": 9430425124,
      "osmType": "node",
      "prefectureId": "tokushima",
      "type": "station",
      "subtype": "jr",
      "name": "阿波海南",
      "nameKana": "あわかいなん",
      "nameEn": "Awa-Kainan",
      "operator": "四国旅客鉄道",
      "network": null,
      "ref": "M27",
      "latitude": 33.606753,
      "longitude": 134.3510181,
      "countryCode": "jp",
      "rawTags": {
        "KSJ2:LIN": "牟岐線",
        "KSJ2:STN": "阿波海南",
        "name": "阿波海南",
        "name:en": "Awa-Kainan",
        "name:ja": "阿波海南",
        "name:ja-Hira": "あわかいなん",
        "name:ko": "아와카이난",
        "note": "National-Land Numerical Information (Railway) 2007, MLIT Japan",
        "note:ja": "国土数値情報（鉄道データ）平成19年　国土交通省",
        "operator": "四国旅客鉄道",
        "operator:ja": "四国旅客鉄道",
        "public_transport": "station",
        "railway": "station",
        "ref": "M27",
        "source": "KSJ2",
        "source_ref": "http://nlftp.mlit.go.jp/ksj/jpgis/datalist/KsjTmplt-N02-v1_1.html",
        "wikidata": "Q4829614",
        "wikipedia": "ja:阿波海南駅"
      }
    },
    {
      "id": "tokushima_station_9430425125",
      "osmId": 9430425125,
      "osmType": "node",
      "prefectureId": "tokushima",
      "type": "station",
      "subtype": "jr",
      "name": "日和佐",
      "nameKana": "ひわさ",
      "nameEn": "Hiwasa",
      "operator": "四国旅客鉄道",
      "network": null,
      "ref": null,
      "latitude": 33.7290455,
      "longitude": 134.5306322,
      "countryCode": "jp",
      "rawTags": {
        "KSJ2:LIN": "牟岐線",
        "KSJ2:STN": "日和佐",
        "name": "日和佐",
        "name:en": "Hiwasa",
        "name:ja": "日和佐",
        "name:ja-Hira": "ひわさ",
        "name:ko": "히와사",
        "note": "National-Land Numerical Information (Railway) 2007, MLIT Japan",
        "note:ja": "国土数値情報（鉄道データ）平成19年　国土交通省",
        "operator": "四国旅客鉄道",
        "operator:ja": "四国旅客鉄道",
        "public_transport": "station",
        "railway": "station",
        "source": "KSJ2",
        "source_ref": "http://nlftp.mlit.go.jp/ksj/jpgis/datalist/KsjTmplt-N02-v1_1.html",
        "wheelchair": "limited",
        "wikidata": "Q5872860",
        "wikipedia": "ja:日和佐駅"
      }
    },
    {
      "id": "tokushima_station_9430425126",
      "osmId": 9430425126,
      "osmType": "node",
      "prefectureId": "tokushima",
      "type": "station",
      "subtype": "jr",
      "name": "阿南",
      "nameKana": "あなん",
      "nameEn": "Anan",
      "operator": "四国旅客鉄道",
      "network": null,
      "ref": null,
      "latitude": 33.9188254,
      "longitude": 134.662387,
      "countryCode": "jp",
      "rawTags": {
        "KSJ2:LIN": "牟岐線",
        "KSJ2:STN": "阿南",
        "name": "阿南",
        "name:en": "Anan",
        "name:ja": "阿南",
        "name:ja-Hira": "あなん",
        "name:ko": "아난",
        "note": "National-Land Numerical Information (Railway) 2007, MLIT Japan",
        "note:ja": "国土数値情報（鉄道データ）平成19年　国土交通省",
        "operator": "四国旅客鉄道",
        "operator:ja": "四国旅客鉄道",
        "public_transport": "station",
        "railway": "station",
        "source": "KSJ2",
        "source_ref": "http://nlftp.mlit.go.jp/ksj/jpgis/datalist/KsjTmplt-N02-v1_1.html",
        "wikidata": "Q4751223",
        "wikipedia": "ja:阿南駅"
      }
    },
    {
      "id": "tokushima_station_9430425129",
      "osmId": 9430425129,
      "osmType": "node",
      "prefectureId": "tokushima",
      "type": "station",
      "subtype": "jr",
      "name": "阿波富田",
      "nameKana": null,
      "nameEn": "Awa-Tomida",
      "operator": "四国旅客鉄道",
      "network": null,
      "ref": null,
      "latitude": 34.0641328,
      "longitude": 134.5557317,
      "countryCode": "jp",
      "rawTags": {
        "KSJ2:LIN": "牟岐線",
        "name": "阿波富田",
        "name:en": "Awa-Tomida",
        "name:ja": "阿波富田",
        "name:ko": "아와토미다",
        "note": "National-Land Numerical Information (Railway) 2007, MLIT Japan",
        "note:ja": "国土数値情報（鉄道データ）平成19年　国土交通省",
        "operator": "四国旅客鉄道",
        "operator:ja": "四国旅客鉄道",
        "public_transport": "station",
        "railway": "station",
        "source": "KSJ2",
        "source_ref": "http://nlftp.mlit.go.jp/ksj/jpgis/datalist/KsjTmplt-N02-v1_1.html",
        "wikidata": "Q4829621",
        "wikipedia": "ja:阿波富田駅"
      }
    },
    {
      "id": "tokushima_station_9430425130",
      "osmId": 9430425130,
      "osmType": "node",
      "prefectureId": "tokushima",
      "type": "station",
      "subtype": "jr",
      "name": "阿波橘",
      "nameKana": "あわたちばな",
      "nameEn": "Awa-Tachibana",
      "operator": "四国旅客鉄道",
      "network": null,
      "ref": null,
      "latitude": 33.8886046,
      "longitude": 134.6515683,
      "countryCode": "jp",
      "rawTags": {
        "name": "阿波橘",
        "name:en": "Awa-Tachibana",
        "name:ja-Hira": "あわたちばな",
        "operator": "四国旅客鉄道",
        "operator:ja": "四国旅客鉄道",
        "public_transport": "station",
        "railway": "station",
        "wikidata": "Q4829622",
        "wikipedia": "ja:阿波橘駅"
      }
    },
    {
      "id": "tokushima_station_9430425131",
      "osmId": 9430425131,
      "osmType": "node",
      "prefectureId": "tokushima",
      "type": "station",
      "subtype": "jr",
      "name": "浅川",
      "nameKana": "あさかわ",
      "nameEn": "Asakawa",
      "operator": "四国旅客鉄道",
      "network": null,
      "ref": null,
      "latitude": 33.6265374,
      "longitude": 134.3586597,
      "countryCode": "jp",
      "rawTags": {
        "name": "浅川",
        "name:en": "Asakawa",
        "name:ja": "浅川",
        "name:ja-Hira": "あさかわ",
        "name:ko": "아사카와",
        "note": "National-Land Numerical Information (Railway) 2007, MLIT Japan",
        "note:ja": "国土数値情報（鉄道データ）平成19年　国土交通省",
        "operator": "四国旅客鉄道",
        "operator:ja": "四国旅客鉄道",
        "public_transport": "station",
        "railway": "station",
        "source": "KSJ2",
        "source_ref": "http://nlftp.mlit.go.jp/ksj/jpgis/datalist/KsjTmplt-N02-v1_1.html",
        "wikidata": "Q4803422",
        "wikipedia": "ja:浅川駅"
      }
    },
    {
      "id": "tokushima_station_9430425132",
      "osmId": 9430425132,
      "osmType": "node",
      "prefectureId": "tokushima",
      "type": "station",
      "subtype": "jr",
      "name": "鯖瀬",
      "nameKana": "さばせ",
      "nameEn": "Sabase",
      "operator": "四国旅客鉄道",
      "network": null,
      "ref": null,
      "latitude": 33.6459534,
      "longitude": 134.3852592,
      "countryCode": "jp",
      "rawTags": {
        "name": "鯖瀬",
        "name:en": "Sabase",
        "name:ja": "鯖瀬",
        "name:ja-Hira": "さばせ",
        "name:ko": "사바세",
        "note": "National-Land Numerical Information (Railway) 2007, MLIT Japan",
        "note:ja": "国土数値情報（鉄道データ）平成19年　国土交通省",
        "operator": "四国旅客鉄道",
        "operator:ja": "四国旅客鉄道",
        "public_transport": "station",
        "railway": "station",
        "source": "KSJ2",
        "source_ref": "http://nlftp.mlit.go.jp/ksj/jpgis/datalist/KsjTmplt-N02-v1_1.html",
        "wikidata": "Q7395925",
        "wikipedia": "ja:鯖瀬駅"
      }
    },
    {
      "id": "tokushima_station_9430425133",
      "osmId": 9430425133,
      "osmType": "node",
      "prefectureId": "tokushima",
      "type": "station",
      "subtype": "jr",
      "name": "牟岐",
      "nameKana": "むぎ",
      "nameEn": "Mugi",
      "operator": "四国旅客鉄道",
      "network": null,
      "ref": null,
      "latitude": 33.6719468,
      "longitude": 134.4180639,
      "countryCode": "jp",
      "rawTags": {
        "KSJ2:LIN": "牟岐線",
        "KSJ2:STN": "牟岐",
        "name": "牟岐",
        "name:en": "Mugi",
        "name:ja": "牟岐",
        "name:ja-Hira": "むぎ",
        "name:ko": "무기",
        "note": "National-Land Numerical Information (Railway) 2007, MLIT Japan",
        "note:ja": "国土数値情報（鉄道データ）平成19年　国土交通省",
        "operator": "四国旅客鉄道",
        "operator:ja": "四国旅客鉄道",
        "public_transport": "station",
        "railway": "station",
        "source": "KSJ2",
        "source_ref": "http://nlftp.mlit.go.jp/ksj/jpgis/datalist/KsjTmplt-N02-v1_1.html",
        "wikidata": "Q6932194",
        "wikipedia": "ja:牟岐駅"
      }
    },
    {
      "id": "tokushima_station_9430425134",
      "osmId": 9430425134,
      "osmType": "node",
      "prefectureId": "tokushima",
      "type": "station",
      "subtype": "jr",
      "name": "新野",
      "nameKana": "あらたの",
      "nameEn": "Aratano",
      "operator": "四国旅客鉄道",
      "network": null,
      "ref": null,
      "latitude": 33.846813,
      "longitude": 134.6001549,
      "countryCode": "jp",
      "rawTags": {
        "KSJ2:LIN": "牟岐線",
        "KSJ2:STN": "新野",
        "name": "新野",
        "name:en": "Aratano",
        "name:ja": "新野",
        "name:ja-Hira": "あらたの",
        "name:ko": "아라타노",
        "note": "National-Land Numerical Information (Railway) 2007, MLIT Japan",
        "note:ja": "国土数値情報（鉄道データ）平成19年　国土交通省",
        "operator": "四国旅客鉄道",
        "operator:ja": "四国旅客鉄道",
        "public_transport": "station",
        "railway": "station",
        "source": "KSJ2",
        "source_ref": "http://nlftp.mlit.go.jp/ksj/jpgis/datalist/KsjTmplt-N02-v1_1.html",
        "wikidata": "Q4784417",
        "wikipedia": "ja:新野駅 (徳島県)"
      }
    },
    {
      "id": "tokushima_station_9430425135",
      "osmId": 9430425135,
      "osmType": "node",
      "prefectureId": "tokushima",
      "type": "station",
      "subtype": "jr",
      "name": "桑野",
      "nameKana": "くわの",
      "nameEn": "Kuwano",
      "operator": "四国旅客鉄道",
      "network": null,
      "ref": null,
      "latitude": 33.8747092,
      "longitude": 134.6131825,
      "countryCode": "jp",
      "rawTags": {
        "KSJ2:LIN": "牟岐線",
        "KSJ2:STN": "桑野",
        "name": "桑野",
        "name:en": "Kuwano",
        "name:ja": "桑野",
        "name:ja-Hira": "くわの",
        "name:ko": "구와노",
        "note": "National-Land Numerical Information (Railway) 2007, MLIT Japan",
        "note:ja": "国土数値情報（鉄道データ）平成19年　国土交通省",
        "operator": "四国旅客鉄道",
        "operator:ja": "四国旅客鉄道",
        "public_transport": "station",
        "railway": "station",
        "source": "KSJ2",
        "source_ref": "http://nlftp.mlit.go.jp/ksj/jpgis/datalist/KsjTmplt-N02-v1_1.html",
        "wikidata": "Q6449058",
        "wikipedia": "ja:桑野駅"
      }
    },
    {
      "id": "tokushima_station_9430425136",
      "osmId": 9430425136,
      "osmType": "node",
      "prefectureId": "tokushima",
      "type": "station",
      "subtype": "jr",
      "name": "羽ノ浦",
      "nameKana": "はのうら",
      "nameEn": "Hanoura",
      "operator": "四国旅客鉄道",
      "network": null,
      "ref": null,
      "latitude": 33.9578922,
      "longitude": 134.6254161,
      "countryCode": "jp",
      "rawTags": {
        "KSJ2:LIN": "牟岐線",
        "name": "羽ノ浦",
        "name:en": "Hanoura",
        "name:ja": "羽ノ浦",
        "name:ja-Hira": "はのうら",
        "name:ko": "하노우라",
        "note": "National-Land Numerical Information (Railway) 2007, MLIT Japan",
        "note:ja": "国土数値情報（鉄道データ）平成19年　国土交通省",
        "operator": "四国旅客鉄道",
        "operator:ja": "四国旅客鉄道",
        "public_transport": "station",
        "railway": "station",
        "source": "KSJ2",
        "source_ref": "http://nlftp.mlit.go.jp/ksj/jpgis/datalist/KsjTmplt-N02-v1_1.html",
        "wikidata": "Q5649353",
        "wikipedia": "ja:羽ノ浦駅"
      }
    },
    {
      "id": "tokushima_station_9430425138",
      "osmId": 9430425138,
      "osmType": "node",
      "prefectureId": "tokushima",
      "type": "station",
      "subtype": "jr",
      "name": "南小松島",
      "nameKana": null,
      "nameEn": "Minami-Komatsushima",
      "operator": "四国旅客鉄道",
      "network": null,
      "ref": null,
      "latitude": 34.0057309,
      "longitude": 134.5869304,
      "countryCode": "jp",
      "rawTags": {
        "KSJ2:LIN": "牟岐線",
        "name": "南小松島",
        "name:en": "Minami-Komatsushima",
        "name:ja": "南小松島",
        "name:ko": "미나미코마쓰시마",
        "note": "National-Land Numerical Information (Railway) 2007, MLIT Japan",
        "note:ja": "国土数値情報（鉄道データ）平成19年　国土交通省",
        "operator": "四国旅客鉄道",
        "operator:ja": "四国旅客鉄道",
        "public_transport": "station",
        "railway": "station",
        "source": "KSJ2",
        "source_ref": "http://nlftp.mlit.go.jp/ksj/jpgis/datalist/KsjTmplt-N02-v1_1.html",
        "wikidata": "Q6862940",
        "wikipedia": "ja:南小松島駅"
      }
    },
    {
      "id": "tokushima_station_9430425139",
      "osmId": 9430425139,
      "osmType": "node",
      "prefectureId": "tokushima",
      "type": "station",
      "subtype": "jr",
      "name": "由岐",
      "nameKana": "ゆき",
      "nameEn": "Yuki",
      "operator": "四国旅客鉄道",
      "network": null,
      "ref": null,
      "latitude": 33.7758043,
      "longitude": 134.5916364,
      "countryCode": "jp",
      "rawTags": {
        "KSJ2:LIN": "牟岐線",
        "KSJ2:STN": "由岐",
        "name": "由岐",
        "name:en": "Yuki",
        "name:ja": "由岐",
        "name:ja-Hira": "ゆき",
        "name:ko": "유키",
        "note": "National-Land Numerical Information (Railway) 2007, MLIT Japan",
        "note:ja": "国土数値情報（鉄道データ）平成19年　国土交通省",
        "operator": "四国旅客鉄道",
        "operator:ja": "四国旅客鉄道",
        "public_transport": "station",
        "railway": "station",
        "source": "KSJ2",
        "source_ref": "http://nlftp.mlit.go.jp/ksj/jpgis/datalist/KsjTmplt-N02-v1_1.html",
        "wikidata": "Q8060670",
        "wikipedia": "ja:由岐駅"
      }
    },
    {
      "id": "tokushima_station_9502180752",
      "osmId": 9502180752,
      "osmType": "node",
      "prefectureId": "tokushima",
      "type": "station",
      "subtype": "jr",
      "name": "徳島",
      "nameKana": "とくしま",
      "nameEn": "Tokushima",
      "operator": "四国旅客鉄道",
      "network": null,
      "ref": "T00;M00",
      "latitude": 34.0746743,
      "longitude": 134.5513898,
      "countryCode": "jp",
      "rawTags": {
        "name": "徳島",
        "name:de": "Takushima",
        "name:en": "Tokushima",
        "name:es": "Tokushima",
        "name:ja": "徳島",
        "name:ja-Hira": "とくしま",
        "name:ja-Latn": "Tokushima",
        "name:ko": "도쿠시마",
        "operator": "四国旅客鉄道",
        "operator:ja": "四国旅客鉄道",
        "public_transport": "station",
        "railway": "station",
        "ref": "T00;M00",
        "train": "yes",
        "wheelchair": "yes",
        "wikidata": "Q860775",
        "wikipedia": "ja:徳島駅"
      }
    },
    {
      "id": "tokushima_station_9907757205",
      "osmId": 9907757205,
      "osmType": "node",
      "prefectureId": "tokushima",
      "type": "station",
      "subtype": "private",
      "name": "阿波山川",
      "nameKana": "あわやまかわ",
      "nameEn": "Awa-Yamakawa",
      "operator": null,
      "network": null,
      "ref": "B14",
      "latitude": 34.0551911,
      "longitude": 134.2340178,
      "countryCode": "jp",
      "rawTags": {
        "name": "阿波山川",
        "name:en": "Awa-Yamakawa",
        "name:ja": "阿波山川",
        "name:ja-Hira": "あわやまかわ",
        "name:ja-Latn": "Awa-Yamakawa",
        "name:ko": "아와카와시마",
        "public_transport": "station",
        "railway": "station",
        "ref": "B14",
        "train": "yes",
        "wikidata": "Q4829623",
        "wikipedia": "ja:阿波山川駅"
      }
    },
    {
      "id": "tokushima_station_9909402271",
      "osmId": 9909402271,
      "osmType": "node",
      "prefectureId": "tokushima",
      "type": "station",
      "subtype": "private",
      "name": "阿波半田",
      "nameKana": "あわはんだ",
      "nameEn": "Awa-handa",
      "operator": null,
      "network": null,
      "ref": "B19",
      "latitude": 34.0409967,
      "longitude": 134.0363681,
      "countryCode": "jp",
      "rawTags": {
        "name": "阿波半田",
        "name:en": "Awa-handa",
        "name:ja": "阿波半田",
        "name:ja-Hira": "あわはんだ",
        "name:ko": "아와한다",
        "public_transport": "station",
        "railway": "station",
        "ref": "B19",
        "train": "yes",
        "wikidata": "Q4829609",
        "wikipedia": "ja:阿波半田駅"
      }
    },
    {
      "id": "tokushima_ferry_terminal_11960928329",
      "osmId": 11960928329,
      "osmType": "node",
      "prefectureId": "tokushima",
      "type": "ferry_terminal",
      "subtype": null,
      "name": "答島港",
      "nameKana": "こたじまこう",
      "nameEn": "Kotajima Port",
      "operator": null,
      "network": null,
      "ref": null,
      "latitude": 33.8846251,
      "longitude": 134.6544852,
      "countryCode": "jp",
      "rawTags": {
        "amenity": "ferry_terminal",
        "name": "答島港",
        "name:en": "Kotajima Port",
        "name:ja-Hira": "こたじまこう"
      }
    },
    {
      "id": "tokushima_bus_terminal_11960939902",
      "osmId": 11960939902,
      "osmType": "node",
      "prefectureId": "tokushima",
      "type": "bus_terminal",
      "subtype": null,
      "name": "橘営業所",
      "nameKana": null,
      "nameEn": null,
      "operator": null,
      "network": null,
      "ref": null,
      "latitude": 33.8772139,
      "longitude": 134.6480271,
      "countryCode": "jp",
      "rawTags": {
        "amenity": "bus_station",
        "bus": "yes",
        "name": "橘営業所",
        "public_transport": "station"
      }
    },
    {
      "id": "tokushima_ferry_terminal_12039419289",
      "osmId": 12039419289,
      "osmType": "node",
      "prefectureId": "tokushima",
      "type": "ferry_terminal",
      "subtype": null,
      "name": "徳島港",
      "nameKana": null,
      "nameEn": "Tokushima Port",
      "operator": null,
      "network": null,
      "ref": null,
      "latitude": 34.0563961,
      "longitude": 134.5836434,
      "countryCode": "jp",
      "rawTags": {
        "amenity": "ferry_terminal",
        "cargo": "passengers",
        "ferry": "yes",
        "name": "徳島港",
        "name:en": "Tokushima Port",
        "name:ja": "徳島港",
        "name:ja-Latn": "Tokushimako",
        "public_transport": "stop_position"
      }
    },
    {
      "id": "tokushima_station_12338374070",
      "osmId": 12338374070,
      "osmType": "node",
      "prefectureId": "tokushima",
      "type": "station",
      "subtype": "jr",
      "name": "阿波大宮",
      "nameKana": null,
      "nameEn": "Awa-Ōmiya",
      "operator": "四国旅客鉄道",
      "network": null,
      "ref": "T08",
      "latitude": 34.178563,
      "longitude": 134.4487946,
      "countryCode": "jp",
      "rawTags": {
        "name": "阿波大宮",
        "name:en": "Awa-Ōmiya",
        "operator": "四国旅客鉄道",
        "public_transport": "station",
        "railway": "station",
        "ref": "T08",
        "wikidata": "Q4829629",
        "wikipedia": "ja:阿波大宮駅"
      }
    },
    {
      "id": "tokushima_station_12338374093",
      "osmId": 12338374093,
      "osmType": "node",
      "prefectureId": "tokushima",
      "type": "station",
      "subtype": "private",
      "name": "阿波川端",
      "nameKana": null,
      "nameEn": "Awa-Kawabata",
      "operator": null,
      "network": null,
      "ref": "T06",
      "latitude": 34.1488775,
      "longitude": 134.4837411,
      "countryCode": "jp",
      "rawTags": {
        "name": "阿波川端",
        "name:en": "Awa-Kawabata",
        "name:ja": "阿波川端",
        "name:ko": "아와카와바타",
        "public_transport": "station",
        "railway": "station",
        "ref": "T06",
        "wikidata": "Q8190594",
        "wikipedia": "ja:阿波川端駅"
      }
    },
    {
      "id": "tokushima_station_12338374094",
      "osmId": 12338374094,
      "osmType": "node",
      "prefectureId": "tokushima",
      "type": "station",
      "subtype": "private",
      "name": "板東",
      "nameKana": null,
      "nameEn": "Bando",
      "operator": null,
      "network": null,
      "ref": "T05",
      "latitude": 34.155322,
      "longitude": 134.5070405,
      "countryCode": "jp",
      "rawTags": {
        "name": "板東",
        "name:en": "Bando",
        "name:ja": "板東",
        "name:ja-Latn": "Bandō",
        "name:ko": "반도",
        "public_transport": "station",
        "railway": "station",
        "ref": "T05",
        "wikidata": "Q4854805",
        "wikipedia": "ja:板東駅"
      }
    },
    {
      "id": "tokushima_bus_terminal_295377949",
      "osmId": 295377949,
      "osmType": "way",
      "prefectureId": "tokushima",
      "type": "bus_terminal",
      "subtype": null,
      "name": "海部観光",
      "nameKana": null,
      "nameEn": null,
      "operator": null,
      "network": null,
      "ref": null,
      "latitude": 34.0725676,
      "longitude": 134.552244,
      "countryCode": "jp",
      "rawTags": {
        "amenity": "bus_station",
        "building": "yes",
        "name": "海部観光",
        "source": "GSI/KIBAN 2500;NARO",
        "wheelchair": "limited"
      }
    },
    {
      "id": "tokushima_bus_terminal_314631063",
      "osmId": 314631063,
      "osmType": "way",
      "prefectureId": "tokushima",
      "type": "bus_terminal",
      "subtype": null,
      "name": "徳島とくとくターミナル",
      "nameKana": null,
      "nameEn": null,
      "operator": null,
      "network": null,
      "ref": null,
      "latitude": 34.1425845,
      "longitude": 134.5772706,
      "countryCode": "jp",
      "rawTags": {
        "addr:city": "板野郡松茂町",
        "addr:housenumber": "14-1",
        "addr:street": "中喜来字前原東四番越",
        "amenity": "bus_station",
        "building": "yes",
        "check_date": "2024-07-29",
        "name": "徳島とくとくターミナル"
      }
    },
    {
      "id": "tokushima_bus_terminal_317296195",
      "osmId": 317296195,
      "osmType": "way",
      "prefectureId": "tokushima",
      "type": "bus_terminal",
      "subtype": null,
      "name": "高速バス乗り場 (JRバス,徳島バス等)",
      "nameKana": null,
      "nameEn": null,
      "operator": null,
      "network": null,
      "ref": null,
      "latitude": 34.0736678,
      "longitude": 134.5516505,
      "countryCode": "jp",
      "rawTags": {
        "amenity": "bus_station",
        "building": "yes",
        "name": "高速バス乗り場 (JRバス,徳島バス等)",
        "wheelchair": "yes"
      }
    },
    {
      "id": "tokushima_ferry_terminal_757735682",
      "osmId": 757735682,
      "osmType": "way",
      "prefectureId": "tokushima",
      "type": "ferry_terminal",
      "subtype": null,
      "name": "オーシャン東九フェリー",
      "nameKana": null,
      "nameEn": null,
      "operator": null,
      "network": null,
      "ref": null,
      "latitude": 34.0539605,
      "longitude": 134.5967309,
      "countryCode": "jp",
      "rawTags": {
        "amenity": "ferry_terminal",
        "building": "transportation",
        "cargo": "passengers;vehicle",
        "ferry": "yes",
        "name": "オーシャン東九フェリー",
        "public_transport": "station"
      }
    },
    {
      "id": "tokushima_ferry_terminal_1299710252",
      "osmId": 1299710252,
      "osmType": "way",
      "prefectureId": "tokushima",
      "type": "ferry_terminal",
      "subtype": null,
      "name": "徳島港のりば",
      "nameKana": null,
      "nameEn": "Tokushima Port Terminal",
      "operator": "南海フェリー",
      "network": null,
      "ref": null,
      "latitude": 34.0564289,
      "longitude": 134.5842627,
      "countryCode": "jp",
      "rawTags": {
        "amenity": "ferry_terminal",
        "building": "transportation",
        "building:levels": "2",
        "ferry": "yes",
        "name": "徳島港のりば",
        "name:en": "Tokushima Port Terminal",
        "name:ja": "徳島港のりば",
        "operator": "南海フェリー",
        "operator:en": "Nankai Ferry",
        "operator:wikidata": "Q11408164",
        "public_transport": "station",
        "roof:shape": "flat"
      }
    },
    {
      "id": "tokushima_airport_2069301",
      "osmId": 2069301,
      "osmType": "relation",
      "prefectureId": "tokushima",
      "type": "airport",
      "subtype": "domestic",
      "name": "徳島阿波おどり空港",
      "nameKana": null,
      "nameEn": "Tokushima Airport",
      "operator": "海上自衛隊",
      "network": null,
      "ref": "TKS",
      "latitude": 34.1329249,
      "longitude": 134.6063975,
      "countryCode": "jp",
      "rawTags": {
        "aerodrome:type": "military/public",
        "aeroway": "aerodrome",
        "closest_town": "Tokushima, Japan",
        "ele": "11",
        "iata": "TKS",
        "icao": "RJOS",
        "layer": "1",
        "name": "徳島阿波おどり空港",
        "name:en": "Tokushima Airport",
        "name:ja": "徳島阿波おどり空港",
        "name:ja_rm": "Tokushima AWAODORI Kukou",
        "name:ko": "도쿠시마 아와오도리공항",
        "official_name": "徳島飛行場",
        "operator": "海上自衛隊",
        "source": "wikipedia",
        "source_ref": "http://nlftp.mlit.go.jp/ksj/jpgis/datalist/KsjTmplt-C28-v1_1.html",
        "type": "multipolygon",
        "wikidata": "Q1142453",
        "wikipedia": "ja:徳島飛行場",
        "wikipedia:en": "Tokushima Airport"
      }
    }
  ]
}