{
  "fetchedAt": "2025-12-12T05:32:01.114Z",
  "prefectureId": "tottori",
  "prefectureName": "鳥取県",
  "stats": {
    "station": 73,
    "airport": 3,
    "ferry_terminal": 2,
    "bus_terminal": 5,
    "total": 83
  },
  "data": [
    {
      "id": "tottori_station_265966955",
      "osmId": 265966955,
      "osmType": "node",
      "prefectureId": "tottori",
      "type": "station",
      "subtype": "private",
      "name": "岩美",
      "nameKana": "いわみ",
      "nameEn": "Iwami",
      "operator": null,
      "network": null,
      "ref": null,
      "latitude": 35.5743474,
      "longitude": 134.3356145,
      "countryCode": "jp",
      "rawTags": {
        "addr:block_number": "809",
        "addr:city": "岩美町",
        "addr:county": "岩美郡",
        "addr:full": "鳥取県岩美郡岩美町大字浦富字国次809",
        "addr:neighbourhood": "国次",
        "addr:province": "鳥取県",
        "addr:quarter": "浦富",
        "name": "岩美",
        "name:en": "Iwami",
        "name:ja-Hira": "いわみ",
        "name:ko": "이와미",
        "note": "National-Land Numerical Information (Railway) 2007, MLIT Japan",
        "note:ja": "国土数値情報（鉄道データ）平成19年　国土交通省",
        "public_transport": "station",
        "railway": "station",
        "source": "KSJ2",
        "source_ref": "http://nlftp.mlit.go.jp/ksj/jpgis/datalist/KsjTmplt-N02-v1_1.html",
        "wikidata": "Q899398",
        "wikipedia": "ja:岩美駅"
      }
    },
    {
      "id": "tottori_station_265967311",
      "osmId": 265967311,
      "osmType": "node",
      "prefectureId": "tottori",
      "type": "station",
      "subtype": "private",
      "name": "浜村",
      "nameKana": null,
      "nameEn": "Hamamura",
      "operator": null,
      "network": null,
      "ref": null,
      "latitude": 35.5094493,
      "longitude": 134.0507709,
      "countryCode": "jp",
      "rawTags": {
        "KSJ2:LIN": "山陰線",
        "KSJ2:STN": "浜村",
        "name": "浜村",
        "name:en": "Hamamura",
        "name:ja": "浜村",
        "name:ko": "하마무라",
        "note": "National-Land Numerical Information (Railway) 2007, MLIT Japan",
        "note:ja": "国土数値情報（鉄道データ）平成19年　国土交通省",
        "public_transport": "station",
        "railway": "station",
        "source": "KSJ2",
        "source_ref": "http://nlftp.mlit.go.jp/ksj/jpgis/datalist/KsjTmplt-N02-v1_1.html",
        "train": "yes",
        "wikidata": "Q899246",
        "wikipedia": "ja:浜村駅"
      }
    },
    {
      "id": "tottori_station_265967497",
      "osmId": 265967497,
      "osmType": "node",
      "prefectureId": "tottori",
      "type": "station",
      "subtype": "private",
      "name": "福部",
      "nameKana": null,
      "nameEn": "Fukube",
      "operator": null,
      "network": null,
      "ref": null,
      "latitude": 35.5453668,
      "longitude": 134.2875606,
      "countryCode": "jp",
      "rawTags": {
        "KSJ2:LIN": "山陰線",
        "KSJ2:STN": "福部",
        "name": "福部",
        "name:en": "Fukube",
        "name:ja": "福部",
        "name:ko": "후쿠베",
        "note": "National-Land Numerical Information (Railway) 2007, MLIT Japan",
        "note:ja": "国土数値情報（鉄道データ）平成19年　国土交通省",
        "public_transport": "station",
        "railway": "station",
        "source": "KSJ2",
        "source_ref": "http://nlftp.mlit.go.jp/ksj/jpgis/datalist/KsjTmplt-N02-v1_1.html",
        "wikidata": "Q899483",
        "wikipedia": "ja:福部駅"
      }
    },
    {
      "id": "tottori_station_265967530",
      "osmId": 265967530,
      "osmType": "node",
      "prefectureId": "tottori",
      "type": "station",
      "subtype": "private",
      "name": "泊",
      "nameKana": null,
      "nameEn": "Tomari",
      "operator": null,
      "network": null,
      "ref": null,
      "latitude": 35.5093299,
      "longitude": 133.9364151,
      "countryCode": "jp",
      "rawTags": {
        "KSJ2:LIN": "山陰線",
        "KSJ2:STN": "泊",
        "name": "泊",
        "name:en": "Tomari",
        "name:ja": "泊",
        "name:ko": "도마리",
        "note": "National-Land Numerical Information (Railway) 2007, MLIT Japan",
        "note:ja": "国土数値情報（鉄道データ）平成19年　国土交通省",
        "public_transport": "station",
        "railway": "station",
        "source": "KSJ2",
        "source_ref": "http://nlftp.mlit.go.jp/ksj/jpgis/datalist/KsjTmplt-N02-v1_1.html",
        "wikidata": "Q899296",
        "wikipedia": "ja:泊駅 (鳥取県)"
      }
    },
    {
      "id": "tottori_station_265967534",
      "osmId": 265967534,
      "osmType": "node",
      "prefectureId": "tottori",
      "type": "station",
      "subtype": "private",
      "name": "東浜",
      "nameKana": null,
      "nameEn": "Higashihama",
      "operator": null,
      "network": null,
      "ref": null,
      "latitude": 35.5996524,
      "longitude": 134.3626707,
      "countryCode": "jp",
      "rawTags": {
        "KSJ2:LIN": "山陰線",
        "KSJ2:STN": "東浜",
        "name": "東浜",
        "name:en": "Higashihama",
        "name:ja": "東浜",
        "name:ko": "히가시하마",
        "note": "National-Land Numerical Information (Railway) 2007, MLIT Japan",
        "note:ja": "国土数値情報（鉄道データ）平成19年　国土交通省",
        "railway": "station",
        "source": "KSJ2",
        "source_ref": "http://nlftp.mlit.go.jp/ksj/jpgis/datalist/KsjTmplt-N02-v1_1.html",
        "wikidata": "Q899136",
        "wikipedia": "ja:東浜駅"
      }
    },
    {
      "id": "tottori_station_265967740",
      "osmId": 265967740,
      "osmType": "node",
      "prefectureId": "tottori",
      "type": "station",
      "subtype": "private",
      "name": "宝木",
      "nameKana": null,
      "nameEn": "Hōgi",
      "operator": null,
      "network": null,
      "ref": null,
      "latitude": 35.5140421,
      "longitude": 134.0822813,
      "countryCode": "jp",
      "rawTags": {
        "KSJ2:LIN": "山陰線",
        "KSJ2:STN": "宝木",
        "name": "宝木",
        "name:en": "Hōgi",
        "name:ja": "宝木",
        "name:ko": "호기",
        "note": "National-Land Numerical Information (Railway) 2007, MLIT Japan",
        "note:ja": "国土数値情報（鉄道データ）平成19年　国土交通省",
        "public_transport": "station",
        "railway": "station",
        "source": "KSJ2",
        "source_ref": "http://nlftp.mlit.go.jp/ksj/jpgis/datalist/KsjTmplt-N02-v1_1.html",
        "wikidata": "Q899305",
        "wikipedia": "ja:宝木駅"
      }
    },
    {
      "id": "tottori_station_265967742",
      "osmId": 265967742,
      "osmType": "node",
      "prefectureId": "tottori",
      "type": "station",
      "subtype": "private",
      "name": "末恒",
      "nameKana": null,
      "nameEn": "Suetsune",
      "operator": null,
      "network": null,
      "ref": null,
      "latitude": 35.5240896,
      "longitude": 134.1361024,
      "countryCode": "jp",
      "rawTags": {
        "KSJ2:LIN": "山陰線",
        "KSJ2:STN": "末恒",
        "name": "末恒",
        "name:en": "Suetsune",
        "name:ja": "末恒",
        "name:ko": "스에쓰네",
        "note": "National-Land Numerical Information (Railway) 2007, MLIT Japan",
        "note:ja": "国土数値情報（鉄道データ）平成19年　国土交通省",
        "public_transport": "station",
        "railway": "station",
        "source": "KSJ2",
        "source_ref": "http://nlftp.mlit.go.jp/ksj/jpgis/datalist/KsjTmplt-N02-v1_1.html",
        "wikidata": "Q899337",
        "wikipedia": "ja:末恒駅"
      }
    },
    {
      "id": "tottori_station_265968081",
      "osmId": 265968081,
      "osmType": "node",
      "prefectureId": "tottori",
      "type": "station",
      "subtype": "private",
      "name": "青谷",
      "nameKana": null,
      "nameEn": "Aoya",
      "operator": null,
      "network": null,
      "ref": null,
      "latitude": 35.5160847,
      "longitude": 133.9957574,
      "countryCode": "jp",
      "rawTags": {
        "KSJ2:LIN": "山陰線",
        "KSJ2:STN": "青谷",
        "name": "青谷",
        "name:en": "Aoya",
        "name:ja": "青谷",
        "name:ko": "아오야",
        "note": "National-Land Numerical Information (Railway) 2007, MLIT Japan",
        "note:ja": "国土数値情報（鉄道データ）平成19年　国土交通省",
        "public_transport": "station",
        "railway": "station",
        "source": "KSJ2",
        "source_ref": "http://nlftp.mlit.go.jp/ksj/jpgis/datalist/KsjTmplt-N02-v1_1.html",
        "wikidata": "Q899423",
        "wikipedia": "ja:青谷駅"
      }
    },
    {
      "id": "tottori_station_265968236",
      "osmId": 265968236,
      "osmType": "node",
      "prefectureId": "tottori",
      "type": "station",
      "subtype": "private",
      "name": "湖山",
      "nameKana": null,
      "nameEn": "Koyama",
      "operator": null,
      "network": null,
      "ref": null,
      "latitude": 35.5135786,
      "longitude": 134.1861452,
      "countryCode": "jp",
      "rawTags": {
        "KSJ2:LIN": "山陰線",
        "KSJ2:STN": "湖山",
        "name": "湖山",
        "name:en": "Koyama",
        "name:ja": "湖山",
        "name:ko": "고야마",
        "note": "National-Land Numerical Information (Railway) 2007, MLIT Japan",
        "note:ja": "国土数値情報（鉄道データ）平成19年　国土交通省",
        "public_transport": "station",
        "railway": "station",
        "source": "KSJ2",
        "source_ref": "http://nlftp.mlit.go.jp/ksj/jpgis/datalist/KsjTmplt-N02-v1_1.html",
        "wikidata": "Q899280",
        "wikipedia": "ja:湖山駅"
      }
    },
    {
      "id": "tottori_station_265968790",
      "osmId": 265968790,
      "osmType": "node",
      "prefectureId": "tottori",
      "type": "station",
      "subtype": "private",
      "name": "赤碕",
      "nameKana": null,
      "nameEn": "Akasaki",
      "operator": null,
      "network": null,
      "ref": null,
      "latitude": 35.5123671,
      "longitude": 133.6346038,
      "countryCode": "jp",
      "rawTags": {
        "KSJ2:LIN": "山陰線",
        "KSJ2:STN": "赤碕",
        "name": "赤碕",
        "name:en": "Akasaki",
        "name:ja": "赤碕",
        "name:ko": "아카사키",
        "note": "National-Land Numerical Information (Railway) 2007, MLIT Japan",
        "note:ja": "国土数値情報（鉄道データ）平成19年　国土交通省",
        "public_transport": "station",
        "railway": "station",
        "source": "KSJ2",
        "source_ref": "http://nlftp.mlit.go.jp/ksj/jpgis/datalist/KsjTmplt-N02-v1_1.html",
        "wikidata": "Q899752",
        "wikipedia": "ja:赤碕駅"
      }
    },
    {
      "id": "tottori_station_265968978",
      "osmId": 265968978,
      "osmType": "node",
      "prefectureId": "tottori",
      "type": "station",
      "subtype": "private",
      "name": "大岩",
      "nameKana": "おおいわえき",
      "nameEn": "Ōiwa",
      "operator": null,
      "network": null,
      "ref": null,
      "latitude": 35.5669231,
      "longitude": 134.3084831,
      "countryCode": "jp",
      "rawTags": {
        "KSJ2:LIN": "山陰線",
        "KSJ2:STN": "大岩",
        "name": "大岩",
        "name:en": "Ōiwa",
        "name:ja": "大岩",
        "name:ja-Hira": "おおいわえき",
        "name:ko": "오이와",
        "note": "National-Land Numerical Information (Railway) 2007, MLIT Japan",
        "note:ja": "国土数値情報（鉄道データ）平成19年　国土交通省",
        "public_transport": "station",
        "railway": "station",
        "source": "KSJ2",
        "source_ref": "http://nlftp.mlit.go.jp/ksj/jpgis/datalist/KsjTmplt-N02-v1_1.html",
        "wikidata": "Q899457",
        "wikipedia": "ja:大岩駅"
      }
    },
    {
      "id": "tottori_station_265969686",
      "osmId": 265969686,
      "osmType": "node",
      "prefectureId": "tottori",
      "type": "station",
      "subtype": "private",
      "name": "淀江",
      "nameKana": null,
      "nameEn": "Yodoe",
      "operator": null,
      "network": null,
      "ref": null,
      "latitude": 35.4569568,
      "longitude": 133.4297461,
      "countryCode": "jp",
      "rawTags": {
        "KSJ2:LIN": "山陰線",
        "KSJ2:STN": "淀江",
        "name": "淀江",
        "name:en": "Yodoe",
        "name:ja": "淀江",
        "name:ko": "요도에",
        "note": "National-Land Numerical Information (Railway) 2007, MLIT Japan",
        "note:ja": "国土数値情報（鉄道データ）平成19年　国土交通省",
        "railway": "station",
        "source": "KSJ2",
        "source_ref": "http://nlftp.mlit.go.jp/ksj/jpgis/datalist/KsjTmplt-N02-v1_1.html",
        "wikidata": "Q900244",
        "wikipedia": "ja:淀江駅"
      }
    },
    {
      "id": "tottori_station_265969759",
      "osmId": 265969759,
      "osmType": "node",
      "prefectureId": "tottori",
      "type": "station",
      "subtype": "private",
      "name": "八橋",
      "nameKana": null,
      "nameEn": "Yabase",
      "operator": null,
      "network": null,
      "ref": null,
      "latitude": 35.5031458,
      "longitude": 133.6734517,
      "countryCode": "jp",
      "rawTags": {
        "KSJ2:LIN": "山陰線",
        "KSJ2:STN": "八橋",
        "name": "八橋",
        "name:en": "Yabase",
        "name:ja": "八橋",
        "name:ko": "야바세",
        "note": "National-Land Numerical Information (Railway) 2007, MLIT Japan",
        "note:ja": "国土数値情報（鉄道データ）平成19年　国土交通省",
        "railway": "station",
        "source": "KSJ2",
        "source_ref": "http://nlftp.mlit.go.jp/ksj/jpgis/datalist/KsjTmplt-N02-v1_1.html",
        "wikidata": "Q899958",
        "wikipedia": "ja:八橋駅"
      }
    },
    {
      "id": "tottori_station_265969834",
      "osmId": 265969834,
      "osmType": "node",
      "prefectureId": "tottori",
      "type": "station",
      "subtype": "private",
      "name": "松崎",
      "nameKana": null,
      "nameEn": "Matsuzaki",
      "operator": null,
      "network": null,
      "ref": null,
      "latitude": 35.4687232,
      "longitude": 133.9020574,
      "countryCode": "jp",
      "rawTags": {
        "KSJ2:LIN": "山陰線",
        "KSJ2:STN": "松崎",
        "name": "松崎",
        "name:en": "Matsuzaki",
        "name:ja": "松崎",
        "name:ko": "마쓰자키",
        "note": "National-Land Numerical Information (Railway) 2007, MLIT Japan",
        "note:ja": "国土数値情報（鉄道データ）平成19年　国土交通省",
        "public_transport": "station",
        "railway": "station",
        "source": "KSJ2",
        "source_ref": "http://nlftp.mlit.go.jp/ksj/jpgis/datalist/KsjTmplt-N02-v1_1.html",
        "wikidata": "Q899411",
        "wikipedia": "ja:松崎駅 (鳥取県)"
      }
    },
    {
      "id": "tottori_station_265969837",
      "osmId": 265969837,
      "osmType": "node",
      "prefectureId": "tottori",
      "type": "station",
      "subtype": "private",
      "name": "下北条",
      "nameKana": null,
      "nameEn": "Shimohōjō",
      "operator": null,
      "network": null,
      "ref": null,
      "latitude": 35.4820266,
      "longitude": 133.8087031,
      "countryCode": "jp",
      "rawTags": {
        "KSJ2:LIN": "山陰線",
        "KSJ2:STN": "下北条",
        "name": "下北条",
        "name:en": "Shimohōjō",
        "name:ja": "下北条",
        "name:ko": "시모호조",
        "note": "National-Land Numerical Information (Railway) 2007, MLIT Japan",
        "note:ja": "国土数値情報（鉄道データ）平成19年　国土交通省",
        "public_transport": "station",
        "railway": "station",
        "source": "KSJ2",
        "source_ref": "http://nlftp.mlit.go.jp/ksj/jpgis/datalist/KsjTmplt-N02-v1_1.html",
        "wikidata": "Q900470",
        "wikipedia": "ja:下北条駅"
      }
    },
    {
      "id": "tottori_station_265970068",
      "osmId": 265970068,
      "osmType": "node",
      "prefectureId": "tottori",
      "type": "station",
      "subtype": "private",
      "name": "大山口",
      "nameKana": null,
      "nameEn": "Daisenguchi",
      "operator": null,
      "network": null,
      "ref": null,
      "latitude": 35.4849974,
      "longitude": 133.4567678,
      "countryCode": "jp",
      "rawTags": {
        "KSJ2:LIN": "山陰線",
        "KSJ2:STN": "大山口",
        "name": "大山口",
        "name:en": "Daisenguchi",
        "name:ja": "大山口",
        "name:ko": "다이센구치",
        "note": "National-Land Numerical Information (Railway) 2007, MLIT Japan",
        "note:ja": "国土数値情報（鉄道データ）平成19年　国土交通省",
        "railway": "station",
        "source": "KSJ2",
        "source_ref": "http://nlftp.mlit.go.jp/ksj/jpgis/datalist/KsjTmplt-N02-v1_1.html",
        "wheelchair": "yes",
        "wikidata": "Q900286",
        "wikipedia": "ja:大山口駅"
      }
    },
    {
      "id": "tottori_station_265970070",
      "osmId": 265970070,
      "osmType": "node",
      "prefectureId": "tottori",
      "type": "station",
      "subtype": "private",
      "name": "下市",
      "nameKana": null,
      "nameEn": "Shimoichi",
      "operator": null,
      "network": null,
      "ref": null,
      "latitude": 35.5187494,
      "longitude": 133.5662895,
      "countryCode": "jp",
      "rawTags": {
        "KSJ2:LIN": "山陰線",
        "KSJ2:STN": "下市",
        "name": "下市",
        "name:en": "Shimoichi",
        "name:ja": "下市",
        "name:ko": "시모이치",
        "note": "National-Land Numerical Information (Railway) 2007, MLIT Japan",
        "note:ja": "国土数値情報（鉄道データ）平成19年　国土交通省",
        "railway": "station",
        "source": "KSJ2",
        "source_ref": "http://nlftp.mlit.go.jp/ksj/jpgis/datalist/KsjTmplt-N02-v1_1.html",
        "wikidata": "Q900573",
        "wikipedia": "ja:下市駅"
      }
    },
    {
      "id": "tottori_station_265970072",
      "osmId": 265970072,
      "osmType": "node",
      "prefectureId": "tottori",
      "type": "station",
      "subtype": "private",
      "name": "名和",
      "nameKana": null,
      "nameEn": "Nawa",
      "operator": null,
      "network": null,
      "ref": null,
      "latitude": 35.5074264,
      "longitude": 133.4918969,
      "countryCode": "jp",
      "rawTags": {
        "KSJ2:LIN": "山陰線",
        "KSJ2:STN": "名和",
        "name": "名和",
        "name:en": "Nawa",
        "name:ja": "名和",
        "name:ko": "나와",
        "note": "National-Land Numerical Information (Railway) 2007, MLIT Japan",
        "note:ja": "国土数値情報（鉄道データ）平成19年　国土交通省",
        "railway": "station",
        "source": "KSJ2",
        "source_ref": "http://nlftp.mlit.go.jp/ksj/jpgis/datalist/KsjTmplt-N02-v1_1.html",
        "wikidata": "Q431947",
        "wikipedia": "ja:名和駅 (鳥取県)"
      }
    },
    {
      "id": "tottori_station_265970074",
      "osmId": 265970074,
      "osmType": "node",
      "prefectureId": "tottori",
      "type": "station",
      "subtype": "private",
      "name": "浦安",
      "nameKana": null,
      "nameEn": "Urayasu",
      "operator": null,
      "network": null,
      "ref": null,
      "latitude": 35.4996863,
      "longitude": 133.6933811,
      "countryCode": "jp",
      "rawTags": {
        "KSJ2:LIN": "山陰線",
        "KSJ2:STN": "浦安",
        "name": "浦安",
        "name:en": "Urayasu",
        "name:ja": "浦安",
        "name:ko": "우라야스",
        "note": "National-Land Numerical Information (Railway) 2007, MLIT Japan",
        "note:ja": "国土数値情報（鉄道データ）平成19年　国土交通省",
        "public_transport": "station",
        "railway": "station",
        "source": "KSJ2",
        "source_ref": "http://nlftp.mlit.go.jp/ksj/jpgis/datalist/KsjTmplt-N02-v1_1.html",
        "train": "yes",
        "wheelchair": "yes",
        "wikidata": "Q900577",
        "wikipedia": "ja:浦安駅 (鳥取県)"
      }
    },
    {
      "id": "tottori_station_265970075",
      "osmId": 265970075,
      "osmType": "node",
      "prefectureId": "tottori",
      "type": "station",
      "subtype": "private",
      "name": "中山口",
      "nameKana": null,
      "nameEn": "Nakayamaguchi",
      "operator": null,
      "network": null,
      "ref": null,
      "latitude": 35.5207061,
      "longitude": 133.5902338,
      "countryCode": "jp",
      "rawTags": {
        "KSJ2:LIN": "山陰線",
        "KSJ2:STN": "中山口",
        "name": "中山口",
        "name:en": "Nakayamaguchi",
        "name:ja": "中山口",
        "name:ko": "나카야마구치",
        "note": "National-Land Numerical Information (Railway) 2007, MLIT Japan",
        "note:ja": "国土数値情報（鉄道データ）平成19年　国土交通省",
        "railway": "station",
        "source": "KSJ2",
        "source_ref": "http://nlftp.mlit.go.jp/ksj/jpgis/datalist/KsjTmplt-N02-v1_1.html",
        "wikidata": "Q900346",
        "wikipedia": "ja:中山口駅"
      }
    },
    {
      "id": "tottori_station_265970097",
      "osmId": 265970097,
      "osmType": "node",
      "prefectureId": "tottori",
      "type": "station",
      "subtype": "private",
      "name": "由良",
      "nameKana": null,
      "nameEn": "Yura",
      "operator": null,
      "network": null,
      "ref": null,
      "latitude": 35.490244,
      "longitude": 133.7544842,
      "countryCode": "jp",
      "rawTags": {
        "KSJ2:LIN": "山陰線",
        "KSJ2:STN": "由良",
        "name": "由良",
        "name:en": "Yura",
        "name:ja": "由良",
        "name:ko": "유라",
        "note": "National-Land Numerical Information (Railway) 2007, MLIT Japan",
        "note:ja": "国土数値情報（鉄道データ）平成19年　国土交通省",
        "public_transport": "station",
        "railway": "station",
        "source": "KSJ2",
        "source_ref": "http://nlftp.mlit.go.jp/ksj/jpgis/datalist/KsjTmplt-N02-v1_1.html",
        "wikidata": "Q899737",
        "wikipedia": "ja:由良駅"
      }
    },
    {
      "id": "tottori_station_265970099",
      "osmId": 265970099,
      "osmType": "node",
      "prefectureId": "tottori",
      "type": "station",
      "subtype": "private",
      "name": "東山公園",
      "nameKana": null,
      "nameEn": "Higashiyamakōen",
      "operator": null,
      "network": null,
      "ref": null,
      "latitude": 35.4308297,
      "longitude": 133.3516092,
      "countryCode": "jp",
      "rawTags": {
        "KSJ2:LIN": "山陰線",
        "KSJ2:STN": "東山公園",
        "alt_name:ko": "히가시야마코엔",
        "name": "東山公園",
        "name:en": "Higashiyamakōen",
        "name:ja": "東山公園",
        "name:ko": "히가시야마공원",
        "note": "National-Land Numerical Information (Railway) 2007, MLIT Japan",
        "note:ja": "国土数値情報（鉄道データ）平成19年　国土交通省",
        "public_transport": "station",
        "railway": "station",
        "source": "KSJ2",
        "source_ref": "http://nlftp.mlit.go.jp/ksj/jpgis/datalist/KsjTmplt-N02-v1_1.html",
        "wheelchair": "no",
        "wikidata": "Q1058066",
        "wikipedia": "ja:東山公園駅 (鳥取県)"
      }
    },
    {
      "id": "tottori_station_265970164",
      "osmId": 265970164,
      "osmType": "node",
      "prefectureId": "tottori",
      "type": "station",
      "subtype": "private",
      "name": "御来屋",
      "nameKana": null,
      "nameEn": "Mikuriya",
      "operator": null,
      "network": null,
      "ref": null,
      "latitude": 35.5121754,
      "longitude": 133.5029816,
      "countryCode": "jp",
      "rawTags": {
        "KSJ2:LIN": "山陰線",
        "KSJ2:STN": "御来屋",
        "name": "御来屋",
        "name:en": "Mikuriya",
        "name:ja": "御来屋",
        "name:ko": "미쿠리야",
        "note": "National-Land Numerical Information (Railway) 2007, MLIT Japan",
        "note:ja": "国土数値情報（鉄道データ）平成19年　国土交通省",
        "railway": "station",
        "source": "KSJ2",
        "source_ref": "http://nlftp.mlit.go.jp/ksj/jpgis/datalist/KsjTmplt-N02-v1_1.html",
        "wikidata": "Q900618",
        "wikipedia": "ja:御来屋駅"
      }
    },
    {
      "id": "tottori_station_266088570",
      "osmId": 266088570,
      "osmType": "node",
      "prefectureId": "tottori",
      "type": "station",
      "subtype": "private",
      "name": "岸本",
      "nameKana": null,
      "nameEn": "Kishimoto",
      "operator": null,
      "network": null,
      "ref": null,
      "latitude": 35.3874629,
      "longitude": 133.4096642,
      "countryCode": "jp",
      "rawTags": {
        "KSJ2:LIN": "伯備線",
        "KSJ2:STN": "岸本",
        "name": "岸本",
        "name:en": "Kishimoto",
        "name:ja": "岸本",
        "name:ko": "기시모토",
        "note": "National-Land Numerical Information (Railway) 2007, MLIT Japan",
        "note:ja": "国土数値情報（鉄道データ）平成19年　国土交通省",
        "public_transport": "station",
        "railway": "station",
        "source": "KSJ2",
        "source_ref": "http://nlftp.mlit.go.jp/ksj/jpgis/datalist/KsjTmplt-N02-v1_1.html",
        "train": "yes",
        "wheelchair": "yes",
        "wikidata": "Q6416594",
        "wikipedia": "ja:岸本駅"
      }
    },
    {
      "id": "tottori_station_266088913",
      "osmId": 266088913,
      "osmType": "node",
      "prefectureId": "tottori",
      "type": "station",
      "subtype": "private",
      "name": "上菅",
      "nameKana": null,
      "nameEn": "Kamisuge",
      "operator": null,
      "network": null,
      "ref": null,
      "latitude": 35.1937828,
      "longitude": 133.3415741,
      "countryCode": "jp",
      "rawTags": {
        "KSJ2:LIN": "伯備線",
        "KSJ2:STN": "上菅",
        "name": "上菅",
        "name:en": "Kamisuge",
        "name:ja": "上菅",
        "name:ko": "가미스게",
        "note": "National-Land Numerical Information (Railway) 2007, MLIT Japan",
        "note:ja": "国土数値情報（鉄道データ）平成19年　国土交通省",
        "railway": "station",
        "source": "KSJ2",
        "source_ref": "http://nlftp.mlit.go.jp/ksj/jpgis/datalist/KsjTmplt-N02-v1_1.html",
        "wikidata": "Q11360080",
        "wikipedia": "ja:上菅駅"
      }
    },
    {
      "id": "tottori_station_266088938",
      "osmId": 266088938,
      "osmType": "node",
      "prefectureId": "tottori",
      "type": "station",
      "subtype": "private",
      "name": "根雨",
      "nameKana": null,
      "nameEn": "Neu",
      "operator": null,
      "network": null,
      "ref": null,
      "latitude": 35.24162,
      "longitude": 133.4420322,
      "countryCode": "jp",
      "rawTags": {
        "KSJ2:LIN": "伯備線",
        "KSJ2:STN": "根雨",
        "name": "根雨",
        "name:en": "Neu",
        "name:ja": "根雨",
        "name:ko": "네우",
        "note": "National-Land Numerical Information (Railway) 2007, MLIT Japan",
        "note:ja": "国土数値情報（鉄道データ）平成19年　国土交通省",
        "railway": "station",
        "source": "KSJ2",
        "source_ref": "http://nlftp.mlit.go.jp/ksj/jpgis/datalist/KsjTmplt-N02-v1_1.html",
        "wheelchair": "no",
        "wikidata": "Q7001376",
        "wikipedia": "ja:根雨駅"
      }
    },
    {
      "id": "tottori_station_266089170",
      "osmId": 266089170,
      "osmType": "node",
      "prefectureId": "tottori",
      "type": "station",
      "subtype": "private",
      "name": "武庫",
      "nameKana": null,
      "nameEn": "Muko",
      "operator": null,
      "network": null,
      "ref": null,
      "latitude": 35.267501,
      "longitude": 133.4764904,
      "countryCode": "jp",
      "rawTags": {
        "KSJ2:LIN": "伯備線",
        "KSJ2:STN": "武庫",
        "name": "武庫",
        "name:en": "Muko",
        "name:ja": "武庫",
        "name:ko": "무코",
        "note": "National-Land Numerical Information (Railway) 2007, MLIT Japan",
        "note:ja": "国土数値情報（鉄道データ）平成19年　国土交通省",
        "railway": "station",
        "source": "KSJ2",
        "source_ref": "http://nlftp.mlit.go.jp/ksj/jpgis/datalist/KsjTmplt-N02-v1_1.html",
        "wikidata": "Q6933568",
        "wikipedia": "ja:武庫駅"
      }
    },
    {
      "id": "tottori_station_266090534",
      "osmId": 266090534,
      "osmType": "node",
      "prefectureId": "tottori",
      "type": "station",
      "subtype": "private",
      "name": "生山",
      "nameKana": null,
      "nameEn": "Shōyama",
      "operator": null,
      "network": null,
      "ref": null,
      "latitude": 35.1710725,
      "longitude": 133.3220379,
      "countryCode": "jp",
      "rawTags": {
        "KSJ2:LIN": "伯備線",
        "KSJ2:STN": "生山",
        "name": "生山",
        "name:en": "Shōyama",
        "name:ja": "生山",
        "name:ko": "쇼야마",
        "note": "National-Land Numerical Information (Railway) 2007, MLIT Japan",
        "note:ja": "国土数値情報（鉄道データ）平成19年　国土交通省",
        "public_transport": "station",
        "railway": "station",
        "source": "KSJ2",
        "source_ref": "http://nlftp.mlit.go.jp/ksj/jpgis/datalist/KsjTmplt-N02-v1_1.html",
        "train": "yes",
        "wheelchair": "limited",
        "wikidata": "Q7506251",
        "wikipedia": "ja:生山駅"
      }
    },
    {
      "id": "tottori_station_266090810",
      "osmId": 266090810,
      "osmType": "node",
      "prefectureId": "tottori",
      "type": "station",
      "subtype": "private",
      "name": "江尾",
      "nameKana": null,
      "nameEn": "Ebi",
      "operator": null,
      "network": null,
      "ref": null,
      "latitude": 35.2832987,
      "longitude": 133.4849214,
      "countryCode": "jp",
      "rawTags": {
        "KSJ2:LIN": "伯備線",
        "KSJ2:STN": "江尾",
        "name": "江尾",
        "name:en": "Ebi",
        "name:ja": "江尾",
        "name:ko": "에비",
        "note": "National-Land Numerical Information (Railway) 2007, MLIT Japan",
        "note:ja": "国土数値情報（鉄道データ）平成19年　国土交通省",
        "railway": "station",
        "source": "KSJ2",
        "source_ref": "http://nlftp.mlit.go.jp/ksj/jpgis/datalist/KsjTmplt-N02-v1_1.html",
        "wikidata": "Q5331850",
        "wikipedia": "ja:江尾駅"
      }
    },
    {
      "id": "tottori_station_266108267",
      "osmId": 266108267,
      "osmType": "node",
      "prefectureId": "tottori",
      "type": "station",
      "subtype": "private",
      "name": "黒坂",
      "nameKana": null,
      "nameEn": "Kurosaka",
      "operator": null,
      "network": null,
      "ref": null,
      "latitude": 35.2069959,
      "longitude": 133.3837022,
      "countryCode": "jp",
      "rawTags": {
        "KSJ2:LIN": "伯備線",
        "KSJ2:STN": "黒坂",
        "name": "黒坂",
        "name:en": "Kurosaka",
        "name:ja": "黒坂",
        "name:ko": "구로사카",
        "note": "National-Land Numerical Information (Railway) 2007, MLIT Japan",
        "note:ja": "国土数値情報（鉄道データ）平成19年　国土交通省",
        "public_transport": "station",
        "railway": "station",
        "source": "KSJ2",
        "source_ref": "http://nlftp.mlit.go.jp/ksj/jpgis/datalist/KsjTmplt-N02-v1_1.html",
        "wikidata": "Q6446375",
        "wikipedia": "ja:黒坂駅"
      }
    },
    {
      "id": "tottori_station_266108977",
      "osmId": 266108977,
      "osmType": "node",
      "prefectureId": "tottori",
      "type": "station",
      "subtype": "private",
      "name": "伯耆溝口",
      "nameKana": null,
      "nameEn": "Hoki-Mizoguchi",
      "operator": null,
      "network": null,
      "ref": null,
      "latitude": 35.3482021,
      "longitude": 133.4354226,
      "countryCode": "jp",
      "rawTags": {
        "KSJ2:LIN": "伯備線",
        "KSJ2:STN": "伯耆溝口",
        "name": "伯耆溝口",
        "name:en": "Hoki-Mizoguchi",
        "name:ja": "伯耆溝口",
        "name:ko": "호키미조구치",
        "note": "National-Land Numerical Information (Railway) 2007, MLIT Japan",
        "note:ja": "国土数値情報（鉄道データ）平成19年　国土交通省",
        "public_transport": "stop_position",
        "railway": "station",
        "source": "KSJ2",
        "source_ref": "http://nlftp.mlit.go.jp/ksj/jpgis/datalist/KsjTmplt-N02-v1_1.html",
        "train": "yes",
        "wheelchair": "yes",
        "wikidata": "Q5965218",
        "wikipedia": "ja:伯耆溝口駅"
      }
    },
    {
      "id": "tottori_station_266110961",
      "osmId": 266110961,
      "osmType": "node",
      "prefectureId": "tottori",
      "type": "station",
      "subtype": "private",
      "name": "上石見",
      "nameKana": null,
      "nameEn": "Kamiiwami",
      "operator": null,
      "network": null,
      "ref": null,
      "latitude": 35.1125466,
      "longitude": 133.3512379,
      "countryCode": "jp",
      "rawTags": {
        "KSJ2:LIN": "伯備線",
        "KSJ2:STN": "上石見",
        "name": "上石見",
        "name:en": "Kamiiwami",
        "name:ja": "上石見",
        "name:ko": "가미이와미",
        "note": "National-Land Numerical Information (Railway) 2007, MLIT Japan",
        "note:ja": "国土数値情報（鉄道データ）平成19年　国土交通省",
        "public_transport": "station",
        "railway": "station",
        "source": "KSJ2",
        "source_ref": "http://nlftp.mlit.go.jp/ksj/jpgis/datalist/KsjTmplt-N02-v1_1.html",
        "train": "yes",
        "wikidata": "Q6357148",
        "wikipedia": "ja:上石見駅"
      }
    },
    {
      "id": "tottori_station_266921280",
      "osmId": 266921280,
      "osmType": "node",
      "prefectureId": "tottori",
      "type": "station",
      "subtype": "private",
      "name": "米子",
      "nameKana": null,
      "nameEn": "Yonago",
      "operator": null,
      "network": null,
      "ref": null,
      "latitude": 35.4233042,
      "longitude": 133.3367834,
      "countryCode": "jp",
      "rawTags": {
        "KSJ2:LIN": "境線;山陰線",
        "KSJ2:STN": "米子",
        "alt_name": "ねずみ男駅",
        "contact:website": "https://www.jr-odekake.net/eki/top?id=0640728",
        "name": "米子",
        "name:de": "Yonago",
        "name:en": "Yonago",
        "note": "National-Land Numerical Information (Railway) 2007, MLIT Japan",
        "note:ja": "国土数値情報（鉄道データ）平成19年　国土交通省",
        "public_transport": "station",
        "railway": "station",
        "source": "KSJ2",
        "source_ref": "http://nlftp.mlit.go.jp/ksj/jpgis/datalist/KsjTmplt-N02-v1_1.html",
        "wheelchair": "yes",
        "wikidata": "Q1139558",
        "wikipedia": "ja:米子駅"
      }
    },
    {
      "id": "tottori_station_266921295",
      "osmId": 266921295,
      "osmType": "node",
      "prefectureId": "tottori",
      "type": "station",
      "subtype": "private",
      "name": "中浜",
      "nameKana": null,
      "nameEn": "Nakahama",
      "operator": null,
      "network": null,
      "ref": null,
      "latitude": 35.5068911,
      "longitude": 133.2447123,
      "countryCode": "jp",
      "rawTags": {
        "alt_name": "牛鬼駅",
        "name": "中浜",
        "name:en": "Nakahama",
        "note": "National-Land Numerical Information (Railway) 2007, MLIT Japan",
        "note:ja": "国土数値情報（鉄道データ）平成19年　国土交通省",
        "public_transport": "station",
        "railway": "station",
        "source": "KSJ2",
        "source_ref": "http://nlftp.mlit.go.jp/ksj/jpgis/datalist/KsjTmplt-N02-v1_1.html",
        "wheelchair": "yes",
        "wikidata": "Q4251606",
        "wikipedia": "ja:中浜駅"
      }
    },
    {
      "id": "tottori_station_266921300",
      "osmId": 266921300,
      "osmType": "node",
      "prefectureId": "tottori",
      "type": "station",
      "subtype": "private",
      "name": "富士見町",
      "nameKana": null,
      "nameEn": "Fujimichō",
      "operator": null,
      "network": null,
      "ref": null,
      "latitude": 35.4348286,
      "longitude": 133.3363951,
      "countryCode": "jp",
      "rawTags": {
        "alt_name": "ざしきわらし駅",
        "name": "富士見町",
        "name:en": "Fujimichō",
        "note": "National-Land Numerical Information (Railway) 2007, MLIT Japan",
        "note:ja": "国土数値情報（鉄道データ）平成19年　国土交通省",
        "railway": "station",
        "source": "KSJ2",
        "source_ref": "http://nlftp.mlit.go.jp/ksj/jpgis/datalist/KsjTmplt-N02-v1_1.html",
        "wikidata": "Q4207957",
        "wikipedia": "ja:富士見町駅 (鳥取県)"
      }
    },
    {
      "id": "tottori_station_266921378",
      "osmId": 266921378,
      "osmType": "node",
      "prefectureId": "tottori",
      "type": "station",
      "subtype": "private",
      "name": "大篠津町",
      "nameKana": null,
      "nameEn": "Ōshinozuchō",
      "operator": null,
      "network": null,
      "ref": null,
      "latitude": 35.4895238,
      "longitude": 133.2556718,
      "countryCode": "jp",
      "rawTags": {
        "alt_name": "砂かけばばあ駅",
        "description": "旧・御崎口駅",
        "name": "大篠津町",
        "name:en": "Ōshinozuchō",
        "name:ja": "大篠津町",
        "name:ko": "오시노즈초",
        "note": "National-Land Numerical Information (Railway) 2007, MLIT Japan",
        "note:ja": "国土数値情報（鉄道データ）平成19年　国土交通省",
        "public_transport": "station",
        "railway": "station",
        "source": "KSJ2;survey",
        "source_ref": "http://nlftp.mlit.go.jp/ksj/jpgis/datalist/KsjTmplt-N02-v1_1.html",
        "wheelchair": "no",
        "wikidata": "Q4207645",
        "wikipedia": "ja:大篠津町駅"
      }
    },
    {
      "id": "tottori_station_266921404",
      "osmId": 266921404,
      "osmType": "node",
      "prefectureId": "tottori",
      "type": "station",
      "subtype": "private",
      "name": "弓ヶ浜",
      "nameKana": null,
      "nameEn": "Yumigahama",
      "operator": null,
      "network": null,
      "ref": null,
      "latitude": 35.4670082,
      "longitude": 133.2883828,
      "countryCode": "jp",
      "rawTags": {
        "KSJ2:LIN": "境線",
        "KSJ2:STN": "弓ヶ浜",
        "alt_name": "あずきあらい駅",
        "name": "弓ヶ浜",
        "name:en": "Yumigahama",
        "note": "National-Land Numerical Information (Railway) 2007, MLIT Japan",
        "note:ja": "国土数値情報（鉄道データ）平成19年　国土交通省",
        "railway": "station",
        "source": "KSJ2",
        "source_ref": "http://nlftp.mlit.go.jp/ksj/jpgis/datalist/KsjTmplt-N02-v1_1.html",
        "wheelchair": "limited",
        "wikidata": "Q4207618",
        "wikipedia": "ja:弓ヶ浜駅"
      }
    },
    {
      "id": "tottori_station_266921426",
      "osmId": 266921426,
      "osmType": "node",
      "prefectureId": "tottori",
      "type": "station",
      "subtype": "private",
      "name": "河崎口",
      "nameKana": null,
      "nameEn": "Kawasakiguchi",
      "operator": null,
      "network": null,
      "ref": null,
      "latitude": 35.4567486,
      "longitude": 133.3054878,
      "countryCode": "jp",
      "rawTags": {
        "KSJ2:LIN": "境線",
        "KSJ2:STN": "河崎口",
        "alt_name": "傘化け駅",
        "name": "河崎口",
        "name:en": "Kawasakiguchi",
        "name:ja": "河崎口",
        "name:ko": "가와사키구치",
        "note": "National-Land Numerical Information (Railway) 2007, MLIT Japan",
        "note:ja": "国土数値情報（鉄道データ）平成19年　国土交通省",
        "railway": "station",
        "source": "KSJ2",
        "source_ref": "http://nlftp.mlit.go.jp/ksj/jpgis/datalist/KsjTmplt-N02-v1_1.html",
        "wheelchair": "no",
        "wikidata": "Q4207940",
        "wikipedia": "ja:河崎口駅"
      }
    },
    {
      "id": "tottori_station_266921485",
      "osmId": 266921485,
      "osmType": "node",
      "prefectureId": "tottori",
      "type": "station",
      "subtype": "private",
      "name": "高松町",
      "nameKana": null,
      "nameEn": "Takamatsuchō",
      "operator": null,
      "network": null,
      "ref": null,
      "latitude": 35.5150417,
      "longitude": 133.2400617,
      "countryCode": "jp",
      "rawTags": {
        "alt_name": "すねこすり駅",
        "name": "高松町",
        "name:en": "Takamatsuchō",
        "name:ja": "高松町",
        "name:ko": "다카마쓰초",
        "note": "National-Land Numerical Information (Railway) 2007, MLIT Japan",
        "note:ja": "国土数値情報（鉄道データ）平成19年　国土交通省",
        "public_transport": "station",
        "railway": "station",
        "source": "KSJ2",
        "source_ref": "http://nlftp.mlit.go.jp/ksj/jpgis/datalist/KsjTmplt-N02-v1_1.html",
        "wheelchair": "no",
        "wikidata": "Q4207615",
        "wikipedia": "ja:高松町駅"
      }
    },
    {
      "id": "tottori_station_266921487",
      "osmId": 266921487,
      "osmType": "node",
      "prefectureId": "tottori",
      "type": "station",
      "subtype": "private",
      "name": "和田浜",
      "nameKana": null,
      "nameEn": "Wadahama",
      "operator": null,
      "network": null,
      "ref": null,
      "latitude": 35.4807071,
      "longitude": 133.2656653,
      "countryCode": "jp",
      "rawTags": {
        "alt_name": "つちころび駅",
        "name": "和田浜",
        "name:en": "Wadahama",
        "note": "National-Land Numerical Information (Railway) 2007, MLIT Japan",
        "note:ja": "国土数値情報（鉄道データ）平成19年　国土交通省",
        "railway": "station",
        "source": "KSJ2",
        "source_ref": "http://nlftp.mlit.go.jp/ksj/jpgis/datalist/KsjTmplt-N02-v1_1.html",
        "wheelchair": "yes",
        "wikidata": "Q4207602",
        "wikipedia": "ja:和田浜駅"
      }
    },
    {
      "id": "tottori_station_266921489",
      "osmId": 266921489,
      "osmType": "node",
      "prefectureId": "tottori",
      "type": "station",
      "subtype": "private",
      "name": "余子",
      "nameKana": null,
      "nameEn": "Amariko",
      "operator": null,
      "network": null,
      "ref": null,
      "latitude": 35.5210938,
      "longitude": 133.2366182,
      "countryCode": "jp",
      "rawTags": {
        "alt_name": "こなきじじい駅",
        "name": "余子",
        "name:en": "Amariko",
        "note": "National-Land Numerical Information (Railway) 2007, MLIT Japan",
        "note:ja": "国土数値情報（鉄道データ）平成19年　国土交通省",
        "railway": "station",
        "source": "KSJ2",
        "source_ref": "http://nlftp.mlit.go.jp/ksj/jpgis/datalist/KsjTmplt-N02-v1_1.html",
        "wikidata": "Q4207986",
        "wikipedia": "ja:余子駅"
      }
    },
    {
      "id": "tottori_station_266921493",
      "osmId": 266921493,
      "osmType": "node",
      "prefectureId": "tottori",
      "type": "station",
      "subtype": "private",
      "name": "三本松口",
      "nameKana": null,
      "nameEn": "Sambommatsuguchi",
      "operator": null,
      "network": null,
      "ref": null,
      "latitude": 35.44626,
      "longitude": 133.3228353,
      "countryCode": "jp",
      "rawTags": {
        "alt_name": "そでひき小僧駅",
        "name": "三本松口",
        "name:en": "Sambommatsuguchi",
        "note": "National-Land Numerical Information (Railway) 2007, MLIT Japan",
        "note:ja": "国土数値情報（鉄道データ）平成19年　国土交通省",
        "railway": "station",
        "source": "KSJ2",
        "source_ref": "http://nlftp.mlit.go.jp/ksj/jpgis/datalist/KsjTmplt-N02-v1_1.html",
        "wheelchair": "no",
        "wikidata": "Q4208015",
        "wikipedia": "ja:三本松口駅"
      }
    },
    {
      "id": "tottori_station_266921557",
      "osmId": 266921557,
      "osmType": "node",
      "prefectureId": "tottori",
      "type": "station",
      "subtype": "jr",
      "name": "上道",
      "nameKana": null,
      "nameEn": "Agarimichi",
      "operator": "JR 西日本旅客鉄道",
      "network": "境線",
      "ref": null,
      "latitude": 35.5314686,
      "longitude": 133.2305889,
      "countryCode": "jp",
      "rawTags": {
        "addr:city": "境港市",
        "addr:province": "鳥取県",
        "addr:quarter": "中野町",
        "alt_name": "一反木綿駅",
        "name": "上道",
        "name:en": "Agarimichi",
        "name:ja": "上道",
        "name:ko": "아가리미치",
        "network": "境線",
        "note": "National-Land Numerical Information (Railway) 2007, MLIT Japan",
        "note:ja": "国土数値情報（鉄道データ）平成19年　国土交通省",
        "operator": "JR 西日本旅客鉄道",
        "public_transport": "station",
        "railway": "station",
        "source": "KSJ2",
        "source_ref": "http://nlftp.mlit.go.jp/ksj/jpgis/datalist/KsjTmplt-N02-v1_1.html",
        "wikidata": "Q1107037",
        "wikipedia": "ja:上道駅 (鳥取県)"
      }
    },
    {
      "id": "tottori_station_266921558",
      "osmId": 266921558,
      "osmType": "node",
      "prefectureId": "tottori",
      "type": "station",
      "subtype": "private",
      "name": "馬場崎町",
      "nameKana": null,
      "nameEn": "Babasakichō",
      "operator": null,
      "network": null,
      "ref": null,
      "latitude": 35.5385539,
      "longitude": 133.2264952,
      "countryCode": "jp",
      "rawTags": {
        "alt_name": "キジムナー駅",
        "name": "馬場崎町",
        "name:en": "Babasakichō",
        "note": "National-Land Numerical Information (Railway) 2007, MLIT Japan",
        "note:ja": "国土数値情報（鉄道データ）平成19年　国土交通省",
        "public_transport": "station",
        "railway": "station",
        "source": "KSJ2",
        "source_ref": "http://nlftp.mlit.go.jp/ksj/jpgis/datalist/KsjTmplt-N02-v1_1.html",
        "wikidata": "Q4207950",
        "wikipedia": "ja:馬場崎町駅"
      }
    },
    {
      "id": "tottori_station_266921574",
      "osmId": 266921574,
      "osmType": "node",
      "prefectureId": "tottori",
      "type": "station",
      "subtype": "private",
      "name": "境港",
      "nameKana": null,
      "nameEn": "Sakaiminato",
      "operator": null,
      "network": null,
      "ref": null,
      "latitude": 35.5451501,
      "longitude": 133.2226806,
      "countryCode": "jp",
      "rawTags": {
        "alt_name": "鬼太郎駅",
        "name": "境港",
        "name:en": "Sakaiminato",
        "note": "National-Land Numerical Information (Railway) 2007, MLIT Japan",
        "note:ja": "国土数値情報（鉄道データ）平成19年　国土交通省",
        "public_transport": "station",
        "railway": "station",
        "source": "KSJ2",
        "source_ref": "http://nlftp.mlit.go.jp/ksj/jpgis/datalist/KsjTmplt-N02-v1_1.html",
        "wikidata": "Q7402786",
        "wikipedia": "ja:境港駅"
      }
    },
    {
      "id": "tottori_station_267059422",
      "osmId": 267059422,
      "osmType": "node",
      "prefectureId": "tottori",
      "type": "station",
      "subtype": "private",
      "name": "因幡社",
      "nameKana": null,
      "nameEn": "Inaba-Yashiro",
      "operator": null,
      "network": null,
      "ref": null,
      "latitude": 35.3124649,
      "longitude": 134.1966116,
      "countryCode": "jp",
      "rawTags": {
        "KSJ2:LIN": "因美線",
        "KSJ2:STN": "因幡社",
        "name": "因幡社",
        "name:en": "Inaba-Yashiro",
        "name:ja": "因幡社",
        "name:ko": "이나바야시로",
        "note": "National-Land Numerical Information (Railway) 2007, MLIT Japan",
        "note:ja": "国土数値情報（鉄道データ）平成19年　国土交通省",
        "public_transport": "station",
        "railway": "station",
        "source": "KSJ2",
        "source_ref": "http://nlftp.mlit.go.jp/ksj/jpgis/datalist/KsjTmplt-N02-v1_1.html",
        "wikidata": "Q3611200",
        "wikipedia": "ja:因幡社駅"
      }
    },
    {
      "id": "tottori_station_267059424",
      "osmId": 267059424,
      "osmType": "node",
      "prefectureId": "tottori",
      "type": "station",
      "subtype": "private",
      "name": "津ノ井",
      "nameKana": null,
      "nameEn": "Tsunoi",
      "operator": null,
      "network": null,
      "ref": null,
      "latitude": 35.4612754,
      "longitude": 134.2486406,
      "countryCode": "jp",
      "rawTags": {
        "KSJ2:LIN": "因美線",
        "KSJ2:STN": "津ノ井",
        "name": "津ノ井",
        "name:en": "Tsunoi",
        "name:ja": "津ノ井",
        "name:ko": "쓰노이",
        "note": "National-Land Numerical Information (Railway) 2007, MLIT Japan",
        "note:ja": "国土数値情報（鉄道データ）平成19年　国土交通省",
        "public_transport": "station",
        "railway": "station",
        "source": "KSJ2",
        "source_ref": "http://nlftp.mlit.go.jp/ksj/jpgis/datalist/KsjTmplt-N02-v1_1.html",
        "wikidata": "Q7850233",
        "wikipedia": "ja:津ノ井駅"
      }
    },
    {
      "id": "tottori_station_267059427",
      "osmId": 267059427,
      "osmType": "node",
      "prefectureId": "tottori",
      "type": "station",
      "subtype": "private",
      "name": "鷹狩",
      "nameKana": null,
      "nameEn": "Takagari",
      "operator": null,
      "network": null,
      "ref": null,
      "latitude": 35.3542425,
      "longitude": 134.206226,
      "countryCode": "jp",
      "rawTags": {
        "KSJ2:LIN": "因美線",
        "KSJ2:STN": "鷹狩",
        "name": "鷹狩",
        "name:en": "Takagari",
        "name:ja": "鷹狩",
        "name:ko": "다카가리",
        "note": "National-Land Numerical Information (Railway) 2007, MLIT Japan",
        "note:ja": "国土数値情報（鉄道データ）平成19年　国土交通省",
        "public_transport": "station",
        "railway": "station",
        "source": "KSJ2",
        "source_ref": "http://nlftp.mlit.go.jp/ksj/jpgis/datalist/KsjTmplt-N02-v1_1.html",
        "wikidata": "Q7677011",
        "wikipedia": "ja:鷹狩駅"
      }
    },
    {
      "id": "tottori_station_267059656",
      "osmId": 267059656,
      "osmType": "node",
      "prefectureId": "tottori",
      "type": "station",
      "subtype": "private",
      "name": "土師",
      "nameKana": "はじ",
      "nameEn": "Haji",
      "operator": null,
      "network": null,
      "ref": null,
      "latitude": 35.2328134,
      "longitude": 134.2257895,
      "countryCode": "jp",
      "rawTags": {
        "KSJ2:LIN": "因美線",
        "KSJ2:STN": "土師",
        "name": "土師",
        "name:en": "Haji",
        "name:ja": "土師",
        "name:ja-Hira": "はじ",
        "name:ko": "하지",
        "note": "National-Land Numerical Information (Railway) 2007, MLIT Japan",
        "note:ja": "国土数値情報（鉄道データ）平成19年　国土交通省",
        "public_transport": "station",
        "railway": "station",
        "source": "KSJ2",
        "source_ref": "http://nlftp.mlit.go.jp/ksj/jpgis/datalist/KsjTmplt-N02-v1_1.html",
        "wikidata": "Q3610972",
        "wikipedia": "ja:土師駅"
      }
    },
    {
      "id": "tottori_station_267059657",
      "osmId": 267059657,
      "osmType": "node",
      "prefectureId": "tottori",
      "type": "station",
      "subtype": "private",
      "name": "河原",
      "nameKana": null,
      "nameEn": "Kawahara",
      "operator": null,
      "network": null,
      "ref": null,
      "latitude": 35.3975949,
      "longitude": 134.2230178,
      "countryCode": "jp",
      "rawTags": {
        "KSJ2:LIN": "因美線",
        "KSJ2:STN": "河原",
        "name": "河原",
        "name:en": "Kawahara",
        "name:ja": "河原",
        "name:ko": "가와하라",
        "note": "National-Land Numerical Information (Railway) 2007, MLIT Japan",
        "note:ja": "国土数値情報（鉄道データ）平成19年　国土交通省",
        "public_transport": "station",
        "railway": "station",
        "source": "KSJ2",
        "source_ref": "http://nlftp.mlit.go.jp/ksj/jpgis/datalist/KsjTmplt-N02-v1_1.html",
        "wikidata": "Q6379509",
        "wikipedia": "ja:河原駅"
      }
    },
    {
      "id": "tottori_station_267059727",
      "osmId": 267059727,
      "osmType": "node",
      "prefectureId": "tottori",
      "type": "station",
      "subtype": "private",
      "name": "用瀬",
      "nameKana": null,
      "nameEn": "Mochigase",
      "operator": null,
      "network": null,
      "ref": null,
      "latitude": 35.3434833,
      "longitude": 134.2048976,
      "countryCode": "jp",
      "rawTags": {
        "KSJ2:LIN": "因美線",
        "KSJ2:STN": "用瀬",
        "name": "用瀬",
        "name:en": "Mochigase",
        "name:ja": "用瀬",
        "name:ko": "모치가세",
        "note": "National-Land Numerical Information (Railway) 2007, MLIT Japan",
        "note:ja": "国土数値情報（鉄道データ）平成19年　国土交通省",
        "railway": "station",
        "source": "KSJ2",
        "source_ref": "http://nlftp.mlit.go.jp/ksj/jpgis/datalist/KsjTmplt-N02-v1_1.html",
        "wikidata": "Q3610964",
        "wikipedia": "ja:用瀬駅"
      }
    },
    {
      "id": "tottori_station_267059958",
      "osmId": 267059958,
      "osmType": "node",
      "prefectureId": "tottori",
      "type": "station",
      "subtype": "private",
      "name": "東郡家",
      "nameKana": null,
      "nameEn": "Higashi-Koge",
      "operator": null,
      "network": null,
      "ref": null,
      "latitude": 35.428834,
      "longitude": 134.2600124,
      "countryCode": "jp",
      "rawTags": {
        "KSJ2:LIN": "因美線",
        "KSJ2:STN": "東郡家",
        "name": "東郡家",
        "name:en": "Higashi-Koge",
        "name:ja": "東郡家",
        "name:ja_rm": "Higashi-Kōge",
        "name:ko": "히가시코게",
        "note": "National-Land Numerical Information (Railway) 2007, MLIT Japan",
        "note:ja": "国土数値情報（鉄道データ）平成19年　国土交通省",
        "public_transport": "station",
        "railway": "station",
        "source": "KSJ2",
        "source_ref": "http://nlftp.mlit.go.jp/ksj/jpgis/datalist/KsjTmplt-N02-v1_1.html",
        "wikidata": "Q5753668",
        "wikipedia": "ja:東郡家駅"
      }
    },
    {
      "id": "tottori_station_267060087",
      "osmId": 267060087,
      "osmType": "node",
      "prefectureId": "tottori",
      "type": "station",
      "subtype": "private",
      "name": "那岐",
      "nameKana": "なぎ",
      "nameEn": "Nagi",
      "operator": null,
      "network": null,
      "ref": null,
      "latitude": 35.2138216,
      "longitude": 134.2103877,
      "countryCode": "jp",
      "rawTags": {
        "KSJ2:LIN": "因美線",
        "KSJ2:STN": "那岐",
        "name": "那岐",
        "name:en": "Nagi",
        "name:ja": "那岐",
        "name:ja-Hira": "なぎ",
        "name:ko": "나기",
        "note": "National-Land Numerical Information (Railway) 2007, MLIT Japan",
        "note:ja": "国土数値情報（鉄道データ）平成19年　国土交通省",
        "public_transport": "station",
        "railway": "station",
        "source": "KSJ2",
        "source_ref": "http://nlftp.mlit.go.jp/ksj/jpgis/datalist/KsjTmplt-N02-v1_1.html",
        "train": "yes",
        "wikidata": "Q6958820",
        "wikipedia": "ja:那岐駅"
      }
    },
    {
      "id": "tottori_station_267060736",
      "osmId": 267060736,
      "osmType": "node",
      "prefectureId": "tottori",
      "type": "station",
      "subtype": "private",
      "name": "国英",
      "nameKana": null,
      "nameEn": "Kunifusa",
      "operator": null,
      "network": null,
      "ref": null,
      "latitude": 35.3730124,
      "longitude": 134.217782,
      "countryCode": "jp",
      "rawTags": {
        "KSJ2:LIN": "因美線",
        "KSJ2:STN": "国英",
        "name": "国英",
        "name:en": "Kunifusa",
        "name:ja": "国英",
        "name:ko": "구니후사",
        "note": "National-Land Numerical Information (Railway) 2007, MLIT Japan",
        "note:ja": "国土数値情報（鉄道データ）平成19年　国土交通省",
        "railway": "station",
        "source": "KSJ2",
        "source_ref": "http://nlftp.mlit.go.jp/ksj/jpgis/datalist/KsjTmplt-N02-v1_1.html",
        "wikidata": "Q3610977",
        "wikipedia": "ja:国英駅"
      }
    },
    {
      "id": "tottori_station_1562495004",
      "osmId": 1562495004,
      "osmType": "node",
      "prefectureId": "tottori",
      "type": "station",
      "subtype": "private",
      "name": "米子空港",
      "nameKana": null,
      "nameEn": "Yonago Airport",
      "operator": null,
      "network": null,
      "ref": null,
      "latitude": 35.5019301,
      "longitude": 133.2478187,
      "countryCode": "jp",
      "rawTags": {
        "alt_name": "べとべとさん駅",
        "name": "米子空港",
        "name:en": "Yonago Airport",
        "railway": "station",
        "source": "survey",
        "wikidata": "Q4207667",
        "wikipedia": "ja:米子空港駅"
      }
    },
    {
      "id": "tottori_station_1575760121",
      "osmId": 1575760121,
      "osmType": "node",
      "prefectureId": "tottori",
      "type": "station",
      "subtype": "private",
      "name": "博労町",
      "nameKana": null,
      "nameEn": "Bakurōmachi",
      "operator": null,
      "network": null,
      "ref": null,
      "latitude": 35.4310576,
      "longitude": 133.3401619,
      "countryCode": "jp",
      "rawTags": {
        "KSJ2:LIN": "境線",
        "KSJ2:STN": "博労町",
        "alt_name": "コロポックル駅",
        "name": "博労町",
        "name:en": "Bakurōmachi",
        "note": "National-Land Numerical Information (Railway) 2007, MLIT Japan",
        "note:ja": "国土数値情報（鉄道データ）平成19年　国土交通省",
        "railway": "station",
        "source": "KSJ2",
        "source_ref": "http://nlftp.mlit.go.jp/ksj/jpgis/datalist/KsjTmplt-N02-v1_1.html",
        "wheelchair": "no",
        "wikidata": "Q4207571",
        "wikipedia": "ja:博労町駅"
      }
    },
    {
      "id": "tottori_station_1575760258",
      "osmId": 1575760258,
      "osmType": "node",
      "prefectureId": "tottori",
      "type": "station",
      "subtype": "private",
      "name": "後藤",
      "nameKana": null,
      "nameEn": "Gotō",
      "operator": null,
      "network": null,
      "ref": null,
      "latitude": 35.4395558,
      "longitude": 133.3315467,
      "countryCode": "jp",
      "rawTags": {
        "alt_name": "どろたぼう駅",
        "name": "後藤",
        "name:en": "Gotō",
        "railway": "station",
        "wheelchair": "limited",
        "wikidata": "Q4207591",
        "wikipedia": "ja:後藤駅"
      }
    },
    {
      "id": "tottori_bus_terminal_1954333297",
      "osmId": 1954333297,
      "osmType": "node",
      "prefectureId": "tottori",
      "type": "bus_terminal",
      "subtype": null,
      "name": "江府町営バス小原駅",
      "nameKana": null,
      "nameEn": null,
      "operator": null,
      "network": null,
      "ref": null,
      "latitude": 35.3012658,
      "longitude": 133.5303317,
      "countryCode": "jp",
      "rawTags": {
        "amenity": "bus_station",
        "name": "江府町営バス小原駅"
      }
    },
    {
      "id": "tottori_bus_terminal_1956073408",
      "osmId": 1956073408,
      "osmType": "node",
      "prefectureId": "tottori",
      "type": "bus_terminal",
      "subtype": null,
      "name": "バス停",
      "nameKana": null,
      "nameEn": null,
      "operator": null,
      "network": null,
      "ref": null,
      "latitude": 35.415912,
      "longitude": 133.476895,
      "countryCode": "jp",
      "rawTags": {
        "amenity": "bus_station",
        "name": "バス停"
      }
    },
    {
      "id": "tottori_bus_terminal_2411869110",
      "osmId": 2411869110,
      "osmType": "node",
      "prefectureId": "tottori",
      "type": "bus_terminal",
      "subtype": null,
      "name": "市ノ瀬橋",
      "nameKana": null,
      "nameEn": null,
      "operator": null,
      "network": null,
      "ref": null,
      "latitude": 35.2907593,
      "longitude": 134.2232086,
      "countryCode": "jp",
      "rawTags": {
        "amenity": "bus_station",
        "name": "市ノ瀬橋"
      }
    },
    {
      "id": "tottori_station_2565897659",
      "osmId": 2565897659,
      "osmType": "node",
      "prefectureId": "tottori",
      "type": "station",
      "subtype": "private",
      "name": "倉吉",
      "nameKana": "くらよし",
      "nameEn": "Kurayoshi",
      "operator": null,
      "network": null,
      "ref": null,
      "latitude": 35.4547913,
      "longitude": 133.849401,
      "countryCode": "jp",
      "rawTags": {
        "name": "倉吉",
        "name:en": "Kurayoshi",
        "name:ja-Hira": "くらよし",
        "public_transport": "station",
        "railway": "station",
        "wikidata": "Q899254",
        "wikipedia": "ja:倉吉駅"
      }
    },
    {
      "id": "tottori_station_3791318501",
      "osmId": 3791318501,
      "osmType": "node",
      "prefectureId": "tottori",
      "type": "station",
      "subtype": "private",
      "name": "智頭",
      "nameKana": null,
      "nameEn": "Chizu",
      "operator": null,
      "network": null,
      "ref": null,
      "latitude": 35.2650948,
      "longitude": 134.2255826,
      "countryCode": "jp",
      "rawTags": {
        "KSJ2:LIN": "因美線;智頭線",
        "KSJ2:STN": "智頭",
        "name": "智頭",
        "name:en": "Chizu",
        "name:ja": "智頭",
        "name:ko": "지즈",
        "railway": "station",
        "source": "Bing",
        "wikidata": "Q5102669",
        "wikipedia": "ja:智頭駅"
      }
    },
    {
      "id": "tottori_station_3792537971",
      "osmId": 3792537971,
      "osmType": "node",
      "prefectureId": "tottori",
      "type": "station",
      "subtype": "private",
      "name": "恋山形",
      "nameKana": null,
      "nameEn": "Koi-Yamagata",
      "operator": null,
      "network": null,
      "ref": null,
      "latitude": 35.2560005,
      "longitude": 134.2789796,
      "countryCode": "jp",
      "rawTags": {
        "KSJ2:LIN": "智頭線",
        "KSJ2:STN": "恋山形",
        "name": "恋山形",
        "name:en": "Koi-Yamagata",
        "name:ja": "恋山形",
        "name:ko": "고이야마가타",
        "note": "National-Land Numerical Information (Railway) 2007, MLIT Japan",
        "note:ja": "国土数値情報（鉄道データ）平成19年　国土交通省",
        "railway": "station",
        "source": "KSJ2",
        "source_ref": "http://nlftp.mlit.go.jp/ksj/jpgis/datalist/KsjTmplt-N02-v1_1.html",
        "wikidata": "Q6426389",
        "wikipedia": "ja:恋山形駅"
      }
    },
    {
      "id": "tottori_station_3801798988",
      "osmId": 3801798988,
      "osmType": "node",
      "prefectureId": "tottori",
      "type": "station",
      "subtype": "private",
      "name": "山郷",
      "nameKana": null,
      "nameEn": "Yamasato",
      "operator": "智頭急行",
      "network": "智頭急行智頭線",
      "ref": null,
      "latitude": 35.2323406,
      "longitude": 134.2891718,
      "countryCode": "jp",
      "rawTags": {
        "KSJ2:LIN": "智頭線",
        "KSJ2:STN": "山郷",
        "name": "山郷",
        "name:en": "Yamasato",
        "name:ja": "山郷",
        "name:ko": "야마사토",
        "network": "智頭急行智頭線",
        "note": "National-Land Numerical Information (Railway) 2007, MLIT Japan",
        "note:ja": "国土数値情報（鉄道データ）平成19年　国土交通省",
        "operator": "智頭急行",
        "public_transport": "station",
        "railway": "station",
        "source": "KSJ2",
        "source_ref": "http://nlftp.mlit.go.jp/ksj/jpgis/datalist/KsjTmplt-N02-v1_1.html",
        "train": "yes",
        "wikidata": "Q8047930",
        "wikipedia": "ja:山郷駅"
      }
    },
    {
      "id": "tottori_bus_terminal_4425251083",
      "osmId": 4425251083,
      "osmType": "node",
      "prefectureId": "tottori",
      "type": "bus_terminal",
      "subtype": null,
      "name": "高速バス停",
      "nameKana": null,
      "nameEn": null,
      "operator": null,
      "network": null,
      "ref": null,
      "latitude": 35.3558436,
      "longitude": 134.197616,
      "countryCode": "jp",
      "rawTags": {
        "amenity": "bus_station",
        "name": "高速バス停"
      }
    },
    {
      "id": "tottori_station_6054838547",
      "osmId": 6054838547,
      "osmType": "node",
      "prefectureId": "tottori",
      "type": "station",
      "subtype": "private",
      "name": "鳥取",
      "nameKana": null,
      "nameEn": "Tottori",
      "operator": null,
      "network": null,
      "ref": null,
      "latitude": 35.4939974,
      "longitude": 134.2259403,
      "countryCode": "jp",
      "rawTags": {
        "addr:block_number": "111",
        "addr:city": "鳥取市",
        "addr:province": "鳥取県",
        "addr:quarter": "東品治町",
        "contact:website": "https://www.jr-odekake.net/eki/top?id=0640706",
        "name": "鳥取",
        "name:en": "Tottori",
        "name:ja": "鳥取",
        "public_transport": "station",
        "railway": "station"
      }
    },
    {
      "id": "tottori_station_6375884470",
      "osmId": 6375884470,
      "osmType": "node",
      "prefectureId": "tottori",
      "type": "station",
      "subtype": "private",
      "name": "伯耆大山",
      "nameKana": null,
      "nameEn": "Hōki-Daisen",
      "operator": null,
      "network": null,
      "ref": null,
      "latitude": 35.4297178,
      "longitude": 133.3835506,
      "countryCode": "jp",
      "rawTags": {
        "KSJ2:STN": "伯耆大山",
        "name": "伯耆大山",
        "name:en": "Hōki-Daisen",
        "name:ja": "伯耆大山",
        "name:ko": "호키다이센",
        "railway": "station",
        "wheelchair": "limited",
        "wikidata": "Q1059170",
        "wikipedia": "ja:伯耆大山駅"
      }
    },
    {
      "id": "tottori_station_8224874596",
      "osmId": 8224874596,
      "osmType": "node",
      "prefectureId": "tottori",
      "type": "station",
      "subtype": "jr",
      "name": "郡家",
      "nameKana": null,
      "nameEn": "Kōge",
      "operator": "西日本旅客鉄道",
      "network": null,
      "ref": null,
      "latitude": 35.4132408,
      "longitude": 134.2511143,
      "countryCode": "jp",
      "rawTags": {
        "KSJ2:LIN": "因美線",
        "KSJ2:RAS": "eb03_3054",
        "KSJ2:STN": "郡家",
        "KSJ2:segment": "eb02_6201",
        "name": "郡家",
        "name:en": "Kōge",
        "name:ja": "郡家",
        "name:ko": "고게",
        "note": "National-Land Numerical Information (Railway) 2007, MLIT Japan",
        "note:ja": "国土数値情報（鉄道データ）平成19年　国土交通省",
        "operator": "西日本旅客鉄道",
        "public_transport": "station",
        "railway": "station",
        "source": "KSJ2",
        "source_ref": "http://nlftp.mlit.go.jp/ksj/jpgis/datalist/KsjTmplt-N02-v1_1.html",
        "wikidata": "Q6455118",
        "wikipedia": "ja:郡家駅"
      }
    },
    {
      "id": "tottori_station_8244384953",
      "osmId": 8244384953,
      "osmType": "node",
      "prefectureId": "tottori",
      "type": "station",
      "subtype": "private",
      "name": "丹比",
      "nameKana": null,
      "nameEn": "Tampi",
      "operator": null,
      "network": null,
      "ref": null,
      "latitude": 35.3608285,
      "longitude": 134.3562145,
      "countryCode": "jp",
      "rawTags": {
        "KSJ2:RAS": "eb03_3050",
        "KSJ2:segment": "eb02_6210",
        "name": "丹比",
        "name:en": "Tampi",
        "name:ja": "丹比",
        "name:ko": "단피",
        "note": "National-Land Numerical Information (Railway) 2007, MLIT Japan",
        "note:ja": "国土数値情報（鉄道データ）平成19年　国土交通省",
        "public_transport": "station",
        "railway": "station",
        "source": "KSJ2",
        "source_ref": "http://nlftp.mlit.go.jp/ksj/jpgis/datalist/KsjTmplt-N02-v1_1.html",
        "train": "yes",
        "wikidata": "Q7681780",
        "wikipedia": "ja:丹比駅"
      }
    },
    {
      "id": "tottori_station_8244384954",
      "osmId": 8244384954,
      "osmType": "node",
      "prefectureId": "tottori",
      "type": "station",
      "subtype": "private",
      "name": "徳丸",
      "nameKana": null,
      "nameEn": "Tokumaru",
      "operator": null,
      "network": null,
      "ref": null,
      "latitude": 35.3645152,
      "longitude": 134.3354817,
      "countryCode": "jp",
      "rawTags": {
        "KSJ2:RAS": "eb03_3058",
        "KSJ2:segment": "eb02_6204",
        "name": "徳丸",
        "name:en": "Tokumaru",
        "name:ja": "徳丸",
        "name:ko": "도쿠마루",
        "note": "National-Land Numerical Information (Railway) 2007, MLIT Japan",
        "note:ja": "国土数値情報（鉄道データ）平成19年　国土交通省",
        "public_transport": "station",
        "railway": "station",
        "source": "KSJ2",
        "source_ref": "http://nlftp.mlit.go.jp/ksj/jpgis/datalist/KsjTmplt-N02-v1_1.html",
        "train": "yes",
        "wikidata": "Q7813735",
        "wikipedia": "ja:徳丸駅"
      }
    },
    {
      "id": "tottori_station_8244384956",
      "osmId": 8244384956,
      "osmType": "node",
      "prefectureId": "tottori",
      "type": "station",
      "subtype": "private",
      "name": "安部",
      "nameKana": null,
      "nameEn": "Abe",
      "operator": "若桜鉄道",
      "network": "若桜線",
      "ref": null,
      "latitude": 35.3747004,
      "longitude": 134.2913462,
      "countryCode": "jp",
      "rawTags": {
        "KSJ2:RAS": "eb03_3056",
        "KSJ2:segment": "eb02_6199",
        "name": "安部",
        "name:en": "Abe",
        "name:ja": "安部",
        "name:ko": "아베",
        "network": "若桜線",
        "note": "National-Land Numerical Information (Railway) 2007, MLIT Japan",
        "note:ja": "国土数値情報（鉄道データ）平成19年　国土交通省",
        "operator": "若桜鉄道",
        "public_transport": "station",
        "railway": "station",
        "source": "KSJ2",
        "source_ref": "http://nlftp.mlit.go.jp/ksj/jpgis/datalist/KsjTmplt-N02-v1_1.html",
        "start_date": "1932-02-05",
        "train": "yes",
        "wikidata": "Q4666444",
        "wikipedia": "ja:安部駅"
      }
    },
    {
      "id": "tottori_station_8244384957",
      "osmId": 8244384957,
      "osmType": "node",
      "prefectureId": "tottori",
      "type": "station",
      "subtype": "private",
      "name": "隼",
      "nameKana": null,
      "nameEn": "Hayabusa",
      "operator": null,
      "network": null,
      "ref": null,
      "latitude": 35.3887486,
      "longitude": 134.2699343,
      "countryCode": "jp",
      "rawTags": {
        "KSJ2:RAS": "eb03_3057",
        "KSJ2:segment": "eb02_6196",
        "name": "隼",
        "name:en": "Hayabusa",
        "name:ja": "隼",
        "name:ko": "하야부사",
        "note": "National-Land Numerical Information (Railway) 2007, MLIT Japan",
        "note:ja": "国土数値情報（鉄道データ）平成19年　国土交通省",
        "public_transport": "station",
        "railway": "station",
        "source": "KSJ2",
        "source_ref": "http://nlftp.mlit.go.jp/ksj/jpgis/datalist/KsjTmplt-N02-v1_1.html",
        "train": "yes",
        "wikidata": "Q5685940",
        "wikipedia": "ja:隼駅"
      }
    },
    {
      "id": "tottori_station_8244384958",
      "osmId": 8244384958,
      "osmType": "node",
      "prefectureId": "tottori",
      "type": "station",
      "subtype": "private",
      "name": "因幡船岡",
      "nameKana": null,
      "nameEn": "Inaba-Funaoka",
      "operator": null,
      "network": null,
      "ref": null,
      "latitude": 35.395103,
      "longitude": 134.2493269,
      "countryCode": "jp",
      "rawTags": {
        "KSJ2:RAS": "eb03_3053",
        "KSJ2:segment": "eb02_6203",
        "name": "因幡船岡",
        "name:en": "Inaba-Funaoka",
        "name:ja": "因幡船岡",
        "name:ko": "이나바후나오카",
        "note": "National-Land Numerical Information (Railway) 2007, MLIT Japan",
        "note:ja": "国土数値情報（鉄道データ）平成19年　国土交通省",
        "public_transport": "station",
        "railway": "station",
        "source": "KSJ2",
        "source_ref": "http://nlftp.mlit.go.jp/ksj/jpgis/datalist/KsjTmplt-N02-v1_1.html",
        "train": "yes",
        "wikidata": "Q6013246",
        "wikipedia": "ja:因幡船岡駅"
      }
    },
    {
      "id": "tottori_station_8244384959",
      "osmId": 8244384959,
      "osmType": "node",
      "prefectureId": "tottori",
      "type": "station",
      "subtype": "private",
      "name": "八頭高校前",
      "nameKana": null,
      "nameEn": "Yazu Kōkō-mae",
      "operator": null,
      "network": null,
      "ref": null,
      "latitude": 35.4054864,
      "longitude": 134.2463154,
      "countryCode": "jp",
      "rawTags": {
        "KSJ2:RAS": "eb03_3052",
        "KSJ2:segment": "eb02_6206",
        "alt_name:ko": "야즈코코마에",
        "name": "八頭高校前",
        "name:en": "Yazu Kōkō-mae",
        "name:ja": "八頭高校前",
        "name:ko": "야즈고교앞",
        "note": "National-Land Numerical Information (Railway) 2007, MLIT Japan",
        "note:ja": "国土数値情報（鉄道データ）平成19年　国土交通省",
        "public_transport": "station",
        "railway": "station",
        "source": "KSJ2",
        "source_ref": "http://nlftp.mlit.go.jp/ksj/jpgis/datalist/KsjTmplt-N02-v1_1.html",
        "train": "yes",
        "wikidata": "Q8050646",
        "wikipedia": "ja:八頭高校前駅"
      }
    },
    {
      "id": "tottori_station_8244384960",
      "osmId": 8244384960,
      "osmType": "node",
      "prefectureId": "tottori",
      "type": "station",
      "subtype": "private",
      "name": "若桜",
      "nameKana": null,
      "nameEn": "Wakasa",
      "operator": null,
      "network": null,
      "ref": null,
      "latitude": 35.3451861,
      "longitude": 134.398414,
      "countryCode": "jp",
      "rawTags": {
        "KSJ2:RAS": "eb03_3051",
        "KSJ2:segment": "eb02_6208",
        "name": "若桜",
        "name:en": "Wakasa",
        "name:ja": "若桜",
        "name:ko": "와카사",
        "note": "National-Land Numerical Information (Railway) 2007, MLIT Japan",
        "note:ja": "国土数値情報（鉄道データ）平成19年　国土交通省",
        "public_transport": "station",
        "railway": "station",
        "source": "KSJ2",
        "source_ref": "http://nlftp.mlit.go.jp/ksj/jpgis/datalist/KsjTmplt-N02-v1_1.html",
        "train": "yes",
        "wikidata": "Q7960835",
        "wikipedia": "ja:若桜駅"
      }
    },
    {
      "id": "tottori_station_8244384961",
      "osmId": 8244384961,
      "osmType": "node",
      "prefectureId": "tottori",
      "type": "station",
      "subtype": "private",
      "name": "八東",
      "nameKana": null,
      "nameEn": "Hattō",
      "operator": null,
      "network": null,
      "ref": null,
      "latitude": 35.3636297,
      "longitude": 134.3171504,
      "countryCode": "jp",
      "rawTags": {
        "KSJ2:RAS": "eb03_3055",
        "KSJ2:segment": "eb02_6204",
        "name": "八東",
        "name:en": "Hattō",
        "name:ja": "八東",
        "name:ko": "핫토",
        "note": "National-Land Numerical Information (Railway) 2007, MLIT Japan",
        "note:ja": "国土数値情報（鉄道データ）平成19年　国土交通省",
        "public_transport": "station",
        "railway": "station",
        "source": "KSJ2",
        "source_ref": "http://nlftp.mlit.go.jp/ksj/jpgis/datalist/KsjTmplt-N02-v1_1.html",
        "train": "yes",
        "wikidata": "Q5682226",
        "wikipedia": "ja:八東駅"
      }
    },
    {
      "id": "tottori_ferry_terminal_10272819096",
      "osmId": 10272819096,
      "osmType": "node",
      "prefectureId": "tottori",
      "type": "ferry_terminal",
      "subtype": null,
      "name": "境港",
      "nameKana": null,
      "nameEn": "Sakaiminato",
      "operator": null,
      "network": null,
      "ref": null,
      "latitude": 35.54754,
      "longitude": 133.2524594,
      "countryCode": "jp",
      "rawTags": {
        "amenity": "ferry_terminal",
        "ferry": "yes",
        "name": "境港",
        "name:en": "Sakaiminato",
        "name:ja": "name=境港",
        "name:ko": "사카이미나토",
        "name:ru": "Сакаиминато",
        "public_transport": "station"
      }
    },
    {
      "id": "tottori_station_12903211842",
      "osmId": 12903211842,
      "osmType": "node",
      "prefectureId": "tottori",
      "type": "station",
      "subtype": "private",
      "name": "鳥取大学前",
      "nameKana": null,
      "nameEn": "Tottoridaigaku-Mae",
      "operator": null,
      "network": null,
      "ref": null,
      "latitude": 35.5181173,
      "longitude": 134.1742907,
      "countryCode": "jp",
      "rawTags": {
        "KSJ2:LIN": "山陰線",
        "KSJ2:STN": "鳥取大学前",
        "alt_name:ko": "돗토리다이가쿠마에",
        "contact:website": "https://www.jr-odekake.net/eki/top?id=0640791",
        "name": "鳥取大学前",
        "name:en": "Tottoridaigaku-Mae",
        "name:ja": "鳥取大学前",
        "name:ko": "돗토리대학앞",
        "note": "National-Land Numerical Information (Railway) 2007, MLIT Japan",
        "note:ja": "国土数値情報（鉄道データ）平成19年　国土交通省",
        "public_transport": "station",
        "railway": "station",
        "source": "KSJ2",
        "source_ref": "http://nlftp.mlit.go.jp/ksj/jpgis/datalist/KsjTmplt-N02-v1_1.html",
        "wikidata": "Q899690",
        "wikipedia": "ja:鳥取大学前駅"
      }
    },
    {
      "id": "tottori_airport_57010868",
      "osmId": 57010868,
      "osmType": "way",
      "prefectureId": "tottori",
      "type": "airport",
      "subtype": "domestic",
      "name": "米子鬼太郎空港",
      "nameKana": null,
      "nameEn": "Miho Airport",
      "operator": null,
      "network": null,
      "ref": "YGJ",
      "latitude": 35.493345,
      "longitude": 133.2389089,
      "countryCode": "jp",
      "rawTags": {
        "KSJ2:AAC": "31204",
        "KSJ2:AAC_label": "鳥取県境港市",
        "KSJ2:AD2": "2",
        "KSJ2:AD2_label": "防衛大臣",
        "KSJ2:ARP": "35.4922222222 133.2363888889",
        "KSJ2:ATB": "35.5006666700 133.2453056000",
        "KSJ2:CLT": "22 00",
        "KSJ2:COA": "自衛隊、米軍との共用飛行場",
        "KSJ2:CompositeCurve": "cv39Airport",
        "KSJ2:DSA": "特定飛行場以外",
        "KSJ2:INP": "2",
        "KSJ2:INP_label": "防衛大臣",
        "KSJ2:IUC": "供用中",
        "KSJ2:NA3": "美保飛行場",
        "KSJ2:OPT": "07 00",
        "KSJ2:REF": "1",
        "KSJ2:REF_label": "ジェット定期便が就航している場合",
        "KSJ2:airport_id": "cf02_76",
        "KSJ2:runways": "2000 45",
        "aeroway": "aerodrome",
        "barrier": "fence",
        "iata": "YGJ",
        "icao": "RJOH",
        "layer": "1",
        "name": "米子鬼太郎空港",
        "name:en": "Miho Airport",
        "name:ja": "米子鬼太郎空港",
        "name:ja_rm": "Miho Hikojo",
        "name:ru": "Йонаго",
        "source": "KSJ2",
        "wikidata": "Q1141913",
        "wikipedia": "ja:美保飛行場"
      }
    },
    {
      "id": "tottori_airport_57010905",
      "osmId": 57010905,
      "osmType": "way",
      "prefectureId": "tottori",
      "type": "airport",
      "subtype": "domestic",
      "name": "鳥取砂丘コナン空港",
      "nameKana": "とっとりくうこう",
      "nameEn": "Tottori Airport",
      "operator": "鳥取空港管理事務所",
      "network": null,
      "ref": "TTJ",
      "latitude": 35.5287419,
      "longitude": 134.1659216,
      "countryCode": "jp",
      "rawTags": {
        "aerodrome:type": "public",
        "aeroway": "aerodrome",
        "alt_name": "鳥取砂丘コナン空港",
        "alt_name:ja-Hira": "とっとりさきゅうこなんくうこう",
        "barrier": "fence",
        "ele": "15",
        "iata": "TTJ",
        "icao": "RJOR",
        "layer": "1",
        "name": "鳥取砂丘コナン空港",
        "name:en": "Tottori Airport",
        "name:ja": "鳥取砂丘コナン空港",
        "name:ja-Hira": "とっとりくうこう",
        "name:ja-Latn": "Tottori Kuko",
        "name:ko": "돗토리공항",
        "note": "National-Land Numerical Information (Airport) 2007, MLIT Japan",
        "note:ja": "国土数値情報（空港データ）平成19年　国土交通省",
        "operator": "鳥取空港管理事務所",
        "short_name": "鳥取空港",
        "short_name:ja-Hira": "とっとりくうこう",
        "source": "KSJ2;GSI/KIBAN 2500;NARO;GSImaps/std;GSImaps/ort",
        "source_ref": "http://nlftp.mlit.go.jp/ksj/jpgis/datalist/KsjTmplt-C28-v1_1.html",
        "website": "https://www.ttj-ap-bld.co.jp/",
        "wikidata": "Q1433078",
        "wikipedia": "ja:鳥取空港",
        "wikipedia:en": "Tottori Airport",
        "wikipedia:ja": "鳥取空港"
      }
    },
    {
      "id": "tottori_bus_terminal_413733206",
      "osmId": 413733206,
      "osmType": "way",
      "prefectureId": "tottori",
      "type": "bus_terminal",
      "subtype": null,
      "name": "鳥取駅バスターミナル",
      "nameKana": null,
      "nameEn": null,
      "operator": null,
      "network": null,
      "ref": null,
      "latitude": 35.4949419,
      "longitude": 134.2245459,
      "countryCode": "jp",
      "rawTags": {
        "amenity": "bus_station",
        "bus": "yes",
        "name": "鳥取駅バスターミナル",
        "public_transport": "station"
      }
    },
    {
      "id": "tottori_airport_901855529",
      "osmId": 901855529,
      "osmType": "way",
      "prefectureId": "tottori",
      "type": "airport",
      "subtype": "domestic",
      "name": "すいか空港",
      "nameKana": null,
      "nameEn": "Suika Airport",
      "operator": null,
      "network": null,
      "ref": null,
      "latitude": 35.4396479,
      "longitude": 133.7044692,
      "countryCode": "jp",
      "rawTags": {
        "aeroway": "aerodrome",
        "name": "すいか空港",
        "name:en": "Suika Airport"
      }
    },
    {
      "id": "tottori_ferry_terminal_1037006716",
      "osmId": 1037006716,
      "osmType": "way",
      "prefectureId": "tottori",
      "type": "ferry_terminal",
      "subtype": null,
      "name": "境港国際旅客ターミナル",
      "nameKana": null,
      "nameEn": "Sakaiminato Port International Ferry Terminal",
      "operator": null,
      "network": null,
      "ref": null,
      "latitude": 35.5472704,
      "longitude": 133.252771,
      "countryCode": "jp",
      "rawTags": {
        "amenity": "ferry_terminal",
        "building": "yes",
        "ferry": "yes",
        "name": "境港国際旅客ターミナル",
        "name:en": "Sakaiminato Port International Ferry Terminal",
        "name:ja": "name=境港国際旅客ターミナル",
        "name:ko": "사카이미나토항 국제여객터미널",
        "name:ru": "Международный пассажирский терминал Сакаиминато",
        "public_transport": "station"
      }
    }
  ]
}