{
  "fetchedAt": "2025-12-12T05:24:48.294Z",
  "prefectureId": "toyama",
  "prefectureName": "富山県",
  "stats": {
    "station": 134,
    "airport": 1,
    "ferry_terminal": 0,
    "bus_terminal": 4,
    "total": 139
  },
  "data": [
    {
      "id": "toyama_station_265830087",
      "osmId": 265830087,
      "osmType": "node",
      "prefectureId": "toyama",
      "type": "station",
      "subtype": "private",
      "name": "猪谷",
      "nameKana": "いのたに",
      "nameEn": "Inotani",
      "operator": null,
      "network": null,
      "ref": null,
      "latitude": 36.4715105,
      "longitude": 137.2386811,
      "countryCode": "jp",
      "rawTags": {
        "name": "猪谷",
        "name:en": "Inotani",
        "name:ja": "猪谷",
        "name:ja_kana": "いのたに",
        "name:ja_rm": "Inotani",
        "name:ko": "이노타니",
        "public_transport": "station",
        "railway": "station",
        "source": "KSJ2",
        "wikidata": "Q5357888",
        "wikipedia": "ja:猪谷駅"
      }
    },
    {
      "id": "toyama_station_267305796",
      "osmId": 267305796,
      "osmType": "node",
      "prefectureId": "toyama",
      "type": "station",
      "subtype": "jr",
      "name": "高岡",
      "nameKana": "たかおか",
      "nameEn": "Takaoka",
      "operator": "あいの風とやま鉄道;西日本旅客鉄道",
      "network": null,
      "ref": null,
      "latitude": 36.7411592,
      "longitude": 137.0147573,
      "countryCode": "jp",
      "rawTags": {
        "name": "高岡",
        "name:en": "Takaoka",
        "name:ja": "高岡",
        "name:ja_kana": "たかおか",
        "name:ja_rm": "Takaoka",
        "name:ko": "타카오카",
        "operator": "あいの風とやま鉄道;西日本旅客鉄道",
        "public_transport": "station",
        "railway": "station",
        "source": "KSJ2",
        "wheelchair": "yes",
        "wikidata": "Q871547",
        "wikipedia": "ja:高岡駅"
      }
    },
    {
      "id": "toyama_station_267453152",
      "osmId": 267453152,
      "osmType": "node",
      "prefectureId": "toyama",
      "type": "station",
      "subtype": "private",
      "name": "西富山",
      "nameKana": "にしとやま",
      "nameEn": "Nishi-Toyama",
      "operator": null,
      "network": null,
      "ref": null,
      "latitude": 36.6996569,
      "longitude": 137.1775885,
      "countryCode": "jp",
      "rawTags": {
        "name": "西富山",
        "name:en": "Nishi-Toyama",
        "name:ja": "西富山",
        "name:ja_kana": "にしとやま",
        "name:ja_rm": "Nishi-Toyama",
        "name:ko": "니시토야마",
        "public_transport": "station",
        "railway": "station",
        "source": "KSJ2",
        "wikidata": "Q11627677",
        "wikipedia": "ja:西富山駅"
      }
    },
    {
      "id": "toyama_station_267453321",
      "osmId": 267453321,
      "osmType": "node",
      "prefectureId": "toyama",
      "type": "station",
      "subtype": "private",
      "name": "速星",
      "nameKana": "はやほし",
      "nameEn": "Hayahoshi",
      "operator": null,
      "network": null,
      "ref": null,
      "latitude": 36.6641689,
      "longitude": 137.1606558,
      "countryCode": "jp",
      "rawTags": {
        "name": "速星",
        "name:en": "Hayahoshi",
        "name:ja": "速星",
        "name:ja_kana": "はやほし",
        "name:ja_rm": "Hayahoshi",
        "name:ko": "하야호시",
        "public_transport": "station",
        "railway": "station",
        "source": "KSJ2",
        "wikidata": "Q5685963",
        "wikipedia": "ja:速星駅"
      }
    },
    {
      "id": "toyama_station_267453749",
      "osmId": 267453749,
      "osmType": "node",
      "prefectureId": "toyama",
      "type": "station",
      "subtype": "private",
      "name": "笹津",
      "nameKana": "ささづ",
      "nameEn": "Sasazu",
      "operator": null,
      "network": null,
      "ref": null,
      "latitude": 36.5620298,
      "longitude": 137.2113605,
      "countryCode": "jp",
      "rawTags": {
        "name": "笹津",
        "name:en": "Sasazu",
        "name:ja": "笹津",
        "name:ja_kana": "ささづ",
        "name:ja_rm": "Sasazu",
        "name:ko": "사사즈",
        "public_transport": "station",
        "railway": "station",
        "source": "KSJ2",
        "wikidata": "Q7425014",
        "wikipedia": "ja:笹津駅"
      }
    },
    {
      "id": "toyama_station_267453832",
      "osmId": 267453832,
      "osmType": "node",
      "prefectureId": "toyama",
      "type": "station",
      "subtype": "private",
      "name": "越中八尾",
      "nameKana": "えっちゅうやつお",
      "nameEn": "Etchu-Yatsuo",
      "operator": null,
      "network": null,
      "ref": null,
      "latitude": 36.591395,
      "longitude": 137.138372,
      "countryCode": "jp",
      "rawTags": {
        "name": "越中八尾",
        "name:en": "Etchu-Yatsuo",
        "name:ja": "越中八尾",
        "name:ja_kana": "えっちゅうやつお",
        "name:ja_rm": "Etchū-Yatsuo",
        "name:ko": "엣추야쓰오",
        "public_transport": "station",
        "railway": "station",
        "source": "KSJ2",
        "wikidata": "Q5402530",
        "wikipedia": "ja:越中八尾駅"
      }
    },
    {
      "id": "toyama_station_267453905",
      "osmId": 267453905,
      "osmType": "node",
      "prefectureId": "toyama",
      "type": "station",
      "subtype": "private",
      "name": "千里",
      "nameKana": "ちさと",
      "nameEn": "Chisato",
      "operator": null,
      "network": null,
      "ref": null,
      "latitude": 36.6345545,
      "longitude": 137.1323306,
      "countryCode": "jp",
      "rawTags": {
        "name": "千里",
        "name:en": "Chisato",
        "name:ja": "千里",
        "name:ja_kana": "ちさと",
        "name:ja_rm": "Chisato",
        "name:ko": "지사토",
        "public_transport": "station",
        "railway": "station",
        "source": "KSJ2",
        "wikidata": "Q5102058",
        "wikipedia": "ja:千里駅 (富山県)"
      }
    },
    {
      "id": "toyama_station_267457450",
      "osmId": 267457450,
      "osmType": "node",
      "prefectureId": "toyama",
      "type": "station",
      "subtype": "private",
      "name": "伏木",
      "nameKana": "ふしき",
      "nameEn": "Fushiki",
      "operator": null,
      "network": null,
      "ref": null,
      "latitude": 36.7919305,
      "longitude": 137.0582278,
      "countryCode": "jp",
      "rawTags": {
        "name": "伏木",
        "name:en": "Fushiki",
        "name:ja": "伏木",
        "name:ja_kana": "ふしき",
        "name:ja_rm": "Fushiki",
        "name:ko": "후시키",
        "public_transport": "station",
        "railway": "station",
        "source": "KSJ2",
        "wheelchair": "limited",
        "wikidata": "Q5510021",
        "wikipedia": "ja:伏木駅"
      }
    },
    {
      "id": "toyama_station_267457490",
      "osmId": 267457490,
      "osmType": "node",
      "prefectureId": "toyama",
      "type": "station",
      "subtype": "private",
      "name": "雨晴",
      "nameKana": "あまはらし",
      "nameEn": "Amaharashi",
      "operator": null,
      "network": null,
      "ref": null,
      "latitude": 36.8165488,
      "longitude": 137.0373953,
      "countryCode": "jp",
      "rawTags": {
        "name": "雨晴",
        "name:en": "Amaharashi",
        "name:ja": "雨晴",
        "name:ja_kana": "あまはらし",
        "name:ja_rm": "Amaharashi",
        "name:ko": "아마하라시",
        "public_transport": "station",
        "railway": "station",
        "source": "KSJ2",
        "wikidata": "Q4739145",
        "wikipedia": "ja:雨晴駅"
      }
    },
    {
      "id": "toyama_station_267457514",
      "osmId": 267457514,
      "osmType": "node",
      "prefectureId": "toyama",
      "type": "station",
      "subtype": "private",
      "name": "能町",
      "nameKana": "のうまち",
      "nameEn": "Nomachi",
      "operator": null,
      "network": null,
      "ref": null,
      "latitude": 36.76882,
      "longitude": 137.040024,
      "countryCode": "jp",
      "rawTags": {
        "name": "能町",
        "name:en": "Nomachi",
        "name:ja": "能町",
        "name:ja_kana": "のうまち",
        "name:ja_rm": "Nōmachi",
        "name:ko": "노마치",
        "public_transport": "station",
        "railway": "station",
        "source": "KSJ2",
        "wikidata": "Q7071607",
        "wikipedia": "ja:能町駅"
      }
    },
    {
      "id": "toyama_station_267457571",
      "osmId": 267457571,
      "osmType": "node",
      "prefectureId": "toyama",
      "type": "station",
      "subtype": "private",
      "name": "氷見",
      "nameKana": "ひみ",
      "nameEn": "Himi",
      "operator": null,
      "network": null,
      "ref": null,
      "latitude": 36.8494025,
      "longitude": 136.9907966,
      "countryCode": "jp",
      "rawTags": {
        "name": "氷見",
        "name:en": "Himi",
        "name:ja": "氷見",
        "name:ja_kana": "ひみ",
        "name:ja_rm": "Himi",
        "name:ko": "히미",
        "public_transport": "station",
        "railway": "station",
        "source": "KSJ2",
        "wikidata": "Q5765332",
        "wikipedia": "ja:氷見駅"
      }
    },
    {
      "id": "toyama_station_270012019",
      "osmId": 270012019,
      "osmType": "node",
      "prefectureId": "toyama",
      "type": "station",
      "subtype": "private",
      "name": "猫又",
      "nameKana": "ねこまた",
      "nameEn": "Nekomata",
      "operator": null,
      "network": null,
      "ref": null,
      "latitude": 36.7490375,
      "longitude": 137.6414888,
      "countryCode": "jp",
      "rawTags": {
        "name": "猫又",
        "name:en": "Nekomata",
        "name:ja": "猫又",
        "name:ja_kana": "ねこまた",
        "name:ja_rm": "Nekomata",
        "name:ko": "네코마타",
        "railway": "station",
        "source": "KSJ2",
        "wikidata": "Q11572000",
        "wikipedia": "ja:猫又駅"
      }
    },
    {
      "id": "toyama_station_270012045",
      "osmId": 270012045,
      "osmType": "node",
      "prefectureId": "toyama",
      "type": "station",
      "subtype": "private",
      "name": "小屋平",
      "nameKana": "こやだいら",
      "nameEn": "Koyadaira",
      "operator": null,
      "network": null,
      "ref": null,
      "latitude": 36.7108187,
      "longitude": 137.6469121,
      "countryCode": "jp",
      "rawTags": {
        "name": "小屋平",
        "name:en": "Koyadaira",
        "name:ja": "小屋平",
        "name:ja_kana": "こやだいら",
        "name:ja_rm": "Koyadaira",
        "name:ko": "코야다이라",
        "railway": "station",
        "source": "KSJ2",
        "wikidata": "Q11459767",
        "wikipedia": "ja:小屋平駅"
      }
    },
    {
      "id": "toyama_station_270012058",
      "osmId": 270012058,
      "osmType": "node",
      "prefectureId": "toyama",
      "type": "station",
      "subtype": "private",
      "name": "黒薙",
      "nameKana": "くろなぎ",
      "nameEn": "Kuronagi",
      "operator": null,
      "network": null,
      "ref": null,
      "latitude": 36.7863774,
      "longitude": 137.6250536,
      "countryCode": "jp",
      "rawTags": {
        "name": "黒薙",
        "name:en": "Kuronagi",
        "name:ja": "黒薙",
        "name:ja_kana": "くろなぎ",
        "name:ja_rm": "Kuronagi",
        "name:ko": "구로나기",
        "railway": "station",
        "source": "KSJ2",
        "wikidata": "Q11678814",
        "wikipedia": "ja:黒薙駅"
      }
    },
    {
      "id": "toyama_station_270012264",
      "osmId": 270012264,
      "osmType": "node",
      "prefectureId": "toyama",
      "type": "station",
      "subtype": "private",
      "name": "笹平",
      "nameKana": "ささだいら",
      "nameEn": "Sasadaira",
      "operator": null,
      "network": null,
      "ref": null,
      "latitude": 36.7830171,
      "longitude": 137.6240614,
      "countryCode": "jp",
      "rawTags": {
        "name": "笹平",
        "name:en": "Sasadaira",
        "name:ja": "笹平",
        "name:ja_kana": "ささだいら",
        "name:ja_rm": "Sasadaira",
        "name:ko": "사사다이라",
        "railway": "station",
        "source": "KSJ2",
        "wikidata": "Q11602590",
        "wikipedia": "ja:笹平駅"
      }
    },
    {
      "id": "toyama_station_270012567",
      "osmId": 270012567,
      "osmType": "node",
      "prefectureId": "toyama",
      "type": "station",
      "subtype": "private",
      "name": "出平",
      "nameKana": "だしだいら",
      "nameEn": "Dashidaira",
      "operator": null,
      "network": null,
      "ref": null,
      "latitude": 36.7670314,
      "longitude": 137.6339656,
      "countryCode": "jp",
      "rawTags": {
        "name": "出平",
        "name:en": "Dashidaira",
        "name:ja": "出平",
        "name:ja_kana": "だしだいら",
        "name:ja_rm": "Dashidaira",
        "name:ko": "다시다이라",
        "railway": "station",
        "source": "KSJ2",
        "wikidata": "Q11395632",
        "wikipedia": "ja:出平駅"
      }
    },
    {
      "id": "toyama_station_270012584",
      "osmId": 270012584,
      "osmType": "node",
      "prefectureId": "toyama",
      "type": "station",
      "subtype": "private",
      "name": "柳橋",
      "nameKana": "やなぎばし",
      "nameEn": "Yanagibashi",
      "operator": null,
      "network": null,
      "ref": null,
      "latitude": 36.8031863,
      "longitude": 137.5916713,
      "countryCode": "jp",
      "rawTags": {
        "name": "柳橋",
        "name:en": "Yanagibashi",
        "name:ja": "柳橋",
        "name:ja_kana": "やなぎばし",
        "name:ja_rm": "Yanagibashi",
        "name:ko": "야나기바시",
        "railway": "station",
        "source": "KSJ2",
        "wikidata": "Q11534356",
        "wikipedia": "ja:柳橋駅 (富山県)"
      }
    },
    {
      "id": "toyama_station_270012768",
      "osmId": 270012768,
      "osmType": "node",
      "prefectureId": "toyama",
      "type": "station",
      "subtype": "private",
      "name": "宇奈月",
      "nameKana": "うなづき",
      "nameEn": "Unazuki",
      "operator": null,
      "network": null,
      "ref": null,
      "latitude": 36.8154157,
      "longitude": 137.5851867,
      "countryCode": "jp",
      "rawTags": {
        "name": "宇奈月",
        "name:en": "Unazuki",
        "name:ja": "宇奈月",
        "name:ja_kana": "うなづき",
        "name:ja_rm": "Unazuki",
        "name:ko": "우나즈키",
        "railway": "station",
        "source": "KSJ2",
        "wheelchair": "yes",
        "wikidata": "Q7882346",
        "wikipedia": "ja:宇奈月駅"
      }
    },
    {
      "id": "toyama_station_270012773",
      "osmId": 270012773,
      "osmType": "node",
      "prefectureId": "toyama",
      "type": "station",
      "subtype": "private",
      "name": "森石",
      "nameKana": "もりいし",
      "nameEn": "Moriishi",
      "operator": null,
      "network": null,
      "ref": null,
      "latitude": 36.791879,
      "longitude": 137.6129842,
      "countryCode": "jp",
      "rawTags": {
        "name": "森石",
        "name:en": "Moriishi",
        "name:ja": "森石",
        "name:ja_kana": "もりいし",
        "name:ja_rm": "Moriishi",
        "name:ko": "모리이시",
        "railway": "station",
        "source": "KSJ2",
        "wikidata": "Q11540199",
        "wikipedia": "ja:森石駅"
      }
    },
    {
      "id": "toyama_station_270012918",
      "osmId": 270012918,
      "osmType": "node",
      "prefectureId": "toyama",
      "type": "station",
      "subtype": "private",
      "name": "鐘釣",
      "nameKana": "かねつり",
      "nameEn": "Kanetsuri",
      "operator": null,
      "network": null,
      "ref": null,
      "latitude": 36.734323,
      "longitude": 137.6515638,
      "countryCode": "jp",
      "rawTags": {
        "name": "鐘釣",
        "name:en": "Kanetsuri",
        "name:ja": "鐘釣",
        "name:ja_kana": "かねつり",
        "name:ja_rm": "Kanetsuri",
        "name:ko": "가네쓰리",
        "railway": "station",
        "source": "KSJ2",
        "wikidata": "Q11651339",
        "wikipedia": "ja:鐘釣駅"
      }
    },
    {
      "id": "toyama_station_270014089",
      "osmId": 270014089,
      "osmType": "node",
      "prefectureId": "toyama",
      "type": "station",
      "subtype": "private",
      "name": "中加積",
      "nameKana": "なかかずみ",
      "nameEn": "Nakakazumi",
      "operator": null,
      "network": null,
      "ref": null,
      "latitude": 36.7350967,
      "longitude": 137.3509127,
      "countryCode": "jp",
      "rawTags": {
        "name": "中加積",
        "name:en": "Nakakazumi",
        "name:ja": "中加積",
        "name:ja_kana": "なかかずみ",
        "name:ja_rm": "Nakakazumi",
        "name:ko": "나카카즈미",
        "railway": "station",
        "source": "KSJ2",
        "wikidata": "Q6960203",
        "wikipedia": "ja:中加積駅"
      }
    },
    {
      "id": "toyama_station_270014091",
      "osmId": 270014091,
      "osmType": "node",
      "prefectureId": "toyama",
      "type": "station",
      "subtype": "private",
      "name": "音沢",
      "nameKana": "おとざわ",
      "nameEn": "Otozawa",
      "operator": null,
      "network": null,
      "ref": null,
      "latitude": 36.840389,
      "longitude": 137.5599,
      "countryCode": "jp",
      "rawTags": {
        "name": "音沢",
        "name:en": "Otozawa",
        "name:ja": "音沢",
        "name:ja_kana": "おとざわ",
        "name:ja_rm": "Otozawa",
        "name:ko": "오토자와",
        "railway": "station",
        "source": "KSJ2",
        "wikidata": "Q7109028",
        "wikipedia": "ja:音沢駅"
      }
    },
    {
      "id": "toyama_station_270014093",
      "osmId": 270014093,
      "osmType": "node",
      "prefectureId": "toyama",
      "type": "station",
      "subtype": "private",
      "name": "相ノ木",
      "nameKana": "あいのき",
      "nameEn": "Ainoki",
      "operator": null,
      "network": null,
      "ref": null,
      "latitude": 36.702007,
      "longitude": 137.3359384,
      "countryCode": "jp",
      "rawTags": {
        "name": "相ノ木",
        "name:en": "Ainoki",
        "name:ja": "相ノ木",
        "name:ja_kana": "あいのき",
        "name:ja_rm": "Ainoki",
        "name:ko": "아이노키",
        "public_transport": "station",
        "railway": "station",
        "source": "KSJ2",
        "wikidata": "Q4697465",
        "wikipedia": "ja:相ノ木駅"
      }
    },
    {
      "id": "toyama_station_270014114",
      "osmId": 270014114,
      "osmType": "node",
      "prefectureId": "toyama",
      "type": "station",
      "subtype": "private",
      "name": "新相ノ木",
      "nameKana": "しんあいのき",
      "nameEn": null,
      "operator": null,
      "network": null,
      "ref": null,
      "latitude": 36.7031357,
      "longitude": 137.3423559,
      "countryCode": "jp",
      "rawTags": {
        "name": "新相ノ木",
        "name:ja-Hira": "しんあいのき",
        "public_transport": "station",
        "railway": "station",
        "train": "yes",
        "wikidata": "Q17216995",
        "wikipedia": "ja:新相ノ木駅"
      }
    },
    {
      "id": "toyama_station_270014154",
      "osmId": 270014154,
      "osmType": "node",
      "prefectureId": "toyama",
      "type": "station",
      "subtype": "private",
      "name": "浦山",
      "nameKana": "うらやま",
      "nameEn": "Urayama",
      "operator": null,
      "network": null,
      "ref": null,
      "latitude": 36.8635893,
      "longitude": 137.519188,
      "countryCode": "jp",
      "rawTags": {
        "name": "浦山",
        "name:en": "Urayama",
        "name:ja": "浦山",
        "name:ja_kana": "うらやま",
        "name:ja_rm": "Urayama",
        "name:ko": "우라야마",
        "railway": "station",
        "source": "KSJ2",
        "wikidata": "Q7899809",
        "wikipedia": "ja:浦山駅"
      }
    },
    {
      "id": "toyama_station_270014158",
      "osmId": 270014158,
      "osmType": "node",
      "prefectureId": "toyama",
      "type": "station",
      "subtype": "private",
      "name": "電鉄魚津",
      "nameKana": "でんてつうおづ",
      "nameEn": "Dentetsu-Uozu",
      "operator": null,
      "network": null,
      "ref": null,
      "latitude": 36.8151953,
      "longitude": 137.4004857,
      "countryCode": "jp",
      "rawTags": {
        "name": "電鉄魚津",
        "name:en": "Dentetsu-Uozu",
        "name:ja": "電鉄魚津",
        "name:ja_kana": "でんてつうおづ",
        "name:ja_rm": "Dentetsu-Uōzu",
        "name:ko": "덴테쓰우오즈",
        "public_transport": "station",
        "railway": "station",
        "source": "KSJ2",
        "wikidata": "Q5259471",
        "wikipedia": "ja:電鉄魚津駅"
      }
    },
    {
      "id": "toyama_station_270014209",
      "osmId": 270014209,
      "osmType": "node",
      "prefectureId": "toyama",
      "type": "station",
      "subtype": "private",
      "name": "内山",
      "nameKana": "うちやま",
      "nameEn": "Uchiyama",
      "operator": null,
      "network": null,
      "ref": null,
      "latitude": 36.846463,
      "longitude": 137.5568684,
      "countryCode": "jp",
      "rawTags": {
        "name": "内山",
        "name:en": "Uchiyama",
        "name:ja": "内山",
        "name:ja_kana": "うちやま",
        "name:ja_rm": "Uchiyama",
        "name:ko": "우치야마",
        "railway": "station",
        "source": "KSJ2",
        "wikidata": "Q7876748",
        "wikipedia": "ja:内山駅"
      }
    },
    {
      "id": "toyama_station_270014226",
      "osmId": 270014226,
      "osmType": "node",
      "prefectureId": "toyama",
      "type": "station",
      "subtype": "private",
      "name": "越中泉",
      "nameKana": "えっちゅういずみ",
      "nameEn": "Etchu-Izumi",
      "operator": null,
      "network": null,
      "ref": null,
      "latitude": 36.6997574,
      "longitude": 137.326918,
      "countryCode": "jp",
      "rawTags": {
        "name": "越中泉",
        "name:en": "Etchu-Izumi",
        "name:ja": "越中泉",
        "name:ja_kana": "えっちゅういずみ",
        "name:ja_rm": "Etchū-Izumi",
        "name:ko": "엣추이즈미",
        "public_transport": "station",
        "railway": "station",
        "source": "KSJ2",
        "wikidata": "Q5402514",
        "wikipedia": "ja:越中泉駅"
      }
    },
    {
      "id": "toyama_station_270014285",
      "osmId": 270014285,
      "osmType": "node",
      "prefectureId": "toyama",
      "type": "station",
      "subtype": "private",
      "name": "西滑川",
      "nameKana": "にしなめりかわ",
      "nameEn": "Nishi-Namerikawa",
      "operator": null,
      "network": null,
      "ref": null,
      "latitude": 36.7552056,
      "longitude": 137.3348323,
      "countryCode": "jp",
      "rawTags": {
        "name": "西滑川",
        "name:en": "Nishi-Namerikawa",
        "name:ja": "西滑川",
        "name:ja_kana": "にしなめりかわ",
        "name:ja_rm": "Nishi-Namerikawa",
        "name:ko": "니시나메리카와",
        "railway": "station",
        "source": "KSJ2",
        "wikidata": "Q7040384",
        "wikipedia": "ja:西滑川駅"
      }
    },
    {
      "id": "toyama_station_270014288",
      "osmId": 270014288,
      "osmType": "node",
      "prefectureId": "toyama",
      "type": "station",
      "subtype": "private",
      "name": "東三日市",
      "nameKana": "ひがしみっかいち",
      "nameEn": "Higashi-Mikkaichi",
      "operator": "富山地方鉄道",
      "network": null,
      "ref": null,
      "latitude": 36.8747257,
      "longitude": 137.4506283,
      "countryCode": "jp",
      "rawTags": {
        "name": "東三日市",
        "name:en": "Higashi-Mikkaichi",
        "name:ja": "東三日市",
        "name:ja_kana": "ひがしみっかいち",
        "name:ja_rm": "Higashi-Mikkaichi",
        "name:ko": "히가시밋카이치",
        "operator": "富山地方鉄道",
        "railway": "station",
        "source": "KSJ2",
        "wikidata": "Q5753706",
        "wikipedia": "ja:東三日市駅"
      }
    },
    {
      "id": "toyama_station_270014291",
      "osmId": 270014291,
      "osmType": "node",
      "prefectureId": "toyama",
      "type": "station",
      "subtype": "private",
      "name": "浜加積",
      "nameKana": "はまかずみ",
      "nameEn": "Hamakazumi",
      "operator": null,
      "network": null,
      "ref": null,
      "latitude": 36.7775547,
      "longitude": 137.3615256,
      "countryCode": "jp",
      "rawTags": {
        "name": "浜加積",
        "name:en": "Hamakazumi",
        "name:ja": "浜加積",
        "name:ja_kana": "はまかずみ",
        "name:ja_rm": "Hamakazumi",
        "name:ko": "하마카즈미",
        "public_transport": "station",
        "railway": "station",
        "source": "KSJ2",
        "wikidata": "Q5644001",
        "wikimedia_commons": "Category:Hama-Kazumi Station",
        "wikipedia": "ja:浜加積駅"
      }
    },
    {
      "id": "toyama_station_270014297",
      "osmId": 270014297,
      "osmType": "node",
      "prefectureId": "toyama",
      "type": "station",
      "subtype": "private",
      "name": "西加積",
      "nameKana": "にしかずみ",
      "nameEn": "Nishi-Kazumi",
      "operator": null,
      "network": null,
      "ref": null,
      "latitude": 36.7466883,
      "longitude": 137.3400834,
      "countryCode": "jp",
      "rawTags": {
        "name": "西加積",
        "name:en": "Nishi-Kazumi",
        "name:ja": "西加積",
        "name:ja_kana": "にしかずみ",
        "name:ja_rm": "Nishi-Kazumi",
        "name:ko": "니시카즈미",
        "railway": "station",
        "source": "KSJ2",
        "wikidata": "Q11627294",
        "wikipedia": "ja:西加積駅"
      }
    },
    {
      "id": "toyama_station_270014371",
      "osmId": 270014371,
      "osmType": "node",
      "prefectureId": "toyama",
      "type": "station",
      "subtype": "private",
      "name": "下立口",
      "nameKana": "おりたてぐち",
      "nameEn": "Oritateguchi",
      "operator": null,
      "network": null,
      "ref": null,
      "latitude": 36.859417,
      "longitude": 137.533361,
      "countryCode": "jp",
      "rawTags": {
        "name": "下立口",
        "name:en": "Oritateguchi",
        "name:ja": "下立口",
        "name:ja_kana": "おりたてぐち",
        "name:ja_rm": "Oritateguchi",
        "name:ko": "오리타테구치",
        "railway": "station",
        "source": "KSJ2",
        "wikidata": "Q7102875",
        "wikipedia": "ja:下立口駅"
      }
    },
    {
      "id": "toyama_station_270014375",
      "osmId": 270014375,
      "osmType": "node",
      "prefectureId": "toyama",
      "type": "station",
      "subtype": "private",
      "name": "新宮川",
      "nameKana": "しんみやかわ",
      "nameEn": "Shin-Miyakawa",
      "operator": null,
      "network": null,
      "ref": null,
      "latitude": 36.717666,
      "longitude": 137.3510161,
      "countryCode": "jp",
      "rawTags": {
        "name": "新宮川",
        "name:en": "Shin-Miyakawa",
        "name:ja": "新宮川",
        "name:ja_kana": "しんみやかわ",
        "name:ja_rm": "Shin-Miyakawa",
        "name:ko": "신미야카와",
        "railway": "station",
        "source": "KSJ2",
        "wikidata": "Q7497119",
        "wikipedia": "ja:新宮川駅"
      }
    },
    {
      "id": "toyama_station_270014377",
      "osmId": 270014377,
      "osmType": "node",
      "prefectureId": "toyama",
      "type": "station",
      "subtype": "private",
      "name": "栃屋",
      "nameKana": "とちや",
      "nameEn": "Tochiya",
      "operator": null,
      "network": null,
      "ref": null,
      "latitude": 36.8698634,
      "longitude": 137.5056811,
      "countryCode": "jp",
      "rawTags": {
        "name": "栃屋",
        "name:en": "Tochiya",
        "name:ja": "栃屋",
        "name:ja_kana": "とちや",
        "name:ja_rm": "Tochiya",
        "name:ko": "도치야",
        "railway": "station",
        "source": "KSJ2",
        "wikidata": "Q7812010",
        "wikipedia": "ja:栃屋駅"
      }
    },
    {
      "id": "toyama_station_270014493",
      "osmId": 270014493,
      "osmType": "node",
      "prefectureId": "toyama",
      "type": "station",
      "subtype": "private",
      "name": "愛本",
      "nameKana": "あいもと",
      "nameEn": "Aimoto",
      "operator": null,
      "network": null,
      "ref": null,
      "latitude": 36.8553661,
      "longitude": 137.553871,
      "countryCode": "jp",
      "rawTags": {
        "name": "愛本",
        "name:en": "Aimoto",
        "name:ja": "愛本",
        "name:ja_kana": "あいもと",
        "name:ja_rm": "Aimoto",
        "name:ko": "아이모토",
        "railway": "station",
        "source": "KSJ2",
        "wikidata": "Q4697186",
        "wikipedia": "ja:愛本駅"
      }
    },
    {
      "id": "toyama_station_270014506",
      "osmId": 270014506,
      "osmType": "node",
      "prefectureId": "toyama",
      "type": "station",
      "subtype": "private",
      "name": "下立",
      "nameKana": "おりたて",
      "nameEn": "Oritate",
      "operator": null,
      "network": null,
      "ref": null,
      "latitude": 36.8578158,
      "longitude": 137.5413324,
      "countryCode": "jp",
      "rawTags": {
        "name": "下立",
        "name:en": "Oritate",
        "name:ja": "下立",
        "name:ja_kana": "おりたて",
        "name:ja_rm": "Oritate",
        "name:ko": "오리타테",
        "railway": "station",
        "source": "KSJ2",
        "wikidata": "Q7102873",
        "wikipedia": "ja:下立駅"
      }
    },
    {
      "id": "toyama_station_270014579",
      "osmId": 270014579,
      "osmType": "node",
      "prefectureId": "toyama",
      "type": "station",
      "subtype": "private",
      "name": "西魚津",
      "nameKana": "にしうおづ",
      "nameEn": "Nishi-Uozu",
      "operator": null,
      "network": null,
      "ref": null,
      "latitude": 36.8040958,
      "longitude": 137.3948303,
      "countryCode": "jp",
      "rawTags": {
        "name": "西魚津",
        "name:en": "Nishi-Uozu",
        "name:ja": "西魚津",
        "name:ja_kana": "にしうおづ",
        "name:ja_rm": "Nishi-Uōzu",
        "name:ko": "니시우오즈",
        "public_transport": "station",
        "railway": "station",
        "source": "KSJ2",
        "wikidata": "Q11630014",
        "wikipedia": "ja:西魚津駅"
      }
    },
    {
      "id": "toyama_station_270014650",
      "osmId": 270014650,
      "osmType": "node",
      "prefectureId": "toyama",
      "type": "station",
      "subtype": "private",
      "name": "若栗",
      "nameKana": "わかぐり",
      "nameEn": "Wakaguri",
      "operator": null,
      "network": null,
      "ref": null,
      "latitude": 36.8711382,
      "longitude": 137.4928231,
      "countryCode": "jp",
      "rawTags": {
        "name": "若栗",
        "name:en": "Wakaguri",
        "name:ja": "若栗",
        "name:ja_kana": "わかぐり",
        "name:ja_rm": "Wakaguri",
        "name:ko": "와카구리",
        "railway": "station",
        "source": "KSJ2",
        "wikidata": "Q7960765",
        "wikipedia": "ja:若栗駅"
      }
    },
    {
      "id": "toyama_station_270014677",
      "osmId": 270014677,
      "osmType": "node",
      "prefectureId": "toyama",
      "type": "station",
      "subtype": "private",
      "name": "電鉄黒部",
      "nameKana": "でんてつくろべ",
      "nameEn": "Dentetsu-Kurobe",
      "operator": "富山地方鉄道",
      "network": null,
      "ref": null,
      "latitude": 36.8741184,
      "longitude": 137.443888,
      "countryCode": "jp",
      "rawTags": {
        "name": "電鉄黒部",
        "name:en": "Dentetsu-Kurobe",
        "name:ja": "電鉄黒部",
        "name:ja_kana": "でんてつくろべ",
        "name:ja_rm": "Dentetsu-Kurobe",
        "name:ko": "덴테쓰쿠로베",
        "operator": "富山地方鉄道",
        "railway": "station",
        "source": "KSJ2",
        "wikidata": "Q5259472",
        "wikipedia": "ja:電鉄黒部駅"
      }
    },
    {
      "id": "toyama_station_270014704",
      "osmId": 270014704,
      "osmType": "node",
      "prefectureId": "toyama",
      "type": "station",
      "subtype": "private",
      "name": "電鉄石田",
      "nameKana": "でんてついしだ",
      "nameEn": "Dentetsu-Ishida",
      "operator": null,
      "network": null,
      "ref": null,
      "latitude": 36.8661893,
      "longitude": 137.4232814,
      "countryCode": "jp",
      "rawTags": {
        "name": "電鉄石田",
        "name:en": "Dentetsu-Ishida",
        "name:ja": "電鉄石田",
        "name:ja_kana": "でんてついしだ",
        "name:ja_rm": "Dentetsu-Ishida",
        "name:ko": "덴테쓰이시다",
        "railway": "station",
        "source": "KSJ2",
        "wikidata": "Q5259468",
        "wikipedia": "ja:電鉄石田駅"
      }
    },
    {
      "id": "toyama_station_270014747",
      "osmId": 270014747,
      "osmType": "node",
      "prefectureId": "toyama",
      "type": "station",
      "subtype": "private",
      "name": "経田",
      "nameKana": "きょうでん",
      "nameEn": "Kyoden",
      "operator": null,
      "network": null,
      "ref": null,
      "latitude": 36.8490926,
      "longitude": 137.4163587,
      "countryCode": "jp",
      "rawTags": {
        "name": "経田",
        "name:en": "Kyoden",
        "name:ja": "経田",
        "name:ja_kana": "きょうでん",
        "name:ja_rm": "Kyōden",
        "name:ko": "교덴",
        "railway": "station",
        "source": "KSJ2",
        "wikidata": "Q11606497",
        "wikipedia": "ja:経田駅"
      }
    },
    {
      "id": "toyama_station_270014757",
      "osmId": 270014757,
      "osmType": "node",
      "prefectureId": "toyama",
      "type": "station",
      "subtype": "private",
      "name": "中滑川",
      "nameKana": "なかなめりかわ",
      "nameEn": "Naka-Namerikawa",
      "operator": null,
      "network": null,
      "ref": null,
      "latitude": 36.7619386,
      "longitude": 137.3399131,
      "countryCode": "jp",
      "rawTags": {
        "name": "中滑川",
        "name:en": "Naka-Namerikawa",
        "name:ja": "中滑川",
        "name:ja_kana": "なかなめりかわ",
        "name:ja_rm": "Naka-Namerikawa",
        "name:ko": "나카나메리카와",
        "railway": "station",
        "source": "KSJ2",
        "wikidata": "Q6960089",
        "wikipedia": "ja:中滑川駅"
      }
    },
    {
      "id": "toyama_station_270014774",
      "osmId": 270014774,
      "osmType": "node",
      "prefectureId": "toyama",
      "type": "station",
      "subtype": "private",
      "name": "荻生",
      "nameKana": "おぎゅう",
      "nameEn": "Ogyu",
      "operator": null,
      "network": null,
      "ref": null,
      "latitude": 36.8750627,
      "longitude": 137.4594362,
      "countryCode": "jp",
      "rawTags": {
        "name": "荻生",
        "name:en": "Ogyu",
        "name:ja": "荻生",
        "name:ja_kana": "おぎゅう",
        "name:ja_rm": "Ogyū",
        "name:ko": "오규",
        "railway": "station",
        "source": "KSJ2",
        "wikidata": "Q7080334",
        "wikipedia": "ja:荻生駅"
      }
    },
    {
      "id": "toyama_station_270014775",
      "osmId": 270014775,
      "osmType": "node",
      "prefectureId": "toyama",
      "type": "station",
      "subtype": "private",
      "name": "新魚津",
      "nameKana": "しんうおづ",
      "nameEn": "Shin-Uozu",
      "operator": null,
      "network": null,
      "ref": null,
      "latitude": 36.8269242,
      "longitude": 137.405408,
      "countryCode": "jp",
      "rawTags": {
        "name": "新魚津",
        "name:en": "Shin-Uozu",
        "name:ja": "新魚津",
        "name:ja_kana": "しんうおづ",
        "name:ja_rm": "Shin-Uōzu",
        "name:ko": "우오즈",
        "public_transport": "station",
        "railway": "station",
        "source": "KSJ2",
        "wikidata": "Q5359637",
        "wikipedia": "ja:魚津駅"
      }
    },
    {
      "id": "toyama_station_270014777",
      "osmId": 270014777,
      "osmType": "node",
      "prefectureId": "toyama",
      "type": "station",
      "subtype": "private",
      "name": "舌山",
      "nameKana": "したやま",
      "nameEn": "Shitayama",
      "operator": null,
      "network": null,
      "ref": null,
      "latitude": 36.8722021,
      "longitude": 137.4855816,
      "countryCode": "jp",
      "rawTags": {
        "name": "舌山",
        "name:en": "Shitayama",
        "name:ja": "舌山",
        "name:ja_kana": "したやま",
        "name:ja_rm": "Shitayama",
        "name:ko": "시타야마",
        "railway": "station",
        "source": "KSJ2",
        "wikidata": "Q7499147",
        "wikipedia": "ja:舌山駅"
      }
    },
    {
      "id": "toyama_station_270014779",
      "osmId": 270014779,
      "osmType": "node",
      "prefectureId": "toyama",
      "type": "station",
      "subtype": "private",
      "name": "長屋",
      "nameKana": "ながや",
      "nameEn": "Nagaya",
      "operator": null,
      "network": null,
      "ref": null,
      "latitude": 36.8737003,
      "longitude": 137.4703883,
      "countryCode": "jp",
      "rawTags": {
        "name": "長屋",
        "name:en": "Nagaya",
        "name:ja": "長屋",
        "name:ja_kana": "ながや",
        "name:ja_rm": "Nagaya",
        "name:ko": "나가야",
        "railway": "station",
        "source": "KSJ2",
        "wikidata": "Q6958717",
        "wikipedia": "ja:長屋駅"
      }
    },
    {
      "id": "toyama_station_270014924",
      "osmId": 270014924,
      "osmType": "node",
      "prefectureId": "toyama",
      "type": "station",
      "subtype": "private",
      "name": "早月加積",
      "nameKana": "はやつきかずみ",
      "nameEn": "Hayatsukikazumi",
      "operator": null,
      "network": null,
      "ref": null,
      "latitude": 36.7838825,
      "longitude": 137.3717194,
      "countryCode": "jp",
      "rawTags": {
        "name": "早月加積",
        "name:en": "Hayatsukikazumi",
        "name:ja": "早月加積",
        "name:ja_kana": "はやつきかずみ",
        "name:ja_rm": "Hayatsukikazumi",
        "name:ko": "하야쓰키카즈미",
        "public_transport": "station",
        "railway": "station",
        "source": "KSJ2",
        "wikidata": "Q5686180",
        "wikipedia": "ja:早月加積駅"
      }
    },
    {
      "id": "toyama_station_270026300",
      "osmId": 270026300,
      "osmType": "node",
      "prefectureId": "toyama",
      "type": "station",
      "subtype": "private",
      "name": "越中中村",
      "nameKana": "えっちゅうなかむら",
      "nameEn": "Etchu-Nakamura",
      "operator": null,
      "network": null,
      "ref": null,
      "latitude": 36.7905764,
      "longitude": 137.3824345,
      "countryCode": "jp",
      "rawTags": {
        "name": "越中中村",
        "name:en": "Etchu-Nakamura",
        "name:ja": "越中中村",
        "name:ja_kana": "えっちゅうなかむら",
        "name:ja_rm": "Etchū-Nakamura",
        "name:ko": "엣추나카무라",
        "public_transport": "station",
        "railway": "station",
        "source": "KSJ2",
        "wikidata": "Q5402522",
        "wikipedia": "ja:越中中村駅"
      }
    },
    {
      "id": "toyama_station_270028060",
      "osmId": 270028060,
      "osmType": "node",
      "prefectureId": "toyama",
      "type": "station",
      "subtype": "private",
      "name": "大庄",
      "nameKana": "おおしょう",
      "nameEn": "Osho",
      "operator": null,
      "network": null,
      "ref": null,
      "latitude": 36.6195021,
      "longitude": 137.2756175,
      "countryCode": "jp",
      "rawTags": {
        "name": "大庄",
        "name:en": "Osho",
        "name:ja": "大庄",
        "name:ja_kana": "おおしょう",
        "name:ja_rm": "Ōshō",
        "name:ko": "오쇼",
        "public_transport": "station",
        "railway": "station",
        "source": "KSJ2",
        "wikidata": "Q8081714",
        "wikipedia": "ja:大庄駅"
      }
    },
    {
      "id": "toyama_station_270028097",
      "osmId": 270028097,
      "osmType": "node",
      "prefectureId": "toyama",
      "type": "station",
      "subtype": "private",
      "name": "上滝",
      "nameKana": "かみだき",
      "nameEn": "Kamidaki",
      "operator": null,
      "network": null,
      "ref": null,
      "latitude": 36.6095076,
      "longitude": 137.2961966,
      "countryCode": "jp",
      "rawTags": {
        "name": "上滝",
        "name:en": "Kamidaki",
        "name:ja": "上滝",
        "name:ja_kana": "かみだき",
        "name:ja_rm": "Kamidaki",
        "name:ko": "가미다키",
        "railway": "station",
        "source": "KSJ2",
        "wikidata": "Q6357349",
        "wikipedia": "ja:上滝駅"
      }
    },
    {
      "id": "toyama_station_270028149",
      "osmId": 270028149,
      "osmType": "node",
      "prefectureId": "toyama",
      "type": "station",
      "subtype": "private",
      "name": "南富山",
      "nameKana": "みなみとやま",
      "nameEn": "Minami-Toyama",
      "operator": null,
      "network": null,
      "ref": null,
      "latitude": 36.6702947,
      "longitude": 137.2204748,
      "countryCode": "jp",
      "rawTags": {
        "name": "南富山",
        "name:en": "Minami-Toyama",
        "name:ja": "南富山",
        "name:ja_kana": "みなみとやま",
        "name:ja_rm": "Minami-Toyama",
        "name:ko": "미나미토야마",
        "public_transport": "station",
        "railway": "station",
        "source": "KSJ2",
        "wikidata": "Q6862979",
        "wikipedia": "ja:南富山駅"
      }
    },
    {
      "id": "toyama_station_270028150",
      "osmId": 270028150,
      "osmType": "node",
      "prefectureId": "toyama",
      "type": "station",
      "subtype": "private",
      "name": "大川寺",
      "nameKana": "だいせんじ",
      "nameEn": "Daisenji",
      "operator": null,
      "network": null,
      "ref": null,
      "latitude": 36.6082801,
      "longitude": 137.3089104,
      "countryCode": "jp",
      "rawTags": {
        "name": "大川寺",
        "name:en": "Daisenji",
        "name:ja": "大川寺",
        "name:ja_kana": "だいせんじ",
        "name:ja_rm": "Daisenji",
        "name:ko": "다이센지",
        "railway": "station",
        "source": "KSJ2",
        "wikidata": "Q5209603",
        "wikipedia": "ja:大川寺駅"
      }
    },
    {
      "id": "toyama_station_270028158",
      "osmId": 270028158,
      "osmType": "node",
      "prefectureId": "toyama",
      "type": "station",
      "subtype": "private",
      "name": "上堀",
      "nameKana": "かみほり",
      "nameEn": "Kamihori",
      "operator": null,
      "network": null,
      "ref": null,
      "latitude": 36.6537488,
      "longitude": 137.2298768,
      "countryCode": "jp",
      "rawTags": {
        "name": "上堀",
        "name:en": "Kamihori",
        "name:ja": "上堀",
        "name:ja_kana": "かみほり",
        "name:ja_rm": "Kamihori",
        "name:ko": "가미호리",
        "public_transport": "station",
        "railway": "station",
        "source": "KSJ2",
        "wikidata": "Q6357789",
        "wikipedia": "ja:上堀駅"
      }
    },
    {
      "id": "toyama_station_270028206",
      "osmId": 270028206,
      "osmType": "node",
      "prefectureId": "toyama",
      "type": "station",
      "subtype": "private",
      "name": "朝菜町",
      "nameKana": "あさなまち",
      "nameEn": "Asana-machi",
      "operator": null,
      "network": null,
      "ref": null,
      "latitude": 36.6604912,
      "longitude": 137.224842,
      "countryCode": "jp",
      "rawTags": {
        "name": "朝菜町",
        "name:en": "Asana-machi",
        "name:ja": "朝菜町",
        "name:ja_kana": "あさなまち",
        "name:ja_rm": "Asana-machi",
        "name:ko": "아사나마치",
        "public_transport": "station",
        "railway": "station",
        "source": "KSJ2",
        "wikidata": "Q4803513",
        "wikipedia": "ja:朝菜町駅"
      }
    },
    {
      "id": "toyama_station_270028209",
      "osmId": 270028209,
      "osmType": "node",
      "prefectureId": "toyama",
      "type": "station",
      "subtype": "private",
      "name": "月岡",
      "nameKana": "つきおか",
      "nameEn": "Tsukioka",
      "operator": null,
      "network": null,
      "ref": null,
      "latitude": 36.626532,
      "longitude": 137.2635466,
      "countryCode": "jp",
      "rawTags": {
        "name": "月岡",
        "name:en": "Tsukioka",
        "name:ja": "月岡",
        "name:ja_kana": "つきおか",
        "name:ja_rm": "Tsukioka",
        "name:ko": "쓰키오카",
        "public_transport": "station",
        "railway": "station",
        "source": "KSJ2",
        "wikidata": "Q11516067",
        "wikipedia": "ja:月岡駅 (富山県)"
      }
    },
    {
      "id": "toyama_station_270028238",
      "osmId": 270028238,
      "osmType": "node",
      "prefectureId": "toyama",
      "type": "station",
      "subtype": "private",
      "name": "開発",
      "nameKana": "かいほつ",
      "nameEn": "Kaihotsu",
      "operator": null,
      "network": null,
      "ref": null,
      "latitude": 36.6362214,
      "longitude": 137.2429233,
      "countryCode": "jp",
      "rawTags": {
        "name": "開発",
        "name:en": "Kaihotsu",
        "name:ja": "開発",
        "name:ja_kana": "かいほつ",
        "name:ja_rm": "Kaihotsu",
        "name:ko": "가이하쓰",
        "public_transport": "station",
        "railway": "station",
        "source": "KSJ2",
        "wikidata": "Q6347695",
        "wikipedia": "ja:開発駅"
      }
    },
    {
      "id": "toyama_station_270028272",
      "osmId": 270028272,
      "osmType": "node",
      "prefectureId": "toyama",
      "type": "station",
      "subtype": "private",
      "name": "布市",
      "nameKana": "ぬのいち",
      "nameEn": "Nunoichi",
      "operator": null,
      "network": null,
      "ref": null,
      "latitude": 36.6451354,
      "longitude": 137.2355389,
      "countryCode": "jp",
      "rawTags": {
        "name": "布市",
        "name:en": "Nunoichi",
        "name:ja": "布市",
        "name:ja_kana": "ぬのいち",
        "name:ja_rm": "Nunoichi",
        "name:ko": "누노이치",
        "public_transport": "station",
        "railway": "station",
        "source": "KSJ2",
        "wikidata": "Q7069908",
        "wikipedia": "ja:布市駅"
      }
    },
    {
      "id": "toyama_station_270028301",
      "osmId": 270028301,
      "osmType": "node",
      "prefectureId": "toyama",
      "type": "station",
      "subtype": "private",
      "name": "不二越",
      "nameKana": "ふじこし",
      "nameEn": "Fujikoshi",
      "operator": null,
      "network": null,
      "ref": null,
      "latitude": 36.6875313,
      "longitude": 137.2323717,
      "countryCode": "jp",
      "rawTags": {
        "name": "不二越",
        "name:en": "Fujikoshi",
        "name:ja": "不二越",
        "name:ja_kana": "ふじこし",
        "name:ja_rm": "Fujikoshi",
        "name:ko": "후지코시",
        "public_transport": "station",
        "railway": "station",
        "source": "KSJ2",
        "wheelchair": "yes",
        "wikidata": "Q5507428",
        "wikipedia": "ja:不二越駅"
      }
    },
    {
      "id": "toyama_station_270028324",
      "osmId": 270028324,
      "osmType": "node",
      "prefectureId": "toyama",
      "type": "station",
      "subtype": "private",
      "name": "大泉",
      "nameKana": null,
      "nameEn": "Oizumi",
      "operator": null,
      "network": null,
      "ref": null,
      "latitude": 36.6775945,
      "longitude": 137.228834,
      "countryCode": "jp",
      "rawTags": {
        "name": "大泉",
        "name:en": "Oizumi",
        "name:ja": "大泉",
        "name:ja_rm": "Ōizumi",
        "name:ko": "오이즈미",
        "public_transport": "station",
        "railway": "station",
        "source": "KSJ2",
        "wikidata": "Q8081527",
        "wikipedia": "ja:大泉駅 (富山県)"
      }
    },
    {
      "id": "toyama_station_270041467",
      "osmId": 270041467,
      "osmType": "node",
      "prefectureId": "toyama",
      "type": "station",
      "subtype": "private",
      "name": "下段",
      "nameKana": "しただん",
      "nameEn": "Shitadan",
      "operator": null,
      "network": null,
      "ref": null,
      "latitude": 36.6476952,
      "longitude": 137.3179114,
      "countryCode": "jp",
      "rawTags": {
        "name": "下段",
        "name:en": "Shitadan",
        "name:ja": "下段",
        "name:ja_kana": "しただん",
        "name:ja_rm": "Shitadan",
        "name:ko": "시타단",
        "railway": "station",
        "source": "KSJ2",
        "wikidata": "Q7499138",
        "wikipedia": "ja:下段駅"
      }
    },
    {
      "id": "toyama_station_270041486",
      "osmId": 270041486,
      "osmType": "node",
      "prefectureId": "toyama",
      "type": "station",
      "subtype": "private",
      "name": "本宮",
      "nameKana": "ほんぐう",
      "nameEn": "Hongu",
      "operator": null,
      "network": null,
      "ref": null,
      "latitude": 36.5750099,
      "longitude": 137.3962106,
      "countryCode": "jp",
      "rawTags": {
        "name": "本宮",
        "name:en": "Hongu",
        "name:ja": "本宮",
        "name:ja_kana": "ほんぐう",
        "name:ja_rm": "Hongū",
        "name:ko": "혼구",
        "public_transport": "station",
        "railway": "station",
        "source": "KSJ2",
        "wikidata": "Q11520141",
        "wikipedia": "ja:本宮駅 (富山県)"
      }
    },
    {
      "id": "toyama_station_270041527",
      "osmId": 270041527,
      "osmType": "node",
      "prefectureId": "toyama",
      "type": "station",
      "subtype": "private",
      "name": "榎町",
      "nameKana": "えのきまち",
      "nameEn": "Enoki-machi",
      "operator": null,
      "network": null,
      "ref": null,
      "latitude": 36.6575871,
      "longitude": 137.3168003,
      "countryCode": "jp",
      "rawTags": {
        "name": "榎町",
        "name:en": "Enoki-machi",
        "name:ja": "榎町",
        "name:ja_kana": "えのきまち",
        "name:ja_rm": "Enoki-machi",
        "name:ko": "에노키마치",
        "railway": "station",
        "source": "KSJ2",
        "wikidata": "Q5379374",
        "wikipedia": "ja:榎町駅"
      }
    },
    {
      "id": "toyama_station_270041532",
      "osmId": 270041532,
      "osmType": "node",
      "prefectureId": "toyama",
      "type": "station",
      "subtype": "private",
      "name": "田添",
      "nameKana": "たぞえ",
      "nameEn": "Tazoe",
      "operator": null,
      "network": null,
      "ref": null,
      "latitude": 36.679431,
      "longitude": 137.317776,
      "countryCode": "jp",
      "rawTags": {
        "name": "田添",
        "name:en": "Tazoe",
        "name:ja": "田添",
        "name:ja_kana": "たぞえ",
        "name:ja_rm": "Tazoe",
        "name:ko": "다조에",
        "railway": "station",
        "source": "KSJ2",
        "wikidata": "Q7690465",
        "wikipedia": "ja:田添駅"
      }
    },
    {
      "id": "toyama_station_270041545",
      "osmId": 270041545,
      "osmType": "node",
      "prefectureId": "toyama",
      "type": "station",
      "subtype": "private",
      "name": "稚子塚",
      "nameKana": "ちごづか",
      "nameEn": "Chigozuka",
      "operator": null,
      "network": null,
      "ref": null,
      "latitude": 36.6863119,
      "longitude": 137.3176282,
      "countryCode": "jp",
      "rawTags": {
        "name": "稚子塚",
        "name:en": "Chigozuka",
        "name:ja": "稚子塚",
        "name:ja_kana": "ちごづか",
        "name:ja_rm": "Chigozuka",
        "name:ko": "지고즈카",
        "public_transport": "station",
        "railway": "station",
        "source": "KSJ2",
        "wikidata": "Q5097230",
        "wikipedia": "ja:稚子塚駅"
      }
    },
    {
      "id": "toyama_station_270041589",
      "osmId": 270041589,
      "osmType": "node",
      "prefectureId": "toyama",
      "type": "station",
      "subtype": "private",
      "name": "横江",
      "nameKana": "よこえ",
      "nameEn": "Yokoe",
      "operator": null,
      "network": null,
      "ref": null,
      "latitude": 36.5822074,
      "longitude": 137.3357033,
      "countryCode": "jp",
      "rawTags": {
        "name": "横江",
        "name:en": "Yokoe",
        "name:ja": "横江",
        "name:ja_kana": "よこえ",
        "name:ja_rm": "Yokoe",
        "name:ko": "요코에",
        "railway": "station",
        "source": "KSJ2",
        "wikidata": "Q8054605",
        "wikipedia": "ja:横江駅"
      }
    },
    {
      "id": "toyama_station_270041934",
      "osmId": 270041934,
      "osmType": "node",
      "prefectureId": "toyama",
      "type": "station",
      "subtype": "private",
      "name": "沢中山",
      "nameKana": "さわなかやま",
      "nameEn": "Sawanakayama",
      "operator": null,
      "network": null,
      "ref": null,
      "latitude": 36.6224376,
      "longitude": 137.3210952,
      "countryCode": "jp",
      "rawTags": {
        "name": "沢中山",
        "name:en": "Sawanakayama",
        "name:ja": "沢中山",
        "name:ja_kana": "さわなかやま",
        "name:ja_rm": "Sawanakayama",
        "name:ko": "사와나카야마",
        "railway": "station",
        "source": "KSJ2",
        "wikidata": "Q7428575",
        "wikipedia": "ja:沢中山駅"
      }
    },
    {
      "id": "toyama_station_270041991",
      "osmId": 270041991,
      "osmType": "node",
      "prefectureId": "toyama",
      "type": "station",
      "subtype": "private",
      "name": "釜ヶ淵",
      "nameKana": "かまがふち",
      "nameEn": "Kamagafuchi",
      "operator": null,
      "network": null,
      "ref": null,
      "latitude": 36.6330153,
      "longitude": 137.3195187,
      "countryCode": "jp",
      "rawTags": {
        "name": "釜ヶ淵",
        "name:en": "Kamagafuchi",
        "name:ja": "釜ヶ淵",
        "name:ja_kana": "かまがふち",
        "name:ja_rm": "Kamagafuchi",
        "name:ko": "가마가후치",
        "railway": "station",
        "source": "KSJ2",
        "wikidata": "Q6355253",
        "wikipedia": "ja:釜ヶ淵駅"
      }
    },
    {
      "id": "toyama_station_270042068",
      "osmId": 270042068,
      "osmType": "node",
      "prefectureId": "toyama",
      "type": "station",
      "subtype": "private",
      "name": "千垣",
      "nameKana": "ちがき",
      "nameEn": "Chigaki",
      "operator": null,
      "network": null,
      "ref": null,
      "latitude": 36.573656,
      "longitude": 137.373534,
      "countryCode": "jp",
      "rawTags": {
        "name": "千垣",
        "name:en": "Chigaki",
        "name:ja": "千垣",
        "name:ja_kana": "ちがき",
        "name:ja_rm": "Chigaki",
        "name:ko": "지가키",
        "public_transport": "station",
        "railway": "station",
        "source": "KSJ2",
        "wikidata": "Q5097198",
        "wikipedia": "ja:千垣駅"
      }
    },
    {
      "id": "toyama_station_270042110",
      "osmId": 270042110,
      "osmType": "node",
      "prefectureId": "toyama",
      "type": "station",
      "subtype": "private",
      "name": "有峰口",
      "nameKana": "ありみねぐち",
      "nameEn": "Arimineguchi",
      "operator": null,
      "network": null,
      "ref": null,
      "latitude": 36.5730786,
      "longitude": 137.3801895,
      "countryCode": "jp",
      "rawTags": {
        "name": "有峰口",
        "name:en": "Arimineguchi",
        "name:ja": "有峰口",
        "name:ja_kana": "ありみねぐち",
        "name:ja_rm": "Arimineguchi",
        "name:ko": "아리미네구치",
        "railway": "station",
        "source": "KSJ2",
        "wikidata": "Q4790693",
        "wikipedia": "ja:有峰口駅"
      }
    },
    {
      "id": "toyama_station_270042155",
      "osmId": 270042155,
      "osmType": "node",
      "prefectureId": "toyama",
      "type": "station",
      "subtype": "private",
      "name": "五百石",
      "nameKana": "ごひゃっこく",
      "nameEn": "Gohyakkoku",
      "operator": null,
      "network": null,
      "ref": null,
      "latitude": 36.6654108,
      "longitude": 137.3142786,
      "countryCode": "jp",
      "rawTags": {
        "name": "五百石",
        "name:en": "Gohyakkoku",
        "name:ja": "五百石",
        "name:ja_kana": "ごひゃっこく",
        "name:ja_rm": "Gohyakkoku",
        "name:ko": "고햐쿠코쿠",
        "railway": "station",
        "source": "KSJ2",
        "wikidata": "Q5577607",
        "wikipedia": "ja:五百石駅"
      }
    },
    {
      "id": "toyama_station_270043102",
      "osmId": 270043102,
      "osmType": "node",
      "prefectureId": "toyama",
      "type": "station",
      "subtype": "private",
      "name": "萩浦小学校前",
      "nameKana": null,
      "nameEn": "Hagiurashōgakkō-mae",
      "operator": "富山地方鉄道",
      "network": null,
      "ref": null,
      "latitude": 36.7481061,
      "longitude": 137.2283002,
      "countryCode": "jp",
      "rawTags": {
        "description": "2020年3月に大広田駅から改称",
        "light_rail": "yes",
        "name": "萩浦小学校前",
        "name:en": "Hagiurashōgakkō-mae",
        "name:ja": "萩浦小学校前",
        "operator": "富山地方鉄道",
        "public_transport": "station",
        "railway": "station",
        "source": "KSJ2;survey",
        "station": "light_rail",
        "wikidata": "Q11435331",
        "wikipedia": "ja:萩浦小学校前駅"
      }
    },
    {
      "id": "toyama_station_270043111",
      "osmId": 270043111,
      "osmType": "node",
      "prefectureId": "toyama",
      "type": "station",
      "subtype": "private",
      "name": "城川原",
      "nameKana": null,
      "nameEn": "Jogawara",
      "operator": "富山地方鉄道",
      "network": null,
      "ref": null,
      "latitude": 36.7311739,
      "longitude": 137.2260519,
      "countryCode": "jp",
      "rawTags": {
        "light_rail": "yes",
        "name": "城川原",
        "name:en": "Jogawara",
        "name:ja": "城川原",
        "operator": "富山地方鉄道",
        "public_transport": "station",
        "railway": "station",
        "source": "KSJ2",
        "station": "light_rail",
        "wikidata": "Q11426147",
        "wikipedia": "ja:城川原駅"
      }
    },
    {
      "id": "toyama_station_270043120",
      "osmId": 270043120,
      "osmType": "node",
      "prefectureId": "toyama",
      "type": "station",
      "subtype": "private",
      "name": "越中中島",
      "nameKana": null,
      "nameEn": "Etchu-Nakajima",
      "operator": "富山地方鉄道",
      "network": null,
      "ref": null,
      "latitude": 36.7224891,
      "longitude": 137.2248971,
      "countryCode": "jp",
      "rawTags": {
        "light_rail": "yes",
        "name": "越中中島",
        "name:en": "Etchu-Nakajima",
        "name:ja": "越中中島",
        "operator": "富山地方鉄道",
        "public_transport": "station",
        "railway": "station",
        "source": "KSJ2",
        "station": "light_rail",
        "wikidata": "Q11636375",
        "wikipedia": "ja:越中中島駅"
      }
    },
    {
      "id": "toyama_station_270043126",
      "osmId": 270043126,
      "osmType": "node",
      "prefectureId": "toyama",
      "type": "station",
      "subtype": "private",
      "name": "粟島 (大阪屋ショップ前)",
      "nameKana": null,
      "nameEn": "Awajima",
      "operator": "富山地方鉄道",
      "network": null,
      "ref": null,
      "latitude": 36.7192591,
      "longitude": 137.2248127,
      "countryCode": "jp",
      "rawTags": {
        "light_rail": "yes",
        "name": "粟島 (大阪屋ショップ前)",
        "name:en": "Awajima",
        "name:ja": "粟島（大阪屋ショップ前）",
        "operator": "富山地方鉄道",
        "public_transport": "station",
        "railway": "station",
        "source": "KSJ2",
        "station": "light_rail",
        "wikidata": "Q11604591",
        "wikipedia": "ja:粟島駅"
      }
    },
    {
      "id": "toyama_station_270043139",
      "osmId": 270043139,
      "osmType": "node",
      "prefectureId": "toyama",
      "type": "station",
      "subtype": "private",
      "name": "下奥井",
      "nameKana": null,
      "nameEn": "Shimookui",
      "operator": "富山地方鉄道",
      "network": null,
      "ref": null,
      "latitude": 36.712293,
      "longitude": 137.224646,
      "countryCode": "jp",
      "rawTags": {
        "light_rail": "yes",
        "name": "下奥井",
        "name:en": "Shimookui",
        "name:ja": "下奥井",
        "operator": "富山地方鉄道",
        "public_transport": "station",
        "railway": "station",
        "source": "KSJ2",
        "station": "light_rail",
        "wikidata": "Q11360765",
        "wikipedia": "ja:下奥井駅"
      }
    },
    {
      "id": "toyama_station_270043144",
      "osmId": 270043144,
      "osmType": "node",
      "prefectureId": "toyama",
      "type": "station",
      "subtype": "private",
      "name": "奥田中学校前",
      "nameKana": "おくだちゅうがっこうまええき",
      "nameEn": "Okuda-Chugakko-Mae",
      "operator": "富山地方鉄道",
      "network": null,
      "ref": null,
      "latitude": 36.7034886,
      "longitude": 137.2235899,
      "countryCode": "jp",
      "rawTags": {
        "light_rail": "yes",
        "name": "奥田中学校前",
        "name:en": "Okuda-Chugakko-Mae",
        "name:ja": "奥田中学校前",
        "name:ja_kana": "おくだちゅうがっこうまええき",
        "name:ja_rm": "Okuda-chūgakkō-mae",
        "operator": "富山地方鉄道",
        "public_transport": "station",
        "railway": "station",
        "source": "KSJ2",
        "station": "light_rail",
        "wikidata": "Q11445988",
        "wikipedia": "ja:奥田中学校前駅"
      }
    },
    {
      "id": "toyama_station_270043168",
      "osmId": 270043168,
      "osmType": "node",
      "prefectureId": "toyama",
      "type": "station",
      "subtype": "private",
      "name": "岩瀬浜",
      "nameKana": null,
      "nameEn": "Iwasehama",
      "operator": null,
      "network": null,
      "ref": null,
      "latitude": 36.7615162,
      "longitude": 137.2340029,
      "countryCode": "jp",
      "rawTags": {
        "light_rail": "yes",
        "name": "岩瀬浜",
        "name:en": "Iwasehama",
        "name:es": "Iwasehama",
        "name:ja": "岩瀬浜",
        "public_transport": "station",
        "railway": "station",
        "source": "KSJ2",
        "station": "light_rail",
        "wikidata": "Q11475415",
        "wikipedia": "ja:岩瀬浜駅"
      }
    },
    {
      "id": "toyama_station_270043178",
      "osmId": 270043178,
      "osmType": "node",
      "prefectureId": "toyama",
      "type": "station",
      "subtype": "private",
      "name": "競輪場前",
      "nameKana": null,
      "nameEn": "Keirinjomae",
      "operator": "富山地方鉄道",
      "network": null,
      "ref": null,
      "latitude": 36.7574739,
      "longitude": 137.2338439,
      "countryCode": "jp",
      "rawTags": {
        "light_rail": "yes",
        "name": "競輪場前",
        "name:en": "Keirinjomae",
        "name:ja": "競輪場前",
        "operator": "富山地方鉄道",
        "public_transport": "station",
        "railway": "station",
        "source": "KSJ2",
        "station": "light_rail",
        "wikidata": "Q17217095",
        "wikipedia": "ja:競輪場前駅 (富山県)"
      }
    },
    {
      "id": "toyama_station_335655726",
      "osmId": 335655726,
      "osmType": "node",
      "prefectureId": "toyama",
      "type": "station",
      "subtype": "private",
      "name": "越ノ潟",
      "nameKana": null,
      "nameEn": null,
      "operator": null,
      "network": null,
      "ref": null,
      "latitude": 36.7748551,
      "longitude": 137.1117347,
      "countryCode": "jp",
      "rawTags": {
        "light_rail": "yes",
        "name": "越ノ潟",
        "name:ja": "越ノ潟",
        "name:ko": "고시노카타",
        "public_transport": "station",
        "railway": "station",
        "source": "KSJ2",
        "station": "light_rail",
        "wikidata": "Q6433137",
        "wikipedia": "ja:越ノ潟駅"
      }
    },
    {
      "id": "toyama_station_335655728",
      "osmId": 335655728,
      "osmType": "node",
      "prefectureId": "toyama",
      "type": "station",
      "subtype": "private",
      "name": "新町口",
      "nameKana": null,
      "nameEn": null,
      "operator": null,
      "network": null,
      "ref": null,
      "latitude": 36.7788735,
      "longitude": 137.0843397,
      "countryCode": "jp",
      "rawTags": {
        "light_rail": "yes",
        "name": "新町口",
        "name:ja": "新町口",
        "name:ko": "신마치구치",
        "public_transport": "station",
        "railway": "station",
        "source": "KSJ2",
        "station": "light_rail",
        "wikidata": "Q7497663",
        "wikipedia": "ja:新町口駅"
      }
    },
    {
      "id": "toyama_station_335655732",
      "osmId": 335655732,
      "osmType": "node",
      "prefectureId": "toyama",
      "type": "station",
      "subtype": "private",
      "name": "第一イン新湊クロスベイ前",
      "nameKana": null,
      "nameEn": null,
      "operator": null,
      "network": null,
      "ref": null,
      "latitude": 36.781267,
      "longitude": 137.0784907,
      "countryCode": "jp",
      "rawTags": {
        "light_rail": "yes",
        "name": "第一イン新湊クロスベイ前",
        "name:ja": "第一イン新湊クロスベイ前",
        "name:ko": "니시신미나토",
        "public_transport": "station",
        "railway": "station",
        "source": "KSJ2",
        "station": "light_rail",
        "wikidata": "Q6004206",
        "wikipedia": "ja:第一イン新湊クロスベイ前駅"
      }
    },
    {
      "id": "toyama_station_335655737",
      "osmId": 335655737,
      "osmType": "node",
      "prefectureId": "toyama",
      "type": "station",
      "subtype": "private",
      "name": "東新湊",
      "nameKana": null,
      "nameEn": null,
      "operator": null,
      "network": null,
      "ref": null,
      "latitude": 36.7779672,
      "longitude": 137.0987383,
      "countryCode": "jp",
      "rawTags": {
        "light_rail": "yes",
        "name": "東新湊",
        "name:ja": "東新湊",
        "name:ko": "히가시신미나토",
        "public_transport": "station",
        "railway": "station",
        "source": "KSJ2",
        "station": "light_rail",
        "wikidata": "Q5753983",
        "wikipedia": "ja:東新湊駅"
      }
    },
    {
      "id": "toyama_station_335655739",
      "osmId": 335655739,
      "osmType": "node",
      "prefectureId": "toyama",
      "type": "station",
      "subtype": "private",
      "name": "庄川口",
      "nameKana": null,
      "nameEn": null,
      "operator": null,
      "network": null,
      "ref": null,
      "latitude": 36.7844919,
      "longitude": 137.0706824,
      "countryCode": "jp",
      "rawTags": {
        "light_rail": "yes",
        "name": "庄川口",
        "name:ja": "庄川口",
        "name:ko": "쇼가와구치",
        "public_transport": "station",
        "railway": "station",
        "source": "KSJ2",
        "station": "light_rail",
        "wikidata": "Q7506111",
        "wikipedia": "ja:庄川口駅"
      }
    },
    {
      "id": "toyama_station_335655776",
      "osmId": 335655776,
      "osmType": "node",
      "prefectureId": "toyama",
      "type": "station",
      "subtype": "private",
      "name": "中新湊",
      "nameKana": null,
      "nameEn": null,
      "operator": "万葉線",
      "network": null,
      "ref": null,
      "latitude": 36.7751799,
      "longitude": 137.0886347,
      "countryCode": "jp",
      "rawTags": {
        "light_rail": "yes",
        "name": "中新湊",
        "name:ja": "中新湊",
        "name:ko": "나카신미나토",
        "operator": "万葉線",
        "operator:wikidata": "Q1582213",
        "public_transport": "station",
        "railway": "station",
        "source": "KSJ2",
        "station": "light_rail",
        "wikidata": "Q6960106",
        "wikipedia": "ja:中新湊駅"
      }
    },
    {
      "id": "toyama_station_711974388",
      "osmId": 711974388,
      "osmType": "node",
      "prefectureId": "toyama",
      "type": "station",
      "subtype": "private",
      "name": "美女平",
      "nameKana": "Bijodaira",
      "nameEn": "Bijodaira",
      "operator": null,
      "network": null,
      "ref": null,
      "latitude": 36.5833471,
      "longitude": 137.4585968,
      "countryCode": "jp",
      "rawTags": {
        "name": "美女平",
        "name:en": "Bijodaira",
        "name:fr": "Bijodaira",
        "name:ja-Hira": "Bijodaira",
        "name:ja-Latn": "びじょだいら",
        "name:ko": "비조다이라",
        "public_transport": "station",
        "railway": "station",
        "station": "funicular",
        "wikidata": "Q4907236",
        "wikimedia_commons": "Category:Bijodaira Station",
        "wikipedia": "ja:美女平駅"
      }
    },
    {
      "id": "toyama_station_711976380",
      "osmId": 711976380,
      "osmType": "node",
      "prefectureId": "toyama",
      "type": "station",
      "subtype": "private",
      "name": "黒部平",
      "nameKana": "くろべだいら",
      "nameEn": "Kurobedaira",
      "operator": "立山黒部貫光",
      "network": null,
      "ref": null,
      "latitude": 36.5671451,
      "longitude": 137.6501481,
      "countryCode": "jp",
      "rawTags": {
        "ele": "1828",
        "funicular": "yes",
        "level": "1",
        "name": "黒部平",
        "name:en": "Kurobedaira",
        "name:fr": "Kurobedaira",
        "name:ja-Hira": "くろべだいら",
        "name:ja-Latn": "Kurobedaira",
        "operator": "立山黒部貫光",
        "public_transport": "stop_position",
        "railway": "station",
        "start_date": "1969-07-20"
      }
    },
    {
      "id": "toyama_station_2080163640",
      "osmId": 2080163640,
      "osmType": "node",
      "prefectureId": "toyama",
      "type": "station",
      "subtype": "private",
      "name": "欅平",
      "nameKana": "けやきだいら",
      "nameEn": "Keyakidaira",
      "operator": null,
      "network": null,
      "ref": null,
      "latitude": 36.6968748,
      "longitude": 137.6581056,
      "countryCode": "jp",
      "rawTags": {
        "name": "欅平",
        "name:en": "Keyakidaira",
        "name:ja": "欅平",
        "name:ja_kana": "けやきだいら",
        "name:ja_rm": "Keyakidaira",
        "name:ko": "게야키다이라",
        "public_transport": "station",
        "railway": "station",
        "source": "KSJ2",
        "wikidata": "Q11544856",
        "wikipedia": "ja:欅平駅"
      }
    },
    {
      "id": "toyama_station_2080846378",
      "osmId": 2080846378,
      "osmType": "node",
      "prefectureId": "toyama",
      "type": "station",
      "subtype": "private",
      "name": "黒部湖",
      "nameKana": "くろべこ",
      "nameEn": "Kurobeko",
      "operator": null,
      "network": null,
      "ref": null,
      "latitude": 36.5665265,
      "longitude": 137.6582898,
      "countryCode": "jp",
      "rawTags": {
        "contact:website": "https://www.alpen-route.com/facilities/station/station07.html",
        "ele": "1455",
        "layer": "-1",
        "level": "-1",
        "name": "黒部湖",
        "name:en": "Kurobeko",
        "name:fr": "Kurobeko",
        "name:ja-Hira": "くろべこ",
        "name:ja-Latn": "Kurobeko",
        "public_transport": "station",
        "railway": "station",
        "start_date": "1969-07-20",
        "wikidata": "Q11678857",
        "wikimedia_commons": "Category:Kurobeko Station",
        "wikipedia": "ja:黒部湖駅"
      }
    },
    {
      "id": "toyama_bus_terminal_2619428773",
      "osmId": 2619428773,
      "osmType": "node",
      "prefectureId": "toyama",
      "type": "bus_terminal",
      "subtype": null,
      "name": "黒部ダム",
      "nameKana": "くろべダム",
      "nameEn": "Kurobe Dam",
      "operator": null,
      "network": null,
      "ref": null,
      "latitude": 36.5670625,
      "longitude": 137.666413,
      "countryCode": "jp",
      "rawTags": {
        "amenity": "bus_station",
        "contact:website": "https://www.alpen-route.com/facilities/station/station08.html",
        "highway": "bus_stop",
        "name": "黒部ダム",
        "name:en": "Kurobe Dam",
        "name:fr": "Barrage de Kurobe",
        "name:ja-Hira": "くろべダム",
        "name:ja-Latn": "Kurobe-damu",
        "public_transport": "stop_position",
        "start_date": "1964-08-01",
        "trolleybus": "yes",
        "wikidata": "Q6446260",
        "wikimedia_commons": "Category:Kurobe Dam Station",
        "wikipedia": "ja:黒部ダム駅"
      }
    },
    {
      "id": "toyama_station_3977968053",
      "osmId": 3977968053,
      "osmType": "node",
      "prefectureId": "toyama",
      "type": "station",
      "subtype": "jr",
      "name": "富山",
      "nameKana": "とやま",
      "nameEn": "Toyama",
      "operator": "西日本旅客鉄道",
      "network": null,
      "ref": null,
      "latitude": 36.7016421,
      "longitude": 137.2127904,
      "countryCode": "jp",
      "rawTags": {
        "highspeed": "yes",
        "name": "富山",
        "name:de": "Toyama",
        "name:en": "Toyama",
        "name:ja": "富山",
        "name:ja_kana": "とやま",
        "name:ja_rm": "Toyama",
        "name:ko": "토야마",
        "operator": "西日本旅客鉄道",
        "public_transport": "station",
        "railway": "station",
        "source": "KSJ2",
        "wheelchair": "yes",
        "wikidata": "Q1053070",
        "wikipedia": "ja:富山駅"
      }
    },
    {
      "id": "toyama_station_3992874374",
      "osmId": 3992874374,
      "osmType": "node",
      "prefectureId": "toyama",
      "type": "station",
      "subtype": "jr",
      "name": "石動",
      "nameKana": "いするぎ",
      "nameEn": "Isurugi",
      "operator": "あいの風とやま鉄道;西日本旅客鉄道",
      "network": null,
      "ref": null,
      "latitude": 36.6726074,
      "longitude": 136.8654291,
      "countryCode": "jp",
      "rawTags": {
        "name": "石動",
        "name:en": "Isurugi",
        "name:ja": "石動",
        "name:ja_kana": "いするぎ",
        "name:ja_rm": "Isurugi",
        "name:ko": "이스루기",
        "operator": "あいの風とやま鉄道;西日本旅客鉄道",
        "public_transport": "station",
        "railway": "station",
        "source": "KSJ2",
        "wikidata": "Q5359671",
        "wikipedia": "ja:石動駅"
      }
    },
    {
      "id": "toyama_station_4437592203",
      "osmId": 4437592203,
      "osmType": "node",
      "prefectureId": "toyama",
      "type": "station",
      "subtype": "private",
      "name": "鬼ヶ城連絡所",
      "nameKana": null,
      "nameEn": null,
      "operator": "国土交通省北陸地方整備局立山砂防事務所",
      "network": null,
      "ref": null,
      "latitude": 36.5569836,
      "longitude": 137.5050747,
      "countryCode": "jp",
      "rawTags": {
        "name": "鬼ヶ城連絡所",
        "operator": "国土交通省北陸地方整備局立山砂防事務所",
        "public_transport": "station",
        "railway": "station",
        "train": "yes"
      }
    },
    {
      "id": "toyama_station_4437592256",
      "osmId": 4437592256,
      "osmType": "node",
      "prefectureId": "toyama",
      "type": "station",
      "subtype": "private",
      "name": "桑谷連絡所",
      "nameKana": null,
      "nameEn": null,
      "operator": null,
      "network": null,
      "ref": null,
      "latitude": 36.5671536,
      "longitude": 137.4849781,
      "countryCode": "jp",
      "rawTags": {
        "name": "桑谷連絡所",
        "public_transport": "station",
        "railway": "station",
        "train": "yes"
      }
    },
    {
      "id": "toyama_station_4437592284",
      "osmId": 4437592284,
      "osmType": "node",
      "prefectureId": "toyama",
      "type": "station",
      "subtype": "private",
      "name": "中小屋連絡所",
      "nameKana": null,
      "nameEn": null,
      "operator": null,
      "network": null,
      "ref": null,
      "latitude": 36.5691082,
      "longitude": 137.471573,
      "countryCode": "jp",
      "rawTags": {
        "name": "中小屋連絡所",
        "public_transport": "station",
        "railway": "station",
        "train": "yes"
      }
    },
    {
      "id": "toyama_bus_terminal_4642132920",
      "osmId": 4642132920,
      "osmType": "node",
      "prefectureId": "toyama",
      "type": "bus_terminal",
      "subtype": null,
      "name": "砺波駅南",
      "nameKana": null,
      "nameEn": null,
      "operator": null,
      "network": null,
      "ref": null,
      "latitude": 36.6363777,
      "longitude": 136.9538472,
      "countryCode": "jp",
      "rawTags": {
        "amenity": "bus_station",
        "bus": "yes",
        "name": "砺波駅南",
        "public_transport": "station"
      }
    },
    {
      "id": "toyama_station_5211478960",
      "osmId": 5211478960,
      "osmType": "node",
      "prefectureId": "toyama",
      "type": "station",
      "subtype": "private",
      "name": "蓮町（馬場記念公園前）",
      "nameKana": null,
      "nameEn": "Hasumachi (Babakinenkōen-mae)",
      "operator": "富山地方鉄道",
      "network": null,
      "ref": null,
      "latitude": 36.7425979,
      "longitude": 137.2275798,
      "countryCode": "jp",
      "rawTags": {
        "light_rail": "yes",
        "name": "蓮町（馬場記念公園前）",
        "name:en": "Hasumachi (Babakinenkōen-mae)",
        "name:ja": "蓮町（馬場記念公園前）",
        "operator": "富山地方鉄道",
        "public_transport": "station",
        "railway": "station",
        "source": "KSJ2",
        "station": "light_rail",
        "wikidata": "Q11621722",
        "wikipedia": "ja:蓮町（馬場記念公園前）駅"
      }
    },
    {
      "id": "toyama_station_5211622524",
      "osmId": 5211622524,
      "osmType": "node",
      "prefectureId": "toyama",
      "type": "station",
      "subtype": "private",
      "name": "東岩瀬",
      "nameKana": null,
      "nameEn": "Higashi-Iwase",
      "operator": "富山地方鉄道",
      "network": null,
      "ref": null,
      "latitude": 36.752703,
      "longitude": 137.2309052,
      "countryCode": "jp",
      "rawTags": {
        "light_rail": "yes",
        "name": "東岩瀬",
        "name:en": "Higashi-Iwase",
        "name:ja": "東岩瀬",
        "operator": "富山地方鉄道",
        "public_transport": "station",
        "railway": "station",
        "source": "KSJ2",
        "station": "light_rail",
        "wikidata": "Q11526767",
        "wikipedia": "ja:東岩瀬駅"
      }
    },
    {
      "id": "toyama_station_5211891021",
      "osmId": 5211891021,
      "osmType": "node",
      "prefectureId": "toyama",
      "type": "station",
      "subtype": "private",
      "name": "犬島新町",
      "nameKana": null,
      "nameEn": "Inujima-Shimmachi",
      "operator": "富山地方鉄道",
      "network": null,
      "ref": null,
      "latitude": 36.7351913,
      "longitude": 137.2265929,
      "countryCode": "jp",
      "rawTags": {
        "light_rail": "yes",
        "name": "犬島新町",
        "name:en": "Inujima-Shimmachi",
        "name:ja": "犬島新町",
        "operator": "富山地方鉄道",
        "public_transport": "station",
        "railway": "station",
        "source": "KSJ2",
        "station": "light_rail",
        "wikidata": "Q11571223",
        "wikipedia": "ja:犬島新町駅"
      }
    },
    {
      "id": "toyama_station_5770394957",
      "osmId": 5770394957,
      "osmType": "node",
      "prefectureId": "toyama",
      "type": "station",
      "subtype": "private",
      "name": "樺平連絡所",
      "nameKana": null,
      "nameEn": null,
      "operator": null,
      "network": null,
      "ref": null,
      "latitude": 36.5484576,
      "longitude": 137.5143291,
      "countryCode": "jp",
      "rawTags": {
        "name": "樺平連絡所",
        "public_transport": "station",
        "railway": "station",
        "train": "yes"
      }
    },
    {
      "id": "toyama_station_5770455204",
      "osmId": 5770455204,
      "osmType": "node",
      "prefectureId": "toyama",
      "type": "station",
      "subtype": "private",
      "name": "水谷連絡所",
      "nameKana": null,
      "nameEn": null,
      "operator": null,
      "network": null,
      "ref": null,
      "latitude": 36.5507837,
      "longitude": 137.5311761,
      "countryCode": "jp",
      "rawTags": {
        "name": "水谷連絡所",
        "public_transport": "station",
        "railway": "station",
        "train": "yes"
      }
    },
    {
      "id": "toyama_station_6050880711",
      "osmId": 6050880711,
      "osmType": "node",
      "prefectureId": "toyama",
      "type": "station",
      "subtype": "private",
      "name": "魚津",
      "nameKana": "うおづ",
      "nameEn": "Uozu",
      "operator": "あいの風とやま鉄道",
      "network": null,
      "ref": null,
      "latitude": 36.8264529,
      "longitude": 137.4057296,
      "countryCode": "jp",
      "rawTags": {
        "name": "魚津",
        "name:en": "Uozu",
        "name:ja": "魚津",
        "name:ja_kana": "うおづ",
        "name:ja_rm": "Uōzu",
        "name:ko": "우오즈",
        "operator": "あいの風とやま鉄道",
        "public_transport": "station",
        "railway": "station",
        "source": "KSJ2",
        "wikidata": "Q5359637",
        "wikipedia": "ja:魚津駅"
      }
    },
    {
      "id": "toyama_station_6342854861",
      "osmId": 6342854861,
      "osmType": "node",
      "prefectureId": "toyama",
      "type": "station",
      "subtype": "private",
      "name": "栄町",
      "nameKana": "さかえまち",
      "nameEn": "Sakaemachi",
      "operator": "富山地方鉄道",
      "network": "富山地方鉄道不二越線",
      "ref": "T58",
      "latitude": 36.6916369,
      "longitude": 137.2333827,
      "countryCode": "jp",
      "rawTags": {
        "alt_name": "県立中央病院口",
        "alt_name:ja": "県立中央病院口",
        "alt_name:ja-Hira": "けんりつちゅうおうびょういんぐち",
        "alt_name:ja-Latn": "Kenritsu chûô byôin guchi",
        "name": "栄町",
        "name:en": "Sakaemachi",
        "name:ja": "栄町",
        "name:ja-Hira": "さかえまち",
        "name:ja-Latn": "Sakaemachi",
        "network": "富山地方鉄道不二越線",
        "operator": "富山地方鉄道",
        "public_transport": "station",
        "railway": "station",
        "ref": "T58",
        "start_date": "2019-03-16",
        "website": "https://www.chitetsu.co.jp/?station_info=%E6%A0%84%E7%94%BA%E9%A7%85",
        "wikidata": "Q62070777",
        "wikipedia": "ja:栄町駅 (富山県)"
      }
    },
    {
      "id": "toyama_station_6433418033",
      "osmId": 6433418033,
      "osmType": "node",
      "prefectureId": "toyama",
      "type": "station",
      "subtype": "private",
      "name": "福光",
      "nameKana": "ふくみつ",
      "nameEn": "Fukumitsu",
      "operator": null,
      "network": null,
      "ref": null,
      "latitude": 36.5583025,
      "longitude": 136.8785696,
      "countryCode": "jp",
      "rawTags": {
        "name": "福光",
        "name:en": "Fukumitsu",
        "name:ja": "福光",
        "name:ja_kana": "ふくみつ",
        "name:ja_rm": "Fukumitsu",
        "name:ko": "후쿠미쓰",
        "public_transport": "station",
        "railway": "station",
        "source": "KSJ2",
        "wikidata": "Q5507669",
        "wikipedia": "ja:福光駅"
      }
    },
    {
      "id": "toyama_station_6628640619",
      "osmId": 6628640619,
      "osmType": "node",
      "prefectureId": "toyama",
      "type": "station",
      "subtype": "jr",
      "name": "新高岡",
      "nameKana": "しんたかおか",
      "nameEn": "Shin-Takaoka",
      "operator": "西日本旅客鉄道",
      "network": null,
      "ref": null,
      "latitude": 36.726967,
      "longitude": 137.01199,
      "countryCode": "jp",
      "rawTags": {
        "highspeed": "yes",
        "name": "新高岡",
        "name:de": "Shin-Takaoka",
        "name:en": "Shin-Takaoka",
        "name:ja-Hira": "しんたかおか",
        "name:ko": "신타카오카",
        "operator": "西日本旅客鉄道",
        "public_transport": "station",
        "railway": "station",
        "wikidata": "Q7497129",
        "wikipedia": "ja:新高岡駅"
      }
    },
    {
      "id": "toyama_station_8142013200",
      "osmId": 8142013200,
      "osmType": "node",
      "prefectureId": "toyama",
      "type": "station",
      "subtype": "private",
      "name": "宇奈月温泉",
      "nameKana": "うなづきおんせん",
      "nameEn": "Unazukionsen",
      "operator": null,
      "network": null,
      "ref": null,
      "latitude": 36.815569,
      "longitude": 137.5841421,
      "countryCode": "jp",
      "rawTags": {
        "alt_name:ko": "우나즈키온센",
        "name": "宇奈月温泉",
        "name:en": "Unazukionsen",
        "name:ja": "宇奈月温泉",
        "name:ja_kana": "うなづきおんせん",
        "name:ja_rm": "Unazukionsen",
        "name:ko": "우나즈키온천",
        "public_transport": "station",
        "railway": "station",
        "source": "KSJ2",
        "wheelchair": "yes",
        "wikidata": "Q7882349",
        "wikipedia": "ja:宇奈月温泉駅"
      }
    },
    {
      "id": "toyama_station_8142027024",
      "osmId": 8142027024,
      "osmType": "node",
      "prefectureId": "toyama",
      "type": "station",
      "subtype": "private",
      "name": "上市",
      "nameKana": "かみいち",
      "nameEn": "Kamiichi",
      "operator": null,
      "network": null,
      "ref": null,
      "latitude": 36.704452,
      "longitude": 137.3569576,
      "countryCode": "jp",
      "rawTags": {
        "bus": "no",
        "name": "上市",
        "name:en": "Kamiichi",
        "name:ja": "上市",
        "name:ja_kana": "かみいち",
        "name:ja_rm": "Kamiichi",
        "name:ko": "가미이치",
        "public_transport": "station",
        "railway": "station",
        "source": "KSJ2",
        "wikidata": "Q6357793",
        "wikipedia": "ja:上市駅"
      }
    },
    {
      "id": "toyama_station_8142027028",
      "osmId": 8142027028,
      "osmType": "node",
      "prefectureId": "toyama",
      "type": "station",
      "subtype": "private",
      "name": "電鉄富山",
      "nameKana": "でんてつとやま",
      "nameEn": "Dentetsu-Toyama",
      "operator": null,
      "network": null,
      "ref": null,
      "latitude": 36.7004704,
      "longitude": 137.214881,
      "countryCode": "jp",
      "rawTags": {
        "name": "電鉄富山",
        "name:en": "Dentetsu-Toyama",
        "name:ja": "電鉄富山",
        "name:ja_kana": "でんてつとやま",
        "name:ja_rm": "Dentetsu-Toyama",
        "name:ko": "덴테츠토야마",
        "public_transport": "station",
        "railway": "station",
        "source": "KSJ2",
        "wikidata": "Q1053070",
        "wikipedia": "ja:電鉄富山駅"
      }
    },
    {
      "id": "toyama_station_8142283005",
      "osmId": 8142283005,
      "osmType": "node",
      "prefectureId": "toyama",
      "type": "station",
      "subtype": "private",
      "name": "東新庄",
      "nameKana": "ひがししんじょう",
      "nameEn": "Higashi-Shinjo",
      "operator": null,
      "network": null,
      "ref": null,
      "latitude": 36.6987221,
      "longitude": 137.2533064,
      "countryCode": "jp",
      "rawTags": {
        "name": "東新庄",
        "name:en": "Higashi-Shinjo",
        "name:ja": "東新庄",
        "name:ja_kana": "ひがししんじょう",
        "name:ja_rm": "Higashi-Shinjō",
        "name:ko": "히가시신조",
        "public_transport": "station",
        "railway": "station",
        "source": "KSJ2",
        "wikidata": "Q5753826",
        "wikipedia": "ja:東新庄駅"
      }
    },
    {
      "id": "toyama_station_8142283006",
      "osmId": 8142283006,
      "osmType": "node",
      "prefectureId": "toyama",
      "type": "station",
      "subtype": "private",
      "name": "稲荷町",
      "nameKana": "いなりまち",
      "nameEn": "Inari-machi",
      "operator": null,
      "network": null,
      "ref": null,
      "latitude": 36.6969102,
      "longitude": 137.2315429,
      "countryCode": "jp",
      "rawTags": {
        "name": "稲荷町",
        "name:en": "Inari-machi",
        "name:ja": "稲荷町",
        "name:ja_kana": "いなりまち",
        "name:ja_rm": "Inari-machi",
        "name:ko": "이나리마치",
        "public_transport": "station",
        "railway": "station",
        "source": "KSJ2",
        "wikidata": "Q6013599",
        "wikipedia": "ja:稲荷町駅 (富山県)"
      }
    },
    {
      "id": "toyama_station_8142323099",
      "osmId": 8142323099,
      "osmType": "node",
      "prefectureId": "toyama",
      "type": "station",
      "subtype": "private",
      "name": "新黒部",
      "nameKana": "しんくろべ",
      "nameEn": "Shin-Kurobe",
      "operator": "富山地方鉄道",
      "network": null,
      "ref": null,
      "latitude": 36.8731731,
      "longitude": 137.4810621,
      "countryCode": "jp",
      "rawTags": {
        "name": "新黒部",
        "name:en": "Shin-Kurobe",
        "name:ja": "新黒部",
        "name:ja-Hira": "しんくろべ",
        "operator": "富山地方鉄道",
        "public_transport": "station",
        "railway": "station",
        "source": "KSJ2",
        "wikidata": "Q7497114",
        "wikipedia": "ja:新黒部駅"
      }
    },
    {
      "id": "toyama_station_8145864795",
      "osmId": 8145864795,
      "osmType": "node",
      "prefectureId": "toyama",
      "type": "station",
      "subtype": "private",
      "name": "寺田",
      "nameKana": "てらだ",
      "nameEn": "Terada",
      "operator": null,
      "network": null,
      "ref": null,
      "latitude": 36.6988403,
      "longitude": 137.318645,
      "countryCode": "jp",
      "rawTags": {
        "name": "寺田",
        "name:en": "Terada",
        "name:ja": "寺田",
        "name:ja_kana": "てらだ",
        "name:ja_rm": "Terada",
        "name:ko": "데라다",
        "public_transport": "station",
        "railway": "station",
        "source": "KSJ2",
        "wikidata": "Q7701505",
        "wikipedia": "ja:寺田駅 (富山県)"
      }
    },
    {
      "id": "toyama_station_8145864798",
      "osmId": 8145864798,
      "osmType": "node",
      "prefectureId": "toyama",
      "type": "station",
      "subtype": "private",
      "name": "岩峅寺",
      "nameKana": "いわくらじ",
      "nameEn": "Iwakuraji",
      "operator": null,
      "network": null,
      "ref": null,
      "latitude": 36.6082893,
      "longitude": 137.3196937,
      "countryCode": "jp",
      "rawTags": {
        "bus": "no",
        "name": "岩峅寺",
        "name:en": "Iwakuraji",
        "name:ja": "岩峅寺",
        "name:ja_kana": "いわくらじ",
        "name:ja_rm": "Iwakuraji",
        "name:ko": "이와쿠라지",
        "public_transport": "station",
        "railway": "station",
        "source": "KSJ2",
        "wikidata": "Q6100451",
        "wikipedia": "ja:岩峅寺駅"
      }
    },
    {
      "id": "toyama_station_8145899493",
      "osmId": 8145899493,
      "osmType": "node",
      "prefectureId": "toyama",
      "type": "station",
      "subtype": "private",
      "name": "越中舟橋",
      "nameKana": "えっちゅうふなはし",
      "nameEn": "Etchu-Funahashi",
      "operator": null,
      "network": null,
      "ref": null,
      "latitude": 36.7055715,
      "longitude": 137.3065074,
      "countryCode": "jp",
      "rawTags": {
        "name": "越中舟橋",
        "name:en": "Etchu-Funahashi",
        "name:ja": "越中舟橋",
        "name:ja_kana": "えっちゅうふなはし",
        "name:ja_rm": "Etchū-Funahashi",
        "name:ko": "엣추후나하시",
        "public_transport": "station",
        "railway": "station",
        "source": "KSJ2",
        "wikidata": "Q5402511",
        "wikipedia": "ja:越中舟橋駅"
      }
    },
    {
      "id": "toyama_station_8146161187",
      "osmId": 8146161187,
      "osmType": "node",
      "prefectureId": "toyama",
      "type": "station",
      "subtype": "private",
      "name": "新庄田中",
      "nameKana": null,
      "nameEn": null,
      "operator": "富山地方鉄道",
      "network": null,
      "ref": null,
      "latitude": 36.698036,
      "longitude": 137.2421899,
      "countryCode": "jp",
      "rawTags": {
        "name": "新庄田中",
        "operator": "富山地方鉄道",
        "public_transport": "station",
        "railway": "station",
        "source": "survey 2017-05-13"
      }
    },
    {
      "id": "toyama_station_8146161204",
      "osmId": 8146161204,
      "osmType": "node",
      "prefectureId": "toyama",
      "type": "station",
      "subtype": "private",
      "name": "越中荏原",
      "nameKana": "えっちゅうえばら",
      "nameEn": "Etchu-Ebara",
      "operator": null,
      "network": null,
      "ref": null,
      "latitude": 36.6992145,
      "longitude": 137.2664934,
      "countryCode": "jp",
      "rawTags": {
        "name": "越中荏原",
        "name:en": "Etchu-Ebara",
        "name:ja": "越中荏原",
        "name:ja_kana": "えっちゅうえばら",
        "name:ja_rm": "Etchū-Ebara",
        "name:ko": "엣추에바라",
        "public_transport": "station",
        "railway": "station",
        "source": "KSJ2",
        "wikidata": "Q5402512",
        "wikipedia": "ja:越中荏原駅"
      }
    },
    {
      "id": "toyama_station_8146161214",
      "osmId": 8146161214,
      "osmType": "node",
      "prefectureId": "toyama",
      "type": "station",
      "subtype": "private",
      "name": "越中三郷",
      "nameKana": null,
      "nameEn": "Etchu-Sango",
      "operator": null,
      "network": null,
      "ref": null,
      "latitude": 36.703365,
      "longitude": 137.2907808,
      "countryCode": "jp",
      "rawTags": {
        "name": "越中三郷",
        "name:en": "Etchu-Sango",
        "name:ja": "越中三郷",
        "name:ja_rm": "Etchū-Sangō",
        "name:ko": "엣추산고",
        "public_transport": "station",
        "railway": "station",
        "source": "KSJ2",
        "wikidata": "Q5402527",
        "wikipedia": "ja:越中三郷駅"
      }
    },
    {
      "id": "toyama_station_8153717184",
      "osmId": 8153717184,
      "osmType": "node",
      "prefectureId": "toyama",
      "type": "station",
      "subtype": "private",
      "name": "滑川",
      "nameKana": "なめりかわ",
      "nameEn": "Namerikawa",
      "operator": "あいの風とやま鉄道",
      "network": null,
      "ref": null,
      "latitude": 36.7692379,
      "longitude": 137.3487622,
      "countryCode": "jp",
      "rawTags": {
        "name": "滑川",
        "name:en": "Namerikawa",
        "name:ja": "滑川",
        "name:ja_kana": "なめりかわ",
        "name:ja_rm": "Namerikawa",
        "name:ko": "나메리카와",
        "operator": "あいの風とやま鉄道",
        "public_transport": "station",
        "railway": "station",
        "source": "KSJ2",
        "wikidata": "Q5359984",
        "wikipedia": "ja:滑川駅"
      }
    },
    {
      "id": "toyama_station_8153723815",
      "osmId": 8153723815,
      "osmType": "node",
      "prefectureId": "toyama",
      "type": "station",
      "subtype": "private",
      "name": "黒部",
      "nameKana": "くろべ",
      "nameEn": "Kurobe",
      "operator": "あいの風とやま鉄道",
      "network": null,
      "ref": null,
      "latitude": 36.8701841,
      "longitude": 137.4341449,
      "countryCode": "jp",
      "rawTags": {
        "name": "黒部",
        "name:en": "Kurobe",
        "name:ja": "黒部",
        "name:ja_kana": "くろべ",
        "name:ja_rm": "Kurobe",
        "name:ko": "구로베",
        "operator": "あいの風とやま鉄道",
        "public_transport": "station",
        "railway": "station",
        "source": "KSJ2",
        "wikidata": "Q5359624",
        "wikipedia": "ja:黒部駅"
      }
    },
    {
      "id": "toyama_station_8153723836",
      "osmId": 8153723836,
      "osmType": "node",
      "prefectureId": "toyama",
      "type": "station",
      "subtype": "private",
      "name": "入善",
      "nameKana": "にゅうぜん",
      "nameEn": "Nyuzen",
      "operator": "あいの風とやま鉄道",
      "network": null,
      "ref": null,
      "latitude": 36.9415048,
      "longitude": 137.4996901,
      "countryCode": "jp",
      "rawTags": {
        "name": "入善",
        "name:en": "Nyuzen",
        "name:ja": "入善",
        "name:ja_kana": "にゅうぜん",
        "name:ja_rm": "Nyūzen",
        "name:ko": "뉴젠",
        "operator": "あいの風とやま鉄道",
        "public_transport": "station",
        "railway": "station",
        "source": "KSJ2",
        "wikidata": "Q3701521",
        "wikipedia": "ja:入善駅"
      }
    },
    {
      "id": "toyama_station_8153724219",
      "osmId": 8153724219,
      "osmType": "node",
      "prefectureId": "toyama",
      "type": "station",
      "subtype": "private",
      "name": "泊",
      "nameKana": null,
      "nameEn": "Tomari",
      "operator": null,
      "network": null,
      "ref": null,
      "latitude": 36.9518488,
      "longitude": 137.5557549,
      "countryCode": "jp",
      "rawTags": {
        "name": "泊",
        "name:en": "Tomari",
        "name:ja": "泊",
        "name:ko": "도마리",
        "public_transport": "station",
        "railway": "station",
        "source": "KSJ2",
        "wikidata": "Q5359691",
        "wikipedia": "ja:泊駅 (富山県)"
      }
    },
    {
      "id": "toyama_station_8153881893",
      "osmId": 8153881893,
      "osmType": "node",
      "prefectureId": "toyama",
      "type": "station",
      "subtype": "private",
      "name": "高岡やぶなみ",
      "nameKana": null,
      "nameEn": "Takaoka-Yabunami",
      "operator": "あいの風とやま鉄道",
      "network": null,
      "ref": null,
      "latitude": 36.7372495,
      "longitude": 136.9886541,
      "countryCode": "jp",
      "rawTags": {
        "addr:full": "富山県高岡市羽広32番地3号",
        "name": "高岡やぶなみ",
        "name:en": "Takaoka-Yabunami",
        "name:ja": "高岡やぶなみ",
        "operator": "あいの風とやま鉄道",
        "public_transport": "station",
        "railway": "station",
        "website": "https://ainokaze.co.jp/station/takaokayabunami",
        "wikidata": "Q28805225",
        "wikipedia": "ja:高岡やぶなみ駅"
      }
    },
    {
      "id": "toyama_station_8153881894",
      "osmId": 8153881894,
      "osmType": "node",
      "prefectureId": "toyama",
      "type": "station",
      "subtype": "private",
      "name": "福岡",
      "nameKana": "ふくおか",
      "nameEn": "Fukuoka",
      "operator": "あいの風とやま鉄道",
      "network": null,
      "ref": null,
      "latitude": 36.7081098,
      "longitude": 136.9317417,
      "countryCode": "jp",
      "rawTags": {
        "name": "福岡",
        "name:en": "Fukuoka",
        "name:ja": "福岡",
        "name:ja_kana": "ふくおか",
        "name:ja_rm": "Fukuoka",
        "name:ko": "후쿠오카",
        "old_operator": "西日本旅客鉄道",
        "operator": "あいの風とやま鉄道",
        "public_transport": "station",
        "railway": "station",
        "source": "KSJ2",
        "wikidata": "Q5361592",
        "wikipedia": "ja:福岡駅"
      }
    },
    {
      "id": "toyama_station_8154250381",
      "osmId": 8154250381,
      "osmType": "node",
      "prefectureId": "toyama",
      "type": "station",
      "subtype": "private",
      "name": "呉羽",
      "nameKana": "くれは",
      "nameEn": "Kureha",
      "operator": "あいの風とやま鉄道",
      "network": null,
      "ref": null,
      "latitude": 36.719111,
      "longitude": 137.1657966,
      "countryCode": "jp",
      "rawTags": {
        "name": "呉羽",
        "name:en": "Kureha",
        "name:ja": "呉羽",
        "name:ja_kana": "くれは",
        "name:ja_rm": "Kureha",
        "name:ko": "구레하",
        "operator": "あいの風とやま鉄道",
        "public_transport": "station",
        "railway": "station",
        "source": "KSJ2",
        "wikidata": "Q5359643",
        "wikipedia": "ja:呉羽駅"
      }
    },
    {
      "id": "toyama_station_8154250389",
      "osmId": 8154250389,
      "osmType": "node",
      "prefectureId": "toyama",
      "type": "station",
      "subtype": "private",
      "name": "小杉",
      "nameKana": "こすぎ",
      "nameEn": "Kosugi",
      "operator": "あいの風とやま鉄道",
      "network": null,
      "ref": null,
      "latitude": 36.7207246,
      "longitude": 137.0927359,
      "countryCode": "jp",
      "rawTags": {
        "name": "小杉",
        "name:en": "Kosugi",
        "name:ja": "小杉",
        "name:ja_kana": "こすぎ",
        "name:ja_rm": "Kosugi",
        "name:ko": "고스기",
        "operator": "あいの風とやま鉄道",
        "public_transport": "station",
        "railway": "station",
        "source": "KSJ2",
        "wikidata": "Q5359711",
        "wikipedia": "ja:小杉駅 (富山県射水市)"
      }
    },
    {
      "id": "toyama_station_8154250407",
      "osmId": 8154250407,
      "osmType": "node",
      "prefectureId": "toyama",
      "type": "station",
      "subtype": "private",
      "name": "越中大門",
      "nameKana": "えっちゅうだいもん",
      "nameEn": "Etchu-Daimon",
      "operator": "あいの風とやま鉄道",
      "network": null,
      "ref": null,
      "latitude": 36.7344594,
      "longitude": 137.0547625,
      "countryCode": "jp",
      "rawTags": {
        "name": "越中大門",
        "name:en": "Etchu-Daimon",
        "name:ja": "越中大門",
        "name:ja_kana": "えっちゅうだいもん",
        "name:ja_rm": "Etchū-Daimon",
        "name:ko": "엣추다이몬",
        "operator": "あいの風とやま鉄道",
        "public_transport": "station",
        "railway": "station",
        "source": "KSJ2",
        "wikidata": "Q5359830",
        "wikipedia": "ja:越中大門駅"
      }
    },
    {
      "id": "toyama_station_8154338342",
      "osmId": 8154338342,
      "osmType": "node",
      "prefectureId": "toyama",
      "type": "station",
      "subtype": "private",
      "name": "東富山",
      "nameKana": "ひがしとやま",
      "nameEn": "Higashi-Toyama",
      "operator": "あいの風とやま鉄道",
      "network": null,
      "ref": null,
      "latitude": 36.7412915,
      "longitude": 137.2490215,
      "countryCode": "jp",
      "rawTags": {
        "name": "東富山",
        "name:en": "Higashi-Toyama",
        "name:ja": "東富山",
        "name:ja_kana": "ひがしとやま",
        "name:ja_rm": "Higashi-Toyama",
        "name:ko": "히가시토야마",
        "operator": "あいの風とやま鉄道",
        "public_transport": "station",
        "railway": "station",
        "source": "KSJ2",
        "wikidata": "Q5359944",
        "wikipedia": "ja:東富山駅"
      }
    },
    {
      "id": "toyama_station_8236200156",
      "osmId": 8236200156,
      "osmType": "node",
      "prefectureId": "toyama",
      "type": "station",
      "subtype": "private",
      "name": "仙人谷",
      "nameKana": null,
      "nameEn": "Sennindani",
      "operator": null,
      "network": null,
      "ref": null,
      "latitude": 36.6501212,
      "longitude": 137.6827126,
      "countryCode": "jp",
      "rawTags": {
        "access": "private",
        "name": "仙人谷",
        "name:en": "Sennindani",
        "name:ja": "仙人谷",
        "public_transport": "station",
        "railway": "station",
        "train": "yes"
      }
    },
    {
      "id": "toyama_bus_terminal_10933986846",
      "osmId": 10933986846,
      "osmType": "node",
      "prefectureId": "toyama",
      "type": "bus_terminal",
      "subtype": null,
      "name": "室堂",
      "nameKana": "むろどう",
      "nameEn": "Murodō",
      "operator": null,
      "network": null,
      "ref": null,
      "latitude": 36.5771923,
      "longitude": 137.5957936,
      "countryCode": "jp",
      "rawTags": {
        "amenity": "bus_station",
        "name": "室堂",
        "name:en": "Murodō",
        "name:fr": "Murodō",
        "name:ja-Hira": "むろどう",
        "name:ja-Latn": "Murodō",
        "wikidata": "Q6938821",
        "wikipedia": "ja:室堂駅"
      }
    },
    {
      "id": "toyama_station_10935412341",
      "osmId": 10935412341,
      "osmType": "node",
      "prefectureId": "toyama",
      "type": "station",
      "subtype": "private",
      "name": "立山",
      "nameKana": "たてやま",
      "nameEn": "Mt. Tate",
      "operator": null,
      "network": null,
      "ref": "T56",
      "latitude": 36.5833702,
      "longitude": 137.4454605,
      "countryCode": "jp",
      "rawTags": {
        "name": "立山",
        "name:en": "Mt. Tate",
        "name:fr": "Mont Tate",
        "name:ja-Latn": "Tateyama",
        "name:ja_kana": "たてやま",
        "name:ko": "다테야마",
        "public_transport": "station",
        "railway": "station",
        "ref": "T56",
        "source": "Bing",
        "station": "train",
        "wikidata": "Q7688024",
        "wikimedia_commons": "Category:Tateyama Station (Toyama)",
        "wikipedia": "ja:立山駅"
      }
    },
    {
      "id": "toyama_station_10970864076",
      "osmId": 10970864076,
      "osmType": "node",
      "prefectureId": "toyama",
      "type": "station",
      "subtype": "private",
      "name": "城端",
      "nameKana": "じょうはな",
      "nameEn": "Johana",
      "operator": null,
      "network": null,
      "ref": null,
      "latitude": 36.5221159,
      "longitude": 136.9017325,
      "countryCode": "jp",
      "rawTags": {
        "name": "城端",
        "name:en": "Johana",
        "name:ja": "城端",
        "name:ja-Latn": "Jōhana",
        "name:ja_kana": "じょうはな",
        "name:ko": "조하나",
        "public_transport": "station",
        "railway": "station",
        "wikidata": "Q6322201",
        "wikipedia": "ja:城端駅"
      }
    },
    {
      "id": "toyama_station_10970864135",
      "osmId": 10970864135,
      "osmType": "node",
      "prefectureId": "toyama",
      "type": "station",
      "subtype": "private",
      "name": "福野",
      "nameKana": "ふくの",
      "nameEn": "Fukuno",
      "operator": null,
      "network": null,
      "ref": null,
      "latitude": 36.5885423,
      "longitude": 136.9234483,
      "countryCode": "jp",
      "rawTags": {
        "name": "福野",
        "name:en": "Fukuno",
        "name:ja": "福野",
        "name:ja-Latn": "Fukuno",
        "name:ja_kana": "ふくの",
        "name:ko": "후쿠노",
        "public_transport": "station",
        "railway": "station",
        "wikidata": "Q5507674",
        "wikipedia": "ja:福野駅 (富山県)"
      }
    },
    {
      "id": "toyama_station_10970864155",
      "osmId": 10970864155,
      "osmType": "node",
      "prefectureId": "toyama",
      "type": "station",
      "subtype": "private",
      "name": "砺波",
      "nameKana": "となみ",
      "nameEn": "Tonami",
      "operator": null,
      "network": null,
      "ref": null,
      "latitude": 36.6365585,
      "longitude": 136.9536929,
      "countryCode": "jp",
      "rawTags": {
        "name": "砺波",
        "name:en": "Tonami",
        "name:ja": "砺波",
        "name:ja-Latn": "Tonami",
        "name:ja_kana": "となみ",
        "name:ko": "도나미",
        "public_transport": "station",
        "railway": "station",
        "wikidata": "Q7820730",
        "wikipedia": "ja:砺波駅"
      }
    },
    {
      "id": "toyama_station_10970864158",
      "osmId": 10970864158,
      "osmType": "node",
      "prefectureId": "toyama",
      "type": "station",
      "subtype": "private",
      "name": "戸出",
      "nameKana": "といで",
      "nameEn": "Toide",
      "operator": null,
      "network": null,
      "ref": null,
      "latitude": 36.6841065,
      "longitude": 136.9838208,
      "countryCode": "jp",
      "rawTags": {
        "name": "戸出",
        "name:en": "Toide",
        "name:ja": "戸出",
        "name:ja-Latn": "Toide",
        "name:ja_kana": "といで",
        "name:ko": "도이데",
        "public_transport": "station",
        "railway": "station",
        "wikidata": "Q7813344",
        "wikipedia": "ja:戸出駅"
      }
    },
    {
      "id": "toyama_station_10970864162",
      "osmId": 10970864162,
      "osmType": "node",
      "prefectureId": "toyama",
      "type": "station",
      "subtype": "private",
      "name": "二塚",
      "nameKana": "ふたつか",
      "nameEn": "Futatsuka",
      "operator": null,
      "network": null,
      "ref": null,
      "latitude": 36.7143863,
      "longitude": 137.0062199,
      "countryCode": "jp",
      "rawTags": {
        "name": "二塚",
        "name:en": "Futatsuka",
        "name:ja": "二塚",
        "name:ja-Latn": "Futatsuka",
        "name:ja_kana": "ふたつか",
        "name:ko": "후타쓰카",
        "public_transport": "station",
        "railway": "station",
        "wikidata": "Q5510494",
        "wikipedia": "ja:二塚駅"
      }
    },
    {
      "id": "toyama_station_11733499148",
      "osmId": 11733499148,
      "osmType": "node",
      "prefectureId": "toyama",
      "type": "station",
      "subtype": "jr",
      "name": "黒部宇奈月温泉",
      "nameKana": "くろべうなづきおんせん",
      "nameEn": "Kurobe-Unazuki-Onsen",
      "operator": "西日本旅客鉄道",
      "network": null,
      "ref": null,
      "latitude": 36.8743189,
      "longitude": 137.481437,
      "countryCode": "jp",
      "rawTags": {
        "highspeed": "yes",
        "name": "黒部宇奈月温泉",
        "name:en": "Kurobe-Unazuki-Onsen",
        "name:ja-Hira": "くろべうなづきおんせん",
        "name:ja_rm": "Kurobe-Unazuki-Onsen",
        "operator": "西日本旅客鉄道",
        "public_transport": "station",
        "railway": "station",
        "wikidata": "Q7497114",
        "wikipedia": "ja:黒部宇奈月温泉駅"
      }
    },
    {
      "id": "toyama_airport_57007579",
      "osmId": 57007579,
      "osmType": "way",
      "prefectureId": "toyama",
      "type": "airport",
      "subtype": "domestic",
      "name": "富山空港",
      "nameKana": null,
      "nameEn": "Toyama Airport",
      "operator": null,
      "network": null,
      "ref": "TOY",
      "latitude": 36.6489758,
      "longitude": 137.187883,
      "countryCode": "jp",
      "rawTags": {
        "KSJ2:AAC": "16201",
        "KSJ2:AAC_label": "富山県富山市",
        "KSJ2:AD2": "5",
        "KSJ2:AD2_label": "都道府県",
        "KSJ2:ARP": "36.6483333333 137.1875000000",
        "KSJ2:ATB": "36.6432500000 137.1894444000",
        "KSJ2:CLT": "21 30",
        "KSJ2:COA": "空港整備法に基づく第三種空港",
        "KSJ2:CompositeCurve": "cv28Airport",
        "KSJ2:DSA": "特定飛行場以外",
        "KSJ2:INP": "5",
        "KSJ2:INP_label": "都道府県",
        "KSJ2:IUC": "供用中",
        "KSJ2:NA3": "富山空港",
        "KSJ2:OPT": "07 00",
        "KSJ2:REF": "1",
        "KSJ2:REF_label": "ジェット定期便が就航している場合",
        "KSJ2:airport_id": "cf02_69",
        "KSJ2:runways": "2000 45",
        "addr:city": "富山市",
        "addr:province": "富山県",
        "aeroway": "aerodrome",
        "fenced": "yes",
        "iata": "TOY",
        "icao": "RJNT",
        "layer": "-3",
        "name": "富山空港",
        "name:en": "Toyama Airport",
        "name:ja": "富山空港",
        "name:ko": "도야마공항",
        "note": "National-Land Numerical Information (Airport) 2007, MLIT Japan",
        "note:ja": "国土数値情報（空港データ）平成19年　国土交通省",
        "source": "KSJ2",
        "source_ref": "http://nlftp.mlit.go.jp/ksj/jpgis/datalist/KsjTmplt-C28-v1_1.html"
      }
    },
    {
      "id": "toyama_station_1058460023",
      "osmId": 1058460023,
      "osmType": "way",
      "prefectureId": "toyama",
      "type": "station",
      "subtype": "private",
      "name": "福岡駅",
      "nameKana": null,
      "nameEn": null,
      "operator": null,
      "network": null,
      "ref": null,
      "latitude": 36.7083077,
      "longitude": 136.9316512,
      "countryCode": "jp",
      "rawTags": {
        "building": "train_station",
        "internet_access": "wlan",
        "name": "福岡駅",
        "public_transport": "station",
        "railway": "station",
        "train": "yes"
      }
    },
    {
      "id": "toyama_bus_terminal_1209987704",
      "osmId": 1209987704,
      "osmType": "way",
      "prefectureId": "toyama",
      "type": "bus_terminal",
      "subtype": null,
      "name": "加越能バス本社前",
      "nameKana": null,
      "nameEn": null,
      "operator": "加越能バス",
      "network": null,
      "ref": null,
      "latitude": 36.7586449,
      "longitude": 137.0276929,
      "countryCode": "jp",
      "rawTags": {
        "addr:block_number": "1243",
        "addr:city": "高岡市",
        "addr:housenumber": "1",
        "addr:neighbourhood": "村中",
        "addr:postcode": "933-0062",
        "addr:province": "富山県",
        "addr:quarter": "江尻",
        "amenity": "bus_station",
        "building": "transportation",
        "bus": "yes",
        "name": "加越能バス本社前",
        "operator": "加越能バス",
        "public_transport": "station"
      }
    }
  ]
}