{
  "fetchedAt": "2025-12-12T05:31:23.933Z",
  "prefectureId": "wakayama",
  "prefectureName": "和歌山県",
  "stats": {
    "station": 123,
    "airport": 1,
    "ferry_terminal": 4,
    "bus_terminal": 8,
    "total": 136
  },
  "data": [
    {
      "id": "wakayama_station_267317594",
      "osmId": 267317594,
      "osmType": "node",
      "prefectureId": "wakayama",
      "type": "station",
      "subtype": "private",
      "name": "紀伊佐野",
      "nameKana": "きいさの",
      "nameEn": "Kii-Sano",
      "operator": null,
      "network": null,
      "ref": null,
      "latitude": 33.6797315,
      "longitude": 135.9703859,
      "countryCode": "jp",
      "rawTags": {
        "KSJ2:LIN": "紀勢線",
        "KSJ2:STN": "紀伊佐野",
        "name": "紀伊佐野",
        "name:en": "Kii-Sano",
        "name:ja": "紀伊佐野",
        "name:ja_kana": "きいさの",
        "name:ja_rm": "Kii-Sano",
        "name:ko": "기이사노",
        "note": "National-Land Numerical Information (Railway) 2007, MLIT Japan",
        "note:ja": "国土数値情報（鉄道データ）平成19年　国土交通省",
        "public_transport": "station",
        "railway": "station",
        "source": "KSJ2",
        "source_ref": "http://nlftp.mlit.go.jp/ksj/jpgis/datalist/KsjTmplt-N02-v1_1.html",
        "wikidata": "Q2584973",
        "wikipedia": "ja:紀伊佐野駅"
      }
    },
    {
      "id": "wakayama_station_267317610",
      "osmId": 267317610,
      "osmType": "node",
      "prefectureId": "wakayama",
      "type": "station",
      "subtype": "private",
      "name": "紀伊天満",
      "nameKana": "きいてんま",
      "nameEn": "Kii-Tenma",
      "operator": null,
      "network": null,
      "ref": null,
      "latitude": 33.6364693,
      "longitude": 135.9348611,
      "countryCode": "jp",
      "rawTags": {
        "KSJ2:LIN": "紀勢線",
        "KSJ2:STN": "紀伊天満",
        "name": "紀伊天満",
        "name:en": "Kii-Tenma",
        "name:ja": "紀伊天満",
        "name:ja_kana": "きいてんま",
        "name:ja_rm": "Kii-Tenma",
        "name:ko": "기이텐마",
        "note": "National-Land Numerical Information (Railway) 2007, MLIT Japan",
        "note:ja": "国土数値情報（鉄道データ）平成19年　国土交通省",
        "public_transport": "station",
        "railway": "station",
        "source": "KSJ2",
        "source_ref": "http://nlftp.mlit.go.jp/ksj/jpgis/datalist/KsjTmplt-N02-v1_1.html",
        "wikidata": "Q2584981",
        "wikipedia": "ja:紀伊天満駅"
      }
    },
    {
      "id": "wakayama_station_267317617",
      "osmId": 267317617,
      "osmType": "node",
      "prefectureId": "wakayama",
      "type": "station",
      "subtype": "private",
      "name": "江住",
      "nameKana": "えすみ",
      "nameEn": "Esumi",
      "operator": null,
      "network": null,
      "ref": null,
      "latitude": 33.5097869,
      "longitude": 135.6033361,
      "countryCode": "jp",
      "rawTags": {
        "KSJ2:LIN": "紀勢線",
        "KSJ2:STN": "江住",
        "name": "江住",
        "name:en": "Esumi",
        "name:ja": "江住",
        "name:ja_kana": "えすみ",
        "name:ja_rm": "Esumi",
        "name:ko": "에스미",
        "note": "National-Land Numerical Information (Railway) 2007, MLIT Japan",
        "note:ja": "国土数値情報（鉄道データ）平成19年　国土交通省",
        "railway": "station",
        "source": "KSJ2",
        "source_ref": "http://nlftp.mlit.go.jp/ksj/jpgis/datalist/KsjTmplt-N02-v1_1.html",
        "wikidata": "Q2748600",
        "wikipedia": "ja:江住駅"
      }
    },
    {
      "id": "wakayama_station_267317633",
      "osmId": 267317633,
      "osmType": "node",
      "prefectureId": "wakayama",
      "type": "station",
      "subtype": "private",
      "name": "和深",
      "nameKana": "わぶか",
      "nameEn": "Wabuka",
      "operator": null,
      "network": null,
      "ref": null,
      "latitude": 33.5010952,
      "longitude": 135.6549855,
      "countryCode": "jp",
      "rawTags": {
        "KSJ2:LIN": "紀勢線",
        "KSJ2:STN": "和深",
        "name": "和深",
        "name:en": "Wabuka",
        "name:ja": "和深",
        "name:ja_kana": "わぶか",
        "name:ja_rm": "Wabuka",
        "name:ko": "와부카",
        "note": "National-Land Numerical Information (Railway) 2007, MLIT Japan",
        "note:ja": "国土数値情報（鉄道データ）平成19年　国土交通省",
        "railway": "station",
        "source": "KSJ2",
        "source_ref": "http://nlftp.mlit.go.jp/ksj/jpgis/datalist/KsjTmplt-N02-v1_1.html",
        "wikidata": "Q2748618",
        "wikipedia": "ja:和深駅"
      }
    },
    {
      "id": "wakayama_station_267317652",
      "osmId": 267317652,
      "osmType": "node",
      "prefectureId": "wakayama",
      "type": "station",
      "subtype": "private",
      "name": "紀伊姫",
      "nameKana": "きいひめ",
      "nameEn": "Kii-Hime",
      "operator": null,
      "network": null,
      "ref": null,
      "latitude": 33.4978567,
      "longitude": 135.7964094,
      "countryCode": "jp",
      "rawTags": {
        "KSJ2:LIN": "紀勢線",
        "KSJ2:STN": "紀伊姫",
        "name": "紀伊姫",
        "name:en": "Kii-Hime",
        "name:ja": "紀伊姫",
        "name:ja_kana": "きいひめ",
        "name:ja_rm": "Kii-Hime",
        "name:ko": "기이히메",
        "note": "National-Land Numerical Information (Railway) 2007, MLIT Japan",
        "note:ja": "国土数値情報（鉄道データ）平成19年　国土交通省",
        "public_transport": "station",
        "railway": "station",
        "source": "KSJ2",
        "source_ref": "http://nlftp.mlit.go.jp/ksj/jpgis/datalist/KsjTmplt-N02-v1_1.html",
        "wikidata": "Q2682082",
        "wikipedia": "ja:紀伊姫駅"
      }
    },
    {
      "id": "wakayama_station_267317655",
      "osmId": 267317655,
      "osmType": "node",
      "prefectureId": "wakayama",
      "type": "station",
      "subtype": "private",
      "name": "宇久井",
      "nameKana": "うくい",
      "nameEn": "Ukui",
      "operator": null,
      "network": null,
      "ref": null,
      "latitude": 33.6624622,
      "longitude": 135.9722565,
      "countryCode": "jp",
      "rawTags": {
        "KSJ2:LIN": "紀勢線",
        "KSJ2:STN": "宇久井",
        "name": "宇久井",
        "name:en": "Ukui",
        "name:ja": "宇久井",
        "name:ja_kana": "うくい",
        "name:ja_rm": "Ukui",
        "name:ko": "우쿠이",
        "note": "National-Land Numerical Information (Railway) 2007, MLIT Japan",
        "note:ja": "国土数値情報（鉄道データ）平成19年　国土交通省",
        "public_transport": "station",
        "railway": "station",
        "source": "KSJ2",
        "source_ref": "http://nlftp.mlit.go.jp/ksj/jpgis/datalist/KsjTmplt-N02-v1_1.html",
        "wikidata": "Q2584990",
        "wikipedia": "ja:宇久井駅"
      }
    },
    {
      "id": "wakayama_station_267317802",
      "osmId": 267317802,
      "osmType": "node",
      "prefectureId": "wakayama",
      "type": "station",
      "subtype": "private",
      "name": "紀伊浦神",
      "nameKana": "きいうらがみ",
      "nameEn": "Kii-Uragami",
      "operator": null,
      "network": null,
      "ref": null,
      "latitude": 33.5603906,
      "longitude": 135.8938568,
      "countryCode": "jp",
      "rawTags": {
        "KSJ2:LIN": "紀勢線",
        "KSJ2:STN": "紀伊浦神",
        "name": "紀伊浦神",
        "name:en": "Kii-Uragami",
        "name:ja": "紀伊浦神",
        "name:ja_kana": "きいうらがみ",
        "name:ja_rm": "Kii-Uragami",
        "name:ko": "기이우라가미",
        "note": "National-Land Numerical Information (Railway) 2007, MLIT Japan",
        "note:ja": "国土数値情報（鉄道データ）平成19年　国土交通省",
        "public_transport": "station",
        "railway": "station",
        "source": "KSJ2",
        "source_ref": "http://nlftp.mlit.go.jp/ksj/jpgis/datalist/KsjTmplt-N02-v1_1.html",
        "wikidata": "Q2650210",
        "wikipedia": "ja:紀伊浦神駅"
      }
    },
    {
      "id": "wakayama_station_267317818",
      "osmId": 267317818,
      "osmType": "node",
      "prefectureId": "wakayama",
      "type": "station",
      "subtype": "private",
      "name": "三輪崎",
      "nameKana": "みわさき",
      "nameEn": "Miwasaki",
      "operator": null,
      "network": null,
      "ref": null,
      "latitude": 33.6894155,
      "longitude": 135.9847756,
      "countryCode": "jp",
      "rawTags": {
        "KSJ2:LIN": "紀勢線",
        "KSJ2:STN": "三輪崎",
        "name": "三輪崎",
        "name:en": "Miwasaki",
        "name:ja": "三輪崎",
        "name:ja_kana": "みわさき",
        "name:ja_rm": "Miwasaki",
        "name:ko": "미와사키",
        "note": "National-Land Numerical Information (Railway) 2007, MLIT Japan",
        "note:ja": "国土数値情報（鉄道データ）平成19年　国土交通省",
        "public_transport": "station",
        "railway": "station",
        "source": "KSJ2",
        "source_ref": "http://nlftp.mlit.go.jp/ksj/jpgis/datalist/KsjTmplt-N02-v1_1.html",
        "wikidata": "Q2584966",
        "wikipedia": "ja:三輪崎駅"
      }
    },
    {
      "id": "wakayama_station_267318070",
      "osmId": 267318070,
      "osmType": "node",
      "prefectureId": "wakayama",
      "type": "station",
      "subtype": "private",
      "name": "田並",
      "nameKana": "たなみ",
      "nameEn": "Tanami",
      "operator": null,
      "network": null,
      "ref": null,
      "latitude": 33.4880094,
      "longitude": 135.7187281,
      "countryCode": "jp",
      "rawTags": {
        "KSJ2:LIN": "紀勢線",
        "KSJ2:STN": "田並",
        "name": "田並",
        "name:en": "Tanami",
        "name:ja": "田並",
        "name:ja_kana": "たなみ",
        "name:ja_rm": "Tanami",
        "name:ko": "다나미",
        "note": "National-Land Numerical Information (Railway) 2007, MLIT Japan",
        "note:ja": "国土数値情報（鉄道データ）平成19年　国土交通省",
        "public_transport": "station",
        "railway": "station",
        "source": "KSJ2",
        "source_ref": "http://nlftp.mlit.go.jp/ksj/jpgis/datalist/KsjTmplt-N02-v1_1.html",
        "wikidata": "Q2748621",
        "wikipedia": "ja:田並駅"
      }
    },
    {
      "id": "wakayama_station_267319834",
      "osmId": 267319834,
      "osmType": "node",
      "prefectureId": "wakayama",
      "type": "station",
      "subtype": "private",
      "name": "田子",
      "nameKana": "たこ",
      "nameEn": "Tako",
      "operator": null,
      "network": null,
      "ref": null,
      "latitude": 33.4902816,
      "longitude": 135.6779393,
      "countryCode": "jp",
      "rawTags": {
        "KSJ2:LIN": "紀勢線",
        "KSJ2:STN": "田子",
        "name": "田子",
        "name:en": "Tako",
        "name:ja": "田子",
        "name:ja_kana": "たこ",
        "name:ja_rm": "Tako",
        "name:ko": "다코",
        "note": "National-Land Numerical Information (Railway) 2007, MLIT Japan",
        "note:ja": "国土数値情報（鉄道データ）平成19年　国土交通省",
        "railway": "station",
        "source": "KSJ2",
        "source_ref": "http://nlftp.mlit.go.jp/ksj/jpgis/datalist/KsjTmplt-N02-v1_1.html",
        "wikidata": "Q2748631",
        "wikipedia": "ja:田子駅"
      }
    },
    {
      "id": "wakayama_station_267320472",
      "osmId": 267320472,
      "osmType": "node",
      "prefectureId": "wakayama",
      "type": "station",
      "subtype": "private",
      "name": "紀伊新庄",
      "nameKana": "きいしんじょう",
      "nameEn": "Kii-Shinjo",
      "operator": null,
      "network": null,
      "ref": null,
      "latitude": 33.720943,
      "longitude": 135.402396,
      "countryCode": "jp",
      "rawTags": {
        "KSJ2:LIN": "紀勢線",
        "KSJ2:STN": "紀伊新庄",
        "name": "紀伊新庄",
        "name:en": "Kii-Shinjo",
        "name:ja": "紀伊新庄",
        "name:ja_kana": "きいしんじょう",
        "name:ja_rm": "Kii-Shinjō",
        "name:ko": "기이신조",
        "note": "National-Land Numerical Information (Railway) 2007, MLIT Japan",
        "note:ja": "国土数値情報（鉄道データ）平成19年　国土交通省",
        "public_transport": "station",
        "railway": "station",
        "source": "KSJ2",
        "source_ref": "http://nlftp.mlit.go.jp/ksj/jpgis/datalist/KsjTmplt-N02-v1_1.html",
        "train": "yes",
        "wikidata": "Q2888734",
        "wikipedia": "ja:紀伊新庄駅"
      }
    },
    {
      "id": "wakayama_station_267320473",
      "osmId": 267320473,
      "osmType": "node",
      "prefectureId": "wakayama",
      "type": "station",
      "subtype": "private",
      "name": "朝来",
      "nameKana": "あっそ",
      "nameEn": "Asso",
      "operator": null,
      "network": null,
      "ref": null,
      "latitude": 33.6964224,
      "longitude": 135.417487,
      "countryCode": "jp",
      "rawTags": {
        "KSJ2:LIN": "紀勢線",
        "KSJ2:STN": "朝来",
        "name": "朝来",
        "name:en": "Asso",
        "name:ja": "朝来",
        "name:ja_kana": "あっそ",
        "name:ja_rm": "Asso",
        "name:ko": "앗소",
        "note": "National-Land Numerical Information (Railway) 2007, MLIT Japan",
        "note:ja": "国土数値情報（鉄道データ）平成19年　国土交通省",
        "public_transport": "station",
        "railway": "station",
        "source": "KSJ2",
        "source_ref": "http://nlftp.mlit.go.jp/ksj/jpgis/datalist/KsjTmplt-N02-v1_1.html",
        "wikidata": "Q2888570",
        "wikipedia": "ja:朝来駅"
      }
    },
    {
      "id": "wakayama_station_267320717",
      "osmId": 267320717,
      "osmType": "node",
      "prefectureId": "wakayama",
      "type": "station",
      "subtype": "private",
      "name": "紀伊日置",
      "nameKana": "きいひき",
      "nameEn": "Kii-Hiki",
      "operator": null,
      "network": null,
      "ref": null,
      "latitude": 33.5853555,
      "longitude": 135.4577943,
      "countryCode": "jp",
      "rawTags": {
        "KSJ2:LIN": "紀勢線",
        "KSJ2:STN": "紀伊日置",
        "internet_access": "no",
        "name": "紀伊日置",
        "name:en": "Kii-Hiki",
        "name:ja": "紀伊日置",
        "name:ja_kana": "きいひき",
        "name:ja_rm": "Kii-Hiki",
        "name:ko": "기이히키",
        "note": "National-Land Numerical Information (Railway) 2007, MLIT Japan",
        "note:ja": "国土数値情報（鉄道データ）平成19年　国土交通省",
        "public_transport": "station",
        "railway": "station",
        "source": "KSJ2",
        "source_ref": "http://nlftp.mlit.go.jp/ksj/jpgis/datalist/KsjTmplt-N02-v1_1.html",
        "train": "yes",
        "wikidata": "Q2784473",
        "wikipedia": "ja:紀伊日置駅"
      }
    },
    {
      "id": "wakayama_station_267320730",
      "osmId": 267320730,
      "osmType": "node",
      "prefectureId": "wakayama",
      "type": "station",
      "subtype": "private",
      "name": "椿",
      "nameKana": "つばき",
      "nameEn": "Tsubaki",
      "operator": null,
      "network": null,
      "ref": null,
      "latitude": 33.6098979,
      "longitude": 135.403898,
      "countryCode": "jp",
      "rawTags": {
        "KSJ2:LIN": "紀勢線",
        "KSJ2:STN": "椿",
        "name": "椿",
        "name:en": "Tsubaki",
        "name:ja": "椿",
        "name:ja_kana": "つばき",
        "name:ja_rm": "Tsubaki",
        "name:ko": "쓰바키",
        "note": "National-Land Numerical Information (Railway) 2007, MLIT Japan",
        "note:ja": "国土数値情報（鉄道データ）平成19年　国土交通省",
        "railway": "station",
        "source": "KSJ2",
        "source_ref": "http://nlftp.mlit.go.jp/ksj/jpgis/datalist/KsjTmplt-N02-v1_1.html",
        "wikidata": "Q2888525",
        "wikipedia": "ja:椿駅"
      }
    },
    {
      "id": "wakayama_station_267320836",
      "osmId": 267320836,
      "osmType": "node",
      "prefectureId": "wakayama",
      "type": "station",
      "subtype": "private",
      "name": "芳養",
      "nameKana": null,
      "nameEn": "Haya",
      "operator": null,
      "network": null,
      "ref": null,
      "latitude": 33.746941,
      "longitude": 135.35555,
      "countryCode": "jp",
      "rawTags": {
        "KSJ2:LIN": "紀勢線",
        "KSJ2:STN": "芳養",
        "internet_access": "no",
        "name": "芳養",
        "name:en": "Haya",
        "name:ja": "芳養",
        "name:ko": "하야",
        "note": "National-Land Numerical Information (Railway) 2007, MLIT Japan",
        "note:ja": "国土数値情報（鉄道データ）平成19年　国土交通省",
        "railway": "station",
        "source": "KSJ2",
        "source_ref": "http://nlftp.mlit.go.jp/ksj/jpgis/datalist/KsjTmplt-N02-v1_1.html",
        "wikidata": "Q2898306",
        "wikipedia": "ja:芳養駅"
      }
    },
    {
      "id": "wakayama_station_267320905",
      "osmId": 267320905,
      "osmType": "node",
      "prefectureId": "wakayama",
      "type": "station",
      "subtype": "private",
      "name": "紀伊田辺",
      "nameKana": "きいたなべ",
      "nameEn": "Kii-Tanabe",
      "operator": null,
      "network": null,
      "ref": null,
      "latitude": 33.7328792,
      "longitude": 135.3845422,
      "countryCode": "jp",
      "rawTags": {
        "KSJ2:LIN": "紀勢線",
        "KSJ2:STN": "紀伊田辺",
        "name": "紀伊田辺",
        "name:en": "Kii-Tanabe",
        "name:ja": "紀伊田辺",
        "name:ja_kana": "きいたなべ",
        "name:ja_rm": "Kii-Tanabe",
        "name:ko": "기이타나베",
        "note": "National-Land Numerical Information (Railway) 2007, MLIT Japan",
        "note:ja": "国土数値情報（鉄道データ）平成19年　国土交通省",
        "railway": "station",
        "source": "KSJ2",
        "source_ref": "http://nlftp.mlit.go.jp/ksj/jpgis/datalist/KsjTmplt-N02-v1_1.html",
        "wikidata": "Q2888653",
        "wikipedia": "ja:紀伊田辺駅"
      }
    },
    {
      "id": "wakayama_station_267320906",
      "osmId": 267320906,
      "osmType": "node",
      "prefectureId": "wakayama",
      "type": "station",
      "subtype": "jr",
      "name": "紀伊富田",
      "nameKana": "きいとんだ",
      "nameEn": "Kii-Tonda",
      "operator": "JR",
      "network": "紀勢本線(きのくに線)",
      "ref": null,
      "latitude": 33.6526661,
      "longitude": 135.3933958,
      "countryCode": "jp",
      "rawTags": {
        "KSJ2:LIN": "紀勢線",
        "KSJ2:STN": "紀伊富田",
        "addr:city": "白浜町",
        "addr:county": "西牟婁郡",
        "addr:housenumber": "609-2",
        "addr:province": "和歌山県",
        "addr:quarter": "栄",
        "name": "紀伊富田",
        "name:en": "Kii-Tonda",
        "name:ja": "紀伊富田",
        "name:ja_kana": "きいとんだ",
        "name:ja_rm": "Kii-Tonda",
        "name:ko": "기이톤다",
        "network": "紀勢本線(きのくに線)",
        "note": "National-Land Numerical Information (Railway) 2007, MLIT Japan",
        "note:ja": "国土数値情報（鉄道データ）平成19年　国土交通省",
        "operator": "JR",
        "railway": "station",
        "source": "KSJ2;local knowledge;jr-odekake.net",
        "source_ref": "http://nlftp.mlit.go.jp/ksj/jpgis/datalist/KsjTmplt-N02-v1_1.html",
        "website": "https://www.jr-odekake.net/eki/top.php?id=0622063",
        "wikidata": "Q2888483",
        "wikipedia": "ja:紀伊富田駅"
      }
    },
    {
      "id": "wakayama_station_267321227",
      "osmId": 267321227,
      "osmType": "node",
      "prefectureId": "wakayama",
      "type": "station",
      "subtype": "private",
      "name": "白浜",
      "nameKana": "しらはま",
      "nameEn": "Shirahama",
      "operator": null,
      "network": null,
      "ref": null,
      "latitude": 33.67588,
      "longitude": 135.387313,
      "countryCode": "jp",
      "rawTags": {
        "KSJ2:LIN": "紀勢線",
        "KSJ2:STN": "白浜",
        "name": "白浜",
        "name:en": "Shirahama",
        "name:ja": "白浜",
        "name:ja-Hira": "しらはま",
        "name:ja-Latn": "Shirahama",
        "name:ko": "시라하마",
        "note": "National-Land Numerical Information (Railway) 2007, MLIT Japan",
        "note:ja": "国土数値情報（鉄道データ）平成19年　国土交通省",
        "public_transport": "station",
        "railway": "station",
        "source": "KSJ2",
        "source_ref": "http://nlftp.mlit.go.jp/ksj/jpgis/datalist/KsjTmplt-N02-v1_1.html",
        "wikidata": "Q2888561",
        "wikipedia": "ja:白浜駅"
      }
    },
    {
      "id": "wakayama_station_267321590",
      "osmId": 267321590,
      "osmType": "node",
      "prefectureId": "wakayama",
      "type": "station",
      "subtype": "private",
      "name": "見老津",
      "nameKana": "みろづ",
      "nameEn": "Mirozu",
      "operator": null,
      "network": null,
      "ref": null,
      "latitude": 33.51528,
      "longitude": 135.575713,
      "countryCode": "jp",
      "rawTags": {
        "KSJ2:LIN": "紀勢線",
        "KSJ2:STN": "見老津",
        "name": "見老津",
        "name:en": "Mirozu",
        "name:ja": "見老津",
        "name:ja-Hira": "みろづ",
        "name:ja-Latn": "Mirozu",
        "name:ko": "미로즈",
        "note": "National-Land Numerical Information (Railway) 2007, MLIT Japan",
        "note:ja": "国土数値情報（鉄道データ）平成19年　国土交通省",
        "public_transport": "station",
        "railway": "station",
        "source": "KSJ2",
        "source_ref": "http://nlftp.mlit.go.jp/ksj/jpgis/datalist/KsjTmplt-N02-v1_1.html",
        "wikidata": "Q2748587",
        "wikipedia": "ja:見老津駅"
      }
    },
    {
      "id": "wakayama_station_267321891",
      "osmId": 267321891,
      "osmType": "node",
      "prefectureId": "wakayama",
      "type": "station",
      "subtype": "private",
      "name": "周参見",
      "nameKana": "すさみ",
      "nameEn": "Susami",
      "operator": null,
      "network": null,
      "ref": null,
      "latitude": 33.5467621,
      "longitude": 135.4957487,
      "countryCode": "jp",
      "rawTags": {
        "KSJ2:LIN": "紀勢線",
        "KSJ2:STN": "周参見",
        "name": "周参見",
        "name:en": "Susami",
        "name:ja": "周参見",
        "name:ja_kana": "すさみ",
        "name:ja_rm": "Susami",
        "name:ko": "스사미",
        "note": "National-Land Numerical Information (Railway) 2007, MLIT Japan",
        "note:ja": "国土数値情報（鉄道データ）平成19年　国土交通省",
        "railway": "station",
        "source": "KSJ2",
        "source_ref": "http://nlftp.mlit.go.jp/ksj/jpgis/datalist/KsjTmplt-N02-v1_1.html",
        "wikidata": "Q2748626",
        "wikipedia": "ja:周参見駅"
      }
    },
    {
      "id": "wakayama_station_267322359",
      "osmId": 267322359,
      "osmType": "node",
      "prefectureId": "wakayama",
      "type": "station",
      "subtype": "private",
      "name": "和佐",
      "nameKana": null,
      "nameEn": "Wasa",
      "operator": null,
      "network": null,
      "ref": null,
      "latitude": 33.8973972,
      "longitude": 135.2072466,
      "countryCode": "jp",
      "rawTags": {
        "KSJ2:LIN": "紀勢線",
        "KSJ2:STN": "和佐",
        "name": "和佐",
        "name:en": "Wasa",
        "name:ja": "和佐",
        "name:ko": "와사",
        "note": "National-Land Numerical Information (Railway) 2007, MLIT Japan",
        "note:ja": "国土数値情報（鉄道データ）平成19年　国土交通省",
        "railway": "station",
        "source": "KSJ2",
        "source_ref": "http://nlftp.mlit.go.jp/ksj/jpgis/datalist/KsjTmplt-N02-v1_1.html",
        "wikidata": "Q2898336",
        "wikipedia": "ja:和佐駅"
      }
    },
    {
      "id": "wakayama_station_267322390",
      "osmId": 267322390,
      "osmType": "node",
      "prefectureId": "wakayama",
      "type": "station",
      "subtype": "private",
      "name": "道成寺",
      "nameKana": null,
      "nameEn": "Dōjōji",
      "operator": null,
      "network": null,
      "ref": null,
      "latitude": 33.9111395,
      "longitude": 135.1759676,
      "countryCode": "jp",
      "rawTags": {
        "KSJ2:LIN": "紀勢線",
        "KSJ2:STN": "道成寺",
        "name": "道成寺",
        "name:en": "Dōjōji",
        "name:ja": "道成寺",
        "name:ko": "도조지",
        "note": "National-Land Numerical Information (Railway) 2007, MLIT Japan",
        "note:ja": "国土数値情報（鉄道データ）平成19年　国土交通省",
        "railway": "station",
        "source": "KSJ2",
        "source_ref": "http://nlftp.mlit.go.jp/ksj/jpgis/datalist/KsjTmplt-N02-v1_1.html",
        "wikidata": "Q2898316",
        "wikipedia": "ja:道成寺駅"
      }
    },
    {
      "id": "wakayama_station_267322498",
      "osmId": 267322498,
      "osmType": "node",
      "prefectureId": "wakayama",
      "type": "station",
      "subtype": "private",
      "name": "湯浅",
      "nameKana": null,
      "nameEn": "Yuasa",
      "operator": null,
      "network": null,
      "ref": null,
      "latitude": 34.032036,
      "longitude": 135.1796999,
      "countryCode": "jp",
      "rawTags": {
        "KSJ2:LIN": "紀勢線",
        "KSJ2:STN": "湯浅",
        "name": "湯浅",
        "name:en": "Yuasa",
        "name:ja": "湯浅",
        "name:ko": "유아사",
        "note": "National-Land Numerical Information (Railway) 2007, MLIT Japan",
        "note:ja": "国土数値情報（鉄道データ）平成19年　国土交通省",
        "railway": "station",
        "source": "KSJ2",
        "source_ref": "http://nlftp.mlit.go.jp/ksj/jpgis/datalist/KsjTmplt-N02-v1_1.html",
        "wikidata": "Q3205738",
        "wikipedia": "ja:湯浅駅"
      }
    },
    {
      "id": "wakayama_station_267322903",
      "osmId": 267322903,
      "osmType": "node",
      "prefectureId": "wakayama",
      "type": "station",
      "subtype": "private",
      "name": "紀伊内原",
      "nameKana": null,
      "nameEn": "Kii-Uchihara",
      "operator": null,
      "network": null,
      "ref": null,
      "latitude": 33.9261503,
      "longitude": 135.1451867,
      "countryCode": "jp",
      "rawTags": {
        "KSJ2:LIN": "紀勢線",
        "KSJ2:STN": "紀伊内原",
        "name": "紀伊内原",
        "name:en": "Kii-Uchihara",
        "name:ja": "紀伊内原",
        "name:ko": "기이우치하라",
        "note": "National-Land Numerical Information (Railway) 2007, MLIT Japan",
        "note:ja": "国土数値情報（鉄道データ）平成19年　国土交通省",
        "public_transport": "station",
        "railway": "station",
        "source": "KSJ2",
        "source_ref": "http://nlftp.mlit.go.jp/ksj/jpgis/datalist/KsjTmplt-N02-v1_1.html",
        "train": "yes",
        "wikidata": "Q2898294",
        "wikipedia": "ja:紀伊内原駅"
      }
    },
    {
      "id": "wakayama_station_267323005",
      "osmId": 267323005,
      "osmType": "node",
      "prefectureId": "wakayama",
      "type": "station",
      "subtype": "private",
      "name": "下津",
      "nameKana": null,
      "nameEn": "Shimotsu",
      "operator": null,
      "network": null,
      "ref": null,
      "latitude": 34.1086917,
      "longitude": 135.1452054,
      "countryCode": "jp",
      "rawTags": {
        "KSJ2:LIN": "紀勢線",
        "KSJ2:STN": "下津",
        "name": "下津",
        "name:en": "Shimotsu",
        "name:ja": "下津",
        "name:ko": "시모쓰",
        "note": "National-Land Numerical Information (Railway) 2007, MLIT Japan",
        "note:ja": "国土数値情報（鉄道データ）平成19年　国土交通省",
        "railway": "station",
        "source": "KSJ2",
        "source_ref": "http://nlftp.mlit.go.jp/ksj/jpgis/datalist/KsjTmplt-N02-v1_1.html",
        "wikidata": "Q3381851",
        "wikipedia": "ja:下津駅"
      }
    },
    {
      "id": "wakayama_station_267323039",
      "osmId": 267323039,
      "osmType": "node",
      "prefectureId": "wakayama",
      "type": "station",
      "subtype": "private",
      "name": "南部",
      "nameKana": "みなべ",
      "nameEn": "Minabe",
      "operator": null,
      "network": null,
      "ref": null,
      "latitude": 33.7674776,
      "longitude": 135.3243949,
      "countryCode": "jp",
      "rawTags": {
        "KSJ2:LIN": "紀勢線",
        "KSJ2:STN": "南部",
        "name": "南部",
        "name:en": "Minabe",
        "name:ja": "南部",
        "name:ja_kana": "みなべ",
        "name:ja_rm": "Minabe",
        "name:ko": "미나베",
        "note": "National-Land Numerical Information (Railway) 2007, MLIT Japan",
        "note:ja": "国土数値情報（鉄道データ）平成19年　国土交通省",
        "railway": "station",
        "source": "KSJ2",
        "source_ref": "http://nlftp.mlit.go.jp/ksj/jpgis/datalist/KsjTmplt-N02-v1_1.html",
        "wikidata": "Q2897595",
        "wikipedia": "ja:南部駅"
      }
    },
    {
      "id": "wakayama_station_267323203",
      "osmId": 267323203,
      "osmType": "node",
      "prefectureId": "wakayama",
      "type": "station",
      "subtype": "private",
      "name": "広川ビーチ",
      "nameKana": null,
      "nameEn": "Hirokawa Beach",
      "operator": null,
      "network": null,
      "ref": null,
      "latitude": 34.0130757,
      "longitude": 135.1635921,
      "countryCode": "jp",
      "rawTags": {
        "KSJ2:LIN": "紀勢線",
        "KSJ2:STN": "広川ビーチ",
        "name": "広川ビーチ",
        "name:en": "Hirokawa Beach",
        "name:ja": "広川ビーチ",
        "name:ko": "히로카와비치",
        "note": "National-Land Numerical Information (Railway) 2007, MLIT Japan",
        "note:ja": "国土数値情報（鉄道データ）平成19年　国土交通省",
        "railway": "station",
        "source": "KSJ2",
        "source_ref": "http://nlftp.mlit.go.jp/ksj/jpgis/datalist/KsjTmplt-N02-v1_1.html",
        "wikidata": "Q3205763",
        "wikipedia": "ja:広川ビーチ駅"
      }
    },
    {
      "id": "wakayama_station_267323616",
      "osmId": 267323616,
      "osmType": "node",
      "prefectureId": "wakayama",
      "type": "station",
      "subtype": "private",
      "name": "紀伊宮原",
      "nameKana": null,
      "nameEn": "Kii-Miyahara",
      "operator": null,
      "network": null,
      "ref": null,
      "latitude": 34.0779058,
      "longitude": 135.1707162,
      "countryCode": "jp",
      "rawTags": {
        "KSJ2:LIN": "紀勢線",
        "KSJ2:STN": "紀伊宮原",
        "name": "紀伊宮原",
        "name:en": "Kii-Miyahara",
        "name:ja": "紀伊宮原",
        "name:ko": "기이미야하라",
        "note": "National-Land Numerical Information (Railway) 2007, MLIT Japan",
        "note:ja": "国土数値情報（鉄道データ）平成19年　国土交通省",
        "railway": "station",
        "source": "KSJ2",
        "source_ref": "http://nlftp.mlit.go.jp/ksj/jpgis/datalist/KsjTmplt-N02-v1_1.html",
        "wikidata": "Q3324370",
        "wikipedia": "ja:紀伊宮原駅"
      }
    },
    {
      "id": "wakayama_station_267323748",
      "osmId": 267323748,
      "osmType": "node",
      "prefectureId": "wakayama",
      "type": "station",
      "subtype": "private",
      "name": "稲原",
      "nameKana": null,
      "nameEn": "Inahara",
      "operator": null,
      "network": null,
      "ref": null,
      "latitude": 33.8524254,
      "longitude": 135.2290857,
      "countryCode": "jp",
      "rawTags": {
        "KSJ2:LIN": "紀勢線",
        "KSJ2:STN": "稲原",
        "name": "稲原",
        "name:en": "Inahara",
        "name:ja": "稲原",
        "name:ko": "이나하라",
        "note": "National-Land Numerical Information (Railway) 2007, MLIT Japan",
        "note:ja": "国土数値情報（鉄道データ）平成19年　国土交通省",
        "railway": "station",
        "source": "KSJ2",
        "source_ref": "http://nlftp.mlit.go.jp/ksj/jpgis/datalist/KsjTmplt-N02-v1_1.html",
        "wikidata": "Q2898378",
        "wikipedia": "ja:稲原駅"
      }
    },
    {
      "id": "wakayama_station_267323767",
      "osmId": 267323767,
      "osmType": "node",
      "prefectureId": "wakayama",
      "type": "station",
      "subtype": "private",
      "name": "紀三井寺",
      "nameKana": null,
      "nameEn": "Kimiidera",
      "operator": null,
      "network": null,
      "ref": null,
      "latitude": 34.1880057,
      "longitude": 135.1876099,
      "countryCode": "jp",
      "rawTags": {
        "KSJ2:LIN": "紀勢線",
        "KSJ2:STN": "紀三井寺",
        "name": "紀三井寺",
        "name:en": "Kimiidera",
        "name:ja": "紀三井寺",
        "name:ko": "기미이데라",
        "note": "National-Land Numerical Information (Railway) 2007, MLIT Japan",
        "note:ja": "国土数値情報（鉄道データ）平成19年　国土交通省",
        "public_transport": "station",
        "railway": "station",
        "source": "KSJ2",
        "source_ref": "http://nlftp.mlit.go.jp/ksj/jpgis/datalist/KsjTmplt-N02-v1_1.html",
        "wikidata": "Q3455733",
        "wikipedia": "ja:紀三井寺駅"
      }
    },
    {
      "id": "wakayama_station_267323779",
      "osmId": 267323779,
      "osmType": "node",
      "prefectureId": "wakayama",
      "type": "station",
      "subtype": "private",
      "name": "切目",
      "nameKana": null,
      "nameEn": "Kirime",
      "operator": null,
      "network": null,
      "ref": null,
      "latitude": 33.7971183,
      "longitude": 135.2410195,
      "countryCode": "jp",
      "rawTags": {
        "KSJ2:LIN": "紀勢線",
        "KSJ2:STN": "切目",
        "name": "切目",
        "name:en": "Kirime",
        "name:ja": "切目",
        "name:ko": "기리메",
        "note": "National-Land Numerical Information (Railway) 2007, MLIT Japan",
        "note:ja": "国土数値情報（鉄道データ）平成19年　国土交通省",
        "railway": "station",
        "source": "KSJ2",
        "source_ref": "http://nlftp.mlit.go.jp/ksj/jpgis/datalist/KsjTmplt-N02-v1_1.html",
        "wikidata": "Q2898692",
        "wikipedia": "ja:切目駅"
      }
    },
    {
      "id": "wakayama_station_267323823",
      "osmId": 267323823,
      "osmType": "node",
      "prefectureId": "wakayama",
      "type": "station",
      "subtype": "private",
      "name": "印南",
      "nameKana": "いなみ",
      "nameEn": "Inami",
      "operator": null,
      "network": null,
      "ref": null,
      "latitude": 33.8180411,
      "longitude": 135.2198737,
      "countryCode": "jp",
      "rawTags": {
        "KSJ2:LIN": "紀勢線",
        "KSJ2:STN": "印南",
        "name": "印南",
        "name:en": "Inami",
        "name:ja": "印南",
        "name:ja-Hira": "いなみ",
        "name:ja-Latn": "Inami",
        "name:ko": "이나미",
        "note": "National-Land Numerical Information (Railway) 2007, MLIT Japan",
        "note:ja": "国土数値情報（鉄道データ）平成19年　国土交通省",
        "railway": "station",
        "source": "KSJ2",
        "source_ref": "http://nlftp.mlit.go.jp/ksj/jpgis/datalist/KsjTmplt-N02-v1_1.html",
        "website": "https://www.jr-odekake.net/eki/top.php?id=0622072",
        "wikidata": "Q2898346",
        "wikipedia": "ja:印南駅"
      }
    },
    {
      "id": "wakayama_station_267323843",
      "osmId": 267323843,
      "osmType": "node",
      "prefectureId": "wakayama",
      "type": "station",
      "subtype": "private",
      "name": "箕島",
      "nameKana": null,
      "nameEn": "Minoshima",
      "operator": null,
      "network": null,
      "ref": null,
      "latitude": 34.0861023,
      "longitude": 135.1246277,
      "countryCode": "jp",
      "rawTags": {
        "KSJ2:LIN": "紀勢線",
        "KSJ2:STN": "箕島",
        "name": "箕島",
        "name:en": "Minoshima",
        "name:ja": "箕島",
        "name:ko": "미노시마",
        "note": "National-Land Numerical Information (Railway) 2007, MLIT Japan",
        "note:ja": "国土数値情報（鉄道データ）平成19年　国土交通省",
        "railway": "station",
        "source": "KSJ2",
        "source_ref": "http://nlftp.mlit.go.jp/ksj/jpgis/datalist/KsjTmplt-N02-v1_1.html",
        "wikidata": "Q3324376",
        "wikipedia": "ja:箕島駅"
      }
    },
    {
      "id": "wakayama_station_267323852",
      "osmId": 267323852,
      "osmType": "node",
      "prefectureId": "wakayama",
      "type": "station",
      "subtype": "private",
      "name": "海南",
      "nameKana": null,
      "nameEn": "Kainan",
      "operator": null,
      "network": null,
      "ref": null,
      "latitude": 34.1542935,
      "longitude": 135.2144039,
      "countryCode": "jp",
      "rawTags": {
        "KSJ2:LIN": "紀勢線",
        "KSJ2:STN": "海南",
        "name": "海南",
        "name:en": "Kainan",
        "name:ja": "海南",
        "name:ko": "가이난",
        "note": "National-Land Numerical Information (Railway) 2007, MLIT Japan",
        "note:ja": "国土数値情報（鉄道データ）平成19年　国土交通省",
        "public_transport": "station",
        "railway": "station",
        "source": "KSJ2",
        "source_ref": "http://nlftp.mlit.go.jp/ksj/jpgis/datalist/KsjTmplt-N02-v1_1.html",
        "train": "yes",
        "wikidata": "Q3381856",
        "wikipedia": "ja:海南駅"
      }
    },
    {
      "id": "wakayama_station_267323853",
      "osmId": 267323853,
      "osmType": "node",
      "prefectureId": "wakayama",
      "type": "station",
      "subtype": "private",
      "name": "冷水浦",
      "nameKana": null,
      "nameEn": "Shimizuura",
      "operator": null,
      "network": null,
      "ref": null,
      "latitude": 34.1418596,
      "longitude": 135.1941732,
      "countryCode": "jp",
      "rawTags": {
        "KSJ2:LIN": "紀勢線",
        "KSJ2:STN": "冷水浦",
        "name": "冷水浦",
        "name:en": "Shimizuura",
        "name:ja": "冷水浦",
        "name:ko": "시미즈우라",
        "note": "National-Land Numerical Information (Railway) 2007, MLIT Japan",
        "note:ja": "国土数値情報（鉄道データ）平成19年　国土交通省",
        "railway": "station",
        "source": "KSJ2",
        "source_ref": "http://nlftp.mlit.go.jp/ksj/jpgis/datalist/KsjTmplt-N02-v1_1.html",
        "wikidata": "Q3381845",
        "wikipedia": "ja:冷水浦駅"
      }
    },
    {
      "id": "wakayama_station_267324062",
      "osmId": 267324062,
      "osmType": "node",
      "prefectureId": "wakayama",
      "type": "station",
      "subtype": "private",
      "name": "加茂郷",
      "nameKana": null,
      "nameEn": "Kamogō",
      "operator": null,
      "network": null,
      "ref": null,
      "latitude": 34.1256474,
      "longitude": 135.1598889,
      "countryCode": "jp",
      "rawTags": {
        "KSJ2:LIN": "紀勢線",
        "KSJ2:STN": "加茂郷",
        "name": "加茂郷",
        "name:en": "Kamogō",
        "name:ja": "加茂郷",
        "name:ko": "가모고",
        "note": "National-Land Numerical Information (Railway) 2007, MLIT Japan",
        "note:ja": "国土数値情報（鉄道データ）平成19年　国土交通省",
        "railway": "station",
        "source": "KSJ2",
        "source_ref": "http://nlftp.mlit.go.jp/ksj/jpgis/datalist/KsjTmplt-N02-v1_1.html",
        "wikidata": "Q3381870",
        "wikipedia": "ja:加茂郷駅"
      }
    },
    {
      "id": "wakayama_station_267324123",
      "osmId": 267324123,
      "osmType": "node",
      "prefectureId": "wakayama",
      "type": "station",
      "subtype": "private",
      "name": "黒江",
      "nameKana": null,
      "nameEn": "Kuroe",
      "operator": null,
      "network": null,
      "ref": null,
      "latitude": 34.1701732,
      "longitude": 135.2102698,
      "countryCode": "jp",
      "rawTags": {
        "name": "黒江",
        "name:en": "Kuroe",
        "name:ja": "黒江",
        "name:ko": "구로에",
        "public_transport": "station",
        "railway": "station",
        "train": "yes",
        "wikidata": "Q3455712",
        "wikipedia": "ja:黒江駅"
      }
    },
    {
      "id": "wakayama_station_267324207",
      "osmId": 267324207,
      "osmType": "node",
      "prefectureId": "wakayama",
      "type": "station",
      "subtype": "private",
      "name": "岩代",
      "nameKana": null,
      "nameEn": "Iwashiro",
      "operator": null,
      "network": null,
      "ref": null,
      "latitude": 33.7804911,
      "longitude": 135.279296,
      "countryCode": "jp",
      "rawTags": {
        "KSJ2:LIN": "紀勢線",
        "KSJ2:STN": "岩代",
        "name": "岩代",
        "name:en": "Iwashiro",
        "name:ja": "岩代",
        "name:ko": "이와시로",
        "note": "National-Land Numerical Information (Railway) 2007, MLIT Japan",
        "note:ja": "国土数値情報（鉄道データ）平成19年　国土交通省",
        "public_transport": "station",
        "railway": "station",
        "source": "KSJ2",
        "source_ref": "http://nlftp.mlit.go.jp/ksj/jpgis/datalist/KsjTmplt-N02-v1_1.html",
        "train": "yes",
        "wikidata": "Q2897566",
        "wikipedia": "ja:岩代駅"
      }
    },
    {
      "id": "wakayama_station_267327549",
      "osmId": 267327549,
      "osmType": "node",
      "prefectureId": "wakayama",
      "type": "station",
      "subtype": "private",
      "name": "紀伊由良",
      "nameKana": null,
      "nameEn": "Kii-Yura",
      "operator": null,
      "network": null,
      "ref": null,
      "latitude": 33.9689596,
      "longitude": 135.1278778,
      "countryCode": "jp",
      "rawTags": {
        "KSJ2:LIN": "紀勢線",
        "KSJ2:STN": "紀伊由良",
        "name": "紀伊由良",
        "name:en": "Kii-Yura",
        "name:ja": "紀伊由良",
        "name:ko": "기이유라",
        "note": "National-Land Numerical Information (Railway) 2007, MLIT Japan",
        "note:ja": "国土数値情報（鉄道データ）平成19年　国土交通省",
        "railway": "station",
        "source": "KSJ2",
        "source_ref": "http://nlftp.mlit.go.jp/ksj/jpgis/datalist/KsjTmplt-N02-v1_1.html",
        "wikidata": "Q3205743",
        "wikipedia": "ja:紀伊由良駅"
      }
    },
    {
      "id": "wakayama_station_267332906",
      "osmId": 267332906,
      "osmType": "node",
      "prefectureId": "wakayama",
      "type": "station",
      "subtype": "private",
      "name": "下兵庫",
      "nameKana": null,
      "nameEn": "Shimo-Hyogo",
      "operator": null,
      "network": null,
      "ref": null,
      "latitude": 34.3226895,
      "longitude": 135.6348319,
      "countryCode": "jp",
      "rawTags": {
        "KSJ2:LIN": "和歌山線",
        "KSJ2:STN": "下兵庫",
        "name": "下兵庫",
        "name:en": "Shimo-Hyogo",
        "name:ja": "下兵庫",
        "name:ja_rm": "Shimo-Hyōgo",
        "note": "National-Land Numerical Information (Railway) 2007, MLIT Japan",
        "note:ja": "国土数値情報（鉄道データ）平成19年　国土交通省",
        "railway": "station",
        "source": "KSJ2",
        "source_ref": "http://nlftp.mlit.go.jp/ksj/jpgis/datalist/KsjTmplt-N02-v1_1.html",
        "url": "http://www.jr-odekake.net/eki/top.php?id=0621837",
        "wikidata": "Q3557822",
        "wikipedia": "ja:下兵庫駅 (和歌山県)"
      }
    },
    {
      "id": "wakayama_station_267333241",
      "osmId": 267333241,
      "osmType": "node",
      "prefectureId": "wakayama",
      "type": "station",
      "subtype": "private",
      "name": "隅田",
      "nameKana": "すだ",
      "nameEn": "Suda",
      "operator": null,
      "network": null,
      "ref": null,
      "latitude": 34.3280733,
      "longitude": 135.6555901,
      "countryCode": "jp",
      "rawTags": {
        "KSJ2:LIN": "和歌山線",
        "KSJ2:STN": "隅田",
        "name": "隅田",
        "name:en": "Suda",
        "name:ja": "隅田",
        "name:ja-Hira": "すだ",
        "name:ja_rm": "Suda",
        "name:ko": "스다",
        "note": "National-Land Numerical Information (Railway) 2007, MLIT Japan",
        "note:ja": "国土数値情報（鉄道データ）平成19年　国土交通省",
        "railway": "station",
        "source": "KSJ2",
        "source_ref": "http://nlftp.mlit.go.jp/ksj/jpgis/datalist/KsjTmplt-N02-v1_1.html",
        "url": "http://www.jr-odekake.net/eki/top.php?id=0621813",
        "wikidata": "Q3557713",
        "wikipedia": "ja:隅田駅"
      }
    },
    {
      "id": "wakayama_station_267333258",
      "osmId": 267333258,
      "osmType": "node",
      "prefectureId": "wakayama",
      "type": "station",
      "subtype": "private",
      "name": "橋本",
      "nameKana": null,
      "nameEn": "Hashimoto",
      "operator": null,
      "network": null,
      "ref": null,
      "latitude": 34.3182105,
      "longitude": 135.6147953,
      "countryCode": "jp",
      "rawTags": {
        "KSJ2:LIN": "和歌山線",
        "KSJ2:STN": "橋本",
        "name": "橋本",
        "name:en": "Hashimoto",
        "name:ja": "橋本",
        "name:ja_rm": "Hashimoto",
        "name:ko": "하시모토",
        "note": "National-Land Numerical Information (Railway) 2007, MLIT Japan",
        "note:ja": "国土数値情報（鉄道データ）平成19年　国土交通省",
        "public_transport": "station",
        "railway": "station",
        "source": "KSJ2",
        "source_ref": "http://nlftp.mlit.go.jp/ksj/jpgis/datalist/KsjTmplt-N02-v1_1.html",
        "wikidata": "Q3558008",
        "wikipedia": "ja:橋本駅 (和歌山県)"
      }
    },
    {
      "id": "wakayama_station_267333875",
      "osmId": 267333875,
      "osmType": "node",
      "prefectureId": "wakayama",
      "type": "station",
      "subtype": "private",
      "name": "高野口",
      "nameKana": null,
      "nameEn": "Kōyaguchi",
      "operator": null,
      "network": null,
      "ref": null,
      "latitude": 34.3076633,
      "longitude": 135.5572561,
      "countryCode": "jp",
      "rawTags": {
        "KSJ2:LIN": "和歌山線",
        "KSJ2:STN": "高野口",
        "name": "高野口",
        "name:en": "Kōyaguchi",
        "name:ja": "高野口",
        "name:ko": "고야구치",
        "note": "National-Land Numerical Information (Railway) 2007, MLIT Japan",
        "note:ja": "国土数値情報（鉄道データ）平成19年　国土交通省",
        "public_transport": "station",
        "railway": "station",
        "source": "KSJ2",
        "source_ref": "http://nlftp.mlit.go.jp/ksj/jpgis/datalist/KsjTmplt-N02-v1_1.html",
        "wikidata": "Q3525531",
        "wikipedia": "ja:高野口駅"
      }
    },
    {
      "id": "wakayama_station_267333889",
      "osmId": 267333889,
      "osmType": "node",
      "prefectureId": "wakayama",
      "type": "station",
      "subtype": "private",
      "name": "紀伊山田",
      "nameKana": null,
      "nameEn": "Kii-Yamada",
      "operator": null,
      "network": null,
      "ref": null,
      "latitude": 34.3129748,
      "longitude": 135.5839401,
      "countryCode": "jp",
      "rawTags": {
        "KSJ2:LIN": "和歌山線",
        "KSJ2:STN": "紀伊山田",
        "name": "紀伊山田",
        "name:en": "Kii-Yamada",
        "name:ja": "紀伊山田",
        "name:ko": "기이야마다",
        "note": "National-Land Numerical Information (Railway) 2007, MLIT Japan",
        "note:ja": "国土数値情報（鉄道データ）平成19年　国土交通省",
        "railway": "station",
        "source": "KSJ2",
        "source_ref": "http://nlftp.mlit.go.jp/ksj/jpgis/datalist/KsjTmplt-N02-v1_1.html",
        "wikidata": "Q3525524",
        "wikipedia": "ja:紀伊山田駅"
      }
    },
    {
      "id": "wakayama_station_267336295",
      "osmId": 267336295,
      "osmType": "node",
      "prefectureId": "wakayama",
      "type": "station",
      "subtype": "private",
      "name": "紀伊",
      "nameKana": null,
      "nameEn": "Kii",
      "operator": null,
      "network": null,
      "ref": "R51",
      "latitude": 34.2692946,
      "longitude": 135.246368,
      "countryCode": "jp",
      "rawTags": {
        "KSJ2:LIN": "阪和線",
        "KSJ2:STN": "紀伊",
        "name": "紀伊",
        "name:en": "Kii",
        "name:ja": "紀伊",
        "name:ko": "기이",
        "note": "National-Land Numerical Information (Railway) 2007, MLIT Japan",
        "note:ja": "国土数値情報（鉄道データ）平成19年　国土交通省",
        "public_transport": "station",
        "railway": "station",
        "ref": "R51",
        "source": "KSJ2",
        "source_ref": "http://nlftp.mlit.go.jp/ksj/jpgis/datalist/KsjTmplt-N02-v1_1.html",
        "wikidata": "Q857023",
        "wikipedia": "ja:紀伊駅"
      }
    },
    {
      "id": "wakayama_station_267336452",
      "osmId": 267336452,
      "osmType": "node",
      "prefectureId": "wakayama",
      "type": "station",
      "subtype": "private",
      "name": "六十谷",
      "nameKana": null,
      "nameEn": "Musota",
      "operator": null,
      "network": null,
      "ref": "R52",
      "latitude": 34.26242,
      "longitude": 135.2072124,
      "countryCode": "jp",
      "rawTags": {
        "KSJ2:LIN": "阪和線",
        "KSJ2:STN": "六十谷",
        "name": "六十谷",
        "name:en": "Musota",
        "name:ja": "六十谷",
        "name:ko": "무소타",
        "note": "National-Land Numerical Information (Railway) 2007, MLIT Japan",
        "note:ja": "国土数値情報（鉄道データ）平成19年　国土交通省",
        "public_transport": "station",
        "railway": "station",
        "ref": "R52",
        "source": "KSJ2",
        "source_ref": "http://nlftp.mlit.go.jp/ksj/jpgis/datalist/KsjTmplt-N02-v1_1.html",
        "wikidata": "Q857433",
        "wikipedia": "ja:六十谷駅"
      }
    },
    {
      "id": "wakayama_station_280489365",
      "osmId": 280489365,
      "osmType": "node",
      "prefectureId": "wakayama",
      "type": "station",
      "subtype": "private",
      "name": "和歌山大学前",
      "nameKana": null,
      "nameEn": "Wakayamadaigakumae",
      "operator": null,
      "network": null,
      "ref": "NK43",
      "latitude": 34.2763573,
      "longitude": 135.1470827,
      "countryCode": "jp",
      "rawTags": {
        "KSJ2:LIN": "南海本線",
        "alt_name:ko": "와카야마다이가쿠마에",
        "name": "和歌山大学前",
        "name:en": "Wakayamadaigakumae",
        "name:ja": "和歌山大学前",
        "name:ko": "와카야마대학앞",
        "note": "National-Land Numerical Information (Railway) 2007, MLIT Japan",
        "note:ja": "国土数値情報（鉄道データ）平成19年　国土交通省",
        "public_transport": "station",
        "railway": "station",
        "ref": "NK43",
        "source": "Survey",
        "source_ref": "http://nlftp.mlit.go.jp/ksj/jpgis/datalist/KsjTmplt-N02-v1_1.html",
        "wikidata": "Q7960872",
        "wikipedia": "ja:和歌山大学前駅"
      }
    },
    {
      "id": "wakayama_bus_terminal_313229450",
      "osmId": 313229450,
      "osmType": "node",
      "prefectureId": "wakayama",
      "type": "bus_terminal",
      "subtype": null,
      "name": "高野山駅",
      "nameKana": null,
      "nameEn": "Koya-san Station",
      "operator": null,
      "network": null,
      "ref": null,
      "latitude": 34.2274465,
      "longitude": 135.5770557,
      "countryCode": "jp",
      "rawTags": {
        "amenity": "bus_station",
        "name": "高野山駅",
        "name:en": "Koya-san Station",
        "name:es": "Koyasan",
        "name:ja": "高野山駅"
      }
    },
    {
      "id": "wakayama_station_360076791",
      "osmId": 360076791,
      "osmType": "node",
      "prefectureId": "wakayama",
      "type": "station",
      "subtype": "private",
      "name": "極楽橋",
      "nameKana": null,
      "nameEn": "Gokurakubashi",
      "operator": null,
      "network": null,
      "ref": null,
      "latitude": 34.2336955,
      "longitude": 135.5819168,
      "countryCode": "jp",
      "rawTags": {
        "KSJ2:LIN": "鋼索線",
        "KSJ2:STN": "極楽橋",
        "funicular": "yes",
        "name": "極楽橋",
        "name:en": "Gokurakubashi",
        "name:es": "Gokurakubashi",
        "name:fr": "Gokurakubashi",
        "name:ja": "極楽橋",
        "name:ko": "고쿠라쿠바시역",
        "note": "National-Land Numerical Information (Railway) 2007, MLIT Japan",
        "note:ja": "国土数値情報（鉄道データ）平成19年　国土交通省",
        "public_transport": "stop_position",
        "railway": "station",
        "source": "KSJ2",
        "source_ref": "http://nlftp.mlit.go.jp/ksj/jpgis/datalist/KsjTmplt-N02-v1_1.html",
        "wikidata": "Q5578128",
        "wikipedia": "ja:極楽橋駅"
      }
    },
    {
      "id": "wakayama_station_360076795",
      "osmId": 360076795,
      "osmType": "node",
      "prefectureId": "wakayama",
      "type": "station",
      "subtype": "private",
      "name": "高野山",
      "nameKana": null,
      "nameEn": "Koyasan",
      "operator": null,
      "network": null,
      "ref": null,
      "latitude": 34.2276,
      "longitude": 135.577305,
      "countryCode": "jp",
      "rawTags": {
        "KSJ2:LIN": "鋼索線",
        "KSJ2:STN": "高野山",
        "funicular": "yes",
        "name": "高野山",
        "name:en": "Koyasan",
        "name:es": "Koyasan",
        "name:fr": "Koyasan",
        "name:ja": "高野山",
        "name:ko": "고야산역",
        "note": "National-Land Numerical Information (Railway) 2007, MLIT Japan",
        "note:ja": "国土数値情報（鉄道データ）平成19年　国土交通省",
        "public_transport": "stop_position",
        "railway": "station",
        "source": "KSJ2",
        "source_ref": "http://nlftp.mlit.go.jp/ksj/jpgis/datalist/KsjTmplt-N02-v1_1.html",
        "wikidata": "Q6455335",
        "wikipedia": "ja:高野山駅"
      }
    },
    {
      "id": "wakayama_station_2277099389",
      "osmId": 2277099389,
      "osmType": "node",
      "prefectureId": "wakayama",
      "type": "station",
      "subtype": "private",
      "name": "和歌山",
      "nameKana": null,
      "nameEn": "Wakayama",
      "operator": null,
      "network": null,
      "ref": "R54",
      "latitude": 34.2322107,
      "longitude": 135.19158,
      "countryCode": "jp",
      "rawTags": {
        "covered": "yes",
        "name": "和歌山",
        "name:en": "Wakayama",
        "name:ja": "和歌山",
        "name:ko": "와카야마",
        "public_transport": "station",
        "railway": "station",
        "ref": "R54",
        "source": "survey",
        "website": "https://www.jr-odekake.net/eki/top.php?id=0622091",
        "wikidata": "Q1044107",
        "wikipedia": "ja:和歌山駅"
      }
    },
    {
      "id": "wakayama_station_3523110985",
      "osmId": 3523110985,
      "osmType": "node",
      "prefectureId": "wakayama",
      "type": "station",
      "subtype": "private",
      "name": "西御坊",
      "nameKana": "にしごぼう",
      "nameEn": "Nishi-Gobō",
      "operator": "紀州鉄道",
      "network": null,
      "ref": null,
      "latitude": 33.8867947,
      "longitude": 135.1530092,
      "countryCode": "jp",
      "rawTags": {
        "name": "西御坊",
        "name:en": "Nishi-Gobō",
        "name:ja": "西御坊",
        "name:ja-Hira": "にしごぼう",
        "operator": "紀州鉄道",
        "public_transport": "station",
        "railway": "station",
        "wikidata": "Q7040336",
        "wikipedia": "ja:西御坊駅"
      }
    },
    {
      "id": "wakayama_ferry_terminal_4095088611",
      "osmId": 4095088611,
      "osmType": "node",
      "prefectureId": "wakayama",
      "type": "ferry_terminal",
      "subtype": null,
      "name": "Dorokyo boat terminal",
      "nameKana": null,
      "nameEn": null,
      "operator": null,
      "network": null,
      "ref": null,
      "latitude": 33.8146057,
      "longitude": 135.8581934,
      "countryCode": "jp",
      "rawTags": {
        "amenity": "ferry_terminal",
        "name": "Dorokyo boat terminal",
        "name:ja": "瀞峡ジェット船乗場"
      }
    },
    {
      "id": "wakayama_station_4355134041",
      "osmId": 4355134041,
      "osmType": "node",
      "prefectureId": "wakayama",
      "type": "station",
      "subtype": "private",
      "name": "新宮",
      "nameKana": "しんぐ",
      "nameEn": "Shingu",
      "operator": null,
      "network": null,
      "ref": null,
      "latitude": 33.7250784,
      "longitude": 135.9940846,
      "countryCode": "jp",
      "rawTags": {
        "KSJ2:LIN": "紀勢線",
        "KSJ2:STN": "新宮",
        "name": "新宮",
        "name:en": "Shingu",
        "name:es": "Shingu",
        "name:ja": "新宮",
        "name:ja_kana": "しんぐ",
        "name:ja_rm": "Shingu",
        "name:ko": "신구",
        "note": "National-Land Numerical Information (Railway) 2007, MLIT Japan",
        "note:ja": "国土数値情報（鉄道データ）平成19年　国土交通省",
        "public_transport": "station",
        "railway": "station",
        "source": "Bing",
        "wheelchair": "limited",
        "wikidata": "Q5357415",
        "wikipedia": "ja:新宮駅"
      }
    },
    {
      "id": "wakayama_station_4457649790",
      "osmId": 4457649790,
      "osmType": "node",
      "prefectureId": "wakayama",
      "type": "station",
      "subtype": "private",
      "name": "紀伊中ノ島",
      "nameKana": null,
      "nameEn": "Kii-nakanoshima",
      "operator": null,
      "network": null,
      "ref": "R53",
      "latitude": 34.2430012,
      "longitude": 135.1902613,
      "countryCode": "jp",
      "rawTags": {
        "KSJ2:LIN": "阪和線",
        "KSJ2:STN": "紀伊中ノ島",
        "name": "紀伊中ノ島",
        "name:en": "Kii-nakanoshima",
        "name:ja": "紀伊中ノ島",
        "name:ko": "기이나카노시마",
        "note": "National-Land Numerical Information (Railway) 2007, MLIT Japan",
        "note:ja": "国土数値情報（鉄道データ）平成19年　国土交通省",
        "public_transport": "station",
        "railway": "station",
        "ref": "R53",
        "source": "KSJ2",
        "source_ref": "http://nlftp.mlit.go.jp/ksj/jpgis/datalist/KsjTmplt-N02-v1_1.html",
        "wikidata": "Q857454",
        "wikipedia": "ja:紀伊中ノ島駅"
      }
    },
    {
      "id": "wakayama_station_4457784167",
      "osmId": 4457784167,
      "osmType": "node",
      "prefectureId": "wakayama",
      "type": "station",
      "subtype": "private",
      "name": "宮前",
      "nameKana": null,
      "nameEn": "Miyamae",
      "operator": null,
      "network": null,
      "ref": null,
      "latitude": 34.2132217,
      "longitude": 135.1887578,
      "countryCode": "jp",
      "rawTags": {
        "KSJ2:LIN": "紀勢線",
        "KSJ2:STN": "宮前",
        "name": "宮前",
        "name:en": "Miyamae",
        "name:ja": "宮前",
        "name:ko": "미야마에",
        "note": "National-Land Numerical Information (Railway) 2007, MLIT Japan",
        "note:ja": "国土数値情報（鉄道データ）平成19年　国土交通省",
        "railway": "station",
        "source": "KSJ2",
        "source_ref": "http://nlftp.mlit.go.jp/ksj/jpgis/datalist/KsjTmplt-N02-v1_1.html",
        "wikidata": "Q3455703",
        "wikipedia": "ja:宮前駅"
      }
    },
    {
      "id": "wakayama_station_4457804655",
      "osmId": 4457804655,
      "osmType": "node",
      "prefectureId": "wakayama",
      "type": "station",
      "subtype": "private",
      "name": "田井ノ瀬",
      "nameKana": null,
      "nameEn": "Tainose",
      "operator": null,
      "network": null,
      "ref": null,
      "latitude": 34.2422268,
      "longitude": 135.2296931,
      "countryCode": "jp",
      "rawTags": {
        "KSJ2:LIN": "和歌山線",
        "KSJ2:STN": "田井ノ瀬",
        "name": "田井ノ瀬",
        "name:en": "Tainose",
        "name:ja": "田井ノ瀬",
        "name:ko": "다이노세",
        "note": "National-Land Numerical Information (Railway) 2007, MLIT Japan",
        "note:ja": "国土数値情報（鉄道データ）平成19年　国土交通省",
        "public_transport": "station",
        "railway": "station",
        "source": "KSJ2",
        "source_ref": "http://nlftp.mlit.go.jp/ksj/jpgis/datalist/KsjTmplt-N02-v1_1.html",
        "wikidata": "Q2646850",
        "wikipedia": "ja:田井ノ瀬駅"
      }
    },
    {
      "id": "wakayama_bus_terminal_4781085257",
      "osmId": 4781085257,
      "osmType": "node",
      "prefectureId": "wakayama",
      "type": "bus_terminal",
      "subtype": null,
      "name": "地蔵の辻",
      "nameKana": null,
      "nameEn": null,
      "operator": "和歌山バス那賀",
      "network": null,
      "ref": null,
      "latitude": 34.2438342,
      "longitude": 135.1848351,
      "countryCode": "jp",
      "rawTags": {
        "amenity": "bus_station",
        "bus": "yes",
        "name": "地蔵の辻",
        "operator": "和歌山バス那賀",
        "public_transport": "station"
      }
    },
    {
      "id": "wakayama_bus_terminal_4781085273",
      "osmId": 4781085273,
      "osmType": "node",
      "prefectureId": "wakayama",
      "type": "bus_terminal",
      "subtype": null,
      "name": "阪和駅前",
      "nameKana": null,
      "nameEn": null,
      "operator": "和歌山バス那賀",
      "network": null,
      "ref": null,
      "latitude": 34.2440116,
      "longitude": 135.1887337,
      "countryCode": "jp",
      "rawTags": {
        "amenity": "bus_station",
        "bus": "yes",
        "name": "阪和駅前",
        "operator": "和歌山バス那賀",
        "public_transport": "station"
      }
    },
    {
      "id": "wakayama_bus_terminal_4891979257",
      "osmId": 4891979257,
      "osmType": "node",
      "prefectureId": "wakayama",
      "type": "bus_terminal",
      "subtype": null,
      "name": "医大病院",
      "nameKana": null,
      "nameEn": null,
      "operator": "和歌山バス",
      "network": null,
      "ref": null,
      "latitude": 34.1877812,
      "longitude": 135.1807152,
      "countryCode": "jp",
      "rawTags": {
        "amenity": "bus_station",
        "name": "医大病院",
        "operator": "和歌山バス"
      }
    },
    {
      "id": "wakayama_bus_terminal_4891979263",
      "osmId": 4891979263,
      "osmType": "node",
      "prefectureId": "wakayama",
      "type": "bus_terminal",
      "subtype": null,
      "name": "医大病院前",
      "nameKana": null,
      "nameEn": null,
      "operator": "和歌山バス",
      "network": null,
      "ref": null,
      "latitude": 34.1869725,
      "longitude": 135.180809,
      "countryCode": "jp",
      "rawTags": {
        "amenity": "bus_station",
        "name": "医大病院前",
        "operator": "和歌山バス"
      }
    },
    {
      "id": "wakayama_bus_terminal_5106724414",
      "osmId": 5106724414,
      "osmType": "node",
      "prefectureId": "wakayama",
      "type": "bus_terminal",
      "subtype": null,
      "name": "Kii-Tanabe",
      "nameKana": null,
      "nameEn": null,
      "operator": null,
      "network": null,
      "ref": null,
      "latitude": 33.7326278,
      "longitude": 135.3843019,
      "countryCode": "jp",
      "rawTags": {
        "amenity": "bus_station",
        "name": "Kii-Tanabe"
      }
    },
    {
      "id": "wakayama_station_5694806014",
      "osmId": 5694806014,
      "osmType": "node",
      "prefectureId": "wakayama",
      "type": "station",
      "subtype": "private",
      "name": "初島",
      "nameKana": null,
      "nameEn": "Hatsushima",
      "operator": null,
      "network": null,
      "ref": null,
      "latitude": 34.100055,
      "longitude": 135.1156126,
      "countryCode": "jp",
      "rawTags": {
        "KSJ2:LIN": "紀勢線",
        "KSJ2:STN": "初島",
        "name": "初島",
        "name:en": "Hatsushima",
        "name:ja": "初島",
        "name:ko": "하쓰시마",
        "note": "National-Land Numerical Information (Railway) 2007, MLIT Japan",
        "note:ja": "国土数値情報（鉄道データ）平成19年　国土交通省",
        "railway": "station",
        "source": "KSJ2",
        "source_ref": "http://nlftp.mlit.go.jp/ksj/jpgis/datalist/KsjTmplt-N02-v1_1.html",
        "wikidata": "Q3381832",
        "wikipedia": "ja:初島駅"
      }
    },
    {
      "id": "wakayama_station_6050991104",
      "osmId": 6050991104,
      "osmType": "node",
      "prefectureId": "wakayama",
      "type": "station",
      "subtype": "private",
      "name": "串本",
      "nameKana": "くしもと",
      "nameEn": "Kushimoto",
      "operator": null,
      "network": null,
      "ref": null,
      "latitude": 33.4755656,
      "longitude": 135.7816979,
      "countryCode": "jp",
      "rawTags": {
        "KSJ2:LIN": "紀勢線",
        "KSJ2:STN": "串本",
        "name": "串本",
        "name:en": "Kushimoto",
        "name:ja": "串本",
        "name:ja_kana": "くしもと",
        "name:ja_rm": "Kushimoto",
        "name:ko": "구시모토",
        "note": "National-Land Numerical Information (Railway) 2007, MLIT Japan",
        "note:ja": "国土数値情報（鉄道データ）平成19年　国土交通省",
        "public_transport": "station",
        "railway": "station",
        "source": "KSJ2",
        "source_ref": "http://nlftp.mlit.go.jp/ksj/jpgis/datalist/KsjTmplt-N02-v1_1.html",
        "wikidata": "Q2682092",
        "wikipedia": "ja:串本駅"
      }
    },
    {
      "id": "wakayama_bus_terminal_6843760992",
      "osmId": 6843760992,
      "osmType": "node",
      "prefectureId": "wakayama",
      "type": "bus_terminal",
      "subtype": null,
      "name": "三重交通 南紀特急バス 勝浦バスセンター",
      "nameKana": null,
      "nameEn": null,
      "operator": null,
      "network": null,
      "ref": null,
      "latitude": 33.6279776,
      "longitude": 135.9442489,
      "countryCode": "jp",
      "rawTags": {
        "amenity": "bus_station",
        "bus": "yes",
        "name": "三重交通 南紀特急バス 勝浦バスセンター",
        "public_transport": "station"
      }
    },
    {
      "id": "wakayama_ferry_terminal_7967970787",
      "osmId": 7967970787,
      "osmType": "node",
      "prefectureId": "wakayama",
      "type": "ferry_terminal",
      "subtype": null,
      "name": "那智勝浦港フェリーターミナル",
      "nameKana": null,
      "nameEn": "Nachikatsuura-town Ferry Terminal",
      "operator": null,
      "network": null,
      "ref": null,
      "latitude": 33.6625177,
      "longitude": 135.986783,
      "countryCode": "jp",
      "rawTags": {
        "amenity": "ferry_terminal",
        "disused:amenity": "ferry_terminal",
        "ferry": "yes",
        "name": "那智勝浦港フェリーターミナル",
        "name:en": "Nachikatsuura-town Ferry Terminal",
        "public_transport": "station"
      }
    },
    {
      "id": "wakayama_station_8157702930",
      "osmId": 8157702930,
      "osmType": "node",
      "prefectureId": "wakayama",
      "type": "station",
      "subtype": "private",
      "name": "紀ノ川",
      "nameKana": null,
      "nameEn": "Kinokawa",
      "operator": null,
      "network": null,
      "ref": "NK44",
      "latitude": 34.2552799,
      "longitude": 135.1654273,
      "countryCode": "jp",
      "rawTags": {
        "KSJ2:LIN": "南海本線",
        "KSJ2:STN": "紀ノ川",
        "contact:website": "https://www.nankai.co.jp/traffic/station/kinokawa.html",
        "name": "紀ノ川",
        "name:en": "Kinokawa",
        "name:ja": "紀ノ川",
        "name:ko": "기노카와",
        "note": "National-Land Numerical Information (Railway) 2007, MLIT Japan",
        "note:ja": "国土数値情報（鉄道データ）平成19年　国土交通省",
        "public_transport": "station",
        "railway": "station",
        "ref": "NK44",
        "source": "KSJ2",
        "source_ref": "http://nlftp.mlit.go.jp/ksj/jpgis/datalist/KsjTmplt-N02-v1_1.html",
        "wikidata": "Q11604938",
        "wikipedia": "ja:紀ノ川駅"
      }
    },
    {
      "id": "wakayama_station_8157702931",
      "osmId": 8157702931,
      "osmType": "node",
      "prefectureId": "wakayama",
      "type": "station",
      "subtype": "private",
      "name": "和歌山市",
      "nameKana": "わかやまし",
      "nameEn": "Wakayamashi",
      "operator": null,
      "network": null,
      "ref": null,
      "latitude": 34.2367974,
      "longitude": 135.167052,
      "countryCode": "jp",
      "rawTags": {
        "KSJ2:LIN": "紀勢線",
        "KSJ2:STN": "和歌山市",
        "name": "和歌山市",
        "name:en": "Wakayamashi",
        "name:ja": "和歌山市",
        "name:ja_kana": "わかやまし",
        "name:ja_rm": "Wakayama-shi",
        "note": "National-Land Numerical Information (Railway) 2007, MLIT Japan",
        "note:ja": "国土数値情報（鉄道データ）平成19年　国土交通省",
        "public_transport": "station",
        "railway": "station",
        "source": "KSJ2",
        "source_ref": "http://nlftp.mlit.go.jp/ksj/jpgis/datalist/KsjTmplt-N02-v1_1.html",
        "wikidata": "Q3455721",
        "wikipedia": "ja:和歌山市駅"
      }
    },
    {
      "id": "wakayama_station_8163291230",
      "osmId": 8163291230,
      "osmType": "node",
      "prefectureId": "wakayama",
      "type": "station",
      "subtype": "private",
      "name": "下古沢",
      "nameKana": null,
      "nameEn": "Shimo-Kosawa",
      "operator": null,
      "network": null,
      "ref": null,
      "latitude": 34.2665086,
      "longitude": 135.553091,
      "countryCode": "jp",
      "rawTags": {
        "KSJ2:LIN": "高野線",
        "KSJ2:STN": "下古沢",
        "name": "下古沢",
        "name:en": "Shimo-Kosawa",
        "name:ja": "下古沢",
        "name:ko": "시모코사와",
        "note": "National-Land Numerical Information (Railway) 2007, MLIT Japan",
        "note:ja": "国土数値情報（鉄道データ）平成19年　国土交通省",
        "public_transport": "station",
        "railway": "station",
        "source": "KSJ2",
        "source_ref": "http://nlftp.mlit.go.jp/ksj/jpgis/datalist/KsjTmplt-N02-v1_1.html",
        "wheelchair": "yes",
        "wikidata": "Q7496926",
        "wikipedia": "ja:下古沢駅"
      }
    },
    {
      "id": "wakayama_station_8163291241",
      "osmId": 8163291241,
      "osmType": "node",
      "prefectureId": "wakayama",
      "type": "station",
      "subtype": "private",
      "name": "上古沢",
      "nameKana": null,
      "nameEn": "Kami-Kosawa",
      "operator": null,
      "network": null,
      "ref": null,
      "latitude": 34.2575002,
      "longitude": 135.5479954,
      "countryCode": "jp",
      "rawTags": {
        "KSJ2:LIN": "高野線",
        "KSJ2:STN": "上古沢",
        "name": "上古沢",
        "name:en": "Kami-Kosawa",
        "name:ja": "上古沢",
        "name:ko": "가미코사와",
        "note": "National-Land Numerical Information (Railway) 2007, MLIT Japan",
        "note:ja": "国土数値情報（鉄道データ）平成19年　国土交通省",
        "public_transport": "station",
        "railway": "station",
        "source": "KSJ2",
        "source_ref": "http://nlftp.mlit.go.jp/ksj/jpgis/datalist/KsjTmplt-N02-v1_1.html",
        "wheelchair": "no",
        "wikidata": "Q11358653",
        "wikipedia": "ja:上古沢駅"
      }
    },
    {
      "id": "wakayama_station_8163291242",
      "osmId": 8163291242,
      "osmType": "node",
      "prefectureId": "wakayama",
      "type": "station",
      "subtype": "private",
      "name": "紀伊細川",
      "nameKana": null,
      "nameEn": "Kii-Hosokawa",
      "operator": null,
      "network": null,
      "ref": null,
      "latitude": 34.2358697,
      "longitude": 135.5537617,
      "countryCode": "jp",
      "rawTags": {
        "KSJ2:LIN": "高野線",
        "KSJ2:STN": "紀伊細川",
        "name": "紀伊細川",
        "name:en": "Kii-Hosokawa",
        "name:ja": "紀伊細川",
        "name:ko": "기이호소카와",
        "note": "National-Land Numerical Information (Railway) 2007, MLIT Japan",
        "note:ja": "国土数値情報（鉄道データ）平成19年　国土交通省",
        "public_transport": "station",
        "railway": "station",
        "source": "KSJ2",
        "source_ref": "http://nlftp.mlit.go.jp/ksj/jpgis/datalist/KsjTmplt-N02-v1_1.html",
        "wheelchair": "no",
        "wikidata": "Q6406043",
        "wikipedia": "ja:紀伊細川駅"
      }
    },
    {
      "id": "wakayama_station_8163291249",
      "osmId": 8163291249,
      "osmType": "node",
      "prefectureId": "wakayama",
      "type": "station",
      "subtype": "private",
      "name": "紀伊神谷",
      "nameKana": null,
      "nameEn": "Kii-Kamiya",
      "operator": null,
      "network": null,
      "ref": null,
      "latitude": 34.2427221,
      "longitude": 135.5711613,
      "countryCode": "jp",
      "rawTags": {
        "KSJ2:LIN": "高野線",
        "KSJ2:STN": "紀伊神谷",
        "name": "紀伊神谷",
        "name:en": "Kii-Kamiya",
        "name:ja": "紀伊神谷",
        "name:ko": "기이카미야",
        "note": "National-Land Numerical Information (Railway) 2007, MLIT Japan",
        "note:ja": "国土数値情報（鉄道データ）平成19年　国土交通省",
        "public_transport": "station",
        "railway": "station",
        "source": "KSJ2",
        "source_ref": "http://nlftp.mlit.go.jp/ksj/jpgis/datalist/KsjTmplt-N02-v1_1.html",
        "wikidata": "Q6406045",
        "wikipedia": "ja:紀伊神谷駅"
      }
    },
    {
      "id": "wakayama_station_8185667040",
      "osmId": 8185667040,
      "osmType": "node",
      "prefectureId": "wakayama",
      "type": "station",
      "subtype": "private",
      "name": "高野下",
      "nameKana": null,
      "nameEn": "Kōyashita",
      "operator": null,
      "network": null,
      "ref": null,
      "latitude": 34.2716971,
      "longitude": 135.5663685,
      "countryCode": "jp",
      "rawTags": {
        "name": "高野下",
        "name:en": "Kōyashita",
        "name:ja": "高野下",
        "name:ko": "고야시타",
        "note": "National-Land Numerical Information (Railway) 2007, MLIT Japan",
        "note:ja": "国土数値情報（鉄道データ）平成19年　国土交通省",
        "public_transport": "station",
        "railway": "station",
        "source": "KSJ2",
        "source_ref": "http://nlftp.mlit.go.jp/ksj/jpgis/datalist/KsjTmplt-N02-v1_1.html",
        "wheelchair": "yes",
        "wikidata": "Q6455338",
        "wikipedia": "ja:高野下駅"
      }
    },
    {
      "id": "wakayama_station_8185667051",
      "osmId": 8185667051,
      "osmType": "node",
      "prefectureId": "wakayama",
      "type": "station",
      "subtype": "private",
      "name": "学文路",
      "nameKana": null,
      "nameEn": "Kamuro",
      "operator": null,
      "network": null,
      "ref": null,
      "latitude": 34.2965572,
      "longitude": 135.5800628,
      "countryCode": "jp",
      "rawTags": {
        "name": "学文路",
        "name:en": "Kamuro",
        "name:ja": "学文路",
        "name:ko": "가무로",
        "note": "National-Land Numerical Information (Railway) 2007, MLIT Japan",
        "note:ja": "国土数値情報（鉄道データ）平成19年　国土交通省",
        "public_transport": "station",
        "railway": "station",
        "source": "KSJ2",
        "source_ref": "http://nlftp.mlit.go.jp/ksj/jpgis/datalist/KsjTmplt-N02-v1_1.html",
        "wikidata": "Q6359870",
        "wikipedia": "ja:学文路駅"
      }
    },
    {
      "id": "wakayama_station_8185667060",
      "osmId": 8185667060,
      "osmType": "node",
      "prefectureId": "wakayama",
      "type": "station",
      "subtype": "private",
      "name": "紀伊清水",
      "nameKana": null,
      "nameEn": "Kii-Shimizu",
      "operator": null,
      "network": null,
      "ref": null,
      "latitude": 34.3074429,
      "longitude": 135.6046161,
      "countryCode": "jp",
      "rawTags": {
        "name": "紀伊清水",
        "name:en": "Kii-Shimizu",
        "name:ja": "紀伊清水",
        "name:ko": "기이시미즈",
        "note": "National-Land Numerical Information (Railway) 2007, MLIT Japan",
        "note:ja": "国土数値情報（鉄道データ）平成19年　国土交通省",
        "public_transport": "station",
        "railway": "station",
        "source": "KSJ2",
        "source_ref": "http://nlftp.mlit.go.jp/ksj/jpgis/datalist/KsjTmplt-N02-v1_1.html",
        "wikidata": "Q6406048",
        "wikipedia": "ja:紀伊清水駅"
      }
    },
    {
      "id": "wakayama_station_8185667070",
      "osmId": 8185667070,
      "osmType": "node",
      "prefectureId": "wakayama",
      "type": "station",
      "subtype": "private",
      "name": "御幸辻",
      "nameKana": null,
      "nameEn": "Miyukitsuji",
      "operator": "南海鉄道",
      "network": "高野線",
      "ref": null,
      "latitude": 34.3378833,
      "longitude": 135.6020976,
      "countryCode": "jp",
      "rawTags": {
        "name": "御幸辻",
        "name:en": "Miyukitsuji",
        "name:ja": "御幸辻",
        "name:ja_rm": "Miyukitsuji",
        "name:ko": "미유키쓰지",
        "network": "高野線",
        "note": "National-Land Numerical Information (Railway) 2007, MLIT Japan",
        "note:ja": "国土数値情報（鉄道データ）平成19年　国土交通省",
        "operator": "南海鉄道",
        "public_transport": "station",
        "railway": "station",
        "source": "KSJ2",
        "source_ref": "http://nlftp.mlit.go.jp/ksj/jpgis/datalist/KsjTmplt-N02-v1_1.html",
        "wikidata": "Q6884576",
        "wikipedia": "ja:御幸辻駅"
      }
    },
    {
      "id": "wakayama_station_8185667071",
      "osmId": 8185667071,
      "osmType": "node",
      "prefectureId": "wakayama",
      "type": "station",
      "subtype": "private",
      "name": "林間田園都市",
      "nameKana": null,
      "nameEn": "Rinkanden-Entoshi",
      "operator": "南海鉄道",
      "network": null,
      "ref": null,
      "latitude": 34.3555065,
      "longitude": 135.6033421,
      "countryCode": "jp",
      "rawTags": {
        "name": "林間田園都市",
        "name:en": "Rinkanden-Entoshi",
        "name:ja": "林間田園都市",
        "name:ja_rm": "Rinkanden-Entoshi",
        "name:ko": "린칸덴엔토시",
        "note": "National-Land Numerical Information (Railway) 2007, MLIT Japan",
        "note:ja": "国土数値情報（鉄道データ）平成19年　国土交通省",
        "operator": "南海鉄道",
        "public_transport": "station",
        "railway": "station",
        "source": "KSJ2",
        "source_ref": "http://nlftp.mlit.go.jp/ksj/jpgis/datalist/KsjTmplt-N02-v1_1.html",
        "wheelchair": "limited",
        "wikidata": "Q7335047",
        "wikipedia": "ja:林間田園都市駅"
      }
    },
    {
      "id": "wakayama_station_8185667074",
      "osmId": 8185667074,
      "osmType": "node",
      "prefectureId": "wakayama",
      "type": "station",
      "subtype": "private",
      "name": "紀見峠",
      "nameKana": null,
      "nameEn": "Kimitōge",
      "operator": "南海鉄道",
      "network": null,
      "ref": null,
      "latitude": 34.3661019,
      "longitude": 135.6001349,
      "countryCode": "jp",
      "rawTags": {
        "name": "紀見峠",
        "name:en": "Kimitōge",
        "name:ja": "紀見峠",
        "name:ja_rm": "Kimitōge",
        "name:ko": "기미토게",
        "note": "National-Land Numerical Information (Railway) 2007, MLIT Japan",
        "note:ja": "国土数値情報（鉄道データ）平成19年　国土交通省",
        "operator": "南海鉄道",
        "public_transport": "station",
        "railway": "station",
        "source": "KSJ2",
        "source_ref": "http://nlftp.mlit.go.jp/ksj/jpgis/datalist/KsjTmplt-N02-v1_1.html",
        "wikidata": "Q6410156",
        "wikipedia": "ja:紀見峠駅"
      }
    },
    {
      "id": "wakayama_station_8187169371",
      "osmId": 8187169371,
      "osmType": "node",
      "prefectureId": "wakayama",
      "type": "station",
      "subtype": "private",
      "name": "九度山",
      "nameKana": null,
      "nameEn": "Kudoyama",
      "operator": null,
      "network": null,
      "ref": null,
      "latitude": 34.288069,
      "longitude": 135.564599,
      "countryCode": "jp",
      "rawTags": {
        "name": "九度山",
        "name:en": "Kudoyama",
        "name:ja": "九度山",
        "name:ko": "구도야마",
        "note": "National-Land Numerical Information (Railway) 2007, MLIT Japan",
        "note:ja": "国土数値情報（鉄道データ）平成19年　国土交通省",
        "public_transport": "station",
        "railway": "station",
        "source": "KSJ2",
        "source_ref": "http://nlftp.mlit.go.jp/ksj/jpgis/datalist/KsjTmplt-N02-v1_1.html",
        "wikidata": "Q289187",
        "wikipedia": "ja:九度山駅"
      }
    },
    {
      "id": "wakayama_station_8198307116",
      "osmId": 8198307116,
      "osmType": "node",
      "prefectureId": "wakayama",
      "type": "station",
      "subtype": "private",
      "name": "東松江",
      "nameKana": null,
      "nameEn": "Higashi-Matsue",
      "operator": null,
      "network": null,
      "ref": "NK44-1",
      "latitude": 34.2478213,
      "longitude": 135.1407255,
      "countryCode": "jp",
      "rawTags": {
        "contact:website": "https://www.nankai.co.jp/traffic/station/higashimatsue.html",
        "description": "男子トイレと女子トイレが同じ空間にあります。",
        "internet_access": "no",
        "name": "東松江",
        "name:en": "Higashi-Matsue",
        "name:ja": "東松江",
        "name:ko": "히가시마쓰에",
        "note": "National-Land Numerical Information (Railway) 2007, MLIT Japan",
        "note:ja": "国土数値情報（鉄道データ）平成19年　国土交通省",
        "public_transport": "station",
        "railway": "station",
        "ref": "NK44-1",
        "source": "KSJ2",
        "source_ref": "http://nlftp.mlit.go.jp/ksj/jpgis/datalist/KsjTmplt-N02-v1_1.html",
        "wikidata": "Q11527362",
        "wikipedia": "ja:東松江駅 (和歌山県)"
      }
    },
    {
      "id": "wakayama_station_8198307122",
      "osmId": 8198307122,
      "osmType": "node",
      "prefectureId": "wakayama",
      "type": "station",
      "subtype": "private",
      "name": "中松江",
      "nameKana": null,
      "nameEn": "Nakamatsue",
      "operator": null,
      "network": null,
      "ref": "NK44-2",
      "latitude": 34.2486859,
      "longitude": 135.1330905,
      "countryCode": "jp",
      "rawTags": {
        "contact:website": "https://www.nankai.co.jp/traffic/station/nakamatsue.html",
        "name": "中松江",
        "name:en": "Nakamatsue",
        "name:ja": "中松江",
        "name:ko": "나카마쓰에",
        "note": "National-Land Numerical Information (Railway) 2007, MLIT Japan",
        "note:ja": "国土数値情報（鉄道データ）平成19年　国土交通省",
        "public_transport": "station",
        "railway": "station",
        "ref": "NK44-2",
        "source": "KSJ2",
        "source_ref": "http://nlftp.mlit.go.jp/ksj/jpgis/datalist/KsjTmplt-N02-v1_1.html",
        "wikidata": "Q11366185",
        "wikipedia": "ja:中松江駅"
      }
    },
    {
      "id": "wakayama_station_8198307131",
      "osmId": 8198307131,
      "osmType": "node",
      "prefectureId": "wakayama",
      "type": "station",
      "subtype": "private",
      "name": "八幡前",
      "nameKana": null,
      "nameEn": "Hachimanmae",
      "operator": null,
      "network": null,
      "ref": "NK44-3",
      "latitude": 34.2526245,
      "longitude": 135.1217977,
      "countryCode": "jp",
      "rawTags": {
        "contact:website": "https://www.nankai.co.jp/traffic/station/hachimanmae.html",
        "name": "八幡前",
        "name:en": "Hachimanmae",
        "name:ja": "八幡前",
        "name:ko": "하치만마에",
        "note": "National-Land Numerical Information (Railway) 2007, MLIT Japan",
        "note:ja": "国土数値情報（鉄道データ）平成19年　国土交通省",
        "public_transport": "station",
        "railway": "station",
        "ref": "NK44-3",
        "source": "KSJ2",
        "source_ref": "http://nlftp.mlit.go.jp/ksj/jpgis/datalist/KsjTmplt-N02-v1_1.html",
        "wikidata": "Q5637060",
        "wikipedia": "ja:八幡前駅 (和歌山県)"
      }
    },
    {
      "id": "wakayama_station_8198307134",
      "osmId": 8198307134,
      "osmType": "node",
      "prefectureId": "wakayama",
      "type": "station",
      "subtype": "private",
      "name": "西ノ庄",
      "nameKana": null,
      "nameEn": "Nishinoshō",
      "operator": "南海電気鉄道",
      "network": "南海電気鉄道加太線",
      "ref": "NK44-4",
      "latitude": 34.2555986,
      "longitude": 135.1105144,
      "countryCode": "jp",
      "rawTags": {
        "contact:website": "https://www.nankai.co.jp/traffic/station/nishinosho.html",
        "name": "西ノ庄",
        "name:en": "Nishinoshō",
        "name:ja": "西ノ庄",
        "name:ko": "니시노쇼",
        "network": "南海電気鉄道加太線",
        "note": "National-Land Numerical Information (Railway) 2007, MLIT Japan",
        "note:ja": "国土数値情報（鉄道データ）平成19年　国土交通省",
        "operator": "南海電気鉄道",
        "public_transport": "station",
        "railway": "station",
        "ref": "NK44-4",
        "source": "KSJ2",
        "source_ref": "http://nlftp.mlit.go.jp/ksj/jpgis/datalist/KsjTmplt-N02-v1_1.html",
        "wikidata": "Q11627075",
        "wikipedia": "ja:西ノ庄駅"
      }
    },
    {
      "id": "wakayama_station_8198307135",
      "osmId": 8198307135,
      "osmType": "node",
      "prefectureId": "wakayama",
      "type": "station",
      "subtype": "private",
      "name": "二里ヶ浜",
      "nameKana": null,
      "nameEn": "Nirigahama",
      "operator": null,
      "network": null,
      "ref": "NK44-5",
      "latitude": 34.257595,
      "longitude": 135.1041274,
      "countryCode": "jp",
      "rawTags": {
        "contact:website": "https://www.nankai.co.jp/traffic/station/nirigahama.html",
        "name": "二里ヶ浜",
        "name:en": "Nirigahama",
        "name:ja": "二里ヶ浜",
        "name:ko": "니리가하마",
        "note": "National-Land Numerical Information (Railway) 2007, MLIT Japan",
        "note:ja": "国土数値情報（鉄道データ）平成19年　国土交通省",
        "public_transport": "station",
        "railway": "station",
        "ref": "NK44-5",
        "source": "KSJ2",
        "source_ref": "http://nlftp.mlit.go.jp/ksj/jpgis/datalist/KsjTmplt-N02-v1_1.html",
        "wikidata": "Q7039975",
        "wikipedia": "ja:二里ヶ浜駅"
      }
    },
    {
      "id": "wakayama_station_8198307143",
      "osmId": 8198307143,
      "osmType": "node",
      "prefectureId": "wakayama",
      "type": "station",
      "subtype": "private",
      "name": "加太",
      "nameKana": "かだ",
      "nameEn": "Kada",
      "operator": null,
      "network": null,
      "ref": "NK44-7",
      "latitude": 34.2751138,
      "longitude": 135.080825,
      "countryCode": "jp",
      "rawTags": {
        "contact:website": "https://www.nankai.co.jp/traffic/station/kada.html",
        "name": "加太",
        "name:en": "Kada",
        "name:fr": "Kada",
        "name:ja-Hira": "かだ",
        "name:ja-Latn": "Kada",
        "name:ko": "가다",
        "note": "National-Land Numerical Information (Railway) 2007, MLIT Japan",
        "note:ja": "国土数値情報（鉄道データ）平成19年　国土交通省",
        "public_transport": "station",
        "railway": "station",
        "ref": "NK44-7",
        "source": "KSJ2",
        "source_ref": "http://nlftp.mlit.go.jp/ksj/jpgis/datalist/KsjTmplt-N02-v1_1.html",
        "wikidata": "Q11398586",
        "wikipedia": "ja:加太駅 (和歌山県)"
      }
    },
    {
      "id": "wakayama_station_8199212401",
      "osmId": 8199212401,
      "osmType": "node",
      "prefectureId": "wakayama",
      "type": "station",
      "subtype": "private",
      "name": "磯ノ浦",
      "nameKana": null,
      "nameEn": "Isonoura",
      "operator": null,
      "network": null,
      "ref": "NK44-6",
      "latitude": 34.2604951,
      "longitude": 135.0947932,
      "countryCode": "jp",
      "rawTags": {
        "contact:website": "https://www.nankai.co.jp/traffic/station/isonoura.html",
        "description": "サーフィン客が良く利用する。サーフボードの一番大きなロングボードも持ち込み可能。",
        "name": "磯ノ浦",
        "name:en": "Isonoura",
        "name:ja": "磯ノ浦",
        "name:ko": "이소노우라",
        "note": "National-Land Numerical Information (Railway) 2007, MLIT Japan",
        "note:ja": "国土数値情報（鉄道データ）平成19年　国土交通省",
        "public_transport": "station",
        "railway": "station",
        "ref": "NK44-6",
        "source": "KSJ2",
        "source_ref": "http://nlftp.mlit.go.jp/ksj/jpgis/datalist/KsjTmplt-N02-v1_1.html",
        "train": "yes",
        "wikidata": "Q6086167",
        "wikipedia": "ja:磯ノ浦駅"
      }
    },
    {
      "id": "wakayama_station_8212600713",
      "osmId": 8212600713,
      "osmType": "node",
      "prefectureId": "wakayama",
      "type": "station",
      "subtype": "private",
      "name": "和歌山港",
      "nameKana": null,
      "nameEn": "Wakayamakō",
      "operator": null,
      "network": null,
      "ref": "NK45-1",
      "latitude": 34.2170732,
      "longitude": 135.1462622,
      "countryCode": "jp",
      "rawTags": {
        "name": "和歌山港",
        "name:en": "Wakayamakō",
        "name:ja": "和歌山港",
        "name:ja-Latn": "Wakayamakō",
        "name:ko": "와카야마코",
        "note": "National-Land Numerical Information (Railway) 2007, MLIT Japan",
        "note:ja": "国土数値情報（鉄道データ）平成19年　国土交通省",
        "public_transport": "station",
        "railway": "station",
        "ref": "NK45-1",
        "source": "KSJ2",
        "source_ref": "http://nlftp.mlit.go.jp/ksj/jpgis/datalist/KsjTmplt-N02-v1_1.html",
        "wikidata": "Q7960873",
        "wikipedia": "ja:和歌山港駅"
      }
    },
    {
      "id": "wakayama_station_8213216120",
      "osmId": 8213216120,
      "osmType": "node",
      "prefectureId": "wakayama",
      "type": "station",
      "subtype": "private",
      "name": "御坊",
      "nameKana": null,
      "nameEn": "Gobō",
      "operator": "紀州鉄道",
      "network": null,
      "ref": null,
      "latitude": 33.9076513,
      "longitude": 135.1586178,
      "countryCode": "jp",
      "rawTags": {
        "KSJ2:RAS": "eb03_614",
        "KSJ2:segment": "eb02_1149",
        "name": "御坊",
        "name:en": "Gobō",
        "name:ja": "御坊",
        "name:ko": "고보",
        "note": "National-Land Numerical Information (Railway) 2007, MLIT Japan",
        "note:ja": "国土数値情報（鉄道データ）平成19年　国土交通省",
        "operator": "紀州鉄道",
        "public_transport": "station",
        "railway": "station",
        "source": "KSJ2",
        "source_ref": "http://nlftp.mlit.go.jp/ksj/jpgis/datalist/KsjTmplt-N02-v1_1.html",
        "wikidata": "Q2897645",
        "wikipedia": "ja:御坊駅"
      }
    },
    {
      "id": "wakayama_station_8213216123",
      "osmId": 8213216123,
      "osmType": "node",
      "prefectureId": "wakayama",
      "type": "station",
      "subtype": "private",
      "name": "学門",
      "nameKana": "がくもん",
      "nameEn": "Gakumon",
      "operator": null,
      "network": null,
      "ref": null,
      "latitude": 33.8965742,
      "longitude": 135.1568965,
      "countryCode": "jp",
      "rawTags": {
        "KSJ2:RAS": "eb03_617",
        "KSJ2:segment": "eb02_1142",
        "name": "学門",
        "name:en": "Gakumon",
        "name:ja": "学門",
        "name:ja_kana": "がくもん",
        "name:ja_rm": "Gakumon",
        "name:ko": "가쿠몬",
        "note": "National-Land Numerical Information (Railway) 2007, MLIT Japan",
        "note:ja": "国土数値情報（鉄道データ）平成19年　国土交通省",
        "public_transport": "station",
        "railway": "station",
        "source": "KSJ2",
        "source_ref": "http://nlftp.mlit.go.jp/ksj/jpgis/datalist/KsjTmplt-N02-v1_1.html",
        "wikidata": "Q5517707",
        "wikipedia": "ja:学門駅"
      }
    },
    {
      "id": "wakayama_station_8213216125",
      "osmId": 8213216125,
      "osmType": "node",
      "prefectureId": "wakayama",
      "type": "station",
      "subtype": "private",
      "name": "紀伊御坊",
      "nameKana": "きいごぼう",
      "nameEn": "Kii-Gobo",
      "operator": null,
      "network": null,
      "ref": null,
      "latitude": 33.8943607,
      "longitude": 135.1548372,
      "countryCode": "jp",
      "rawTags": {
        "KSJ2:RAS": "eb03_613",
        "KSJ2:segment": "eb02_1148",
        "name": "紀伊御坊",
        "name:en": "Kii-Gobo",
        "name:ja": "紀伊御坊",
        "name:ja_kana": "きいごぼう",
        "name:ja_rm": "Kii-Gobō",
        "name:ko": "기이고보",
        "note": "National-Land Numerical Information (Railway) 2007, MLIT Japan",
        "note:ja": "国土数値情報（鉄道データ）平成19年　国土交通省",
        "public_transport": "station",
        "railway": "station",
        "source": "KSJ2",
        "source_ref": "http://nlftp.mlit.go.jp/ksj/jpgis/datalist/KsjTmplt-N02-v1_1.html",
        "wikidata": "Q6406042",
        "wikipedia": "ja:紀伊御坊駅"
      }
    },
    {
      "id": "wakayama_station_8213216126",
      "osmId": 8213216126,
      "osmType": "node",
      "prefectureId": "wakayama",
      "type": "station",
      "subtype": "private",
      "name": "市役所前",
      "nameKana": "しやくしょまえ",
      "nameEn": "Shiyakusho-mae",
      "operator": null,
      "network": null,
      "ref": null,
      "latitude": 33.8900134,
      "longitude": 135.1530287,
      "countryCode": "jp",
      "rawTags": {
        "KSJ2:RAS": "eb03_615",
        "KSJ2:segment": "eb02_1146",
        "alt_name:ko": "시야쿠쇼마에",
        "name": "市役所前",
        "name:en": "Shiyakusho-mae",
        "name:ja": "市役所前",
        "name:ja_kana": "しやくしょまえ",
        "name:ja_rm": "Shiyakusho-mae",
        "name:ko": "시청앞",
        "note": "National-Land Numerical Information (Railway) 2007, MLIT Japan",
        "note:ja": "国土数値情報（鉄道データ）平成19年　国土交通省",
        "public_transport": "station",
        "railway": "station",
        "source": "KSJ2",
        "source_ref": "http://nlftp.mlit.go.jp/ksj/jpgis/datalist/KsjTmplt-N02-v1_1.html",
        "wikidata": "Q7499452",
        "wikipedia": "ja:市役所前駅 (和歌山県)"
      }
    },
    {
      "id": "wakayama_station_9089458062",
      "osmId": 9089458062,
      "osmType": "node",
      "prefectureId": "wakayama",
      "type": "station",
      "subtype": "private",
      "name": "藤並",
      "nameKana": null,
      "nameEn": "Fujinami",
      "operator": null,
      "network": null,
      "ref": null,
      "latitude": 34.05718,
      "longitude": 135.1966032,
      "countryCode": "jp",
      "rawTags": {
        "KSJ2:LIN": "紀勢線",
        "KSJ2:STN": "藤並",
        "name": "藤並",
        "name:en": "Fujinami",
        "name:ja": "藤並",
        "name:ko": "후지나미",
        "railway": "station",
        "wikidata": "Q3324528",
        "wikipedia": "ja:藤並駅"
      }
    },
    {
      "id": "wakayama_station_9676586441",
      "osmId": 9676586441,
      "osmType": "node",
      "prefectureId": "wakayama",
      "type": "station",
      "subtype": "private",
      "name": "下里",
      "nameKana": "しもさと",
      "nameEn": "Shimosato",
      "operator": null,
      "network": null,
      "ref": null,
      "latitude": 33.5823961,
      "longitude": 135.9223635,
      "countryCode": "jp",
      "rawTags": {
        "KSJ2:LIN": "紀勢線",
        "KSJ2:STN": "下里",
        "name": "下里",
        "name:en": "Shimosato",
        "name:ja": "下里",
        "name:ja_kana": "しもさと",
        "name:ja_rm": "Shimosato",
        "name:ko": "시모사토",
        "note": "National-Land Numerical Information (Railway) 2007, MLIT Japan",
        "note:ja": "国土数値情報（鉄道データ）平成19年　国土交通省",
        "public_transport": "station",
        "railway": "station",
        "source": "KSJ2",
        "source_ref": "http://nlftp.mlit.go.jp/ksj/jpgis/datalist/KsjTmplt-N02-v1_1.html",
        "wikidata": "Q281227",
        "wikipedia": "ja:下里駅"
      }
    },
    {
      "id": "wakayama_station_9677252168",
      "osmId": 9677252168,
      "osmType": "node",
      "prefectureId": "wakayama",
      "type": "station",
      "subtype": "private",
      "name": "太地",
      "nameKana": "たいじ",
      "nameEn": "Taiji",
      "operator": null,
      "network": null,
      "ref": null,
      "latitude": 33.5909463,
      "longitude": 135.9274862,
      "countryCode": "jp",
      "rawTags": {
        "KSJ2:LIN": "紀勢線",
        "KSJ2:STN": "太地",
        "name": "太地",
        "name:en": "Taiji",
        "name:ja": "太地",
        "name:ja_kana": "たいじ",
        "name:ja_rm": "Taiji",
        "name:ko": "다이지",
        "note": "National-Land Numerical Information (Railway) 2007, MLIT Japan",
        "note:ja": "国土数値情報（鉄道データ）平成19年　国土交通省",
        "public_transport": "station",
        "railway": "station",
        "source": "KSJ2",
        "source_ref": "http://nlftp.mlit.go.jp/ksj/jpgis/datalist/KsjTmplt-N02-v1_1.html",
        "wikidata": "Q2650271",
        "wikipedia": "ja:太地駅"
      }
    },
    {
      "id": "wakayama_station_9678979777",
      "osmId": 9678979777,
      "osmType": "node",
      "prefectureId": "wakayama",
      "type": "station",
      "subtype": "private",
      "name": "湯川",
      "nameKana": "ゆかわ",
      "nameEn": "Yukawa",
      "operator": null,
      "network": null,
      "ref": null,
      "latitude": 33.6094766,
      "longitude": 135.9248818,
      "countryCode": "jp",
      "rawTags": {
        "KSJ2:LIN": "紀勢線",
        "KSJ2:STN": "湯川",
        "name": "湯川",
        "name:en": "Yukawa",
        "name:ja": "湯川",
        "name:ja_kana": "ゆかわ",
        "name:ja_rm": "Yukawa",
        "name:ko": "유카와",
        "note": "National-Land Numerical Information (Railway) 2007, MLIT Japan",
        "note:ja": "国土数値情報（鉄道データ）平成19年　国土交通省",
        "public_transport": "station",
        "railway": "station",
        "source": "KSJ2",
        "source_ref": "http://nlftp.mlit.go.jp/ksj/jpgis/datalist/KsjTmplt-N02-v1_1.html",
        "wikidata": "Q2650317",
        "wikipedia": "ja:湯川駅"
      }
    },
    {
      "id": "wakayama_station_9678998637",
      "osmId": 9678998637,
      "osmType": "node",
      "prefectureId": "wakayama",
      "type": "station",
      "subtype": "private",
      "name": "紀伊勝浦",
      "nameKana": "きいかつうら",
      "nameEn": "Kii-Katsuura",
      "operator": null,
      "network": null,
      "ref": null,
      "latitude": 33.628068,
      "longitude": 135.9415587,
      "countryCode": "jp",
      "rawTags": {
        "KSJ2:LIN": "紀勢線",
        "KSJ2:STN": "紀伊勝浦",
        "name": "紀伊勝浦",
        "name:en": "Kii-Katsuura",
        "name:ja": "紀伊勝浦",
        "name:ja_kana": "きいかつうら",
        "name:ja_rm": "Kii-Katsuura",
        "name:ko": "기이카쓰우라",
        "note": "National-Land Numerical Information (Railway) 2007, MLIT Japan",
        "note:ja": "国土数値情報（鉄道データ）平成19年　国土交通省",
        "public_transport": "station",
        "railway": "station",
        "source": "KSJ2",
        "source_ref": "http://nlftp.mlit.go.jp/ksj/jpgis/datalist/KsjTmplt-N02-v1_1.html",
        "wikidata": "Q2584999",
        "wikipedia": "ja:紀伊勝浦駅"
      }
    },
    {
      "id": "wakayama_station_9678998668",
      "osmId": 9678998668,
      "osmType": "node",
      "prefectureId": "wakayama",
      "type": "station",
      "subtype": "jr",
      "name": "那智",
      "nameKana": "なち",
      "nameEn": "Nachi",
      "operator": "西日本旅客鉄道",
      "network": null,
      "ref": null,
      "latitude": 33.6440079,
      "longitude": 135.9365521,
      "countryCode": "jp",
      "rawTags": {
        "name": "那智",
        "name:en": "Nachi",
        "name:es": "Nachi",
        "name:ja": "那智",
        "name:ja-Hira": "なち",
        "name:ko": "나치",
        "operator": "西日本旅客鉄道",
        "platforms": "2",
        "public_transport": "station",
        "railway": "station",
        "source": "bing",
        "wikidata": "Q2584944",
        "wikipedia": "ja:那智駅"
      }
    },
    {
      "id": "wakayama_station_9680123127",
      "osmId": 9680123127,
      "osmType": "node",
      "prefectureId": "wakayama",
      "type": "station",
      "subtype": "private",
      "name": "紀伊田原",
      "nameKana": "きいたはら",
      "nameEn": "Kii-Tahara",
      "operator": null,
      "network": null,
      "ref": null,
      "latitude": 33.5365012,
      "longitude": 135.8682853,
      "countryCode": "jp",
      "rawTags": {
        "KSJ2:LIN": "紀勢線",
        "KSJ2:STN": "紀伊田原",
        "name": "紀伊田原",
        "name:en": "Kii-Tahara",
        "name:ja": "紀伊田原",
        "name:ja_kana": "きいたはら",
        "name:ja_rm": "Kii-Tahara",
        "name:ko": "기이타하라",
        "note": "National-Land Numerical Information (Railway) 2007, MLIT Japan",
        "note:ja": "国土数値情報（鉄道データ）平成19年　国土交通省",
        "public_transport": "station",
        "railway": "station",
        "source": "KSJ2",
        "source_ref": "http://nlftp.mlit.go.jp/ksj/jpgis/datalist/KsjTmplt-N02-v1_1.html",
        "wikidata": "Q2682080",
        "wikipedia": "ja:紀伊田原駅"
      }
    },
    {
      "id": "wakayama_station_9680123204",
      "osmId": 9680123204,
      "osmType": "node",
      "prefectureId": "wakayama",
      "type": "station",
      "subtype": "private",
      "name": "古座",
      "nameKana": "こざ",
      "nameEn": "Koza",
      "operator": null,
      "network": null,
      "ref": null,
      "latitude": 33.5193114,
      "longitude": 135.820911,
      "countryCode": "jp",
      "rawTags": {
        "KSJ2:LIN": "紀勢線",
        "KSJ2:STN": "古座",
        "name": "古座",
        "name:en": "Koza",
        "name:ja": "古座",
        "name:ja_kana": "こざ",
        "name:ja_rm": "Koza",
        "name:ko": "고자",
        "note": "National-Land Numerical Information (Railway) 2007, MLIT Japan",
        "note:ja": "国土数値情報（鉄道データ）平成19年　国土交通省",
        "public_transport": "station",
        "railway": "station",
        "source": "KSJ2",
        "source_ref": "http://nlftp.mlit.go.jp/ksj/jpgis/datalist/KsjTmplt-N02-v1_1.html",
        "wikidata": "Q2681936",
        "wikipedia": "ja:古座駅"
      }
    },
    {
      "id": "wakayama_station_9855329052",
      "osmId": 9855329052,
      "osmType": "node",
      "prefectureId": "wakayama",
      "type": "station",
      "subtype": "private",
      "name": "紀伊有田",
      "nameKana": "きいありた",
      "nameEn": "Kii-Arita",
      "operator": null,
      "network": null,
      "ref": null,
      "latitude": 33.4908417,
      "longitude": 135.7357177,
      "countryCode": "jp",
      "rawTags": {
        "KSJ2:LIN": "紀勢線",
        "KSJ2:STN": "紀伊有田",
        "name": "紀伊有田",
        "name:en": "Kii-Arita",
        "name:ja": "紀伊有田",
        "name:ja_kana": "きいありた",
        "name:ja_rm": "Kii-Arita",
        "name:ko": "기이아리타",
        "note": "National-Land Numerical Information (Railway) 2007, MLIT Japan",
        "note:ja": "国土数値情報（鉄道データ）平成19年　国土交通省",
        "public_transport": "station",
        "railway": "station",
        "source": "KSJ2",
        "source_ref": "http://nlftp.mlit.go.jp/ksj/jpgis/datalist/KsjTmplt-N02-v1_1.html",
        "wikidata": "Q2748613",
        "wikipedia": "ja:紀伊有田駅"
      }
    },
    {
      "id": "wakayama_station_9941280727",
      "osmId": 9941280727,
      "osmType": "node",
      "prefectureId": "wakayama",
      "type": "station",
      "subtype": "private",
      "name": "紀三井寺ケーブル山麓",
      "nameKana": null,
      "nameEn": null,
      "operator": null,
      "network": null,
      "ref": null,
      "latitude": 34.184283,
      "longitude": 135.1889142,
      "countryCode": "jp",
      "rawTags": {
        "funicular": "yes",
        "name": "紀三井寺ケーブル山麓",
        "public_transport": "station",
        "railway": "station"
      }
    },
    {
      "id": "wakayama_station_11851380803",
      "osmId": 11851380803,
      "osmType": "node",
      "prefectureId": "wakayama",
      "type": "station",
      "subtype": "private",
      "name": "貴志",
      "nameKana": null,
      "nameEn": "Kishi",
      "operator": null,
      "network": null,
      "ref": "14",
      "latitude": 34.2093678,
      "longitude": 135.3120093,
      "countryCode": "jp",
      "rawTags": {
        "name": "貴志",
        "name:en": "Kishi",
        "name:ja": "貴志",
        "name:ko": "기시",
        "public_transport": "station",
        "railway": "station",
        "ref": "14",
        "wikidata": "Q11634778",
        "wikipedia": "ja:貴志駅"
      }
    },
    {
      "id": "wakayama_station_11851380804",
      "osmId": 11851380804,
      "osmType": "node",
      "prefectureId": "wakayama",
      "type": "station",
      "subtype": "private",
      "name": "甘露寺前",
      "nameKana": null,
      "nameEn": "Kanroji-mae",
      "operator": null,
      "network": null,
      "ref": "13",
      "latitude": 34.2133432,
      "longitude": 135.3014595,
      "countryCode": "jp",
      "rawTags": {
        "name": "甘露寺前",
        "name:en": "Kanroji-mae",
        "name:ja": "甘露寺前",
        "name:ko": "간로지앞",
        "public_transport": "station",
        "railway": "station",
        "ref": "13",
        "wikidata": "Q11574308",
        "wikipedia": "ja:甘露寺前駅"
      }
    },
    {
      "id": "wakayama_station_11851380812",
      "osmId": 11851380812,
      "osmType": "node",
      "prefectureId": "wakayama",
      "type": "station",
      "subtype": "private",
      "name": "西山口",
      "nameKana": null,
      "nameEn": "Nishi-Yamaguchi",
      "operator": null,
      "network": null,
      "ref": "12",
      "latitude": 34.209767,
      "longitude": 135.2912577,
      "countryCode": "jp",
      "rawTags": {
        "name": "西山口",
        "name:en": "Nishi-Yamaguchi",
        "name:ja": "西山口",
        "name:ko": "니시야마구치",
        "public_transport": "station",
        "railway": "station",
        "ref": "12",
        "wikidata": "Q11627816",
        "wikipedia": "ja:西山口駅"
      }
    },
    {
      "id": "wakayama_station_11851380818",
      "osmId": 11851380818,
      "osmType": "node",
      "prefectureId": "wakayama",
      "type": "station",
      "subtype": "private",
      "name": "大池遊園",
      "nameKana": null,
      "nameEn": "Ōike-Yūen",
      "operator": null,
      "network": null,
      "ref": "11",
      "latitude": 34.2047433,
      "longitude": 135.2855808,
      "countryCode": "jp",
      "rawTags": {
        "name": "大池遊園",
        "name:en": "Ōike-Yūen",
        "name:ja": "大池遊園",
        "name:ko": "오이케유원",
        "public_transport": "station",
        "railway": "station",
        "ref": "11",
        "wikidata": "Q11436914",
        "wikipedia": "ja:大池遊園駅"
      }
    },
    {
      "id": "wakayama_station_11851380833",
      "osmId": 11851380833,
      "osmType": "node",
      "prefectureId": "wakayama",
      "type": "station",
      "subtype": "private",
      "name": "山東",
      "nameKana": null,
      "nameEn": "Sandō",
      "operator": null,
      "network": null,
      "ref": "10",
      "latitude": 34.2058375,
      "longitude": 135.2625118,
      "countryCode": "jp",
      "rawTags": {
        "name": "山東",
        "name:en": "Sandō",
        "name:ja": "山東",
        "name:ko": "산도",
        "public_transport": "station",
        "railway": "station",
        "ref": "10",
        "wikidata": "Q11469515",
        "wikipedia": "ja:山東駅"
      }
    },
    {
      "id": "wakayama_station_11851380839",
      "osmId": 11851380839,
      "osmType": "node",
      "prefectureId": "wakayama",
      "type": "station",
      "subtype": "private",
      "name": "吉礼",
      "nameKana": null,
      "nameEn": "Kire",
      "operator": null,
      "network": null,
      "ref": "08",
      "latitude": 34.203393,
      "longitude": 135.2361269,
      "countryCode": "jp",
      "rawTags": {
        "name": "吉礼",
        "name:en": "Kire",
        "name:ja": "吉礼",
        "name:ko": "기레",
        "public_transport": "station",
        "railway": "station",
        "ref": "08",
        "wikidata": "Q11414176",
        "wikipedia": "ja:吉礼駅"
      }
    },
    {
      "id": "wakayama_station_11851380852",
      "osmId": 11851380852,
      "osmType": "node",
      "prefectureId": "wakayama",
      "type": "station",
      "subtype": "private",
      "name": "岡崎前",
      "nameKana": null,
      "nameEn": "Okazaki-mae",
      "operator": null,
      "network": null,
      "ref": "07",
      "latitude": 34.2034606,
      "longitude": 135.2249958,
      "countryCode": "jp",
      "rawTags": {
        "name": "岡崎前",
        "name:en": "Okazaki-mae",
        "name:ja": "岡崎前",
        "name:ko": "오카자키마에",
        "public_transport": "station",
        "railway": "station",
        "ref": "07",
        "wikidata": "Q11472822",
        "wikipedia": "ja:岡崎前駅"
      }
    },
    {
      "id": "wakayama_station_11851380862",
      "osmId": 11851380862,
      "osmType": "node",
      "prefectureId": "wakayama",
      "type": "station",
      "subtype": "private",
      "name": "交通センター前",
      "nameKana": null,
      "nameEn": "Kōtsū-Center-mae",
      "operator": null,
      "network": null,
      "ref": "06",
      "latitude": 34.2038239,
      "longitude": 135.2181729,
      "countryCode": "jp",
      "rawTags": {
        "name": "交通センター前",
        "name:en": "Kōtsū-Center-mae",
        "name:ja": "交通センター前",
        "name:ko": "교통센터앞",
        "public_transport": "station",
        "railway": "station",
        "ref": "06",
        "wikidata": "Q11373972",
        "wikipedia": "ja:交通センター前駅"
      }
    },
    {
      "id": "wakayama_station_11851380867",
      "osmId": 11851380867,
      "osmType": "node",
      "prefectureId": "wakayama",
      "type": "station",
      "subtype": "private",
      "name": "竈山",
      "nameKana": null,
      "nameEn": "Kamayama",
      "operator": null,
      "network": null,
      "ref": "05",
      "latitude": 34.2072439,
      "longitude": 135.2072214,
      "countryCode": "jp",
      "rawTags": {
        "name": "竈山",
        "name:en": "Kamayama",
        "name:ja": "竈山",
        "name:ko": "가마야마",
        "public_transport": "station",
        "railway": "station",
        "ref": "05",
        "wikidata": "Q11597742",
        "wikipedia": "ja:竈山駅"
      }
    },
    {
      "id": "wakayama_station_11851380868",
      "osmId": 11851380868,
      "osmType": "node",
      "prefectureId": "wakayama",
      "type": "station",
      "subtype": "private",
      "name": "神前",
      "nameKana": null,
      "nameEn": "Kōzaki",
      "operator": null,
      "network": null,
      "ref": "04",
      "latitude": 34.2131524,
      "longitude": 135.2051635,
      "countryCode": "jp",
      "rawTags": {
        "name": "神前",
        "name:en": "Kōzaki",
        "name:ja": "神前",
        "name:ko": "고자키",
        "public_transport": "station",
        "railway": "station",
        "ref": "04",
        "wikidata": "Q11588776",
        "wikipedia": "ja:神前駅 (和歌山県)"
      }
    },
    {
      "id": "wakayama_station_11851400973",
      "osmId": 11851400973,
      "osmType": "node",
      "prefectureId": "wakayama",
      "type": "station",
      "subtype": "private",
      "name": "日前宮",
      "nameKana": null,
      "nameEn": "Nichizengū",
      "operator": null,
      "network": null,
      "ref": "03",
      "latitude": 34.2264669,
      "longitude": 135.2018537,
      "countryCode": "jp",
      "rawTags": {
        "name": "日前宮",
        "name:en": "Nichizengū",
        "name:ja": "日前宮",
        "name:ko": "니치젠구",
        "public_transport": "station",
        "railway": "station",
        "ref": "03",
        "wikidata": "Q11504968",
        "wikipedia": "ja:日前宮駅"
      }
    },
    {
      "id": "wakayama_station_11851400981",
      "osmId": 11851400981,
      "osmType": "node",
      "prefectureId": "wakayama",
      "type": "station",
      "subtype": "private",
      "name": "田中口",
      "nameKana": null,
      "nameEn": "Tanakaguchi",
      "operator": null,
      "network": null,
      "ref": "02",
      "latitude": 34.2270169,
      "longitude": 135.1931338,
      "countryCode": "jp",
      "rawTags": {
        "name": "田中口",
        "name:en": "Tanakaguchi",
        "name:ja": "田中口",
        "name:ko": "다나카구치",
        "public_transport": "station",
        "railway": "station",
        "ref": "02",
        "wikidata": "Q11575385",
        "wikipedia": "ja:田中口駅"
      }
    },
    {
      "id": "wakayama_station_11860393925",
      "osmId": 11860393925,
      "osmType": "node",
      "prefectureId": "wakayama",
      "type": "station",
      "subtype": "private",
      "name": "紀和",
      "nameKana": "きわ",
      "nameEn": "Kiwa",
      "operator": null,
      "network": null,
      "ref": null,
      "latitude": 34.2420205,
      "longitude": 135.1806736,
      "countryCode": "jp",
      "rawTags": {
        "name": "紀和",
        "name:en": "Kiwa",
        "name:ja": "紀和",
        "name:ja-Hira": "きわ",
        "name:ko": "기와",
        "public_transport": "station",
        "railway": "station",
        "wikidata": "Q3527469",
        "wikipedia": "ja:紀和駅"
      }
    },
    {
      "id": "wakayama_ferry_terminal_12039419288",
      "osmId": 12039419288,
      "osmType": "node",
      "prefectureId": "wakayama",
      "type": "ferry_terminal",
      "subtype": null,
      "name": "和歌山港",
      "nameKana": null,
      "nameEn": "Wakayama Port",
      "operator": null,
      "network": null,
      "ref": null,
      "latitude": 34.2175246,
      "longitude": 135.1438495,
      "countryCode": "jp",
      "rawTags": {
        "amenity": "ferry_terminal",
        "cargo": "passengers",
        "ferry": "yes",
        "name": "和歌山港",
        "name:en": "Wakayama Port",
        "name:ja": "和歌山港",
        "name:ja-Latn": "Wakayamako",
        "public_transport": "stop_position"
      }
    },
    {
      "id": "wakayama_station_12860675055",
      "osmId": 12860675055,
      "osmType": "node",
      "prefectureId": "wakayama",
      "type": "station",
      "subtype": "private",
      "name": "打田",
      "nameKana": null,
      "nameEn": "Uchita",
      "operator": null,
      "network": null,
      "ref": null,
      "latitude": 34.2652479,
      "longitude": 135.3642467,
      "countryCode": "jp",
      "rawTags": {
        "KSJ2:LIN": "和歌山線",
        "KSJ2:STN": "打田",
        "name": "打田",
        "name:en": "Uchita",
        "name:ja": "打田",
        "name:ko": "우치타",
        "note": "National-Land Numerical Information (Railway) 2007, MLIT Japan",
        "note:ja": "国土数値情報（鉄道データ）平成19年 国土交通省",
        "public_transport": "station",
        "railway": "station",
        "source": "KSJ2",
        "source_ref": "http://nlftp.mlit.go.jp/ksj/jpgis/datalist/KsjTmplt-N02-v1_1.html",
        "wikidata": "Q3193482",
        "wikipedia": "ja:打田駅"
      }
    },
    {
      "id": "wakayama_station_12860703876",
      "osmId": 12860703876,
      "osmType": "node",
      "prefectureId": "wakayama",
      "type": "station",
      "subtype": "private",
      "name": "下井阪",
      "nameKana": null,
      "nameEn": "Shimoisaka",
      "operator": null,
      "network": null,
      "ref": null,
      "latitude": 34.2620536,
      "longitude": 135.340544,
      "countryCode": "jp",
      "rawTags": {
        "KSJ2:LIN": "和歌山線",
        "KSJ2:STN": "下井阪",
        "name": "下井阪",
        "name:en": "Shimoisaka",
        "name:ja": "下井阪",
        "name:ko": "시모이사카",
        "note": "National-Land Numerical Information (Railway) 2007, MLIT Japan",
        "note:ja": "国土数値情報（鉄道データ）平成19年 国土交通省",
        "public_transport": "station",
        "railway": "station",
        "source": "KSJ2",
        "source_ref": "http://nlftp.mlit.go.jp/ksj/jpgis/datalist/KsjTmplt-N02-v1_1.html",
        "wikidata": "Q3079175",
        "wikipedia": "ja:下井阪駅"
      }
    },
    {
      "id": "wakayama_station_12860724620",
      "osmId": 12860724620,
      "osmType": "node",
      "prefectureId": "wakayama",
      "type": "station",
      "subtype": "private",
      "name": "紀伊長田",
      "nameKana": null,
      "nameEn": "Kii-Nagata",
      "operator": null,
      "network": null,
      "ref": null,
      "latitude": 34.2682293,
      "longitude": 135.3912163,
      "countryCode": "jp",
      "rawTags": {
        "KSJ2:LIN": "和歌山線",
        "KSJ2:STN": "紀伊長田",
        "name": "紀伊長田",
        "name:en": "Kii-Nagata",
        "name:ja": "紀伊長田",
        "name:ko": "기이나가타",
        "note": "National-Land Numerical Information (Railway) 2007, MLIT Japan",
        "note:ja": "国土数値情報（鉄道データ）平成19年 国土交通省",
        "public_transport": "station",
        "railway": "station",
        "source": "KSJ2",
        "source_ref": "http://nlftp.mlit.go.jp/ksj/jpgis/datalist/KsjTmplt-N02-v1_1.html",
        "train": "yes",
        "wikidata": "Q3176389",
        "wikipedia": "ja:紀伊長田駅"
      }
    },
    {
      "id": "wakayama_station_12860725020",
      "osmId": 12860725020,
      "osmType": "node",
      "prefectureId": "wakayama",
      "type": "station",
      "subtype": "private",
      "name": "岩出",
      "nameKana": null,
      "nameEn": "Iwade",
      "operator": null,
      "network": null,
      "ref": null,
      "latitude": 34.2548621,
      "longitude": 135.321047,
      "countryCode": "jp",
      "rawTags": {
        "KSJ2:LIN": "和歌山線",
        "KSJ2:STN": "岩出",
        "name": "岩出",
        "name:en": "Iwade",
        "name:ja": "岩出",
        "name:ko": "이와데",
        "note": "National-Land Numerical Information (Railway) 2007, MLIT Japan",
        "note:ja": "国土数値情報（鉄道データ）平成19年 国土交通省",
        "public_transport": "station",
        "railway": "station",
        "source": "KSJ2",
        "source_ref": "http://nlftp.mlit.go.jp/ksj/jpgis/datalist/KsjTmplt-N02-v1_1.html",
        "wikidata": "Q2681167",
        "wikipedia": "ja:岩出駅"
      }
    },
    {
      "id": "wakayama_station_12860748975",
      "osmId": 12860748975,
      "osmType": "node",
      "prefectureId": "wakayama",
      "type": "station",
      "subtype": "private",
      "name": "紀伊小倉",
      "nameKana": null,
      "nameEn": "Kii-Ogura",
      "operator": null,
      "network": null,
      "ref": null,
      "latitude": 34.2463585,
      "longitude": 135.2875556,
      "countryCode": "jp",
      "rawTags": {
        "KSJ2:LIN": "和歌山線",
        "KSJ2:STN": "紀伊小倉",
        "name": "紀伊小倉",
        "name:en": "Kii-Ogura",
        "name:ja": "紀伊小倉",
        "name:ko": "기이오구라",
        "note": "National-Land Numerical Information (Railway) 2007, MLIT Japan",
        "note:ja": "国土数値情報（鉄道データ）平成19年 国土交通省",
        "public_transport": "station",
        "railway": "station",
        "source": "KSJ2",
        "source_ref": "http://nlftp.mlit.go.jp/ksj/jpgis/datalist/KsjTmplt-N02-v1_1.html",
        "wikidata": "Q2646881",
        "wikipedia": "ja:紀伊小倉駅"
      }
    },
    {
      "id": "wakayama_station_12860777690",
      "osmId": 12860777690,
      "osmType": "node",
      "prefectureId": "wakayama",
      "type": "station",
      "subtype": "private",
      "name": "船戸",
      "nameKana": null,
      "nameEn": "Funato",
      "operator": null,
      "network": null,
      "ref": null,
      "latitude": 34.2483606,
      "longitude": 135.3112476,
      "countryCode": "jp",
      "rawTags": {
        "KSJ2:LIN": "和歌山線",
        "KSJ2:STN": "船戸",
        "name": "船戸",
        "name:en": "Funato",
        "name:ja": "船戸",
        "name:ko": "후나토",
        "note": "National-Land Numerical Information (Railway) 2007, MLIT Japan",
        "note:ja": "国土数値情報（鉄道データ）平成19年 国土交通省",
        "public_transport": "station",
        "railway": "station",
        "source": "KSJ2",
        "source_ref": "http://nlftp.mlit.go.jp/ksj/jpgis/datalist/KsjTmplt-N02-v1_1.html",
        "wikidata": "Q2646859",
        "wikipedia": "ja:船戸駅"
      }
    },
    {
      "id": "wakayama_station_12860897181",
      "osmId": 12860897181,
      "osmType": "node",
      "prefectureId": "wakayama",
      "type": "station",
      "subtype": "private",
      "name": "布施屋",
      "nameKana": null,
      "nameEn": "Hoshiya",
      "operator": null,
      "network": null,
      "ref": null,
      "latitude": 34.2445437,
      "longitude": 135.261966,
      "countryCode": "jp",
      "rawTags": {
        "KSJ2:LIN": "和歌山線",
        "KSJ2:STN": "布施屋",
        "name": "布施屋",
        "name:en": "Hoshiya",
        "name:ja": "布施屋",
        "name:ko": "호시야",
        "note": "National-Land Numerical Information (Railway) 2007, MLIT Japan",
        "note:ja": "国土数値情報（鉄道データ）平成19年 国土交通省",
        "public_transport": "station",
        "railway": "station",
        "source": "KSJ2",
        "source_ref": "http://nlftp.mlit.go.jp/ksj/jpgis/datalist/KsjTmplt-N02-v1_1.html",
        "wikidata": "Q2646872",
        "wikipedia": "ja:布施屋駅"
      }
    },
    {
      "id": "wakayama_station_12862466250",
      "osmId": 12862466250,
      "osmType": "node",
      "prefectureId": "wakayama",
      "type": "station",
      "subtype": "private",
      "name": "千旦",
      "nameKana": null,
      "nameEn": "Senda",
      "operator": null,
      "network": null,
      "ref": null,
      "latitude": 34.2417333,
      "longitude": 135.2458929,
      "countryCode": "jp",
      "rawTags": {
        "KSJ2:LIN": "和歌山線",
        "KSJ2:STN": "千旦",
        "name": "千旦",
        "name:en": "Senda",
        "name:ja": "千旦",
        "name:ko": "센다",
        "note": "National-Land Numerical Information (Railway) 2007, MLIT Japan",
        "note:ja": "国土数値情報（鉄道データ）平成19年 国土交通省",
        "railway": "station",
        "source": "KSJ2",
        "source_ref": "http://nlftp.mlit.go.jp/ksj/jpgis/datalist/KsjTmplt-N02-v1_1.html",
        "wikidata": "Q2646894",
        "wikipedia": "ja:千旦駅"
      }
    },
    {
      "id": "wakayama_station_12864364027",
      "osmId": 12864364027,
      "osmType": "node",
      "prefectureId": "wakayama",
      "type": "station",
      "subtype": "private",
      "name": "粉河",
      "nameKana": null,
      "nameEn": "Kokawa",
      "operator": null,
      "network": null,
      "ref": null,
      "latitude": 34.2707839,
      "longitude": 135.4043189,
      "countryCode": "jp",
      "rawTags": {
        "KSJ2:LIN": "和歌山線",
        "KSJ2:STN": "粉河",
        "name": "粉河",
        "name:en": "Kokawa",
        "name:ja": "粉河",
        "name:ko": "고카와",
        "note": "National-Land Numerical Information (Railway) 2007, MLIT Japan",
        "note:ja": "国土数値情報（鉄道データ）平成19年 国土交通省",
        "public_transport": "station",
        "railway": "station",
        "source": "KSJ2",
        "source_ref": "http://nlftp.mlit.go.jp/ksj/jpgis/datalist/KsjTmplt-N02-v1_1.html",
        "train": "yes",
        "wikidata": "Q3467694",
        "wikipedia": "ja:粉河駅"
      }
    },
    {
      "id": "wakayama_station_12864396813",
      "osmId": 12864396813,
      "osmType": "node",
      "prefectureId": "wakayama",
      "type": "station",
      "subtype": "private",
      "name": "名手",
      "nameKana": null,
      "nameEn": "Nate",
      "operator": null,
      "network": null,
      "ref": null,
      "latitude": 34.2730591,
      "longitude": 135.4339063,
      "countryCode": "jp",
      "rawTags": {
        "KSJ2:LIN": "和歌山線",
        "KSJ2:STN": "名手",
        "name": "名手",
        "name:en": "Nate",
        "name:ja": "名手",
        "name:ko": "나테",
        "note": "National-Land Numerical Information (Railway) 2007, MLIT Japan",
        "note:ja": "国土数値情報（鉄道データ）平成19年 国土交通省",
        "public_transport": "station",
        "railway": "station",
        "source": "KSJ2",
        "source_ref": "http://nlftp.mlit.go.jp/ksj/jpgis/datalist/KsjTmplt-N02-v1_1.html",
        "wikidata": "Q3467367",
        "wikipedia": "ja:名手駅"
      }
    },
    {
      "id": "wakayama_station_12866427967",
      "osmId": 12866427967,
      "osmType": "node",
      "prefectureId": "wakayama",
      "type": "station",
      "subtype": "private",
      "name": "西笠田",
      "nameKana": null,
      "nameEn": "Nishi-Kaseda",
      "operator": null,
      "network": null,
      "ref": null,
      "latitude": 34.2801493,
      "longitude": 135.4530593,
      "countryCode": "jp",
      "rawTags": {
        "KSJ2:LIN": "和歌山線",
        "KSJ2:STN": "西笠田",
        "name": "西笠田",
        "name:en": "Nishi-Kaseda",
        "name:ja": "西笠田",
        "name:ko": "니시카세다",
        "note": "National-Land Numerical Information (Railway) 2007, MLIT Japan",
        "note:ja": "国土数値情報（鉄道データ）平成19年 国土交通省",
        "public_transport": "station",
        "railway": "station",
        "source": "KSJ2",
        "source_ref": "http://nlftp.mlit.go.jp/ksj/jpgis/datalist/KsjTmplt-N02-v1_1.html",
        "wikidata": "Q3431859",
        "wikipedia": "ja:西笠田駅"
      }
    },
    {
      "id": "wakayama_station_12866449879",
      "osmId": 12866449879,
      "osmType": "node",
      "prefectureId": "wakayama",
      "type": "station",
      "subtype": "private",
      "name": "笠田",
      "nameKana": null,
      "nameEn": "Kaseda",
      "operator": null,
      "network": null,
      "ref": null,
      "latitude": 34.2922394,
      "longitude": 135.4801851,
      "countryCode": "jp",
      "rawTags": {
        "KSJ2:LIN": "和歌山線",
        "KSJ2:STN": "笠田",
        "name": "笠田",
        "name:en": "Kaseda",
        "name:ja": "笠田",
        "name:ko": "가세다",
        "note": "National-Land Numerical Information (Railway) 2007, MLIT Japan",
        "note:ja": "国土数値情報（鉄道データ）平成19年 国土交通省",
        "public_transport": "station",
        "railway": "station",
        "source": "KSJ2",
        "source_ref": "http://nlftp.mlit.go.jp/ksj/jpgis/datalist/KsjTmplt-N02-v1_1.html",
        "wikidata": "Q3467378",
        "wikipedia": "ja:笠田駅"
      }
    },
    {
      "id": "wakayama_station_12870004147",
      "osmId": 12870004147,
      "osmType": "node",
      "prefectureId": "wakayama",
      "type": "station",
      "subtype": "private",
      "name": "大谷",
      "nameKana": null,
      "nameEn": "Ōtani",
      "operator": null,
      "network": null,
      "ref": null,
      "latitude": 34.2987537,
      "longitude": 135.4942521,
      "countryCode": "jp",
      "rawTags": {
        "KSJ2:LIN": "和歌山線",
        "KSJ2:STN": "大谷",
        "name": "大谷",
        "name:en": "Ōtani",
        "name:ja": "大谷",
        "name:ko": "오타니",
        "note": "National-Land Numerical Information (Railway) 2007, MLIT Japan",
        "note:ja": "国土数値情報（鉄道データ）平成19年　国土交通省",
        "railway": "station",
        "source": "KSJ2",
        "source_ref": "http://nlftp.mlit.go.jp/ksj/jpgis/datalist/KsjTmplt-N02-v1_1.html",
        "wikidata": "Q3467525",
        "wikipedia": "ja:大谷駅 (和歌山県)"
      }
    },
    {
      "id": "wakayama_station_12870016435",
      "osmId": 12870016435,
      "osmType": "node",
      "prefectureId": "wakayama",
      "type": "station",
      "subtype": "private",
      "name": "妙寺",
      "nameKana": null,
      "nameEn": "Myōji",
      "operator": null,
      "network": null,
      "ref": null,
      "latitude": 34.2986145,
      "longitude": 135.5174134,
      "countryCode": "jp",
      "rawTags": {
        "KSJ2:LIN": "和歌山線",
        "KSJ2:STN": "妙寺",
        "name": "妙寺",
        "name:en": "Myōji",
        "name:ja": "妙寺",
        "name:ko": "묘지",
        "note": "National-Land Numerical Information (Railway) 2007, MLIT Japan",
        "note:ja": "国土数値情報（鉄道データ）平成19年　国土交通省",
        "railway": "station",
        "source": "KSJ2",
        "source_ref": "http://nlftp.mlit.go.jp/ksj/jpgis/datalist/KsjTmplt-N02-v1_1.html",
        "wikidata": "Q3467375",
        "wikipedia": "ja:妙寺駅"
      }
    },
    {
      "id": "wakayama_station_12870030851",
      "osmId": 12870030851,
      "osmType": "node",
      "prefectureId": "wakayama",
      "type": "station",
      "subtype": "private",
      "name": "中飯降",
      "nameKana": null,
      "nameEn": "Nakaiburi",
      "operator": null,
      "network": null,
      "ref": null,
      "latitude": 34.3042678,
      "longitude": 135.532081,
      "countryCode": "jp",
      "rawTags": {
        "KSJ2:LIN": "和歌山線",
        "KSJ2:STN": "中飯降",
        "name": "中飯降",
        "name:en": "Nakaiburi",
        "name:ja": "中飯降",
        "name:ko": "나카이부리",
        "note": "National-Land Numerical Information (Railway) 2007, MLIT Japan",
        "note:ja": "国土数値情報（鉄道データ）平成19年　国土交通省",
        "public_transport": "station",
        "railway": "station",
        "source": "KSJ2",
        "source_ref": "http://nlftp.mlit.go.jp/ksj/jpgis/datalist/KsjTmplt-N02-v1_1.html",
        "wikidata": "Q3525399",
        "wikipedia": "ja:中飯降駅"
      }
    },
    {
      "id": "wakayama_station_13123297565",
      "osmId": 13123297565,
      "osmType": "node",
      "prefectureId": "wakayama",
      "type": "station",
      "subtype": "private",
      "name": "伊太祈曽",
      "nameKana": "いだきそ",
      "nameEn": "Idakiso",
      "operator": null,
      "network": null,
      "ref": "09",
      "latitude": 34.2042098,
      "longitude": 135.2513407,
      "countryCode": "jp",
      "rawTags": {
        "KSJ2:LIN": "貴志川線",
        "KSJ2:STN": "伊太祈曽《駅名》",
        "local_ref": "1",
        "name": "伊太祈曽",
        "name:en": "Idakiso",
        "name:ja": "伊太祈曽",
        "name:ja-Hira": "いだきそ",
        "name:ko": "이다키소",
        "note": "National-Land Numerical Information (Railway) 2007, MLIT Japan",
        "note:ja": "国土数値情報（鉄道データ）平成19年 国土交通省",
        "public_transport": "station",
        "railway": "station",
        "ref": "09",
        "source": "KSJ2",
        "source_ref": "http://nlftp.mlit.go.jp/ksj/jpgis/datalist/KsjTmplt-N02-v1_1.html",
        "train": "yes",
        "wikidata": "Q11379273",
        "wikipedia": "ja:伊太祈曽駅"
      }
    },
    {
      "id": "wakayama_airport_57009588",
      "osmId": 57009588,
      "osmType": "way",
      "prefectureId": "wakayama",
      "type": "airport",
      "subtype": "domestic",
      "name": "南紀白浜空港",
      "nameKana": "南紀伊白浜空港",
      "nameEn": "Nanki-Shirahama Airport",
      "operator": "和歌山県",
      "network": null,
      "ref": "SHM",
      "latitude": 33.6624235,
      "longitude": 135.3648751,
      "countryCode": "jp",
      "rawTags": {
        "KSJ2:AAC": "30401",
        "KSJ2:AAC_label": "和歌山県西牟婁郡白浜町",
        "KSJ2:AD2": "5",
        "KSJ2:AD2_label": "都道府県",
        "KSJ2:ARP": "33.6622222222 135.3644444444",
        "KSJ2:ATB": "33.6622500000 135.3605833000",
        "KSJ2:CLT": "20 00",
        "KSJ2:COA": "空港整備法に基づく第三種空港",
        "KSJ2:CompositeCurve": "cv65Airport",
        "KSJ2:DSA": "特定飛行場以外",
        "KSJ2:INP": "5",
        "KSJ2:INP_label": "都道府県",
        "KSJ2:IUC": "供用中",
        "KSJ2:NA3": "南紀白浜空港",
        "KSJ2:OPT": "08 30",
        "KSJ2:REF": "1",
        "KSJ2:REF_label": "ジェット定期便が就航している場合",
        "KSJ2:airport_id": "cf02_35",
        "KSJ2:runways": "2000 45",
        "aerodrome:type": "public",
        "aeroway": "aerodrome",
        "closest_town": "Shirahama",
        "ele": "91",
        "iata": "SHM",
        "icao": "RJBD",
        "layer": "1",
        "name": "南紀白浜空港",
        "name:en": "Nanki-Shirahama Airport",
        "name:ja": "南紀白浜空港",
        "name:ja_kana": "南紀伊白浜空港",
        "name:ja_rm": "Nanki-Shirahama-Kūkō",
        "name:ko": "난키시라하마공항",
        "note": "National-Land Numerical Information (Airport) 2007, MLIT Japan",
        "note:ja": "国土数値情報（空港データ）平成19年　国土交通省",
        "operator": "和歌山県",
        "operator:en": "Wakayama Prefecture",
        "operator:ja": "和歌山県",
        "source": "KSJ2;wikipedia",
        "source_ref": "http://nlftp.mlit.go.jp/ksj/jpgis/datalist/KsjTmplt-C28-v1_1.html",
        "wikidata": "Q1064050",
        "wikipedia": "ja:南紀伊白浜空港",
        "wikipedia:en": "Nanki-Shirahama_Airport"
      }
    },
    {
      "id": "wakayama_ferry_terminal_597359284",
      "osmId": 597359284,
      "osmType": "way",
      "prefectureId": "wakayama",
      "type": "ferry_terminal",
      "subtype": null,
      "name": "和歌山港のりば",
      "nameKana": null,
      "nameEn": "Wakayama Port Terminal",
      "operator": "南海フェリー",
      "network": null,
      "ref": null,
      "latitude": 34.2174857,
      "longitude": 135.1460817,
      "countryCode": "jp",
      "rawTags": {
        "amenity": "ferry_terminal",
        "building": "transportation",
        "contact:website": "https://nankai-ferry.co.jp/wakayama/",
        "ferry": "yes",
        "name": "和歌山港のりば",
        "name:en": "Wakayama Port Terminal",
        "name:ja": "和歌山港のりば",
        "operator": "南海フェリー",
        "operator:en": "Nankai Ferry",
        "public_transport": "station"
      }
    },
    {
      "id": "wakayama_bus_terminal_734431084",
      "osmId": 734431084,
      "osmType": "way",
      "prefectureId": "wakayama",
      "type": "bus_terminal",
      "subtype": null,
      "name": "和歌山バス那賀株式会社 本社",
      "nameKana": null,
      "nameEn": null,
      "operator": "和歌山バス那賀株式会社",
      "network": null,
      "ref": null,
      "latitude": 34.2719628,
      "longitude": 135.4279998,
      "countryCode": "jp",
      "rawTags": {
        "amenity": "bus_station",
        "bus": "yes",
        "name": "和歌山バス那賀株式会社 本社",
        "operator": "和歌山バス那賀株式会社",
        "public_transport": "station",
        "website": "https://www.wakayamabus.co.jp/"
      }
    },
    {
      "id": "wakayama_station_1075242356",
      "osmId": 1075242356,
      "osmType": "way",
      "prefectureId": "wakayama",
      "type": "station",
      "subtype": "private",
      "name": "紀三井寺ケーブル山上駅",
      "nameKana": "きみいでら ケーブル やまのうええき",
      "nameEn": null,
      "operator": null,
      "network": null,
      "ref": null,
      "latitude": 34.1839298,
      "longitude": 135.1897431,
      "countryCode": "jp",
      "rawTags": {
        "building": "transportation",
        "funicular": "yes",
        "monorail": "yes",
        "name": "紀三井寺ケーブル山上駅",
        "name:fr": "Gare amont du téléphérique du temple Kimii",
        "name:ja-Hira": "きみいでら ケーブル やまのうええき",
        "name:ja-Latn": "Kimii-dera kēburu yamagami-eki",
        "public_transport": "station",
        "railway": "station"
      }
    },
    {
      "id": "wakayama_station_1103853224",
      "osmId": 1103853224,
      "osmType": "way",
      "prefectureId": "wakayama",
      "type": "station",
      "subtype": "private",
      "name": "紀伊新庄駅",
      "nameKana": null,
      "nameEn": "Kii-Shinjō Station",
      "operator": null,
      "network": null,
      "ref": null,
      "latitude": 33.7210674,
      "longitude": 135.4020759,
      "countryCode": "jp",
      "rawTags": {
        "addr:block_number": "472-2",
        "addr:city": "田辺市",
        "addr:postcode": "646-0011",
        "addr:province": "和歌山県",
        "addr:quarter": "新庄町",
        "building": "train_station",
        "name": "紀伊新庄駅",
        "name:en": "Kii-Shinjō Station",
        "public_transport": "station",
        "railway": "station",
        "train": "yes",
        "wikipedia": "ja:紀伊新庄駅"
      }
    }
  ]
}