{
  "fetchedAt": "2025-12-12T05:21:20.518Z",
  "prefectureId": "yamagata",
  "prefectureName": "山形県",
  "stats": {
    "station": 118,
    "airport": 3,
    "ferry_terminal": 1,
    "bus_terminal": 13,
    "total": 135
  },
  "data": [
    {
      "id": "yamagata_station_263224072",
      "osmId": 263224072,
      "osmType": "node",
      "prefectureId": "yamagata",
      "type": "station",
      "subtype": "private",
      "name": "天童",
      "nameKana": "てんどう",
      "nameEn": "Tendo",
      "operator": null,
      "network": null,
      "ref": null,
      "latitude": 38.3599623,
      "longitude": 140.3695642,
      "countryCode": "jp",
      "rawTags": {
        "name": "天童",
        "name:de": "Tendō",
        "name:en": "Tendo",
        "name:ja-Hira": "てんどう",
        "name:ja-Latn": "Tendō",
        "public_transport": "station",
        "railway": "station",
        "source": "KSJ2",
        "train": "yes",
        "wikidata": "Q1137082",
        "wikipedia": "ja:天童駅"
      }
    },
    {
      "id": "yamagata_station_263229121",
      "osmId": 263229121,
      "osmType": "node",
      "prefectureId": "yamagata",
      "type": "station",
      "subtype": "private",
      "name": "かみのやま温泉",
      "nameKana": "かみのやまおんせん",
      "nameEn": "Kaminoyama-Onsen",
      "operator": null,
      "network": null,
      "ref": null,
      "latitude": 38.1520989,
      "longitude": 140.2785301,
      "countryCode": "jp",
      "rawTags": {
        "name": "かみのやま温泉",
        "name:de": "Kaminoyama-Onsen",
        "name:en": "Kaminoyama-Onsen",
        "name:ja-Hira": "かみのやまおんせん",
        "name:ja-Latn": "Kaminoyamaonsen",
        "public_transport": "station",
        "railway": "station",
        "source": "KSJ2",
        "train": "yes",
        "wikidata": "Q1137142",
        "wikipedia": "ja:かみのやま温泉駅"
      }
    },
    {
      "id": "yamagata_station_264400959",
      "osmId": 264400959,
      "osmType": "node",
      "prefectureId": "yamagata",
      "type": "station",
      "subtype": "private",
      "name": "赤倉温泉",
      "nameKana": null,
      "nameEn": "Akakura-Onsen",
      "operator": null,
      "network": null,
      "ref": null,
      "latitude": 38.7305706,
      "longitude": 140.5537397,
      "countryCode": "jp",
      "rawTags": {
        "KSJ2:LIN": "陸羽東線",
        "KSJ2:STN": "赤倉温泉",
        "alt_name:ko": "아카쿠라온센",
        "name": "赤倉温泉",
        "name:en": "Akakura-Onsen",
        "name:ja": "赤倉温泉",
        "name:ja_rm": "Akakura-Onsen",
        "name:ko": "아카쿠라온천",
        "note": "National-Land Numerical Information (Railway) 2007, MLIT Japan",
        "note:ja": "国土数値情報（鉄道データ）平成19年　国土交通省",
        "public_transport": "station",
        "railway": "station",
        "source": "KSJ2",
        "source_ref": "http://nlftp.mlit.go.jp/ksj/jpgis/datalist/KsjTmplt-N02-v1_1.html",
        "wikidata": "Q1756866",
        "wikipedia": "ja:赤倉温泉駅"
      }
    },
    {
      "id": "yamagata_station_264401245",
      "osmId": 264401245,
      "osmType": "node",
      "prefectureId": "yamagata",
      "type": "station",
      "subtype": "private",
      "name": "堺田",
      "nameKana": null,
      "nameEn": "Sakaida",
      "operator": null,
      "network": null,
      "ref": null,
      "latitude": 38.7352699,
      "longitude": 140.6134414,
      "countryCode": "jp",
      "rawTags": {
        "KSJ2:LIN": "陸羽東線",
        "KSJ2:STN": "堺田",
        "name": "堺田",
        "name:en": "Sakaida",
        "name:ja": "堺田",
        "name:ja_rm": "Sakaida",
        "name:ko": "사카이다",
        "note": "National-Land Numerical Information (Railway) 2007, MLIT Japan",
        "note:ja": "国土数値情報（鉄道データ）平成19年　国土交通省",
        "public_transport": "station",
        "railway": "station",
        "source": "KSJ2",
        "source_ref": "http://nlftp.mlit.go.jp/ksj/jpgis/datalist/KsjTmplt-N02-v1_1.html",
        "wikidata": "Q1151505",
        "wikipedia": "ja:堺田駅"
      }
    },
    {
      "id": "yamagata_station_264401562",
      "osmId": 264401562,
      "osmType": "node",
      "prefectureId": "yamagata",
      "type": "station",
      "subtype": "private",
      "name": "鵜杉",
      "nameKana": null,
      "nameEn": "Usugi",
      "operator": null,
      "network": null,
      "ref": null,
      "latitude": 38.7649613,
      "longitude": 140.4542354,
      "countryCode": "jp",
      "rawTags": {
        "KSJ2:LIN": "陸羽東線",
        "KSJ2:STN": "鵜杉",
        "name": "鵜杉",
        "name:en": "Usugi",
        "name:ja": "鵜杉",
        "name:ja_rm": "Usugi",
        "name:ko": "우스기",
        "note": "National-Land Numerical Information (Railway) 2007, MLIT Japan",
        "note:ja": "国土数値情報（鉄道データ）平成19年　国土交通省",
        "public_transport": "station",
        "railway": "station",
        "source": "KSJ2",
        "source_ref": "http://nlftp.mlit.go.jp/ksj/jpgis/datalist/KsjTmplt-N02-v1_1.html",
        "wikidata": "Q2026791",
        "wikipedia": "ja:鵜杉駅"
      }
    },
    {
      "id": "yamagata_station_264401569",
      "osmId": 264401569,
      "osmType": "node",
      "prefectureId": "yamagata",
      "type": "station",
      "subtype": "private",
      "name": "立小路",
      "nameKana": null,
      "nameEn": "Tachikoji",
      "operator": null,
      "network": null,
      "ref": null,
      "latitude": 38.7420882,
      "longitude": 140.5427453,
      "countryCode": "jp",
      "rawTags": {
        "KSJ2:LIN": "陸羽東線",
        "KSJ2:STN": "立小路",
        "name": "立小路",
        "name:en": "Tachikoji",
        "name:ja": "立小路",
        "name:ja_rm": "Tachikōji",
        "name:ko": "다치코지",
        "note": "National-Land Numerical Information (Railway) 2007, MLIT Japan",
        "note:ja": "国土数値情報（鉄道データ）平成19年　国土交通省",
        "public_transport": "station",
        "railway": "station",
        "source": "KSJ2",
        "source_ref": "http://nlftp.mlit.go.jp/ksj/jpgis/datalist/KsjTmplt-N02-v1_1.html",
        "wikidata": "Q1826273",
        "wikipedia": "ja:立小路駅"
      }
    },
    {
      "id": "yamagata_station_264401575",
      "osmId": 264401575,
      "osmType": "node",
      "prefectureId": "yamagata",
      "type": "station",
      "subtype": "private",
      "name": "最上",
      "nameKana": "もがみ",
      "nameEn": "Mogami",
      "operator": null,
      "network": null,
      "ref": null,
      "latitude": 38.7561662,
      "longitude": 140.5173539,
      "countryCode": "jp",
      "rawTags": {
        "KSJ2:LIN": "陸羽東線",
        "KSJ2:STN": "最上",
        "name": "最上",
        "name:en": "Mogami",
        "name:ja": "最上",
        "name:ja_kana": "もがみ",
        "name:ja_rm": "Mogami",
        "name:ko": "모가미",
        "note": "National-Land Numerical Information (Railway) 2007, MLIT Japan",
        "note:ja": "国土数値情報（鉄道データ）平成19年　国土交通省",
        "public_transport": "station",
        "railway": "station",
        "source": "KSJ2",
        "source_ref": "http://nlftp.mlit.go.jp/ksj/jpgis/datalist/KsjTmplt-N02-v1_1.html",
        "wikidata": "Q2027908",
        "wikipedia": "ja:最上駅"
      }
    },
    {
      "id": "yamagata_station_264401913",
      "osmId": 264401913,
      "osmType": "node",
      "prefectureId": "yamagata",
      "type": "station",
      "subtype": "private",
      "name": "東長沢",
      "nameKana": null,
      "nameEn": "Higashi-Nagasawa",
      "operator": null,
      "network": null,
      "ref": null,
      "latitude": 38.718747,
      "longitude": 140.3820899,
      "countryCode": "jp",
      "rawTags": {
        "KSJ2:LIN": "陸羽東線",
        "KSJ2:STN": "東長沢",
        "name": "東長沢",
        "name:en": "Higashi-Nagasawa",
        "name:ja": "東長沢",
        "name:ja_rm": "Higashi-Nagasawa",
        "name:ko": "히가시나가사와",
        "note": "National-Land Numerical Information (Railway) 2007, MLIT Japan",
        "note:ja": "国土数値情報（鉄道データ）平成19年　国土交通省",
        "public_transport": "station",
        "railway": "station",
        "source": "KSJ2",
        "source_ref": "http://nlftp.mlit.go.jp/ksj/jpgis/datalist/KsjTmplt-N02-v1_1.html",
        "wikidata": "Q2101432",
        "wikipedia": "ja:東長沢駅"
      }
    },
    {
      "id": "yamagata_station_264402016",
      "osmId": 264402016,
      "osmType": "node",
      "prefectureId": "yamagata",
      "type": "station",
      "subtype": "private",
      "name": "長沢",
      "nameKana": null,
      "nameEn": "Nagasawa",
      "operator": null,
      "network": null,
      "ref": null,
      "latitude": 38.7097377,
      "longitude": 140.3660094,
      "countryCode": "jp",
      "rawTags": {
        "KSJ2:LIN": "陸羽東線",
        "KSJ2:STN": "長沢",
        "name": "長沢",
        "name:en": "Nagasawa",
        "name:ja": "長沢",
        "name:ja_rm": "Nagasawa",
        "name:ko": "나가사와",
        "note": "National-Land Numerical Information (Railway) 2007, MLIT Japan",
        "note:ja": "国土数値情報（鉄道データ）平成19年　国土交通省",
        "public_transport": "station",
        "railway": "station",
        "source": "KSJ2",
        "source_ref": "http://nlftp.mlit.go.jp/ksj/jpgis/datalist/KsjTmplt-N02-v1_1.html",
        "wikidata": "Q2099810",
        "wikipedia": "ja:長沢駅"
      }
    },
    {
      "id": "yamagata_station_264402018",
      "osmId": 264402018,
      "osmType": "node",
      "prefectureId": "yamagata",
      "type": "station",
      "subtype": "private",
      "name": "瀬見温泉",
      "nameKana": null,
      "nameEn": "Semi-Onsen",
      "operator": null,
      "network": null,
      "ref": null,
      "latitude": 38.7550211,
      "longitude": 140.4203867,
      "countryCode": "jp",
      "rawTags": {
        "KSJ2:LIN": "陸羽東線",
        "KSJ2:STN": "瀬見温泉",
        "alt_name:ko": "세미온센",
        "name": "瀬見温泉",
        "name:en": "Semi-Onsen",
        "name:ja": "瀬見温泉",
        "name:ja_rm": "Semi-Onsen",
        "name:ko": "세미온천",
        "note": "National-Land Numerical Information (Railway) 2007, MLIT Japan",
        "note:ja": "国土数値情報（鉄道データ）平成19年　国土交通省",
        "public_transport": "station",
        "railway": "station",
        "source": "KSJ2",
        "source_ref": "http://nlftp.mlit.go.jp/ksj/jpgis/datalist/KsjTmplt-N02-v1_1.html",
        "wikidata": "Q2095056",
        "wikipedia": "ja:瀬見温泉駅"
      }
    },
    {
      "id": "yamagata_station_264402336",
      "osmId": 264402336,
      "osmType": "node",
      "prefectureId": "yamagata",
      "type": "station",
      "subtype": "private",
      "name": "新庄",
      "nameKana": "しんじょう",
      "nameEn": "Shinjo",
      "operator": null,
      "network": null,
      "ref": null,
      "latitude": 38.762785,
      "longitude": 140.3056333,
      "countryCode": "jp",
      "rawTags": {
        "name": "新庄",
        "name:de": "Shanjo",
        "name:en": "Shinjo",
        "name:ja-Hira": "しんじょう",
        "name:ja-Latn": "Shinjō",
        "public_transport": "station",
        "railway": "station",
        "source": "KSJ2",
        "train": "yes",
        "wikidata": "Q1188523",
        "wikipedia": "ja:新庄駅"
      }
    },
    {
      "id": "yamagata_station_264402338",
      "osmId": 264402338,
      "osmType": "node",
      "prefectureId": "yamagata",
      "type": "station",
      "subtype": "private",
      "name": "狩川",
      "nameKana": null,
      "nameEn": "Karikawa",
      "operator": null,
      "network": null,
      "ref": null,
      "latitude": 38.7934544,
      "longitude": 139.9773788,
      "countryCode": "jp",
      "rawTags": {
        "KSJ2:LIN": "陸羽西線",
        "KSJ2:STN": "狩川",
        "name": "狩川",
        "name:en": "Karikawa",
        "name:ja": "狩川",
        "name:ko": "가리카와",
        "note": "National-Land Numerical Information (Railway) 2007, MLIT Japan",
        "note:ja": "国土数値情報（鉄道データ）平成19年　国土交通省",
        "public_transport": "station",
        "railway": "station",
        "source": "KSJ2",
        "source_ref": "http://nlftp.mlit.go.jp/ksj/jpgis/datalist/KsjTmplt-N02-v1_1.html",
        "wikidata": "Q6370520",
        "wikipedia": "ja:狩川駅"
      }
    },
    {
      "id": "yamagata_station_264402472",
      "osmId": 264402472,
      "osmType": "node",
      "prefectureId": "yamagata",
      "type": "station",
      "subtype": "private",
      "name": "南野",
      "nameKana": null,
      "nameEn": "Minamino",
      "operator": null,
      "network": null,
      "ref": null,
      "latitude": 38.8180991,
      "longitude": 139.9450573,
      "countryCode": "jp",
      "rawTags": {
        "name": "南野",
        "name:en": "Minamino",
        "name:ko": "미나미노",
        "public_transport": "station",
        "railway": "station",
        "source": "KSJ2",
        "train": "yes",
        "wikidata": "Q11408687",
        "wikipedia": "ja:南野駅"
      }
    },
    {
      "id": "yamagata_station_264402482",
      "osmId": 264402482,
      "osmType": "node",
      "prefectureId": "yamagata",
      "type": "station",
      "subtype": "private",
      "name": "古口",
      "nameKana": null,
      "nameEn": "Furukuchi",
      "operator": null,
      "network": null,
      "ref": null,
      "latitude": 38.7371616,
      "longitude": 140.1453493,
      "countryCode": "jp",
      "rawTags": {
        "KSJ2:LIN": "陸羽西線",
        "KSJ2:STN": "古口",
        "name": "古口",
        "name:en": "Furukuchi",
        "name:ja": "古口",
        "name:ko": "후루쿠치",
        "note": "National-Land Numerical Information (Railway) 2007, MLIT Japan",
        "note:ja": "国土数値情報（鉄道データ）平成19年　国土交通省",
        "public_transport": "station",
        "railway": "station",
        "source": "KSJ2",
        "source_ref": "http://nlftp.mlit.go.jp/ksj/jpgis/datalist/KsjTmplt-N02-v1_1.html",
        "wikidata": "Q5509803",
        "wikipedia": "ja:古口駅"
      }
    },
    {
      "id": "yamagata_station_264402581",
      "osmId": 264402581,
      "osmType": "node",
      "prefectureId": "yamagata",
      "type": "station",
      "subtype": "private",
      "name": "津谷",
      "nameKana": null,
      "nameEn": "Tsuya",
      "operator": null,
      "network": null,
      "ref": null,
      "latitude": 38.7373047,
      "longitude": 140.1860921,
      "countryCode": "jp",
      "rawTags": {
        "KSJ2:LIN": "陸羽西線",
        "KSJ2:STN": "津谷",
        "name": "津谷",
        "name:en": "Tsuya",
        "name:ja": "津谷",
        "name:ko": "쓰야",
        "note": "National-Land Numerical Information (Railway) 2007, MLIT Japan",
        "note:ja": "国土数値情報（鉄道データ）平成19年　国土交通省",
        "public_transport": "station",
        "railway": "station",
        "source": "KSJ2",
        "source_ref": "http://nlftp.mlit.go.jp/ksj/jpgis/datalist/KsjTmplt-N02-v1_1.html",
        "wikidata": "Q7850358",
        "wikipedia": "ja:津谷駅"
      }
    },
    {
      "id": "yamagata_station_264402590",
      "osmId": 264402590,
      "osmType": "node",
      "prefectureId": "yamagata",
      "type": "station",
      "subtype": "private",
      "name": "高屋",
      "nameKana": null,
      "nameEn": "Takaya",
      "operator": null,
      "network": null,
      "ref": null,
      "latitude": 38.7527396,
      "longitude": 140.0706497,
      "countryCode": "jp",
      "rawTags": {
        "KSJ2:LIN": "陸羽西線",
        "KSJ2:STN": "高屋",
        "name": "高屋",
        "name:en": "Takaya",
        "name:ja": "高屋",
        "name:ko": "다카야",
        "note": "National-Land Numerical Information (Railway) 2007, MLIT Japan",
        "note:ja": "国土数値情報（鉄道データ）平成19年　国土交通省",
        "public_transport": "station",
        "railway": "station",
        "source": "KSJ2",
        "source_ref": "http://nlftp.mlit.go.jp/ksj/jpgis/datalist/KsjTmplt-N02-v1_1.html",
        "wikidata": "Q7677459",
        "wikipedia": "ja:高屋駅"
      }
    },
    {
      "id": "yamagata_station_264402593",
      "osmId": 264402593,
      "osmType": "node",
      "prefectureId": "yamagata",
      "type": "station",
      "subtype": "private",
      "name": "升形",
      "nameKana": null,
      "nameEn": "Masukata",
      "operator": null,
      "network": null,
      "ref": null,
      "latitude": 38.7515272,
      "longitude": 140.2439332,
      "countryCode": "jp",
      "rawTags": {
        "name": "升形",
        "name:en": "Masukata",
        "name:ja": "升形",
        "name:ko": "마스카타",
        "public_transport": "station",
        "railway": "station",
        "source": "KSJ2",
        "train": "yes",
        "wikidata": "Q6785676",
        "wikipedia": "ja:升形駅"
      }
    },
    {
      "id": "yamagata_station_264402684",
      "osmId": 264402684,
      "osmType": "node",
      "prefectureId": "yamagata",
      "type": "station",
      "subtype": "private",
      "name": "羽前前波",
      "nameKana": null,
      "nameEn": "Uzen-Zennami",
      "operator": null,
      "network": null,
      "ref": null,
      "latitude": 38.747638,
      "longitude": 140.208988,
      "countryCode": "jp",
      "rawTags": {
        "KSJ2:LIN": "陸羽西線",
        "KSJ2:STN": "羽前前波",
        "name": "羽前前波",
        "name:en": "Uzen-Zennami",
        "name:ja": "羽前前波",
        "name:ko": "우젠젠나미",
        "note": "National-Land Numerical Information (Railway) 2007, MLIT Japan",
        "note:ja": "国土数値情報（鉄道データ）平成19年　国土交通省",
        "public_transport": "station",
        "railway": "station",
        "source": "KSJ2",
        "source_ref": "http://nlftp.mlit.go.jp/ksj/jpgis/datalist/KsjTmplt-N02-v1_1.html",
        "wikidata": "Q11610051",
        "wikipedia": "ja:羽前前波駅"
      }
    },
    {
      "id": "yamagata_station_264402724",
      "osmId": 264402724,
      "osmType": "node",
      "prefectureId": "yamagata",
      "type": "station",
      "subtype": "private",
      "name": "清川",
      "nameKana": null,
      "nameEn": "Kiyokawa",
      "operator": null,
      "network": null,
      "ref": null,
      "latitude": 38.7901968,
      "longitude": 140.0207611,
      "countryCode": "jp",
      "rawTags": {
        "KSJ2:LIN": "陸羽西線",
        "KSJ2:STN": "清川",
        "name": "清川",
        "name:en": "Kiyokawa",
        "name:ja": "清川",
        "name:ko": "기요카와",
        "note": "National-Land Numerical Information (Railway) 2007, MLIT Japan",
        "note:ja": "国土数値情報（鉄道データ）平成19年　国土交通省",
        "public_transport": "station",
        "railway": "station",
        "source": "KSJ2",
        "source_ref": "http://nlftp.mlit.go.jp/ksj/jpgis/datalist/KsjTmplt-N02-v1_1.html",
        "wikidata": "Q6419011",
        "wikipedia": "ja:清川駅"
      }
    },
    {
      "id": "yamagata_station_264408897",
      "osmId": 264408897,
      "osmType": "node",
      "prefectureId": "yamagata",
      "type": "station",
      "subtype": "private",
      "name": "今泉",
      "nameKana": "いまいずみ",
      "nameEn": "Imaizumi",
      "operator": null,
      "network": null,
      "ref": null,
      "latitude": 38.0570157,
      "longitude": 140.0442391,
      "countryCode": "jp",
      "rawTags": {
        "name": "今泉",
        "name:de": "Imaizumi",
        "name:en": "Imaizumi",
        "name:ja": "今泉",
        "name:ja-Hira": "いまいずみ",
        "name:ja-Latn": "Imaizumi",
        "public_transport": "station",
        "railway": "station",
        "source": "KSJ2",
        "train": "yes",
        "website": "https://www.jreast.co.jp/estation/station/info.aspx?StationCd=157",
        "wikidata": "Q6002988",
        "wikipedia": "ja:今泉駅"
      }
    },
    {
      "id": "yamagata_station_264409710",
      "osmId": 264409710,
      "osmType": "node",
      "prefectureId": "yamagata",
      "type": "station",
      "subtype": "private",
      "name": "犬川",
      "nameKana": "いぬかわ",
      "nameEn": "Inukawa",
      "operator": null,
      "network": null,
      "ref": null,
      "latitude": 38.0257779,
      "longitude": 140.0521094,
      "countryCode": "jp",
      "rawTags": {
        "name": "犬川",
        "name:en": "Inukawa",
        "name:ja-Hira": "いぬかわ",
        "name:ja-Latn": "Inukawa",
        "public_transport": "station",
        "railway": "station",
        "source": "KSJ2",
        "train": "yes",
        "wikidata": "Q6059280",
        "wikipedia": "ja:犬川駅"
      }
    },
    {
      "id": "yamagata_station_264409732",
      "osmId": 264409732,
      "osmType": "node",
      "prefectureId": "yamagata",
      "type": "station",
      "subtype": "private",
      "name": "羽前小松",
      "nameKana": "うぜんこまつ",
      "nameEn": "Uzen-Komatsu",
      "operator": null,
      "network": null,
      "ref": null,
      "latitude": 38.0045995,
      "longitude": 140.0484104,
      "countryCode": "jp",
      "rawTags": {
        "name": "羽前小松",
        "name:en": "Uzen-Komatsu",
        "name:ja-Hira": "うぜんこまつ",
        "name:ja-Latn": "Uzenkomatsu",
        "public_transport": "station",
        "railway": "station",
        "source": "KSJ2",
        "train": "yes",
        "wikidata": "Q7904818",
        "wikipedia": "ja:羽前小松駅"
      }
    },
    {
      "id": "yamagata_station_264410783",
      "osmId": 264410783,
      "osmType": "node",
      "prefectureId": "yamagata",
      "type": "station",
      "subtype": "private",
      "name": "羽前松岡",
      "nameKana": "うぜんまつおか",
      "nameEn": "Uzen-Matsuoka",
      "operator": null,
      "network": null,
      "ref": null,
      "latitude": 38.0453777,
      "longitude": 139.7803316,
      "countryCode": "jp",
      "rawTags": {
        "name": "羽前松岡",
        "name:en": "Uzen-Matsuoka",
        "name:ja-Hira": "うぜんまつおか",
        "name:ja-Latn": "Uzenmatsuoka",
        "public_transport": "station",
        "railway": "station",
        "source": "KSJ2",
        "train": "yes",
        "wikidata": "Q7904826",
        "wikipedia": "ja:羽前松岡駅"
      }
    },
    {
      "id": "yamagata_station_267600466",
      "osmId": 267600466,
      "osmType": "node",
      "prefectureId": "yamagata",
      "type": "station",
      "subtype": "private",
      "name": "羽前成田",
      "nameKana": "うぜんなりた",
      "nameEn": "Uzen-Narita",
      "operator": null,
      "network": null,
      "ref": null,
      "latitude": 38.1309784,
      "longitude": 140.0351477,
      "countryCode": "jp",
      "rawTags": {
        "mapillary": "331009335118636",
        "name": "羽前成田",
        "name:en": "Uzen-Narita",
        "name:ja": "羽前成田",
        "name:ja-Hira": "うぜんなりた",
        "name:ja-Latn": "Uzennarita",
        "public_transport": "station",
        "railway": "station",
        "source": "KSJ2",
        "website": "https://flower-liner.jp/result_eki/?josyaeki=6",
        "wikidata": "Q7904855",
        "wikipedia": "ja:羽前成田駅"
      }
    },
    {
      "id": "yamagata_bus_terminal_1715942026",
      "osmId": 1715942026,
      "osmType": "node",
      "prefectureId": "yamagata",
      "type": "bus_terminal",
      "subtype": null,
      "name": "天童バスターミナル",
      "nameKana": null,
      "nameEn": null,
      "operator": null,
      "network": null,
      "ref": null,
      "latitude": 38.3596314,
      "longitude": 140.3702965,
      "countryCode": "jp",
      "rawTags": {
        "amenity": "bus_station",
        "name": "天童バスターミナル"
      }
    },
    {
      "id": "yamagata_station_3585108732",
      "osmId": 3585108732,
      "osmType": "node",
      "prefectureId": "yamagata",
      "type": "station",
      "subtype": "private",
      "name": "高瀬",
      "nameKana": null,
      "nameEn": "Takase",
      "operator": null,
      "network": null,
      "ref": null,
      "latitude": 38.3014954,
      "longitude": 140.39607,
      "countryCode": "jp",
      "rawTags": {
        "KSJ2:LIN": "仙山線",
        "KSJ2:STN": "高瀬",
        "name": "高瀬",
        "name:en": "Takase",
        "name:ja": "高瀬",
        "name:ja_rm": "Takase",
        "name:ko": "다카세",
        "note": "National-Land Numerical Information (Railway) 2007, MLIT Japan",
        "note:ja": "国土数値情報（鉄道データ）平成19年　国土交通省",
        "public_transport": "station",
        "railway": "station",
        "source": "KSJ2",
        "source_ref": "http://nlftp.mlit.go.jp/ksj/jpgis/datalist/KsjTmplt-N02-v1_1.html",
        "wikidata": "Q7677303",
        "wikipedia": "ja:高瀬駅 (山形県)"
      }
    },
    {
      "id": "yamagata_station_3585108734",
      "osmId": 3585108734,
      "osmType": "node",
      "prefectureId": "yamagata",
      "type": "station",
      "subtype": "private",
      "name": "楯山",
      "nameKana": null,
      "nameEn": "Tateyama",
      "operator": null,
      "network": null,
      "ref": null,
      "latitude": 38.3016195,
      "longitude": 140.370593,
      "countryCode": "jp",
      "rawTags": {
        "KSJ2:LIN": "仙山線",
        "KSJ2:STN": "楯山",
        "name": "楯山",
        "name:en": "Tateyama",
        "name:ja": "楯山",
        "name:ja_rm": "Tateyama",
        "name:ko": "다테야마",
        "note": "National-Land Numerical Information (Railway) 2007, MLIT Japan",
        "note:ja": "国土数値情報（鉄道データ）平成19年　国土交通省",
        "public_transport": "station",
        "railway": "station",
        "source": "KSJ2",
        "source_ref": "http://nlftp.mlit.go.jp/ksj/jpgis/datalist/KsjTmplt-N02-v1_1.html",
        "wikidata": "Q7688025",
        "wikipedia": "ja:楯山駅"
      }
    },
    {
      "id": "yamagata_station_3585108739",
      "osmId": 3585108739,
      "osmType": "node",
      "prefectureId": "yamagata",
      "type": "station",
      "subtype": "private",
      "name": "羽前千歳",
      "nameKana": "うぜんちとせ",
      "nameEn": "Uzen-Chitose",
      "operator": null,
      "network": null,
      "ref": null,
      "latitude": 38.2872691,
      "longitude": 140.3422441,
      "countryCode": "jp",
      "rawTags": {
        "name": "羽前千歳",
        "name:de": "Uzen-Chitose",
        "name:en": "Uzen-Chitose",
        "name:ja-Hira": "うぜんちとせ",
        "name:ja-Latn": "Uzenchitose",
        "public_transport": "station",
        "railway": "station",
        "source": "KSJ2",
        "wikidata": "Q7904801",
        "wikipedia": "ja:羽前千歳駅"
      }
    },
    {
      "id": "yamagata_station_3585108742",
      "osmId": 3585108742,
      "osmType": "node",
      "prefectureId": "yamagata",
      "type": "station",
      "subtype": "private",
      "name": "山寺",
      "nameKana": null,
      "nameEn": "Yamadera",
      "operator": null,
      "network": null,
      "ref": null,
      "latitude": 38.3095946,
      "longitude": 140.434729,
      "countryCode": "jp",
      "rawTags": {
        "KSJ2:LIN": "仙山線",
        "KSJ2:STN": "山寺",
        "name": "山寺",
        "name:de": "Yamadera",
        "name:en": "Yamadera",
        "name:ja": "山寺",
        "name:ja_rm": "Yamadera",
        "name:ko": "야마데라",
        "note": "National-Land Numerical Information (Railway) 2007, MLIT Japan",
        "note:ja": "国土数値情報（鉄道データ）平成19年　国土交通省",
        "public_transport": "station",
        "railway": "station",
        "source": "KSJ2",
        "source_ref": "http://nlftp.mlit.go.jp/ksj/jpgis/datalist/KsjTmplt-N02-v1_1.html",
        "wheelchair": "no",
        "wikidata": "Q8047609",
        "wikipedia": "ja:山寺駅"
      }
    },
    {
      "id": "yamagata_station_3585108748",
      "osmId": 3585108748,
      "osmType": "node",
      "prefectureId": "yamagata",
      "type": "station",
      "subtype": "private",
      "name": "山形",
      "nameKana": "やまがた",
      "nameEn": "Yamagata",
      "operator": null,
      "network": null,
      "ref": null,
      "latitude": 38.2484701,
      "longitude": 140.3278031,
      "countryCode": "jp",
      "rawTags": {
        "mapillary": "170666731753821",
        "name": "山形",
        "name:de": "Yamagata",
        "name:en": "Yamagata",
        "name:ja-Hira": "やまがた",
        "name:ja-Latn": "Yamagata",
        "public_transport": "station",
        "railway": "station",
        "source": "KSJ2",
        "wikidata": "Q1135793",
        "wikipedia": "ja:山形駅"
      }
    },
    {
      "id": "yamagata_station_3585108879",
      "osmId": 3585108879,
      "osmType": "node",
      "prefectureId": "yamagata",
      "type": "station",
      "subtype": "private",
      "name": "北山形",
      "nameKana": "きたやまがた",
      "nameEn": "Kita-Yamagata",
      "operator": null,
      "network": null,
      "ref": null,
      "latitude": 38.2655514,
      "longitude": 140.3324675,
      "countryCode": "jp",
      "rawTags": {
        "name": "北山形",
        "name:de": "Yamagata Nord",
        "name:en": "Kita-Yamagata",
        "name:ja-Hira": "きたやまがた",
        "name:ja-Latn": "Kitayamagata",
        "public_transport": "station",
        "railway": "station",
        "source": "KSJ2",
        "train": "yes",
        "wikidata": "Q11401458",
        "wikipedia": "ja:北山形駅"
      }
    },
    {
      "id": "yamagata_station_3585109693",
      "osmId": 3585109693,
      "osmType": "node",
      "prefectureId": "yamagata",
      "type": "station",
      "subtype": "private",
      "name": "面白山高原",
      "nameKana": null,
      "nameEn": "Omoshiroyama-Kōgen",
      "operator": null,
      "network": null,
      "ref": null,
      "latitude": 38.333017,
      "longitude": 140.4969262,
      "countryCode": "jp",
      "rawTags": {
        "KSJ2:LIN": "仙山線",
        "KSJ2:STN": "面白山高原",
        "alt_name:ko": "오모시로야마코겐",
        "name": "面白山高原",
        "name:en": "Omoshiroyama-Kōgen",
        "name:ja": "面白山高原",
        "name:ja_rm": "Omoshiroyama-Kōgen",
        "name:ko": "오모시로산고원",
        "note": "National-Land Numerical Information (Railway) 2007, MLIT Japan",
        "note:ja": "国土数値情報（鉄道データ）平成19年　国土交通省",
        "public_transport": "station",
        "railway": "station",
        "source": "KSJ2",
        "source_ref": "http://nlftp.mlit.go.jp/ksj/jpgis/datalist/KsjTmplt-N02-v1_1.html",
        "wikidata": "Q7090658",
        "wikipedia": "ja:面白山高原駅"
      }
    },
    {
      "id": "yamagata_station_3585199035",
      "osmId": 3585199035,
      "osmType": "node",
      "prefectureId": "yamagata",
      "type": "station",
      "subtype": "private",
      "name": "左沢",
      "nameKana": null,
      "nameEn": "Aterazawa",
      "operator": null,
      "network": null,
      "ref": null,
      "latitude": 38.3820316,
      "longitude": 140.2080979,
      "countryCode": "jp",
      "rawTags": {
        "KSJ2:LIN": "左沢線",
        "KSJ2:STN": "左沢",
        "name": "左沢",
        "name:en": "Aterazawa",
        "name:ja": "左沢",
        "name:ja_rm": "Aterazawa",
        "name:ko": "아테라자와",
        "note": "National-Land Numerical Information (Railway) 2007, MLIT Japan",
        "note:ja": "国土数値情報（鉄道データ）平成19年　国土交通省",
        "public_transport": "station",
        "railway": "station",
        "source": "KSJ2",
        "source_ref": "http://nlftp.mlit.go.jp/ksj/jpgis/datalist/KsjTmplt-N02-v1_1.html",
        "train": "yes",
        "wikidata": "Q4813118",
        "wikipedia": "ja:左沢駅"
      }
    },
    {
      "id": "yamagata_station_3585199036",
      "osmId": 3585199036,
      "osmType": "node",
      "prefectureId": "yamagata",
      "type": "station",
      "subtype": "private",
      "name": "東金井",
      "nameKana": null,
      "nameEn": "Higashi-Kanai",
      "operator": null,
      "network": null,
      "ref": null,
      "latitude": 38.277119,
      "longitude": 140.3024865,
      "countryCode": "jp",
      "rawTags": {
        "KSJ2:LIN": "左沢線",
        "KSJ2:STN": "東金井",
        "name": "東金井",
        "name:en": "Higashi-Kanai",
        "name:ja": "東金井",
        "name:ja_rm": "Higashi-Kanai",
        "name:ko": "히가시카나이",
        "note": "National-Land Numerical Information (Railway) 2007, MLIT Japan",
        "note:ja": "国土数値情報（鉄道データ）平成19年　国土交通省",
        "public_transport": "station",
        "railway": "station",
        "source": "KSJ2",
        "source_ref": "http://nlftp.mlit.go.jp/ksj/jpgis/datalist/KsjTmplt-N02-v1_1.html",
        "train": "yes",
        "wikidata": "Q11528622",
        "wikipedia": "ja:東金井駅"
      }
    },
    {
      "id": "yamagata_station_3585199037",
      "osmId": 3585199037,
      "osmType": "node",
      "prefectureId": "yamagata",
      "type": "station",
      "subtype": "private",
      "name": "南寒河江",
      "nameKana": null,
      "nameEn": "Minami-Sagae",
      "operator": null,
      "network": null,
      "ref": null,
      "latitude": 38.3560091,
      "longitude": 140.2776524,
      "countryCode": "jp",
      "rawTags": {
        "KSJ2:LIN": "左沢線",
        "KSJ2:STN": "南寒河江",
        "name": "南寒河江",
        "name:en": "Minami-Sagae",
        "name:ja": "南寒河江",
        "name:ja_rm": "Minami-Sagae",
        "name:ko": "미나미사가에",
        "note": "National-Land Numerical Information (Railway) 2007, MLIT Japan",
        "note:ja": "国土数値情報（鉄道データ）平成19年　国土交通省",
        "public_transport": "station",
        "railway": "station",
        "source": "KSJ2",
        "source_ref": "http://nlftp.mlit.go.jp/ksj/jpgis/datalist/KsjTmplt-N02-v1_1.html",
        "train": "yes",
        "wikidata": "Q11407728",
        "wikipedia": "ja:南寒河江駅"
      }
    },
    {
      "id": "yamagata_station_3585199038",
      "osmId": 3585199038,
      "osmType": "node",
      "prefectureId": "yamagata",
      "type": "station",
      "subtype": "private",
      "name": "西寒河江",
      "nameKana": null,
      "nameEn": "Nishi-Sagae",
      "operator": null,
      "network": null,
      "ref": null,
      "latitude": 38.3797874,
      "longitude": 140.266581,
      "countryCode": "jp",
      "rawTags": {
        "KSJ2:LIN": "左沢線",
        "KSJ2:STN": "西寒河江",
        "name": "西寒河江",
        "name:en": "Nishi-Sagae",
        "name:ja": "西寒河江",
        "name:ja_rm": "Nishi-Sagae",
        "name:ko": "니시사가에",
        "note": "National-Land Numerical Information (Railway) 2007, MLIT Japan",
        "note:ja": "国土数値情報（鉄道データ）平成19年　国土交通省",
        "public_transport": "station",
        "railway": "station",
        "source": "KSJ2",
        "source_ref": "http://nlftp.mlit.go.jp/ksj/jpgis/datalist/KsjTmplt-N02-v1_1.html",
        "train": "yes",
        "wikidata": "Q11627685",
        "wikipedia": "ja:西寒河江駅"
      }
    },
    {
      "id": "yamagata_station_3585199039",
      "osmId": 3585199039,
      "osmType": "node",
      "prefectureId": "yamagata",
      "type": "station",
      "subtype": "private",
      "name": "寒河江",
      "nameKana": null,
      "nameEn": "Sagae",
      "operator": null,
      "network": null,
      "ref": null,
      "latitude": 38.3716369,
      "longitude": 140.2751598,
      "countryCode": "jp",
      "rawTags": {
        "KSJ2:LIN": "左沢線",
        "KSJ2:STN": "寒河江",
        "name": "寒河江",
        "name:en": "Sagae",
        "name:ja": "寒河江",
        "name:ja_rm": "Sagae",
        "name:ko": "사가에",
        "note": "National-Land Numerical Information (Railway) 2007, MLIT Japan",
        "note:ja": "国土数値情報（鉄道データ）平成19年　国土交通省",
        "public_transport": "station",
        "railway": "station",
        "source": "KSJ2",
        "source_ref": "http://nlftp.mlit.go.jp/ksj/jpgis/datalist/KsjTmplt-N02-v1_1.html",
        "train": "yes",
        "wikidata": "Q7398936",
        "wikipedia": "ja:寒河江駅"
      }
    },
    {
      "id": "yamagata_station_3585199040",
      "osmId": 3585199040,
      "osmType": "node",
      "prefectureId": "yamagata",
      "type": "station",
      "subtype": "private",
      "name": "柴橋",
      "nameKana": null,
      "nameEn": "Shibahashi",
      "operator": null,
      "network": null,
      "ref": null,
      "latitude": 38.3803834,
      "longitude": 140.2275068,
      "countryCode": "jp",
      "rawTags": {
        "KSJ2:LIN": "左沢線",
        "KSJ2:STN": "柴橋",
        "name": "柴橋",
        "name:en": "Shibahashi",
        "name:ja": "柴橋",
        "name:ja_rm": "Shibahashi",
        "name:ko": "시바하시",
        "note": "National-Land Numerical Information (Railway) 2007, MLIT Japan",
        "note:ja": "国土数値情報（鉄道データ）平成19年　国土交通省",
        "public_transport": "station",
        "railway": "station",
        "source": "KSJ2",
        "source_ref": "http://nlftp.mlit.go.jp/ksj/jpgis/datalist/KsjTmplt-N02-v1_1.html",
        "train": "yes",
        "wikidata": "Q7496008",
        "wikipedia": "ja:柴橋駅"
      }
    },
    {
      "id": "yamagata_station_3585199041",
      "osmId": 3585199041,
      "osmType": "node",
      "prefectureId": "yamagata",
      "type": "station",
      "subtype": "private",
      "name": "羽前金沢",
      "nameKana": null,
      "nameEn": "Uzen-Kanezawa",
      "operator": null,
      "network": null,
      "ref": null,
      "latitude": 38.3207171,
      "longitude": 140.270377,
      "countryCode": "jp",
      "rawTags": {
        "KSJ2:LIN": "左沢線",
        "KSJ2:STN": "羽前金沢",
        "name": "羽前金沢",
        "name:en": "Uzen-Kanezawa",
        "name:ja": "羽前金沢",
        "name:ja_rm": "Uzen-Kanezawa",
        "name:ko": "우젠카네자와",
        "note": "National-Land Numerical Information (Railway) 2007, MLIT Japan",
        "note:ja": "国土数値情報（鉄道データ）平成19年　国土交通省",
        "public_transport": "station",
        "railway": "station",
        "source": "KSJ2",
        "source_ref": "http://nlftp.mlit.go.jp/ksj/jpgis/datalist/KsjTmplt-N02-v1_1.html",
        "train": "yes",
        "wikidata": "Q7904809",
        "wikipedia": "ja:羽前金沢駅"
      }
    },
    {
      "id": "yamagata_station_3585199042",
      "osmId": 3585199042,
      "osmType": "node",
      "prefectureId": "yamagata",
      "type": "station",
      "subtype": "private",
      "name": "羽前長崎",
      "nameKana": null,
      "nameEn": "Uzen-Nagasaki",
      "operator": null,
      "network": null,
      "ref": null,
      "latitude": 38.3334872,
      "longitude": 140.2732632,
      "countryCode": "jp",
      "rawTags": {
        "KSJ2:LIN": "左沢線",
        "KSJ2:STN": "羽前長崎",
        "name": "羽前長崎",
        "name:en": "Uzen-Nagasaki",
        "name:ja": "羽前長崎",
        "name:ja_rm": "Uzen-Nagasaki",
        "name:ko": "우젠나가사키",
        "note": "National-Land Numerical Information (Railway) 2007, MLIT Japan",
        "note:ja": "国土数値情報（鉄道データ）平成19年　国土交通省",
        "public_transport": "station",
        "railway": "station",
        "source": "KSJ2",
        "source_ref": "http://nlftp.mlit.go.jp/ksj/jpgis/datalist/KsjTmplt-N02-v1_1.html",
        "train": "yes",
        "wikidata": "Q7904841",
        "wikipedia": "ja:羽前長崎駅"
      }
    },
    {
      "id": "yamagata_station_3585199043",
      "osmId": 3585199043,
      "osmType": "node",
      "prefectureId": "yamagata",
      "type": "station",
      "subtype": "private",
      "name": "羽前高松",
      "nameKana": null,
      "nameEn": "Uzen-Takamatsu",
      "operator": null,
      "network": null,
      "ref": null,
      "latitude": 38.3974626,
      "longitude": 140.2484915,
      "countryCode": "jp",
      "rawTags": {
        "KSJ2:LIN": "左沢線",
        "KSJ2:STN": "羽前高松",
        "name": "羽前高松",
        "name:en": "Uzen-Takamatsu",
        "name:ja": "羽前高松",
        "name:ja_rm": "Uzen-Takamatsu",
        "name:ko": "우젠타카마쓰",
        "note": "National-Land Numerical Information (Railway) 2007, MLIT Japan",
        "note:ja": "国土数値情報（鉄道データ）平成19年　国土交通省",
        "public_transport": "station",
        "railway": "station",
        "source": "KSJ2",
        "source_ref": "http://nlftp.mlit.go.jp/ksj/jpgis/datalist/KsjTmplt-N02-v1_1.html",
        "train": "yes",
        "wikidata": "Q7904869",
        "wikipedia": "ja:羽前高松駅"
      }
    },
    {
      "id": "yamagata_station_3585199045",
      "osmId": 3585199045,
      "osmType": "node",
      "prefectureId": "yamagata",
      "type": "station",
      "subtype": "private",
      "name": "羽前山辺",
      "nameKana": null,
      "nameEn": "Uzen-Yamabe",
      "operator": null,
      "network": null,
      "ref": null,
      "latitude": 38.2946123,
      "longitude": 140.2715936,
      "countryCode": "jp",
      "rawTags": {
        "KSJ2:LIN": "左沢線",
        "KSJ2:STN": "羽前山辺",
        "name": "羽前山辺",
        "name:en": "Uzen-Yamabe",
        "name:ja": "羽前山辺",
        "name:ja_rm": "Uzen-Yamabe",
        "name:ko": "우젠야마베",
        "note": "National-Land Numerical Information (Railway) 2007, MLIT Japan",
        "note:ja": "国土数値情報（鉄道データ）平成19年　国土交通省",
        "public_transport": "station",
        "railway": "station",
        "source": "KSJ2",
        "source_ref": "http://nlftp.mlit.go.jp/ksj/jpgis/datalist/KsjTmplt-N02-v1_1.html",
        "train": "yes",
        "wikidata": "Q7904889",
        "wikipedia": "ja:羽前山辺駅"
      }
    },
    {
      "id": "yamagata_station_3647437874",
      "osmId": 3647437874,
      "osmType": "node",
      "prefectureId": "yamagata",
      "type": "station",
      "subtype": "private",
      "name": "板谷",
      "nameKana": "いたや",
      "nameEn": "Itaya",
      "operator": null,
      "network": null,
      "ref": null,
      "latitude": 37.8116595,
      "longitude": 140.2689365,
      "countryCode": "jp",
      "rawTags": {
        "name": "板谷",
        "name:en": "Itaya",
        "name:ja-Hira": "いたや",
        "name:ja-Latn": "Itaya",
        "public_transport": "station",
        "railway": "station",
        "source": "KSJ2",
        "train": "yes",
        "wikidata": "Q6094180",
        "wikipedia": "ja:板谷駅"
      }
    },
    {
      "id": "yamagata_station_3647437879",
      "osmId": 3647437879,
      "osmType": "node",
      "prefectureId": "yamagata",
      "type": "station",
      "subtype": "private",
      "name": "置賜",
      "nameKana": "おいたま",
      "nameEn": "Oitama",
      "operator": null,
      "network": null,
      "ref": null,
      "latitude": 37.9542048,
      "longitude": 140.1426729,
      "countryCode": "jp",
      "rawTags": {
        "name": "置賜",
        "name:en": "Oitama",
        "name:ja-Hira": "おいたま",
        "name:ja-Latn": "Oitama",
        "public_transport": "station",
        "railway": "station",
        "source": "KSJ2",
        "train": "yes",
        "wikidata": "Q7081554",
        "wikipedia": "ja:置賜駅"
      }
    },
    {
      "id": "yamagata_station_3647437880",
      "osmId": 3647437880,
      "osmType": "node",
      "prefectureId": "yamagata",
      "type": "station",
      "subtype": "private",
      "name": "大沢",
      "nameKana": "おおさわ",
      "nameEn": "Osawa",
      "operator": null,
      "network": null,
      "ref": null,
      "latitude": 37.837243,
      "longitude": 140.2004877,
      "countryCode": "jp",
      "rawTags": {
        "name": "大沢",
        "name:en": "Osawa",
        "name:ja-Hira": "おおさわ",
        "name:ja-Latn": "Ōsawa",
        "public_transport": "station",
        "railway": "station",
        "source": "KSJ2",
        "train": "yes",
        "wikidata": "Q8081694",
        "wikipedia": "ja:大沢駅 (山形県)"
      }
    },
    {
      "id": "yamagata_station_3647437882",
      "osmId": 3647437882,
      "osmType": "node",
      "prefectureId": "yamagata",
      "type": "station",
      "subtype": "private",
      "name": "関根",
      "nameKana": "せきね",
      "nameEn": "Sekine",
      "operator": null,
      "network": null,
      "ref": null,
      "latitude": 37.8645587,
      "longitude": 140.1464009,
      "countryCode": "jp",
      "rawTags": {
        "name": "関根",
        "name:en": "Sekine",
        "name:ja-Hira": "せきね",
        "name:ja-Latn": "Sekine",
        "public_transport": "station",
        "railway": "station",
        "source": "KSJ2",
        "train": "yes",
        "wikidata": "Q7447205",
        "wikipedia": "ja:関根駅"
      }
    },
    {
      "id": "yamagata_station_3647437883",
      "osmId": 3647437883,
      "osmType": "node",
      "prefectureId": "yamagata",
      "type": "station",
      "subtype": "private",
      "name": "高畠",
      "nameKana": "たかはた",
      "nameEn": "Takahata",
      "operator": null,
      "network": null,
      "ref": null,
      "latitude": 37.992415,
      "longitude": 140.1531311,
      "countryCode": "jp",
      "rawTags": {
        "name": "高畠",
        "name:de": "Takahata",
        "name:en": "Takahata",
        "name:ja-Hira": "たかはた",
        "name:ja-Latn": "Takahata",
        "public_transport": "station",
        "railway": "station",
        "source": "KSJ2",
        "train": "yes",
        "wikidata": "Q1137123",
        "wikipedia": "ja:高畠駅"
      }
    },
    {
      "id": "yamagata_station_3647437885",
      "osmId": 3647437885,
      "osmType": "node",
      "prefectureId": "yamagata",
      "type": "station",
      "subtype": "private",
      "name": "峠",
      "nameKana": "とうげ",
      "nameEn": "Toge",
      "operator": null,
      "network": null,
      "ref": null,
      "latitude": 37.8123789,
      "longitude": 140.2355137,
      "countryCode": "jp",
      "rawTags": {
        "name": "峠",
        "name:en": "Toge",
        "name:ja-Hira": "とうげ",
        "name:ja-Latn": "Tōge",
        "public_transport": "station",
        "railway": "station",
        "source": "KSJ2",
        "train": "yes",
        "wikidata": "Q7862650",
        "wikipedia": "ja:峠駅"
      }
    },
    {
      "id": "yamagata_station_3647437886",
      "osmId": 3647437886,
      "osmType": "node",
      "prefectureId": "yamagata",
      "type": "station",
      "subtype": "private",
      "name": "米沢",
      "nameKana": "よねざわ",
      "nameEn": "Yonezawa",
      "operator": null,
      "network": null,
      "ref": null,
      "latitude": 37.9094986,
      "longitude": 140.1283425,
      "countryCode": "jp",
      "rawTags": {
        "name": "米沢",
        "name:de": "Yonezawa",
        "name:en": "Yonezawa",
        "name:ja": "米沢",
        "name:ja-Hira": "よねざわ",
        "name:ja-Latn": "Yonezawa",
        "name:ko": "요네자와",
        "public_transport": "station",
        "railway": "station",
        "source": "KSJ2",
        "train": "yes",
        "wikidata": "Q1137040",
        "wikipedia": "ja:米沢駅"
      }
    },
    {
      "id": "yamagata_bus_terminal_5016234250",
      "osmId": 5016234250,
      "osmType": "node",
      "prefectureId": "yamagata",
      "type": "bus_terminal",
      "subtype": null,
      "name": "山交バス 新庄営業所",
      "nameKana": null,
      "nameEn": null,
      "operator": null,
      "network": null,
      "ref": null,
      "latitude": 38.7595797,
      "longitude": 140.3055438,
      "countryCode": "jp",
      "rawTags": {
        "amenity": "bus_station",
        "bus": "yes",
        "name": "山交バス 新庄営業所",
        "name:ja": "山交バス 新庄営業所",
        "public_transport": "station"
      }
    },
    {
      "id": "yamagata_bus_terminal_5027816821",
      "osmId": 5027816821,
      "osmType": "node",
      "prefectureId": "yamagata",
      "type": "bus_terminal",
      "subtype": null,
      "name": "庄交バスターミナル",
      "nameKana": null,
      "nameEn": null,
      "operator": null,
      "network": null,
      "ref": null,
      "latitude": 38.9238128,
      "longitude": 139.8432225,
      "countryCode": "jp",
      "rawTags": {
        "amenity": "bus_station",
        "name": "庄交バスターミナル",
        "name:ja": "庄交バスターミナル"
      }
    },
    {
      "id": "yamagata_bus_terminal_5142568736",
      "osmId": 5142568736,
      "osmType": "node",
      "prefectureId": "yamagata",
      "type": "bus_terminal",
      "subtype": null,
      "name": "山交バス 米沢営業所",
      "nameKana": null,
      "nameEn": "Yamako Bus Yonezawa Office",
      "operator": null,
      "network": null,
      "ref": null,
      "latitude": 37.9094063,
      "longitude": 140.1238633,
      "countryCode": "jp",
      "rawTags": {
        "amenity": "bus_station",
        "bus": "yes",
        "name": "山交バス 米沢営業所",
        "name:en": "Yamako Bus Yonezawa Office",
        "public_transport": "station"
      }
    },
    {
      "id": "yamagata_station_5316014957",
      "osmId": 5316014957,
      "osmType": "node",
      "prefectureId": "yamagata",
      "type": "station",
      "subtype": "private",
      "name": "鶴岡",
      "nameKana": "つるおか",
      "nameEn": "Tsuruoka",
      "operator": null,
      "network": null,
      "ref": null,
      "latitude": 38.7400487,
      "longitude": 139.8359746,
      "countryCode": "jp",
      "rawTags": {
        "name": "鶴岡",
        "name:en": "Tsuruoka",
        "name:ja-Hira": "つるおか",
        "name:ja-Latn": "Tsuruoka",
        "public_transport": "station",
        "railway": "station",
        "source": "GSImaps/ort",
        "train": "yes",
        "wheelchair": "yes",
        "wikipedia": "ja:鶴岡駅"
      }
    },
    {
      "id": "yamagata_station_5599651461",
      "osmId": 5599651461,
      "osmType": "node",
      "prefectureId": "yamagata",
      "type": "station",
      "subtype": "private",
      "name": "酒田",
      "nameKana": "さかた",
      "nameEn": "Sakata",
      "operator": null,
      "network": null,
      "ref": null,
      "latitude": 38.9219999,
      "longitude": 139.8460919,
      "countryCode": "jp",
      "rawTags": {
        "name": "酒田",
        "name:en": "Sakata",
        "name:ja-Hira": "さかた",
        "name:ja-Latn": "Sakata",
        "public_transport": "station",
        "railway": "station",
        "train": "yes",
        "wikidata": "Q11315202",
        "wikipedia": "ja:酒田駅"
      }
    },
    {
      "id": "yamagata_station_5599756028",
      "osmId": 5599756028,
      "osmType": "node",
      "prefectureId": "yamagata",
      "type": "station",
      "subtype": "private",
      "name": "余目",
      "nameKana": "あまるめ",
      "nameEn": "Amarume",
      "operator": null,
      "network": null,
      "ref": null,
      "latitude": 38.8442243,
      "longitude": 139.9115083,
      "countryCode": "jp",
      "rawTags": {
        "name": "余目",
        "name:en": "Amarume",
        "name:ja-Hira": "あまるめ",
        "name:ja-Latn": "Amarume",
        "public_transport": "station",
        "railway": "station",
        "train": "yes",
        "wikidata": "Q4740358",
        "wikipedia": "ja:余目駅"
      }
    },
    {
      "id": "yamagata_station_5599756067",
      "osmId": 5599756067,
      "osmType": "node",
      "prefectureId": "yamagata",
      "type": "station",
      "subtype": "private",
      "name": "北余目",
      "nameKana": null,
      "nameEn": "Kita-Amarume",
      "operator": null,
      "network": null,
      "ref": null,
      "latitude": 38.867623,
      "longitude": 139.9083527,
      "countryCode": "jp",
      "rawTags": {
        "name": "北余目",
        "name:en": "Kita-Amarume",
        "public_transport": "station",
        "railway": "station",
        "train": "yes",
        "wikidata": "Q11401123",
        "wikipedia": "ja:北余目駅"
      }
    },
    {
      "id": "yamagata_station_5599756112",
      "osmId": 5599756112,
      "osmType": "node",
      "prefectureId": "yamagata",
      "type": "station",
      "subtype": "private",
      "name": "砂越",
      "nameKana": null,
      "nameEn": "Sagoshi",
      "operator": null,
      "network": null,
      "ref": null,
      "latitude": 38.894158,
      "longitude": 139.908067,
      "countryCode": "jp",
      "rawTags": {
        "name": "砂越",
        "name:en": "Sagoshi",
        "public_transport": "station",
        "railway": "station",
        "train": "yes",
        "wikidata": "Q7399356",
        "wikipedia": "ja:砂越駅"
      }
    },
    {
      "id": "yamagata_station_5599757441",
      "osmId": 5599757441,
      "osmType": "node",
      "prefectureId": "yamagata",
      "type": "station",
      "subtype": "private",
      "name": "東酒田",
      "nameKana": null,
      "nameEn": "Higashi-Sakata",
      "operator": null,
      "network": null,
      "ref": null,
      "latitude": 38.9076843,
      "longitude": 139.8754594,
      "countryCode": "jp",
      "rawTags": {
        "name": "東酒田",
        "name:en": "Higashi-Sakata",
        "public_transport": "station",
        "railway": "station",
        "train": "yes",
        "wikidata": "Q11528576",
        "wikipedia": "ja:東酒田駅"
      }
    },
    {
      "id": "yamagata_station_5599762502",
      "osmId": 5599762502,
      "osmType": "node",
      "prefectureId": "yamagata",
      "type": "station",
      "subtype": "private",
      "name": "南鳥海",
      "nameKana": null,
      "nameEn": "Minamichōkai",
      "operator": null,
      "network": null,
      "ref": null,
      "latitude": 38.9876503,
      "longitude": 139.8989206,
      "countryCode": "jp",
      "rawTags": {
        "name": "南鳥海",
        "name:en": "Minamichōkai",
        "public_transport": "station",
        "railway": "station",
        "train": "yes",
        "wikidata": "Q11408820",
        "wikipedia": "ja:南鳥海駅"
      }
    },
    {
      "id": "yamagata_station_5600266463",
      "osmId": 5600266463,
      "osmType": "node",
      "prefectureId": "yamagata",
      "type": "station",
      "subtype": "private",
      "name": "西袋",
      "nameKana": null,
      "nameEn": "Nishibukuro",
      "operator": null,
      "network": null,
      "ref": null,
      "latitude": 38.8118999,
      "longitude": 139.9079751,
      "countryCode": "jp",
      "rawTags": {
        "name": "西袋",
        "name:en": "Nishibukuro",
        "public_transport": "station",
        "railway": "station",
        "train": "yes",
        "wikidata": "Q7040516",
        "wikipedia": "ja:西袋駅"
      }
    },
    {
      "id": "yamagata_station_5600266488",
      "osmId": 5600266488,
      "osmType": "node",
      "prefectureId": "yamagata",
      "type": "station",
      "subtype": "private",
      "name": "藤島",
      "nameKana": null,
      "nameEn": "Fujishima",
      "operator": null,
      "network": null,
      "ref": null,
      "latitude": 38.7689066,
      "longitude": 139.8945165,
      "countryCode": "jp",
      "rawTags": {
        "name": "藤島",
        "name:en": "Fujishima",
        "public_transport": "station",
        "railway": "station",
        "train": "yes",
        "wikidata": "Q5507482",
        "wikipedia": "ja:藤島駅"
      }
    },
    {
      "id": "yamagata_station_5600527524",
      "osmId": 5600527524,
      "osmType": "node",
      "prefectureId": "yamagata",
      "type": "station",
      "subtype": "private",
      "name": "本楯",
      "nameKana": null,
      "nameEn": "Mototate",
      "operator": null,
      "network": null,
      "ref": null,
      "latitude": 38.9688145,
      "longitude": 139.8823285,
      "countryCode": "jp",
      "rawTags": {
        "name": "本楯",
        "name:en": "Mototate",
        "public_transport": "station",
        "railway": "station",
        "train": "yes",
        "wikidata": "Q11520458",
        "wikipedia": "ja:本楯駅"
      }
    },
    {
      "id": "yamagata_station_5602768990",
      "osmId": 5602768990,
      "osmType": "node",
      "prefectureId": "yamagata",
      "type": "station",
      "subtype": "private",
      "name": "女鹿",
      "nameKana": null,
      "nameEn": "Mega",
      "operator": null,
      "network": null,
      "ref": null,
      "latitude": 39.0989771,
      "longitude": 139.8809418,
      "countryCode": "jp",
      "rawTags": {
        "name": "女鹿",
        "name:en": "Mega",
        "public_transport": "station",
        "railway": "station",
        "source": "GSImaps/ort",
        "train": "yes",
        "wikidata": "Q6808127",
        "wikipedia": "ja:女鹿駅"
      }
    },
    {
      "id": "yamagata_station_5643114266",
      "osmId": 5643114266,
      "osmType": "node",
      "prefectureId": "yamagata",
      "type": "station",
      "subtype": "private",
      "name": "鼠ヶ関",
      "nameKana": null,
      "nameEn": "Nezugaseki",
      "operator": null,
      "network": null,
      "ref": null,
      "latitude": 38.5556283,
      "longitude": 139.548666,
      "countryCode": "jp",
      "rawTags": {
        "name": "鼠ヶ関",
        "name:en": "Nezugaseki",
        "public_transport": "station",
        "railway": "station",
        "source": "KSJ2",
        "train": "yes",
        "wikidata": "Q7021636",
        "wikipedia": "ja:鼠ケ関駅"
      }
    },
    {
      "id": "yamagata_station_5643401407",
      "osmId": 5643401407,
      "osmType": "node",
      "prefectureId": "yamagata",
      "type": "station",
      "subtype": "private",
      "name": "小波渡",
      "nameKana": null,
      "nameEn": "Kobato",
      "operator": null,
      "network": null,
      "ref": null,
      "latitude": 38.6922051,
      "longitude": 139.649559,
      "countryCode": "jp",
      "rawTags": {
        "name": "小波渡",
        "name:en": "Kobato",
        "public_transport": "station",
        "railway": "station",
        "source": "KSJ2",
        "train": "yes",
        "wikidata": "Q11462584",
        "wikipedia": "ja:小波渡駅"
      }
    },
    {
      "id": "yamagata_station_5643401854",
      "osmId": 5643401854,
      "osmType": "node",
      "prefectureId": "yamagata",
      "type": "station",
      "subtype": "private",
      "name": "羽前水沢",
      "nameKana": null,
      "nameEn": "Uzen-Mizusawa",
      "operator": null,
      "network": null,
      "ref": null,
      "latitude": 38.7139303,
      "longitude": 139.7323085,
      "countryCode": "jp",
      "rawTags": {
        "name": "羽前水沢",
        "name:en": "Uzen-Mizusawa",
        "public_transport": "station",
        "railway": "station",
        "source": "GSImaps/ort",
        "train": "yes",
        "wikidata": "Q7904833",
        "wikipedia": "ja:羽前水沢駅"
      }
    },
    {
      "id": "yamagata_station_5643401960",
      "osmId": 5643401960,
      "osmType": "node",
      "prefectureId": "yamagata",
      "type": "station",
      "subtype": "private",
      "name": "羽前大山",
      "nameKana": null,
      "nameEn": "Uzen-Oyama",
      "operator": null,
      "network": null,
      "ref": null,
      "latitude": 38.7421011,
      "longitude": 139.7673838,
      "countryCode": "jp",
      "rawTags": {
        "name": "羽前大山",
        "name:en": "Uzen-Oyama",
        "public_transport": "station",
        "railway": "station",
        "source": "GSImaps/ort",
        "train": "yes",
        "wikidata": "Q7904901",
        "wikipedia": "ja:羽前大山駅"
      }
    },
    {
      "id": "yamagata_station_5643402055",
      "osmId": 5643402055,
      "osmType": "node",
      "prefectureId": "yamagata",
      "type": "station",
      "subtype": "jr",
      "name": "あつみ温泉",
      "nameKana": null,
      "nameEn": "Atsumi Onsen",
      "operator": "東日本旅客鉄道",
      "network": "JR羽越線",
      "ref": null,
      "latitude": 38.6243926,
      "longitude": 139.58794,
      "countryCode": "jp",
      "rawTags": {
        "name": "あつみ温泉",
        "name:en": "Atsumi Onsen",
        "network": "JR羽越線",
        "operator": "東日本旅客鉄道",
        "public_transport": "station",
        "railway": "station",
        "source": "GSImaps/ort",
        "train": "yes",
        "wikidata": "Q4817784",
        "wikipedia": "ja:あつみ温泉駅"
      }
    },
    {
      "id": "yamagata_station_5643765888",
      "osmId": 5643765888,
      "osmType": "node",
      "prefectureId": "yamagata",
      "type": "station",
      "subtype": "private",
      "name": "小岩川",
      "nameKana": null,
      "nameEn": "Koiwagawa",
      "operator": null,
      "network": null,
      "ref": null,
      "latitude": 38.5906138,
      "longitude": 139.5662516,
      "countryCode": "jp",
      "rawTags": {
        "name": "小岩川",
        "name:en": "Koiwagawa",
        "public_transport": "station",
        "railway": "station",
        "source": "GSImaps/ort",
        "train": "yes",
        "wikidata": "Q6426382",
        "wikipedia": "ja:小岩川駅"
      }
    },
    {
      "id": "yamagata_station_5690634860",
      "osmId": 5690634860,
      "osmType": "node",
      "prefectureId": "yamagata",
      "type": "station",
      "subtype": "private",
      "name": "五十川",
      "nameKana": "いらがわ",
      "nameEn": "Iragawa",
      "operator": null,
      "network": null,
      "ref": null,
      "latitude": 38.6705752,
      "longitude": 139.6163171,
      "countryCode": "jp",
      "rawTags": {
        "name": "五十川",
        "name:en": "Iragawa",
        "name:ja-Hira": "いらがわ",
        "name:ja-Latn": "Iragawa",
        "public_transport": "station",
        "railway": "station",
        "source": "GSImaps/ort",
        "train": "yes",
        "wikidata": "Q6066383",
        "wikipedia": "ja:五十川駅"
      }
    },
    {
      "id": "yamagata_station_5698959732",
      "osmId": 5698959732,
      "osmType": "node",
      "prefectureId": "yamagata",
      "type": "station",
      "subtype": "private",
      "name": "遊佐",
      "nameKana": "ゆざ",
      "nameEn": "Yuza",
      "operator": null,
      "network": null,
      "ref": null,
      "latitude": 39.0157418,
      "longitude": 139.9050489,
      "countryCode": "jp",
      "rawTags": {
        "name": "遊佐",
        "name:en": "Yuza",
        "name:ja": "遊佐",
        "name:ja-Hira": "ゆざ",
        "public_transport": "station",
        "railway": "station",
        "train": "yes",
        "wikidata": "Q8062241",
        "wikipedia": "ja:遊佐駅"
      }
    },
    {
      "id": "yamagata_station_5698999022",
      "osmId": 5698999022,
      "osmType": "node",
      "prefectureId": "yamagata",
      "type": "station",
      "subtype": "private",
      "name": "吹浦",
      "nameKana": "ふくら",
      "nameEn": "Fukura",
      "operator": null,
      "network": null,
      "ref": null,
      "latitude": 39.0695979,
      "longitude": 139.8789577,
      "countryCode": "jp",
      "rawTags": {
        "name": "吹浦",
        "name:en": "Fukura",
        "name:ja": "吹浦",
        "name:ja-Hira": "ふくら",
        "public_transport": "station",
        "railway": "station",
        "wikidata": "Q5507708",
        "wikipedia": "ja:吹浦駅"
      }
    },
    {
      "id": "yamagata_station_5874358662",
      "osmId": 5874358662,
      "osmType": "node",
      "prefectureId": "yamagata",
      "type": "station",
      "subtype": "private",
      "name": "南米沢",
      "nameKana": "みなみよねざわ",
      "nameEn": "Minami-Yonezawa",
      "operator": null,
      "network": null,
      "ref": null,
      "latitude": 37.8960733,
      "longitude": 140.1081558,
      "countryCode": "jp",
      "rawTags": {
        "name": "南米沢",
        "name:en": "Minami-Yonezawa",
        "name:ja-Hira": "みなみよねざわ",
        "name:ja-Latn": "Minamiyonezawa",
        "public_transport": "station",
        "railway": "station",
        "source": "KSJ2",
        "train": "yes",
        "wikidata": "Q11408340",
        "wikipedia": "ja:南米沢駅"
      }
    },
    {
      "id": "yamagata_station_5882155432",
      "osmId": 5882155432,
      "osmType": "node",
      "prefectureId": "yamagata",
      "type": "station",
      "subtype": "private",
      "name": "成島",
      "nameKana": null,
      "nameEn": "Narushima",
      "operator": null,
      "network": null,
      "ref": null,
      "latitude": 37.943216,
      "longitude": 140.0755388,
      "countryCode": "jp",
      "rawTags": {
        "name": "成島",
        "name:en": "Narushima",
        "public_transport": "station",
        "railway": "station",
        "source": "KSJ2",
        "train": "yes",
        "wikidata": "Q6966476",
        "wikipedia": "ja:成島駅 (山形県)"
      }
    },
    {
      "id": "yamagata_ferry_terminal_5923150199",
      "osmId": 5923150199,
      "osmType": "node",
      "prefectureId": "yamagata",
      "type": "ferry_terminal",
      "subtype": null,
      "name": "定期船とびしま",
      "nameKana": null,
      "nameEn": null,
      "operator": null,
      "network": null,
      "ref": null,
      "latitude": 38.9138338,
      "longitude": 139.8297448,
      "countryCode": "jp",
      "rawTags": {
        "amenity": "ferry_terminal",
        "name": "定期船とびしま"
      }
    },
    {
      "id": "yamagata_station_6122074672",
      "osmId": 6122074672,
      "osmType": "node",
      "prefectureId": "yamagata",
      "type": "station",
      "subtype": "private",
      "name": "真室川",
      "nameKana": "まむろがわ",
      "nameEn": "Mamurogawa",
      "operator": null,
      "network": null,
      "ref": null,
      "latitude": 38.8582665,
      "longitude": 140.2546016,
      "countryCode": "jp",
      "rawTags": {
        "name": "真室川",
        "name:en": "Mamurogawa",
        "name:ja-Hira": "まむろがわ",
        "name:ja-Latn": "Mamurogawa",
        "public_transport": "station",
        "railway": "station",
        "source": "KSJ2",
        "train": "yes",
        "website": "https://www.jreast.co.jp/estation/station/info.aspx?StationCd=1451",
        "wikidata": "Q6746035",
        "wikipedia": "ja:真室川駅"
      }
    },
    {
      "id": "yamagata_station_6122174914",
      "osmId": 6122174914,
      "osmType": "node",
      "prefectureId": "yamagata",
      "type": "station",
      "subtype": "private",
      "name": "羽前豊里",
      "nameKana": "うぜんとよさと",
      "nameEn": "Uzen-Toyosato",
      "operator": null,
      "network": null,
      "ref": null,
      "latitude": 38.8364589,
      "longitude": 140.2422407,
      "countryCode": "jp",
      "rawTags": {
        "name": "羽前豊里",
        "name:en": "Uzen-Toyosato",
        "name:ja-Hira": "うぜんとよさと",
        "name:ja-Latn": "Uzentoyosato",
        "public_transport": "station",
        "railway": "station",
        "source": "KSJ2",
        "train": "yes",
        "website": "https://www.jreast.co.jp/estation/station/info.aspx?StationCd=235",
        "wikidata": "Q7904875",
        "wikipedia": "ja:羽前豊里駅"
      }
    },
    {
      "id": "yamagata_station_6125249153",
      "osmId": 6125249153,
      "osmType": "node",
      "prefectureId": "yamagata",
      "type": "station",
      "subtype": "private",
      "name": "中郡",
      "nameKana": "ちゅうぐん",
      "nameEn": "Chugun",
      "operator": null,
      "network": null,
      "ref": null,
      "latitude": 37.9690403,
      "longitude": 140.0671656,
      "countryCode": "jp",
      "rawTags": {
        "name": "中郡",
        "name:en": "Chugun",
        "name:ja-Hira": "ちゅうぐん",
        "name:ja-Latn": "Chūgun",
        "public_transport": "station",
        "railway": "station",
        "source": "KSJ2",
        "train": "yes",
        "wikidata": "Q5119017",
        "wikipedia": "ja:中郡駅 (山形県)"
      }
    },
    {
      "id": "yamagata_station_6125953735",
      "osmId": 6125953735,
      "osmType": "node",
      "prefectureId": "yamagata",
      "type": "station",
      "subtype": "private",
      "name": "羽前沼沢",
      "nameKana": "うぜんぬまざわ",
      "nameEn": "Uzen-Numazawa",
      "operator": null,
      "network": null,
      "ref": null,
      "latitude": 38.0285567,
      "longitude": 139.872584,
      "countryCode": "jp",
      "rawTags": {
        "name": "羽前沼沢",
        "name:en": "Uzen-Numazawa",
        "name:ja-Hira": "うぜんぬまざわ",
        "name:ja-Latn": "Uzennumazawa",
        "public_transport": "station",
        "railway": "station",
        "source": "KSJ2",
        "train": "yes",
        "wikidata": "Q7904862",
        "wikipedia": "ja:羽前沼沢駅"
      }
    },
    {
      "id": "yamagata_station_6125953736",
      "osmId": 6125953736,
      "osmType": "node",
      "prefectureId": "yamagata",
      "type": "station",
      "subtype": "private",
      "name": "手ノ子",
      "nameKana": "てのこ",
      "nameEn": null,
      "operator": null,
      "network": null,
      "ref": null,
      "latitude": 38.012035,
      "longitude": 139.9615663,
      "countryCode": "jp",
      "rawTags": {
        "name": "手ノ子",
        "name:ja": "手ノ子",
        "name:ja-Hira": "てのこ",
        "name:ja-Latn": "Tenoko",
        "name:ko": "데노코",
        "public_transport": "station",
        "railway": "station",
        "source": "KSJ2",
        "train": "yes",
        "wikidata": "Q7700549",
        "wikipedia": "ja:手ノ子駅"
      }
    },
    {
      "id": "yamagata_station_6125953739",
      "osmId": 6125953739,
      "osmType": "node",
      "prefectureId": "yamagata",
      "type": "station",
      "subtype": "private",
      "name": "羽前椿",
      "nameKana": "うぜんつばき",
      "nameEn": "Uzen-Tsubaki",
      "operator": null,
      "network": null,
      "ref": null,
      "latitude": 38.0386277,
      "longitude": 139.9941739,
      "countryCode": "jp",
      "rawTags": {
        "name": "羽前椿",
        "name:en": "Uzen-Tsubaki",
        "name:ja-Hira": "うぜんつばき",
        "name:ja-Latn": "Uzentsubaki",
        "public_transport": "station",
        "railway": "station",
        "source": "KSJ2",
        "train": "yes",
        "wikidata": "Q7904882",
        "wikipedia": "ja:羽前椿駅"
      }
    },
    {
      "id": "yamagata_station_6125953741",
      "osmId": 6125953741,
      "osmType": "node",
      "prefectureId": "yamagata",
      "type": "station",
      "subtype": "private",
      "name": "萩生",
      "nameKana": "はぎゅう",
      "nameEn": "Hagyu",
      "operator": null,
      "network": null,
      "ref": null,
      "latitude": 38.0621577,
      "longitude": 140.0044857,
      "countryCode": "jp",
      "rawTags": {
        "name": "萩生",
        "name:en": "Hagyu",
        "name:ja-Hira": "はぎゅう",
        "name:ja-Latn": "Hagyū",
        "public_transport": "station",
        "railway": "station",
        "source": "KSJ2",
        "train": "yes",
        "wikidata": "Q5638863",
        "wikipedia": "ja:萩生駅"
      }
    },
    {
      "id": "yamagata_station_6125964348",
      "osmId": 6125964348,
      "osmType": "node",
      "prefectureId": "yamagata",
      "type": "station",
      "subtype": "private",
      "name": "小国",
      "nameKana": "おぐに",
      "nameEn": "Oguni",
      "operator": null,
      "network": null,
      "ref": null,
      "latitude": 38.061418,
      "longitude": 139.7502082,
      "countryCode": "jp",
      "rawTags": {
        "name": "小国",
        "name:en": "Oguni",
        "name:ja-Hira": "おぐに",
        "name:ja-Latn": "Oguni",
        "public_transport": "station",
        "railway": "station",
        "source": "KSJ2",
        "train": "yes",
        "wikidata": "Q7080290",
        "wikipedia": "ja:小国駅"
      }
    },
    {
      "id": "yamagata_station_6125964349",
      "osmId": 6125964349,
      "osmType": "node",
      "prefectureId": "yamagata",
      "type": "station",
      "subtype": "private",
      "name": "伊佐領",
      "nameKana": "いさりょう",
      "nameEn": "Isaryo",
      "operator": null,
      "network": null,
      "ref": null,
      "latitude": 38.0509974,
      "longitude": 139.8228747,
      "countryCode": "jp",
      "rawTags": {
        "name": "伊佐領",
        "name:en": "Isaryo",
        "name:ja-Hira": "いさりょう",
        "name:ja-Latn": "Isaryō",
        "public_transport": "station",
        "railway": "station",
        "source": "KSJ2",
        "train": "yes",
        "wikidata": "Q6078999",
        "wikipedia": "ja:伊佐領駅"
      }
    },
    {
      "id": "yamagata_station_6126052051",
      "osmId": 6126052051,
      "osmType": "node",
      "prefectureId": "yamagata",
      "type": "station",
      "subtype": "private",
      "name": "荒砥",
      "nameKana": "あらと",
      "nameEn": "Arato",
      "operator": null,
      "network": null,
      "ref": null,
      "latitude": 38.1879827,
      "longitude": 140.0975825,
      "countryCode": "jp",
      "rawTags": {
        "image": "https://flower-liner.jp/wp/wp-content/uploads/2016/01/arato.jpg",
        "mapillary": "303362241284620",
        "name": "荒砥",
        "name:en": "Arato",
        "name:ja": "荒砥",
        "name:ja-Hira": "あらと",
        "name:ja-Latn": "Arato",
        "opening_hours": "Mo-Fr 10:00-17:00; Sa-Su,PH off",
        "phone": "+81 0238-85-2016",
        "public_transport": "station",
        "railway": "station",
        "source": "KSJ2",
        "website": "https://flower-liner.jp/about/station/",
        "wikidata": "Q4784437",
        "wikipedia": "ja:荒砥駅"
      }
    },
    {
      "id": "yamagata_station_6126052055",
      "osmId": 6126052055,
      "osmType": "node",
      "prefectureId": "yamagata",
      "type": "station",
      "subtype": "private",
      "name": "四季の郷",
      "nameKana": "しきのさと",
      "nameEn": "Shikinosato",
      "operator": null,
      "network": null,
      "ref": null,
      "latitude": 38.1858218,
      "longitude": 140.0776309,
      "countryCode": "jp",
      "rawTags": {
        "mapillary": "927975984717522",
        "name": "四季の郷",
        "name:en": "Shikinosato",
        "name:ja": "四季の郷",
        "name:ja-Hira": "しきのさと",
        "name:ja-Latn": "Shikinosato",
        "public_transport": "station",
        "railway": "station",
        "source": "KSJ2",
        "website": "https://flower-liner.jp/result_eki/?josyaeki=2",
        "wikidata": "Q7496595",
        "wikipedia": "ja:四季の郷駅"
      }
    },
    {
      "id": "yamagata_station_6126052056",
      "osmId": 6126052056,
      "osmType": "node",
      "prefectureId": "yamagata",
      "type": "station",
      "subtype": "private",
      "name": "鮎貝",
      "nameKana": "あゆかい",
      "nameEn": "Ayukai",
      "operator": null,
      "network": null,
      "ref": null,
      "latitude": 38.1826087,
      "longitude": 140.0710219,
      "countryCode": "jp",
      "rawTags": {
        "mapillary": "469758630966830",
        "name": "鮎貝",
        "name:en": "Ayukai",
        "name:ja": "鮎貝",
        "name:ja-Hira": "あゆかい",
        "name:ja-Latn": "Ayukai",
        "public_transport": "station",
        "railway": "station",
        "source": "KSJ2",
        "website": "https://flower-liner.jp/result_eki/?josyaeki=3",
        "wikidata": "Q4831792",
        "wikipedia": "ja:鮎貝駅"
      }
    },
    {
      "id": "yamagata_station_6126052068",
      "osmId": 6126052068,
      "osmType": "node",
      "prefectureId": "yamagata",
      "type": "station",
      "subtype": "private",
      "name": "蚕桑",
      "nameKana": "こぐわ",
      "nameEn": "Koguwa",
      "operator": null,
      "network": null,
      "ref": null,
      "latitude": 38.1613789,
      "longitude": 140.0468579,
      "countryCode": "jp",
      "rawTags": {
        "mapillary": "790673288503953",
        "name": "蚕桑",
        "name:en": "Koguwa",
        "name:ja": "蚕桑",
        "name:ja-Hira": "こぐわ",
        "name:ja-Latn": "Koguwa",
        "public_transport": "station",
        "railway": "station",
        "source": "KSJ2",
        "website": "https://flower-liner.jp/result_eki/?josyaeki=4",
        "wikidata": "Q6425837",
        "wikipedia": "ja:蚕桑駅"
      }
    },
    {
      "id": "yamagata_station_6126052071",
      "osmId": 6126052071,
      "osmType": "node",
      "prefectureId": "yamagata",
      "type": "station",
      "subtype": "private",
      "name": "白兎",
      "nameKana": "しろうさぎ",
      "nameEn": "Shirousagi",
      "operator": null,
      "network": null,
      "ref": null,
      "latitude": 38.1501321,
      "longitude": 140.0410764,
      "countryCode": "jp",
      "rawTags": {
        "mapillary": "306043057628324",
        "name": "白兎",
        "name:en": "Shirousagi",
        "name:ja": "白兎",
        "name:ja-Hira": "しろうさぎ",
        "name:ja-Latn": "Shirousagi",
        "public_transport": "station",
        "railway": "station",
        "source": "KSJ2",
        "website": "https://flower-liner.jp/result_eki/?josyaeki=5",
        "wikidata": "Q7498961",
        "wikipedia": "ja:白兎駅"
      }
    },
    {
      "id": "yamagata_station_6126052079",
      "osmId": 6126052079,
      "osmType": "node",
      "prefectureId": "yamagata",
      "type": "station",
      "subtype": "private",
      "name": "長井",
      "nameKana": "ながい",
      "nameEn": "Nagai",
      "operator": null,
      "network": null,
      "ref": null,
      "latitude": 38.1065942,
      "longitude": 140.0336548,
      "countryCode": "jp",
      "rawTags": {
        "mapillary": "534259151071611",
        "name": "長井",
        "name:en": "Nagai",
        "name:ja": "長井",
        "name:ja-Hira": "ながい",
        "name:ja-Latn": "Nagai",
        "opening_hours": "10:00-17:30",
        "phone": "+81 0238-84-1529",
        "public_transport": "station",
        "railway": "station",
        "source": "KSJ2",
        "website": "https://flower-liner.jp/about/station/",
        "wikidata": "Q6958355",
        "wikipedia": "ja:長井駅"
      }
    },
    {
      "id": "yamagata_station_6126052084",
      "osmId": 6126052084,
      "osmType": "node",
      "prefectureId": "yamagata",
      "type": "station",
      "subtype": "private",
      "name": "あやめ公園",
      "nameKana": "あやめこうえん",
      "nameEn": "Ayame-Koen",
      "operator": null,
      "network": null,
      "ref": null,
      "latitude": 38.1140176,
      "longitude": 140.0326945,
      "countryCode": "jp",
      "rawTags": {
        "mapillary": "240281574559553",
        "name": "あやめ公園",
        "name:en": "Ayame-Koen",
        "name:ja": "あやめ公園",
        "name:ja-Hira": "あやめこうえん",
        "name:ja-Latn": "Ayamekōen",
        "public_transport": "station",
        "railway": "station",
        "source": "KSJ2",
        "website": "https://flower-liner.jp/result_eki/?josyaeki=7",
        "wikidata": "Q4830896",
        "wikipedia": "ja:あやめ公園駅"
      }
    },
    {
      "id": "yamagata_station_6126052393",
      "osmId": 6126052393,
      "osmType": "node",
      "prefectureId": "yamagata",
      "type": "station",
      "subtype": "private",
      "name": "南長井",
      "nameKana": "みなみながい",
      "nameEn": "Minami-Nagai",
      "operator": null,
      "network": null,
      "ref": null,
      "latitude": 38.0974434,
      "longitude": 140.0346592,
      "countryCode": "jp",
      "rawTags": {
        "mapillary": "261178342454351",
        "name": "南長井",
        "name:en": "Minami-Nagai",
        "name:ja": "南長井",
        "name:ja-Hira": "みなみながい",
        "name:ja-Latn": "Minaminagai",
        "public_transport": "station",
        "railway": "station",
        "source": "KSJ2",
        "website": "https://flower-liner.jp/result_eki/?josyaeki=9",
        "wikidata": "Q11408692",
        "wikipedia": "ja:南長井駅"
      }
    },
    {
      "id": "yamagata_station_6126052397",
      "osmId": 6126052397,
      "osmType": "node",
      "prefectureId": "yamagata",
      "type": "station",
      "subtype": "private",
      "name": "時庭",
      "nameKana": "ときにわ",
      "nameEn": "Tokiniwa",
      "operator": null,
      "network": null,
      "ref": null,
      "latitude": 38.0768771,
      "longitude": 140.0297508,
      "countryCode": "jp",
      "rawTags": {
        "mapillary": "978904676282386",
        "name": "時庭",
        "name:en": "Tokiniwa",
        "name:ja": "時庭",
        "name:ja-Hira": "ときにわ",
        "name:ja-Latn": "Tokiniwa",
        "public_transport": "station",
        "railway": "station",
        "source": "KSJ2",
        "train": "yes",
        "website": "https://flower-liner.jp/result_eki/?josyaeki=10",
        "wikidata": "Q7813599",
        "wikipedia": "ja:時庭駅"
      }
    },
    {
      "id": "yamagata_station_6126052403",
      "osmId": 6126052403,
      "osmType": "node",
      "prefectureId": "yamagata",
      "type": "station",
      "subtype": "private",
      "name": "赤湯",
      "nameKana": "あかゆ",
      "nameEn": "Akayu",
      "operator": "山形鉄道株式会社",
      "network": null,
      "ref": null,
      "latitude": 38.0477732,
      "longitude": 140.1489173,
      "countryCode": "jp",
      "rawTags": {
        "name": "赤湯",
        "name:de": "Akayu",
        "name:en": "Akayu",
        "name:ja": "赤湯",
        "name:ja-Hira": "あかゆ",
        "name:ja-Latn": "Akayu",
        "opening_hours": "Mo-Sa 10:30-19:00; Su,PH off",
        "operator": "山形鉄道株式会社",
        "operator:website": "https://flower-liner.jp/",
        "phone": "+81 23-8433-440",
        "public_transport": "station",
        "railway": "station",
        "source": "KSJ2",
        "train": "yes",
        "website": "https://flower-liner.jp/about/station/",
        "wikidata": "Q1137103",
        "wikipedia": "ja:赤湯駅"
      }
    },
    {
      "id": "yamagata_station_6126052408",
      "osmId": 6126052408,
      "osmType": "node",
      "prefectureId": "yamagata",
      "type": "station",
      "subtype": "private",
      "name": "南陽市役所",
      "nameKana": "なんようしやくしょ",
      "nameEn": "Nanyo-Shiyakusho",
      "operator": null,
      "network": null,
      "ref": null,
      "latitude": 38.0553737,
      "longitude": 140.1491345,
      "countryCode": "jp",
      "rawTags": {
        "name": "南陽市役所",
        "name:en": "Nanyo-Shiyakusho",
        "name:ja": "南陽市役所",
        "name:ja-Hira": "なんようしやくしょ",
        "name:ja-Latn": "Nanyōsiyakusho",
        "public_transport": "station",
        "railway": "station",
        "source": "KSJ2",
        "website": "https://flower-liner.jp/result_eki/?josyaeki=16",
        "wikidata": "Q6964486",
        "wikipedia": "ja:南陽市役所駅"
      }
    },
    {
      "id": "yamagata_station_6126052419",
      "osmId": 6126052419,
      "osmType": "node",
      "prefectureId": "yamagata",
      "type": "station",
      "subtype": "private",
      "name": "宮内",
      "nameKana": "みやうち",
      "nameEn": "Miyauchi",
      "operator": null,
      "network": null,
      "ref": null,
      "latitude": 38.0709227,
      "longitude": 140.1350999,
      "countryCode": "jp",
      "rawTags": {
        "name": "宮内",
        "name:en": "Miyauchi",
        "name:ja": "宮内",
        "name:ja-Hira": "みやうち",
        "name:ja-Latn": "Miyauchi",
        "opening_hours": "10:20-16:50; Mo,We off",
        "phone": "+81 0238-40-0560",
        "public_transport": "station",
        "railway": "station",
        "source": "KSJ2",
        "train": "yes",
        "website": "https://flower-liner.jp/about/station/",
        "wikidata": "Q6884431",
        "wikipedia": "ja:宮内駅 (山形県)"
      }
    },
    {
      "id": "yamagata_station_6126052425",
      "osmId": 6126052425,
      "osmType": "node",
      "prefectureId": "yamagata",
      "type": "station",
      "subtype": "private",
      "name": "おりはた",
      "nameKana": "おりはた",
      "nameEn": "Orihata",
      "operator": null,
      "network": null,
      "ref": null,
      "latitude": 38.0664757,
      "longitude": 140.1225351,
      "countryCode": "jp",
      "rawTags": {
        "name": "おりはた",
        "name:en": "Orihata",
        "name:ja": "おりはた",
        "name:ja-Hira": "おりはた",
        "name:ja-Latn": "Orihata",
        "public_transport": "station",
        "railway": "station",
        "source": "KSJ2",
        "train": "yes",
        "website": "https://flower-liner.jp/result_eki/?josyaeki=14",
        "wikidata": "Q7102656",
        "wikipedia": "ja:おりはた駅"
      }
    },
    {
      "id": "yamagata_station_6126052430",
      "osmId": 6126052430,
      "osmType": "node",
      "prefectureId": "yamagata",
      "type": "station",
      "subtype": "private",
      "name": "梨郷",
      "nameKana": "りんごう",
      "nameEn": "Ringo",
      "operator": null,
      "network": null,
      "ref": null,
      "latitude": 38.0573441,
      "longitude": 140.0985199,
      "countryCode": "jp",
      "rawTags": {
        "name": "梨郷",
        "name:en": "Ringo",
        "name:ja": "梨郷",
        "name:ja-Hira": "りんごう",
        "name:ja-Latn": "Ringō",
        "public_transport": "station",
        "railway": "station",
        "source": "KSJ2",
        "train": "yes",
        "website": "https://flower-liner.jp/result_eki/?josyaeki=13",
        "wikidata": "Q7335039",
        "wikipedia": "ja:梨郷駅"
      }
    },
    {
      "id": "yamagata_station_6126052442",
      "osmId": 6126052442,
      "osmType": "node",
      "prefectureId": "yamagata",
      "type": "station",
      "subtype": "private",
      "name": "西大塚",
      "nameKana": "にしおおつか",
      "nameEn": "Nishi-Otsuka",
      "operator": null,
      "network": null,
      "ref": null,
      "latitude": 38.0553858,
      "longitude": 140.0643104,
      "countryCode": "jp",
      "rawTags": {
        "name": "西大塚",
        "name:en": "Nishi-Otsuka",
        "name:ja": "西大塚",
        "name:ja-Hira": "にしおおつか",
        "name:ja-Latn": "Nishiōtsuka",
        "name:ko": "니시오쓰카",
        "railway": "station",
        "source": "KSJ2",
        "train": "yes",
        "website": "https://flower-liner.jp/result_eki/?josyaeki=12",
        "wikidata": "Q7040476",
        "wikipedia": "ja:西大塚駅"
      }
    },
    {
      "id": "yamagata_station_6126413670",
      "osmId": 6126413670,
      "osmType": "node",
      "prefectureId": "yamagata",
      "type": "station",
      "subtype": "private",
      "name": "茂吉記念館前",
      "nameKana": "もきちきねんかんまえ",
      "nameEn": "Mokichi-Kinenkan-mae",
      "operator": null,
      "network": null,
      "ref": null,
      "latitude": 38.1717247,
      "longitude": 140.2983928,
      "countryCode": "jp",
      "rawTags": {
        "name": "茂吉記念館前",
        "name:en": "Mokichi-Kinenkan-mae",
        "name:ja-Hira": "もきちきねんかんまえ",
        "name:ja-Latn": "Mokichikinenkanmae",
        "public_transport": "station",
        "railway": "station",
        "source": "KSJ2",
        "train": "yes",
        "wikidata": "Q6895338",
        "wikipedia": "ja:茂吉記念館前駅"
      }
    },
    {
      "id": "yamagata_station_6126413680",
      "osmId": 6126413680,
      "osmType": "node",
      "prefectureId": "yamagata",
      "type": "station",
      "subtype": "private",
      "name": "羽前中山",
      "nameKana": "うぜんなかやま",
      "nameEn": "Uzen-Nakayama",
      "operator": null,
      "network": null,
      "ref": null,
      "latitude": 38.1245199,
      "longitude": 140.2182537,
      "countryCode": "jp",
      "rawTags": {
        "name": "羽前中山",
        "name:en": "Uzen-Nakayama",
        "name:ja-Hira": "うぜんなかやま",
        "name:ja-Latn": "Uzennakayama",
        "public_transport": "station",
        "railway": "station",
        "source": "KSJ2",
        "train": "yes",
        "wikidata": "Q7904848",
        "wikipedia": "ja:羽前中山駅"
      }
    },
    {
      "id": "yamagata_station_6126413702",
      "osmId": 6126413702,
      "osmType": "node",
      "prefectureId": "yamagata",
      "type": "station",
      "subtype": "private",
      "name": "中川",
      "nameKana": "なかがわ",
      "nameEn": "Nakagawa",
      "operator": null,
      "network": null,
      "ref": null,
      "latitude": 38.0934708,
      "longitude": 140.2038087,
      "countryCode": "jp",
      "rawTags": {
        "name": "中川",
        "name:en": "Nakagawa",
        "name:ja-Hira": "なかがわ",
        "name:ja-Latn": "Nakagawa",
        "public_transport": "station",
        "railway": "station",
        "source": "KSJ2",
        "train": "yes",
        "wikidata": "Q6960148",
        "wikipedia": "ja:中川駅 (山形県)"
      }
    },
    {
      "id": "yamagata_station_6126470641",
      "osmId": 6126470641,
      "osmType": "node",
      "prefectureId": "yamagata",
      "type": "station",
      "subtype": "private",
      "name": "蔵王",
      "nameKana": "ざおう",
      "nameEn": "Zao",
      "operator": null,
      "network": null,
      "ref": null,
      "latitude": 38.2059569,
      "longitude": 140.3036231,
      "countryCode": "jp",
      "rawTags": {
        "name": "蔵王",
        "name:en": "Zao",
        "name:ja-Hira": "ざおう",
        "name:ja-Latn": "Zaō",
        "public_transport": "station",
        "railway": "station",
        "source": "KSJ2",
        "train": "yes",
        "wikidata": "Q8067684",
        "wikipedia": "ja:蔵王駅"
      }
    },
    {
      "id": "yamagata_station_6126729158",
      "osmId": 6126729158,
      "osmType": "node",
      "prefectureId": "yamagata",
      "type": "station",
      "subtype": "private",
      "name": "漆山",
      "nameKana": "うるしやま",
      "nameEn": "Urushiyama",
      "operator": null,
      "network": null,
      "ref": null,
      "latitude": 38.314412,
      "longitude": 140.3476006,
      "countryCode": "jp",
      "rawTags": {
        "name": "漆山",
        "name:en": "Urushiyama",
        "name:ja-Hira": "うるしやま",
        "name:ja-Latn": "Urushiyama",
        "public_transport": "station",
        "railway": "station",
        "source": "KSJ2",
        "train": "yes",
        "wikidata": "Q7901562",
        "wikipedia": "ja:漆山駅 (山形県)"
      }
    },
    {
      "id": "yamagata_station_6126729159",
      "osmId": 6126729159,
      "osmType": "node",
      "prefectureId": "yamagata",
      "type": "station",
      "subtype": "private",
      "name": "南出羽",
      "nameKana": "みなみでわ",
      "nameEn": "Minami-Dewa",
      "operator": null,
      "network": null,
      "ref": null,
      "latitude": 38.3028258,
      "longitude": 140.3448164,
      "countryCode": "jp",
      "rawTags": {
        "name": "南出羽",
        "name:en": "Minami-Dewa",
        "name:ja-Hira": "みなみでわ",
        "name:ja-Latn": "Minamidewa",
        "public_transport": "station",
        "railway": "station",
        "source": "KSJ2",
        "train": "yes",
        "wikidata": "Q6862856",
        "wikipedia": "ja:南出羽駅"
      }
    },
    {
      "id": "yamagata_station_6126772553",
      "osmId": 6126772553,
      "osmType": "node",
      "prefectureId": "yamagata",
      "type": "station",
      "subtype": "private",
      "name": "さくらんぼ東根",
      "nameKana": "さくらんぼひがしね",
      "nameEn": "Sakurambo-Higashine",
      "operator": null,
      "network": null,
      "ref": null,
      "latitude": 38.4285068,
      "longitude": 140.3810129,
      "countryCode": "jp",
      "rawTags": {
        "name": "さくらんぼ東根",
        "name:de": "Sakurambo-Higashine",
        "name:en": "Sakurambo-Higashine",
        "name:ja-Hira": "さくらんぼひがしね",
        "name:ja-Latn": "Sakurambohiigashine",
        "public_transport": "station",
        "railway": "station",
        "source": "KSJ2",
        "train": "yes",
        "wikidata": "Q742572",
        "wikipedia": "ja:さくらんぼ東根駅"
      }
    },
    {
      "id": "yamagata_station_6126772557",
      "osmId": 6126772557,
      "osmType": "node",
      "prefectureId": "yamagata",
      "type": "station",
      "subtype": "private",
      "name": "神町",
      "nameKana": "じんまち",
      "nameEn": "Jimmachi",
      "operator": null,
      "network": null,
      "ref": null,
      "latitude": 38.4127335,
      "longitude": 140.3786525,
      "countryCode": "jp",
      "rawTags": {
        "name": "神町",
        "name:en": "Jimmachi",
        "name:ja-Hira": "じんまち",
        "name:ja-Latn": "Jimmachi",
        "public_transport": "station",
        "railway": "station",
        "source": "KSJ2",
        "train": "yes",
        "wikidata": "Q6199297",
        "wikipedia": "ja:神町駅"
      }
    },
    {
      "id": "yamagata_station_6126772559",
      "osmId": 6126772559,
      "osmType": "node",
      "prefectureId": "yamagata",
      "type": "station",
      "subtype": "private",
      "name": "乱川",
      "nameKana": "みだれがわ",
      "nameEn": "Midaregawa",
      "operator": null,
      "network": null,
      "ref": null,
      "latitude": 38.3871854,
      "longitude": 140.3748813,
      "countryCode": "jp",
      "rawTags": {
        "name": "乱川",
        "name:en": "Midaregawa",
        "name:ja-Hira": "みだれがわ",
        "name:ja-Latn": "Midaregawa",
        "public_transport": "station",
        "railway": "station",
        "source": "KSJ2",
        "train": "yes",
        "wikidata": "Q11370550",
        "wikipedia": "ja:乱川駅"
      }
    },
    {
      "id": "yamagata_station_6126772566",
      "osmId": 6126772566,
      "osmType": "node",
      "prefectureId": "yamagata",
      "type": "station",
      "subtype": "private",
      "name": "高擶",
      "nameKana": "たかたま",
      "nameEn": "Takatama",
      "operator": null,
      "network": null,
      "ref": null,
      "latitude": 38.3310513,
      "longitude": 140.3590053,
      "countryCode": "jp",
      "rawTags": {
        "name": "高擶",
        "name:en": "Takatama",
        "name:ja-Hira": "たかたま",
        "name:ja-Latn": "Takatama",
        "public_transport": "station",
        "railway": "station",
        "source": "KSJ2",
        "train": "yes",
        "wikidata": "Q7677422",
        "wikipedia": "ja:高擶駅"
      }
    },
    {
      "id": "yamagata_station_6126793988",
      "osmId": 6126793988,
      "osmType": "node",
      "prefectureId": "yamagata",
      "type": "station",
      "subtype": "private",
      "name": "東根",
      "nameKana": "ひがしね",
      "nameEn": "Higashine",
      "operator": null,
      "network": null,
      "ref": null,
      "latitude": 38.4510996,
      "longitude": 140.3840505,
      "countryCode": "jp",
      "rawTags": {
        "name": "東根",
        "name:en": "Higashine",
        "name:ja-Hira": "ひがしね",
        "name:ja-Latn": "Higashine",
        "public_transport": "station",
        "railway": "station",
        "source": "KSJ2",
        "train": "yes",
        "wikidata": "Q5754099",
        "wikipedia": "ja:東根駅"
      }
    },
    {
      "id": "yamagata_station_6128684291",
      "osmId": 6128684291,
      "osmType": "node",
      "prefectureId": "yamagata",
      "type": "station",
      "subtype": "private",
      "name": "村山",
      "nameKana": "むらやま",
      "nameEn": "Murayama",
      "operator": null,
      "network": null,
      "ref": null,
      "latitude": 38.4770786,
      "longitude": 140.3864953,
      "countryCode": "jp",
      "rawTags": {
        "name": "村山",
        "name:de": "Murayama",
        "name:en": "Murayama",
        "name:ja-Hira": "むらやま",
        "name:ja-Latn": "Murayama",
        "public_transport": "station",
        "railway": "station",
        "source": "KSJ2",
        "train": "yes",
        "wikidata": "Q1053166",
        "wikipedia": "ja:村山駅 (山形県)"
      }
    },
    {
      "id": "yamagata_station_6128684299",
      "osmId": 6128684299,
      "osmType": "node",
      "prefectureId": "yamagata",
      "type": "station",
      "subtype": "private",
      "name": "南新庄",
      "nameKana": "みなみしんじょう",
      "nameEn": "Minami-Shinjo",
      "operator": null,
      "network": null,
      "ref": null,
      "latitude": 38.7214098,
      "longitude": 140.3163502,
      "countryCode": "jp",
      "rawTags": {
        "name": "南新庄",
        "name:en": "Minami-Shinjo",
        "name:ja-Hira": "みなみしんじょう",
        "name:ja-Latn": "Minamishinjo",
        "public_transport": "station",
        "railway": "station",
        "source": "KSJ2",
        "train": "yes",
        "wikidata": "Q2102225",
        "wikipedia": "ja:南新庄駅"
      }
    },
    {
      "id": "yamagata_station_6130861596",
      "osmId": 6130861596,
      "osmType": "node",
      "prefectureId": "yamagata",
      "type": "station",
      "subtype": "private",
      "name": "袖崎",
      "nameKana": "そでさき",
      "nameEn": "Sodesaki",
      "operator": null,
      "network": null,
      "ref": null,
      "latitude": 38.5488744,
      "longitude": 140.3915888,
      "countryCode": "jp",
      "rawTags": {
        "name": "袖崎",
        "name:en": "Sodesaki",
        "name:ja-Hira": "そでさき",
        "name:ja-Latn": "Sodesaki",
        "public_transport": "station",
        "railway": "station",
        "source": "KSJ2",
        "train": "yes",
        "wikidata": "Q7553256",
        "wikipedia": "ja:袖崎駅"
      }
    },
    {
      "id": "yamagata_station_6138275416",
      "osmId": 6138275416,
      "osmType": "node",
      "prefectureId": "yamagata",
      "type": "station",
      "subtype": "private",
      "name": "北大石田",
      "nameKana": "きたおおいしだ",
      "nameEn": "Kita-Ooishida",
      "operator": null,
      "network": null,
      "ref": null,
      "latitude": 38.6299884,
      "longitude": 140.3711396,
      "countryCode": "jp",
      "rawTags": {
        "name": "北大石田",
        "name:en": "Kita-Ooishida",
        "name:ja-Hira": "きたおおいしだ",
        "name:ja-Latn": "Kitaōishida",
        "public_transport": "station",
        "railway": "station",
        "source": "KSJ2",
        "train": "yes",
        "wikidata": "Q6417636",
        "wikipedia": "ja:北大石田駅"
      }
    },
    {
      "id": "yamagata_station_6138275424",
      "osmId": 6138275424,
      "osmType": "node",
      "prefectureId": "yamagata",
      "type": "station",
      "subtype": "private",
      "name": "大石田",
      "nameKana": "おおいしだ",
      "nameEn": "Oishida",
      "operator": null,
      "network": null,
      "ref": null,
      "latitude": 38.5956294,
      "longitude": 140.3753132,
      "countryCode": "jp",
      "rawTags": {
        "name": "大石田",
        "name:de": "Ōishida",
        "name:en": "Oishida",
        "name:ja-Hira": "おおいしだ",
        "name:ja-Latn": "Ōishida",
        "public_transport": "station",
        "railway": "station",
        "source": "KSJ2",
        "train": "yes",
        "wikidata": "Q1137108",
        "wikipedia": "ja:大石田駅"
      }
    },
    {
      "id": "yamagata_station_6138282005",
      "osmId": 6138282005,
      "osmType": "node",
      "prefectureId": "yamagata",
      "type": "station",
      "subtype": "private",
      "name": "芦沢",
      "nameKana": "あしさわ",
      "nameEn": "Ashisawa",
      "operator": null,
      "network": null,
      "ref": null,
      "latitude": 38.6557877,
      "longitude": 140.3611109,
      "countryCode": "jp",
      "rawTags": {
        "name": "芦沢",
        "name:en": "Ashisawa",
        "name:ja-Hira": "あしさわ",
        "name:ja-Latn": "Ashisawa",
        "public_transport": "station",
        "railway": "station",
        "source": "KSJ2",
        "train": "yes",
        "wikidata": "Q4805146",
        "wikipedia": "ja:芦沢駅"
      }
    },
    {
      "id": "yamagata_station_6138282008",
      "osmId": 6138282008,
      "osmType": "node",
      "prefectureId": "yamagata",
      "type": "station",
      "subtype": "private",
      "name": "舟形",
      "nameKana": "ふながた",
      "nameEn": "Funagata",
      "operator": null,
      "network": null,
      "ref": null,
      "latitude": 38.6917508,
      "longitude": 140.3162764,
      "countryCode": "jp",
      "rawTags": {
        "name": "舟形",
        "name:en": "Funagata",
        "name:ja-Hira": "ふながた",
        "name:ja-Latn": "Funagata",
        "public_transport": "station",
        "railway": "station",
        "source": "KSJ2",
        "train": "yes",
        "wikidata": "Q5508714",
        "wikipedia": "ja:舟形駅"
      }
    },
    {
      "id": "yamagata_station_6204970551",
      "osmId": 6204970551,
      "osmType": "node",
      "prefectureId": "yamagata",
      "type": "station",
      "subtype": "private",
      "name": "大堀",
      "nameKana": "おおほり",
      "nameEn": "Ohori",
      "operator": null,
      "network": null,
      "ref": null,
      "latitude": 38.7659809,
      "longitude": 140.4758947,
      "countryCode": "jp",
      "rawTags": {
        "name": "大堀",
        "name:en": "Ohori",
        "name:ja": "大堀",
        "name:ja-Hira": "おおほり",
        "name:ja-Latn": "Ōhori",
        "name:ko": "오호리",
        "public_transport": "station",
        "railway": "station",
        "source": "KSJ2",
        "train": "yes",
        "wikidata": "Q2027869",
        "wikipedia": "ja:大堀駅"
      }
    },
    {
      "id": "yamagata_bus_terminal_6731853697",
      "osmId": 6731853697,
      "osmType": "node",
      "prefectureId": "yamagata",
      "type": "bus_terminal",
      "subtype": null,
      "name": "山交ビルバスターミナル",
      "nameKana": null,
      "nameEn": null,
      "operator": null,
      "network": null,
      "ref": null,
      "latitude": 38.246334,
      "longitude": 140.3314224,
      "countryCode": "jp",
      "rawTags": {
        "amenity": "bus_station",
        "bus": "yes",
        "name": "山交ビルバスターミナル",
        "public_transport": "station"
      }
    },
    {
      "id": "yamagata_station_8652905535",
      "osmId": 8652905535,
      "osmType": "node",
      "prefectureId": "yamagata",
      "type": "station",
      "subtype": "private",
      "name": "及位",
      "nameKana": "のぞき",
      "nameEn": "Nozoki",
      "operator": null,
      "network": null,
      "ref": null,
      "latitude": 38.9928091,
      "longitude": 140.3611404,
      "countryCode": "jp",
      "rawTags": {
        "KSJ2:LIN": "奥羽線",
        "KSJ2:STN": "及位",
        "name": "及位",
        "name:de": "Nozoki",
        "name:en": "Nozoki",
        "name:ja": "及位",
        "name:ja_kana": "のぞき",
        "name:ja_rm": "Nozoki",
        "name:ko": "노조키",
        "note": "National-Land Numerical Information (Railway) 2007, MLIT Japan",
        "note:ja": "国土数値情報（鉄道データ）平成19年　国土交通省",
        "public_transport": "station",
        "railway": "station",
        "source": "KSJ2",
        "source_ref": "http://nlftp.mlit.go.jp/ksj/jpgis/datalist/KsjTmplt-N02-v1_1.html",
        "website": "https://www.jreast.co.jp/estation/station/info.aspx?StationCd=1205",
        "wikidata": "Q7067415",
        "wikipedia": "ja:及位駅"
      }
    },
    {
      "id": "yamagata_bus_terminal_9185343463",
      "osmId": 9185343463,
      "osmType": "node",
      "prefectureId": "yamagata",
      "type": "bus_terminal",
      "subtype": null,
      "name": "バスのりば　八幡総合市役所前",
      "nameKana": null,
      "nameEn": null,
      "operator": null,
      "network": null,
      "ref": null,
      "latitude": 38.9705908,
      "longitude": 139.9425974,
      "countryCode": "jp",
      "rawTags": {
        "amenity": "bus_station",
        "bus": "yes",
        "highway": "bus_stop",
        "name": "バスのりば　八幡総合市役所前",
        "public_transport": "platform",
        "shelter": "yes"
      }
    },
    {
      "id": "yamagata_bus_terminal_9186264361",
      "osmId": 9186264361,
      "osmType": "node",
      "prefectureId": "yamagata",
      "type": "bus_terminal",
      "subtype": null,
      "name": "バスのりば　八幡昭和通り",
      "nameKana": null,
      "nameEn": null,
      "operator": null,
      "network": null,
      "ref": null,
      "latitude": 38.9698969,
      "longitude": 139.9410233,
      "countryCode": "jp",
      "rawTags": {
        "amenity": "bus_station",
        "bus": "yes",
        "highway": "bus_stop",
        "name": "バスのりば　八幡昭和通り",
        "public_transport": "platform"
      }
    },
    {
      "id": "yamagata_bus_terminal_9409403606",
      "osmId": 9409403606,
      "osmType": "node",
      "prefectureId": "yamagata",
      "type": "bus_terminal",
      "subtype": null,
      "name": "左沢駅",
      "nameKana": null,
      "nameEn": null,
      "operator": null,
      "network": null,
      "ref": null,
      "latitude": 38.3822129,
      "longitude": 140.208341,
      "countryCode": "jp",
      "rawTags": {
        "amenity": "bus_station",
        "bus": "yes",
        "name": "左沢駅",
        "public_transport": "station"
      }
    },
    {
      "id": "yamagata_station_11013108882",
      "osmId": 11013108882,
      "osmType": "node",
      "prefectureId": "yamagata",
      "type": "station",
      "subtype": "private",
      "name": "大滝",
      "nameKana": null,
      "nameEn": "Otaki",
      "operator": null,
      "network": null,
      "ref": null,
      "latitude": 38.9714963,
      "longitude": 140.3198531,
      "countryCode": "jp",
      "rawTags": {
        "name": "大滝",
        "name:en": "Otaki",
        "name:ja": "大滝",
        "name:ja_rm": "Ōtaki",
        "name:ko": "오타키",
        "public_transport": "station",
        "railway": "station",
        "website": "https://www.jreast.co.jp/estation/station/info.aspx?StationCd=326",
        "wikidata": "Q8081754",
        "wikipedia": "ja:大滝駅"
      }
    },
    {
      "id": "yamagata_station_11013108883",
      "osmId": 11013108883,
      "osmType": "node",
      "prefectureId": "yamagata",
      "type": "station",
      "subtype": "private",
      "name": "釜淵",
      "nameKana": null,
      "nameEn": "Kamabuchi",
      "operator": null,
      "network": null,
      "ref": null,
      "latitude": 38.9327407,
      "longitude": 140.2641524,
      "countryCode": "jp",
      "rawTags": {
        "name": "釜淵",
        "name:en": "Kamabuchi",
        "name:ja": "釜淵",
        "name:ja_rm": "Kamabuchi",
        "name:ko": "가마부치",
        "public_transport": "station",
        "railway": "station",
        "website": "https://www.jreast.co.jp/estation/station/info.aspx?StationCd=480",
        "wikidata": "Q11648102",
        "wikipedia": "ja:釜淵駅"
      }
    },
    {
      "id": "yamagata_station_11013108890",
      "osmId": 11013108890,
      "osmType": "node",
      "prefectureId": "yamagata",
      "type": "station",
      "subtype": "private",
      "name": "泉田",
      "nameKana": null,
      "nameEn": "Izumita",
      "operator": null,
      "network": null,
      "ref": null,
      "latitude": 38.8117771,
      "longitude": 140.3101904,
      "countryCode": "jp",
      "rawTags": {
        "name": "泉田",
        "name:en": "Izumita",
        "name:ja": "泉田",
        "name:ja_rm": "Izumita",
        "name:ko": "이즈미타",
        "public_transport": "station",
        "railway": "station",
        "train": "yes",
        "website": "https://www.jreast.co.jp/estation/station/info.aspx?StationCd=125",
        "wikidata": "Q6102377",
        "wikipedia": "ja:泉田駅"
      }
    },
    {
      "id": "yamagata_station_11219422099",
      "osmId": 11219422099,
      "osmType": "node",
      "prefectureId": "yamagata",
      "type": "station",
      "subtype": "private",
      "name": "天童南",
      "nameKana": null,
      "nameEn": null,
      "operator": null,
      "network": null,
      "ref": null,
      "latitude": 38.3415464,
      "longitude": 140.3655963,
      "countryCode": "jp",
      "rawTags": {
        "name": "天童南",
        "public_transport": "station",
        "railway": "station",
        "train": "yes"
      }
    },
    {
      "id": "yamagata_bus_terminal_13349031758",
      "osmId": 13349031758,
      "osmType": "node",
      "prefectureId": "yamagata",
      "type": "bus_terminal",
      "subtype": null,
      "name": "山交バス(株) 上山営業所",
      "nameKana": null,
      "nameEn": "Yamako Bus Kaminoyama Office",
      "operator": null,
      "network": null,
      "ref": null,
      "latitude": 38.1496784,
      "longitude": 140.2652256,
      "countryCode": "jp",
      "rawTags": {
        "amenity": "bus_station",
        "bus": "yes",
        "name": "山交バス(株) 上山営業所",
        "name:en": "Yamako Bus Kaminoyama Office",
        "public_transport": "station"
      }
    },
    {
      "id": "yamagata_bus_terminal_13349049203",
      "osmId": 13349049203,
      "osmType": "node",
      "prefectureId": "yamagata",
      "type": "bus_terminal",
      "subtype": null,
      "name": "山交バス米沢営業所",
      "nameKana": null,
      "nameEn": "Yamako Yonezawa Bus Terminal",
      "operator": null,
      "network": null,
      "ref": null,
      "latitude": 37.9099427,
      "longitude": 140.1234816,
      "countryCode": "jp",
      "rawTags": {
        "amenity": "bus_station",
        "bus": "yes",
        "name": "山交バス米沢営業所",
        "name:en": "Yamako Yonezawa Bus Terminal",
        "public_transport": "station"
      }
    },
    {
      "id": "yamagata_airport_57008614",
      "osmId": 57008614,
      "osmType": "way",
      "prefectureId": "yamagata",
      "type": "airport",
      "subtype": "domestic",
      "name": "山形空港",
      "nameKana": "やまがたくうこう",
      "nameEn": "Yamagata Airport",
      "operator": "山形空港ビル",
      "network": null,
      "ref": "GAJ",
      "latitude": 38.4116767,
      "longitude": 140.3699987,
      "countryCode": "jp",
      "rawTags": {
        "KSJ2:AAC": "06211",
        "KSJ2:AAC_label": "山形県東根市",
        "KSJ2:AD2": "5",
        "KSJ2:AD2_label": "都道府県",
        "KSJ2:ARP": "38.4119444444 140.3711111111",
        "KSJ2:ATB": "38.4106666700 140.3663333000",
        "KSJ2:CLT": "19 30",
        "KSJ2:COA": "空港整備法に基づく第二種空港",
        "KSJ2:CompositeCurve": "cv22Airport",
        "KSJ2:DSA": "特定飛行場以外",
        "KSJ2:INP": "1",
        "KSJ2:INP_label": "国土交通大臣",
        "KSJ2:IUC": "供用中",
        "KSJ2:NA3": "山形空港",
        "KSJ2:OPT": "08 00",
        "KSJ2:REF": "1",
        "KSJ2:REF_label": "ジェット定期便が就航している場合",
        "KSJ2:airport_id": "cf02_23",
        "KSJ2:runways": "2000 45",
        "addr:block_number": "3008",
        "addr:city": "東根市",
        "addr:neighbourhood": "字柏原新林",
        "addr:postcode": "999-3776",
        "addr:province": "山形県",
        "addr:quarter": "大字羽入",
        "aeroway": "aerodrome",
        "barrier": "fence",
        "iata": "GAJ",
        "icao": "RJSC",
        "name": "山形空港",
        "name:en": "Yamagata Airport",
        "name:ja": "山形空港",
        "name:ja-Hira": "やまがたくうこう",
        "note": "National-Land Numerical Information (Airport) 2007, MLIT Japan",
        "note:ja": "国土数値情報（空港データ）平成19年　国土交通省",
        "operator": "山形空港ビル",
        "source": "KSJ2",
        "source_ref": "http://nlftp.mlit.go.jp/ksj/jpgis/datalist/KsjTmplt-C28-v1_1.html",
        "website": "https://www.yamagata-airport.co.jp/",
        "wikidata": "Q176187",
        "wikipedia": "ja:山形空港"
      }
    },
    {
      "id": "yamagata_airport_57008649",
      "osmId": 57008649,
      "osmType": "way",
      "prefectureId": "yamagata",
      "type": "airport",
      "subtype": "domestic",
      "name": "庄内空港",
      "nameKana": "しょうないくうこう",
      "nameEn": "Shonai Airport",
      "operator": "庄内空港ビル",
      "network": null,
      "ref": "SYO",
      "latitude": 38.8127805,
      "longitude": 139.7842109,
      "countryCode": "jp",
      "rawTags": {
        "KSJ2:AAC": "06204",
        "KSJ2:AAC_label": "山形県酒田市",
        "KSJ2:AD2": "5",
        "KSJ2:AD2_label": "都道府県",
        "KSJ2:ARP": "38.8122222222 139.7872222222",
        "KSJ2:ATB": "38.8157500000 139.7876944000",
        "KSJ2:CLT": "22 00",
        "KSJ2:COA": "空港整備法に基づく第三種空港",
        "KSJ2:CompositeCurve": "cv21Airport",
        "KSJ2:DSA": "特定飛行場以外",
        "KSJ2:INP": "5",
        "KSJ2:INP_label": "都道府県",
        "KSJ2:IUC": "供用中",
        "KSJ2:NA3": "庄内空港",
        "KSJ2:OPT": "07 00",
        "KSJ2:REF": "1",
        "KSJ2:REF_label": "ジェット定期便が就航している場合",
        "KSJ2:airport_id": "cf02_22",
        "KSJ2:runways": "2000 45",
        "addr:block_number": "30",
        "addr:city": "酒田市",
        "addr:housenumber": "3",
        "addr:neighbourhood": "字村東",
        "addr:postcode": "998-0112",
        "addr:province": "山形県",
        "addr:quarter": "浜中",
        "aeroway": "aerodrome",
        "barrier": "fence",
        "ele": "22",
        "iata": "SYO",
        "icao": "RJSY",
        "name": "庄内空港",
        "name:en": "Shonai Airport",
        "name:ja": "庄内空港",
        "name:ja-Hira": "しょうないくうこう",
        "name:ko": "쇼나이공항",
        "note": "National-Land Numerical Information (Airport) 2007, MLIT Japan",
        "note:ja": "国土数値情報（空港データ）平成19年　国土交通省",
        "operator": "庄内空港ビル",
        "phone": "+81 570 050 141",
        "source": "KSJ2",
        "source_ref": "http://nlftp.mlit.go.jp/ksj/jpgis/datalist/KsjTmplt-C28-v1_1.html",
        "website": "https://www.shonai-airport.co.jp/",
        "wikidata": "Q1927323"
      }
    },
    {
      "id": "yamagata_bus_terminal_310732755",
      "osmId": 310732755,
      "osmType": "way",
      "prefectureId": "yamagata",
      "type": "bus_terminal",
      "subtype": null,
      "name": "蔵王温泉バスターミナル",
      "nameKana": null,
      "nameEn": "Zao Onsen bus terminal",
      "operator": null,
      "network": null,
      "ref": null,
      "latitude": 38.1674321,
      "longitude": 140.3937006,
      "countryCode": "jp",
      "rawTags": {
        "addr:ja": "〒990-2301 山形県山形市蔵王温泉土合",
        "amenity": "bus_station",
        "building": "yes",
        "bus": "yes",
        "name": "蔵王温泉バスターミナル",
        "name:en": "Zao Onsen bus terminal",
        "public_transport": "station",
        "source": "bing 2014"
      }
    },
    {
      "id": "yamagata_bus_terminal_386891237",
      "osmId": 386891237,
      "osmType": "way",
      "prefectureId": "yamagata",
      "type": "bus_terminal",
      "subtype": null,
      "name": "エスモールバスセンター",
      "nameKana": null,
      "nameEn": "S-MALL Bus Center",
      "operator": null,
      "network": null,
      "ref": null,
      "latitude": 38.7395075,
      "longitude": 139.8323593,
      "countryCode": "jp",
      "rawTags": {
        "addr:city": "鶴岡市",
        "addr:postcode": "997-0031",
        "amenity": "bus_station",
        "building": "yes",
        "name": "エスモールバスセンター",
        "name:en": "S-MALL Bus Center"
      }
    },
    {
      "id": "yamagata_bus_terminal_387287452",
      "osmId": 387287452,
      "osmType": "way",
      "prefectureId": "yamagata",
      "type": "bus_terminal",
      "subtype": null,
      "name": "観光物産館",
      "nameKana": null,
      "nameEn": null,
      "operator": null,
      "network": null,
      "ref": null,
      "latitude": 38.7389126,
      "longitude": 139.7983665,
      "countryCode": "jp",
      "rawTags": {
        "amenity": "bus_station",
        "building": "yes",
        "name": "観光物産館"
      }
    },
    {
      "id": "yamagata_airport_1136928550",
      "osmId": 1136928550,
      "osmType": "way",
      "prefectureId": "yamagata",
      "type": "airport",
      "subtype": "heliport",
      "name": "米沢ヘリポート",
      "nameKana": null,
      "nameEn": null,
      "operator": "山形県",
      "network": null,
      "ref": null,
      "latitude": 37.9130148,
      "longitude": 140.1664404,
      "countryCode": "jp",
      "rawTags": {
        "aeroway": "aerodrome",
        "name": "米沢ヘリポート",
        "operator": "山形県",
        "start_date": "1992-04-01",
        "wikidata": "Q11604249",
        "wikipedia": "ja:米沢ヘリポート"
      }
    }
  ]
}