{
  "fetchedAt": "2025-12-12T05:26:28.821Z",
  "prefectureId": "yamanashi",
  "prefectureName": "山梨県",
  "stats": {
    "station": 74,
    "airport": 1,
    "ferry_terminal": 1,
    "bus_terminal": 7,
    "total": 83
  },
  "data": [
    {
      "id": "yamanashi_station_243818949",
      "osmId": 243818949,
      "osmType": "node",
      "prefectureId": "yamanashi",
      "type": "station",
      "subtype": "private",
      "name": "富士山",
      "nameKana": "ふじさん",
      "nameEn": "Mt Fuji",
      "operator": null,
      "network": null,
      "ref": null,
      "latitude": 35.4835487,
      "longitude": 138.7954457,
      "countryCode": "jp",
      "rawTags": {
        "name": "富士山",
        "name:en": "Mt Fuji",
        "name:fr": "Mont Fuji",
        "name:ja": "富士山",
        "name:ja-Hira": "ふじさん",
        "name:ja-Latn": "Fuji-san",
        "name:ko": "후지산",
        "name:start_date": "2011",
        "old_name": "富士吉田",
        "old_name:ja": "富士吉田",
        "old_name:ja-Hira": "ふじよしだ",
        "old_name:ja-Latn": "Fujiyoshida",
        "public_transport": "station",
        "railway": "station",
        "train": "yes",
        "was:end_date": "2011",
        "was:name": "富士吉田",
        "was:name:ja": "富士吉田",
        "was:name:ja-Hira": "ふじよしだし",
        "was:name:ja-Jpan": "富士吉田",
        "was:name:ja-Latn": "Fujiyoshida",
        "wheelchair": "yes",
        "wikidata": "Q5507478",
        "wikipedia": "ja:富士山駅"
      }
    },
    {
      "id": "yamanashi_station_243887757",
      "osmId": 243887757,
      "osmType": "node",
      "prefectureId": "yamanashi",
      "type": "station",
      "subtype": "jr",
      "name": "梁川",
      "nameKana": "やながわ",
      "nameEn": "Yanagawa",
      "operator": "東日本旅客鉄道",
      "network": null,
      "ref": "JC29",
      "latitude": 35.606018,
      "longitude": 139.0376821,
      "countryCode": "jp",
      "rawTags": {
        "name": "梁川",
        "name:en": "Yanagawa",
        "name:fr": "Yanagawa",
        "name:ja": "梁川",
        "name:ja-Hira": "やながわ",
        "name:ja-Latn": "Yanagawa",
        "name:ko": "야나가와",
        "name:zh": "梁川",
        "operator": "東日本旅客鉄道",
        "platforms": "2",
        "public_transport": "station",
        "railway": "station",
        "ref": "JC29",
        "train": "yes",
        "wheelchair": "no",
        "wikidata": "Q8017468",
        "wikipedia": "ja:梁川駅 (山梨県)"
      }
    },
    {
      "id": "yamanashi_station_243887820",
      "osmId": 243887820,
      "osmType": "node",
      "prefectureId": "yamanashi",
      "type": "station",
      "subtype": "jr",
      "name": "猿橋",
      "nameKana": "さるはし",
      "nameEn": "Saruhashi",
      "operator": "東日本旅客鉄道",
      "network": null,
      "ref": "JC31",
      "latitude": 35.6128739,
      "longitude": 138.9680239,
      "countryCode": "jp",
      "rawTags": {
        "name": "猿橋",
        "name:en": "Saruhashi",
        "name:ja-Hira": "さるはし",
        "name:ja-Latn": "Saruhashi",
        "operator": "東日本旅客鉄道",
        "platforms": "2",
        "public_transport": "station",
        "railway": "station",
        "ref": "JC31",
        "train": "yes",
        "wikidata": "Q7424710",
        "wikipedia": "ja:猿橋駅"
      }
    },
    {
      "id": "yamanashi_station_264806317",
      "osmId": 264806317,
      "osmType": "node",
      "prefectureId": "yamanashi",
      "type": "station",
      "subtype": "private",
      "name": "甲斐大泉",
      "nameKana": "かいおおいずみ",
      "nameEn": "Kai-Oizumi",
      "operator": null,
      "network": null,
      "ref": null,
      "latitude": 35.8962348,
      "longitude": 138.4094028,
      "countryCode": "jp",
      "rawTags": {
        "name": "甲斐大泉",
        "name:en": "Kai-Oizumi",
        "name:ja-Hira": "かいおおいずみ",
        "name:ja-Latn": "Kaiōizumi",
        "name:ko": "가이오이즈미",
        "public_transport": "station",
        "railway": "station",
        "source": "KSJ2",
        "train": "yes",
        "wikidata": "Q3558352",
        "wikipedia": "ja:甲斐大泉駅"
      }
    },
    {
      "id": "yamanashi_station_264808478",
      "osmId": 264808478,
      "osmType": "node",
      "prefectureId": "yamanashi",
      "type": "station",
      "subtype": "private",
      "name": "甲斐小泉",
      "nameKana": "かいこいずみ",
      "nameEn": "Kai-Koizumi",
      "operator": null,
      "network": null,
      "ref": null,
      "latitude": 35.8795415,
      "longitude": 138.3595942,
      "countryCode": "jp",
      "rawTags": {
        "name": "甲斐小泉",
        "name:en": "Kai-Koizumi",
        "name:ja-Hira": "かいこいずみ",
        "name:ja-Latn": "Kaikoizumi",
        "name:ko": "가이코이즈미",
        "public_transport": "station",
        "railway": "station",
        "source": "KSJ2",
        "train": "yes",
        "wikidata": "Q3525778",
        "wikipedia": "ja:甲斐小泉駅"
      }
    },
    {
      "id": "yamanashi_station_264808510",
      "osmId": 264808510,
      "osmType": "node",
      "prefectureId": "yamanashi",
      "type": "station",
      "subtype": "private",
      "name": "清里",
      "nameKana": "きよさと",
      "nameEn": "Kiyasato",
      "operator": null,
      "network": null,
      "ref": null,
      "latitude": 35.9192642,
      "longitude": 138.4369571,
      "countryCode": "jp",
      "rawTags": {
        "name": "清里",
        "name:en": "Kiyasato",
        "name:ja-Hira": "きよさと",
        "name:ja-Latn": "Kiyosato",
        "name:ko": "기요사토",
        "public_transport": "station",
        "railway": "station",
        "source": "KSJ2",
        "train": "yes",
        "wikidata": "Q6419072",
        "wikipedia": "ja:清里駅"
      }
    },
    {
      "id": "yamanashi_station_264817302",
      "osmId": 264817302,
      "osmType": "node",
      "prefectureId": "yamanashi",
      "type": "station",
      "subtype": "private",
      "name": "小淵沢",
      "nameKana": "こぶちざわ",
      "nameEn": "Kobuchizawa",
      "operator": null,
      "network": null,
      "ref": "CO51",
      "latitude": 35.8639177,
      "longitude": 138.3159619,
      "countryCode": "jp",
      "rawTags": {
        "name": "小淵沢",
        "name:en": "Kobuchizawa",
        "name:ja-Hira": "こぶちざわ",
        "name:ja-Latn": "Kobuchizawa",
        "name:zh": "小渊泽",
        "public_transport": "station",
        "railway": "station",
        "ref": "CO51",
        "source": "KSJ2",
        "train": "yes",
        "wikidata": "Q842899",
        "wikipedia": "ja:小淵沢駅"
      }
    },
    {
      "id": "yamanashi_station_264818386",
      "osmId": 264818386,
      "osmType": "node",
      "prefectureId": "yamanashi",
      "type": "station",
      "subtype": "private",
      "name": "竜王",
      "nameKana": null,
      "nameEn": "Ryuo",
      "operator": null,
      "network": null,
      "ref": null,
      "latitude": 35.6688016,
      "longitude": 138.5195034,
      "countryCode": "jp",
      "rawTags": {
        "name": "竜王",
        "name:en": "Ryuo",
        "name:ja-Latn": "Ryūō",
        "public_transport": "station",
        "railway": "station",
        "source": "KSJ2",
        "train": "yes",
        "wikidata": "Q7385664",
        "wikipedia": "ja:竜王駅"
      }
    },
    {
      "id": "yamanashi_station_264818395",
      "osmId": 264818395,
      "osmType": "node",
      "prefectureId": "yamanashi",
      "type": "station",
      "subtype": "private",
      "name": "塩崎",
      "nameKana": null,
      "nameEn": "Shiozaki",
      "operator": null,
      "network": null,
      "ref": null,
      "latitude": 35.6878479,
      "longitude": 138.4874941,
      "countryCode": "jp",
      "rawTags": {
        "name": "塩崎",
        "name:en": "Shiozaki",
        "name:ja_rm": "Shiozaki",
        "public_transport": "station",
        "railway": "station",
        "source": "KSJ2",
        "train": "yes",
        "wikidata": "Q7497906",
        "wikipedia": "ja:塩崎駅"
      }
    },
    {
      "id": "yamanashi_station_264818413",
      "osmId": 264818413,
      "osmType": "node",
      "prefectureId": "yamanashi",
      "type": "station",
      "subtype": "private",
      "name": "新府",
      "nameKana": null,
      "nameEn": "Shimpu",
      "operator": null,
      "network": null,
      "ref": null,
      "latitude": 35.7371514,
      "longitude": 138.4332556,
      "countryCode": "jp",
      "rawTags": {
        "name": "新府",
        "name:en": "Shimpu",
        "name:ja": "新府",
        "public_transport": "station",
        "railway": "station",
        "source": "KSJ2",
        "train": "yes",
        "wikidata": "Q7497041",
        "wikipedia": "ja:新府駅"
      }
    },
    {
      "id": "yamanashi_station_264818853",
      "osmId": 264818853,
      "osmType": "node",
      "prefectureId": "yamanashi",
      "type": "station",
      "subtype": "private",
      "name": "長坂",
      "nameKana": null,
      "nameEn": "Nagasaka",
      "operator": null,
      "network": null,
      "ref": null,
      "latitude": 35.8275272,
      "longitude": 138.3667944,
      "countryCode": "jp",
      "rawTags": {
        "name": "長坂",
        "name:en": "Nagasaka",
        "public_transport": "station",
        "railway": "station",
        "source": "KSJ2",
        "train": "yes",
        "wikidata": "Q6958595",
        "wikipedia": "ja:長坂駅"
      }
    },
    {
      "id": "yamanashi_station_264820798",
      "osmId": 264820798,
      "osmType": "node",
      "prefectureId": "yamanashi",
      "type": "station",
      "subtype": "jr",
      "name": "笹子",
      "nameKana": "ささご",
      "nameEn": "Sasago",
      "operator": "東日本旅客鉄道",
      "network": null,
      "ref": "CO34",
      "latitude": 35.6039397,
      "longitude": 138.8253537,
      "countryCode": "jp",
      "rawTags": {
        "name": "笹子",
        "name:en": "Sasago",
        "name:fr": "Sasago",
        "name:ja": "笹子",
        "name:ja-Hira": "ささご",
        "name:ja-Latn": "Sasago",
        "name:zh": "笹子",
        "operator": "東日本旅客鉄道",
        "operator:en": "East Japan Railway Company",
        "operator:ja": "東日本旅客鉄道",
        "public_transport": "station",
        "railway": "station",
        "ref": "CO34",
        "source": "KSJ2",
        "wikidata": "Q7424971",
        "wikipedia": "ja:笹子駅"
      }
    },
    {
      "id": "yamanashi_station_265832025",
      "osmId": 265832025,
      "osmType": "node",
      "prefectureId": "yamanashi",
      "type": "station",
      "subtype": "private",
      "name": "甲斐上野",
      "nameKana": null,
      "nameEn": "Kai-Ueno",
      "operator": null,
      "network": null,
      "ref": null,
      "latitude": 35.5697368,
      "longitude": 138.5202408,
      "countryCode": "jp",
      "rawTags": {
        "name": "甲斐上野",
        "name:en": "Kai-Ueno",
        "public_transport": "station",
        "railway": "station",
        "source": "KSJ2",
        "train": "yes",
        "wikidata": "Q6347335",
        "wikipedia": "ja:甲斐上野駅"
      }
    },
    {
      "id": "yamanashi_bus_terminal_1142046045",
      "osmId": 1142046045,
      "osmType": "node",
      "prefectureId": "yamanashi",
      "type": "bus_terminal",
      "subtype": null,
      "name": "河口湖駅",
      "nameKana": null,
      "nameEn": "Kawaguchiko Station",
      "operator": null,
      "network": null,
      "ref": null,
      "latitude": 35.4985288,
      "longitude": 138.7686416,
      "countryCode": "jp",
      "rawTags": {
        "amenity": "bus_station",
        "bus": "yes",
        "name": "河口湖駅",
        "name:en": "Kawaguchiko Station",
        "public_transport": "station",
        "wheelchair": "yes"
      }
    },
    {
      "id": "yamanashi_station_3064377903",
      "osmId": 3064377903,
      "osmType": "node",
      "prefectureId": "yamanashi",
      "type": "station",
      "subtype": "private",
      "name": "石和温泉",
      "nameKana": null,
      "nameEn": "Isawa-Onsen",
      "operator": null,
      "network": null,
      "ref": "CO41",
      "latitude": 35.657604,
      "longitude": 138.6353509,
      "countryCode": "jp",
      "rawTags": {
        "name": "石和温泉",
        "name:en": "Isawa-Onsen",
        "name:ja": "石和温泉",
        "name:zh": "石和温泉",
        "public_transport": "station",
        "railway": "station",
        "ref": "CO41",
        "source": "KSJ2",
        "train": "yes",
        "wikidata": "Q8013159",
        "wikipedia": "ja:石和温泉駅"
      }
    },
    {
      "id": "yamanashi_bus_terminal_3114434453",
      "osmId": 3114434453,
      "osmType": "node",
      "prefectureId": "yamanashi",
      "type": "bus_terminal",
      "subtype": null,
      "name": "塩山駅南口",
      "nameKana": null,
      "nameEn": null,
      "operator": null,
      "network": null,
      "ref": null,
      "latitude": 35.7051349,
      "longitude": 138.7344393,
      "countryCode": "jp",
      "rawTags": {
        "amenity": "bus_station",
        "bus": "yes",
        "name": "塩山駅南口",
        "public_transport": "station",
        "wheelchair": "yes"
      }
    },
    {
      "id": "yamanashi_bus_terminal_3132197906",
      "osmId": 3132197906,
      "osmType": "node",
      "prefectureId": "yamanashi",
      "type": "bus_terminal",
      "subtype": null,
      "name": "上野原駅",
      "nameKana": null,
      "nameEn": null,
      "operator": "富士急バス",
      "network": null,
      "ref": null,
      "latitude": 35.6184046,
      "longitude": 139.1166168,
      "countryCode": "jp",
      "rawTags": {
        "amenity": "bus_station",
        "bus": "yes",
        "name": "上野原駅",
        "operator": "富士急バス",
        "public_transport": "station"
      }
    },
    {
      "id": "yamanashi_station_3730397974",
      "osmId": 3730397974,
      "osmType": "node",
      "prefectureId": "yamanashi",
      "type": "station",
      "subtype": "private",
      "name": "大月",
      "nameKana": "おおつき",
      "nameEn": "Otsuki",
      "operator": "富士山麓電気鉄道株式会社",
      "network": null,
      "ref": "FJ01",
      "latitude": 35.6129342,
      "longitude": 138.942183,
      "countryCode": "jp",
      "rawTags": {
        "ele": "358",
        "name": "大月",
        "name:en": "Otsuki",
        "name:ja": "大月",
        "name:ja-Hira": "おおつき",
        "name:ja-Latn": "Ōtsuki",
        "name:ko": "오쓰키",
        "name:zh": "大月",
        "operator": "富士山麓電気鉄道株式会社",
        "operator:en": "Fuji Kyuko",
        "public_transport": "station",
        "railway": "station",
        "ref": "FJ01",
        "website": "https://www.fujikyu-railway.jp/station/timetable.php?no=1",
        "wikidata": "Q843189",
        "wikipedia": "ja:大月駅"
      }
    },
    {
      "id": "yamanashi_station_3730397976",
      "osmId": 3730397976,
      "osmType": "node",
      "prefectureId": "yamanashi",
      "type": "station",
      "subtype": "private",
      "name": "山梨市",
      "nameKana": null,
      "nameEn": "Yamanashishi",
      "operator": null,
      "network": null,
      "ref": "CO39",
      "latitude": 35.6849247,
      "longitude": 138.6830069,
      "countryCode": "jp",
      "rawTags": {
        "name": "山梨市",
        "name:en": "Yamanashishi",
        "name:ja": "山梨市",
        "name:zh": "山梨市",
        "public_transport": "station",
        "railway": "station",
        "ref": "CO39",
        "source": "KSJ2",
        "train": "yes",
        "wikidata": "Q8013369",
        "wikipedia": "ja:山梨市駅"
      }
    },
    {
      "id": "yamanashi_bus_terminal_4111996490",
      "osmId": 4111996490,
      "osmType": "node",
      "prefectureId": "yamanashi",
      "type": "bus_terminal",
      "subtype": null,
      "name": "高速バスステーション",
      "nameKana": null,
      "nameEn": null,
      "operator": null,
      "network": null,
      "ref": null,
      "latitude": 35.6683595,
      "longitude": 138.5211792,
      "countryCode": "jp",
      "rawTags": {
        "amenity": "bus_station",
        "bus": "yes",
        "name": "高速バスステーション",
        "public_transport": "station"
      }
    },
    {
      "id": "yamanashi_station_5589913332",
      "osmId": 5589913332,
      "osmType": "node",
      "prefectureId": "yamanashi",
      "type": "station",
      "subtype": "private",
      "name": "酒折",
      "nameKana": "さかおり",
      "nameEn": "Sakaori",
      "operator": null,
      "network": null,
      "ref": "C042",
      "latitude": 35.6596417,
      "longitude": 138.5992422,
      "countryCode": "jp",
      "rawTags": {
        "name": "酒折",
        "name:en": "Sakaori",
        "name:ja": "酒折",
        "name:ja-Hira": "さかおり",
        "name:ja-Latn": "Sakaori",
        "name:ko": "사카오리",
        "name:zh": "酒折",
        "public_transport": "station",
        "railway": "station",
        "ref": "C042",
        "source": "KSJ2",
        "train": "yes",
        "wikidata": "Q7402824",
        "wikipedia": "ja:酒折駅"
      }
    },
    {
      "id": "yamanashi_station_5589913354",
      "osmId": 5589913354,
      "osmType": "node",
      "prefectureId": "yamanashi",
      "type": "station",
      "subtype": "private",
      "name": "善光寺",
      "nameKana": null,
      "nameEn": "Zenkoji",
      "operator": null,
      "network": null,
      "ref": null,
      "latitude": 35.6598766,
      "longitude": 138.5893576,
      "countryCode": "jp",
      "rawTags": {
        "name": "善光寺",
        "name:en": "Zenkoji",
        "public_transport": "station",
        "railway": "station",
        "source": "KSJ2",
        "train": "yes",
        "wikidata": "Q8069148",
        "wikipedia": "ja:善光寺駅"
      }
    },
    {
      "id": "yamanashi_station_5589913392",
      "osmId": 5589913392,
      "osmType": "node",
      "prefectureId": "yamanashi",
      "type": "station",
      "subtype": "private",
      "name": "金手",
      "nameKana": null,
      "nameEn": "Kanente",
      "operator": null,
      "network": null,
      "ref": null,
      "latitude": 35.6621751,
      "longitude": 138.5791437,
      "countryCode": "jp",
      "rawTags": {
        "name": "金手",
        "name:en": "Kanente",
        "public_transport": "station",
        "railway": "station",
        "source": "KSJ2",
        "train": "yes",
        "wikidata": "Q6362011",
        "wikipedia": "ja:金手駅"
      }
    },
    {
      "id": "yamanashi_station_5969088998",
      "osmId": 5969088998,
      "osmType": "node",
      "prefectureId": "yamanashi",
      "type": "station",
      "subtype": "private",
      "name": "日野春",
      "nameKana": null,
      "nameEn": "Hinoharu",
      "operator": null,
      "network": null,
      "ref": null,
      "latitude": 35.790032,
      "longitude": 138.39477,
      "countryCode": "jp",
      "rawTags": {
        "name": "日野春",
        "name:en": "Hinoharu",
        "public_transport": "station",
        "railway": "station",
        "source": "KSJ2",
        "wikidata": "Q5767422",
        "wikipedia": "ja:日野春駅"
      }
    },
    {
      "id": "yamanashi_station_5972592424",
      "osmId": 5972592424,
      "osmType": "node",
      "prefectureId": "yamanashi",
      "type": "station",
      "subtype": "private",
      "name": "韮崎",
      "nameKana": "にらさき",
      "nameEn": "Nirasaki",
      "operator": null,
      "network": null,
      "ref": null,
      "latitude": 35.7104219,
      "longitude": 138.4508872,
      "countryCode": "jp",
      "rawTags": {
        "name": "韮崎",
        "name:en": "Nirasaki",
        "name:fr": "Nirasaki",
        "name:ja-Hira": "にらさき",
        "name:ja-Latn": "Nirasaki",
        "public_transport": "station",
        "railway": "station",
        "source": "KSJ2",
        "train": "yes",
        "wikidata": "Q8014441",
        "wikipedia": "ja:韮崎駅"
      }
    },
    {
      "id": "yamanashi_station_5980724948",
      "osmId": 5980724948,
      "osmType": "node",
      "prefectureId": "yamanashi",
      "type": "station",
      "subtype": "private",
      "name": "甲斐岩間",
      "nameKana": null,
      "nameEn": "Kai-Iwama",
      "operator": null,
      "network": null,
      "ref": null,
      "latitude": 35.4921431,
      "longitude": 138.4627326,
      "countryCode": "jp",
      "rawTags": {
        "name": "甲斐岩間",
        "name:en": "Kai-Iwama",
        "public_transport": "station",
        "railway": "station",
        "source": "KSJ2",
        "train": "yes",
        "wikidata": "Q6347326",
        "wikipedia": "ja:甲斐岩間駅"
      }
    },
    {
      "id": "yamanashi_station_5980724949",
      "osmId": 5980724949,
      "osmType": "node",
      "prefectureId": "yamanashi",
      "type": "station",
      "subtype": "private",
      "name": "落居",
      "nameKana": null,
      "nameEn": "Ochii",
      "operator": null,
      "network": null,
      "ref": null,
      "latitude": 35.5038625,
      "longitude": 138.4714429,
      "countryCode": "jp",
      "rawTags": {
        "name": "落居",
        "name:en": "Ochii",
        "public_transport": "station",
        "railway": "station",
        "train": "yes",
        "wikidata": "Q7076320",
        "wikipedia": "ja:落居駅"
      }
    },
    {
      "id": "yamanashi_station_5980724958",
      "osmId": 5980724958,
      "osmType": "node",
      "prefectureId": "yamanashi",
      "type": "station",
      "subtype": "private",
      "name": "市川大門",
      "nameKana": null,
      "nameEn": "Ichikawa-Daimon",
      "operator": null,
      "network": null,
      "ref": null,
      "latitude": 35.560444,
      "longitude": 138.4929475,
      "countryCode": "jp",
      "rawTags": {
        "name": "市川大門",
        "name:en": "Ichikawa-Daimon",
        "public_transport": "station",
        "railway": "station",
        "source": "KSJ2",
        "train": "yes",
        "wikidata": "Q5986151",
        "wikipedia": "ja:市川大門駅"
      }
    },
    {
      "id": "yamanashi_station_5980724959",
      "osmId": 5980724959,
      "osmType": "node",
      "prefectureId": "yamanashi",
      "type": "station",
      "subtype": "private",
      "name": "市川本町",
      "nameKana": null,
      "nameEn": null,
      "operator": null,
      "network": null,
      "ref": null,
      "latitude": 35.5607312,
      "longitude": 138.5022368,
      "countryCode": "jp",
      "rawTags": {
        "name": "市川本町",
        "public_transport": "station",
        "railway": "station",
        "source": "KSJ2",
        "train": "yes",
        "wikidata": "Q11480328",
        "wikipedia": "ja:市川本町駅"
      }
    },
    {
      "id": "yamanashi_station_5980724960",
      "osmId": 5980724960,
      "osmType": "node",
      "prefectureId": "yamanashi",
      "type": "station",
      "subtype": "private",
      "name": "芦川",
      "nameKana": null,
      "nameEn": "Ashigawa",
      "operator": null,
      "network": null,
      "ref": null,
      "latitude": 35.5628946,
      "longitude": 138.5109365,
      "countryCode": "jp",
      "rawTags": {
        "name": "芦川",
        "name:en": "Ashigawa",
        "public_transport": "station",
        "railway": "station",
        "source": "KSJ2",
        "wikidata": "Q4805063",
        "wikipedia": "ja:芦川駅 (山梨県)"
      }
    },
    {
      "id": "yamanashi_station_5980724967",
      "osmId": 5980724967,
      "osmType": "node",
      "prefectureId": "yamanashi",
      "type": "station",
      "subtype": "private",
      "name": "東花輪",
      "nameKana": null,
      "nameEn": "Higashi-Hanawa",
      "operator": null,
      "network": null,
      "ref": null,
      "latitude": 35.5945354,
      "longitude": 138.5269006,
      "countryCode": "jp",
      "rawTags": {
        "name": "東花輪",
        "name:en": "Higashi-Hanawa",
        "name:ja": "東花輪",
        "name:ko": "히가시하나와",
        "public_transport": "station",
        "railway": "station",
        "source": "KSJ2",
        "train": "yes",
        "wikidata": "Q5753547",
        "wikipedia": "ja:東花輪駅"
      }
    },
    {
      "id": "yamanashi_station_5980724969",
      "osmId": 5980724969,
      "osmType": "node",
      "prefectureId": "yamanashi",
      "type": "station",
      "subtype": "private",
      "name": "小井川",
      "nameKana": null,
      "nameEn": "Koikawa",
      "operator": null,
      "network": null,
      "ref": null,
      "latitude": 35.6048909,
      "longitude": 138.5285653,
      "countryCode": "jp",
      "rawTags": {
        "name": "小井川",
        "name:en": "Koikawa",
        "public_transport": "station",
        "railway": "station",
        "source": "KSJ2",
        "train": "yes",
        "wikidata": "Q6426275",
        "wikipedia": "ja:小井川駅"
      }
    },
    {
      "id": "yamanashi_station_5980724983",
      "osmId": 5980724983,
      "osmType": "node",
      "prefectureId": "yamanashi",
      "type": "station",
      "subtype": "private",
      "name": "鰍沢口",
      "nameKana": null,
      "nameEn": null,
      "operator": null,
      "network": null,
      "ref": null,
      "latitude": 35.5413802,
      "longitude": 138.4708053,
      "countryCode": "jp",
      "rawTags": {
        "name": "鰍沢口",
        "public_transport": "station",
        "railway": "station",
        "source": "KSJ2",
        "train": "yes",
        "wikidata": "Q6348996",
        "wikipedia": "ja:鰍沢口駅"
      }
    },
    {
      "id": "yamanashi_station_5980725186",
      "osmId": 5980725186,
      "osmType": "node",
      "prefectureId": "yamanashi",
      "type": "station",
      "subtype": "jr",
      "name": "常永",
      "nameKana": null,
      "nameEn": "Joei",
      "operator": null,
      "network": "JR東海 身延線",
      "ref": null,
      "latitude": 35.6167698,
      "longitude": 138.5327643,
      "countryCode": "jp",
      "rawTags": {
        "name": "常永",
        "name:en": "Joei",
        "network": "JR東海 身延線",
        "public_transport": "station",
        "railway": "station",
        "source": "KSJ2",
        "wikidata": "Q6322172",
        "wikipedia": "ja:常永駅"
      }
    },
    {
      "id": "yamanashi_station_5980725195",
      "osmId": 5980725195,
      "osmType": "node",
      "prefectureId": "yamanashi",
      "type": "station",
      "subtype": "private",
      "name": "国母",
      "nameKana": null,
      "nameEn": "Kokubo",
      "operator": null,
      "network": null,
      "ref": null,
      "latitude": 35.6303991,
      "longitude": 138.5513882,
      "countryCode": "jp",
      "rawTags": {
        "name": "国母",
        "name:en": "Kokubo",
        "public_transport": "station",
        "railway": "station",
        "source": "KSJ2",
        "train": "yes",
        "wikidata": "Q6426880",
        "wikipedia": "ja:国母駅"
      }
    },
    {
      "id": "yamanashi_station_5980725199",
      "osmId": 5980725199,
      "osmType": "node",
      "prefectureId": "yamanashi",
      "type": "station",
      "subtype": "private",
      "name": "甲斐住吉",
      "nameKana": null,
      "nameEn": "Kai-Sumiyoshi",
      "operator": null,
      "network": null,
      "ref": null,
      "latitude": 35.6369838,
      "longitude": 138.5703183,
      "countryCode": "jp",
      "rawTags": {
        "name": "甲斐住吉",
        "name:en": "Kai-Sumiyoshi",
        "public_transport": "station",
        "railway": "station",
        "source": "KSJ2",
        "train": "yes",
        "wikidata": "Q11577858",
        "wikipedia": "ja:甲斐住吉駅"
      }
    },
    {
      "id": "yamanashi_station_5980725226",
      "osmId": 5980725226,
      "osmType": "node",
      "prefectureId": "yamanashi",
      "type": "station",
      "subtype": "private",
      "name": "南甲府",
      "nameKana": null,
      "nameEn": "Minami-Kofu",
      "operator": null,
      "network": null,
      "ref": null,
      "latitude": 35.643445,
      "longitude": 138.5777369,
      "countryCode": "jp",
      "rawTags": {
        "name": "南甲府",
        "name:en": "Minami-Kofu",
        "public_transport": "station",
        "railway": "station",
        "source": "KSJ2",
        "train": "yes",
        "wikidata": "Q6862942",
        "wikipedia": "ja:南甲府駅"
      }
    },
    {
      "id": "yamanashi_station_5980951958",
      "osmId": 5980951958,
      "osmType": "node",
      "prefectureId": "yamanashi",
      "type": "station",
      "subtype": "private",
      "name": "勝沼ぶどう郷",
      "nameKana": null,
      "nameEn": "Katsunumabudokyo",
      "operator": null,
      "network": null,
      "ref": "CO36",
      "latitude": 35.6723574,
      "longitude": 138.7432213,
      "countryCode": "jp",
      "rawTags": {
        "name": "勝沼ぶどう郷",
        "name:en": "Katsunumabudokyo",
        "name:ja": "勝沼ぶどう郷",
        "name:ko": "가쓰누마부도쿄",
        "name:zh": "胜沼葡萄乡",
        "public_transport": "station",
        "railway": "station",
        "ref": "CO36",
        "source": "KSJ2",
        "train": "yes",
        "wikidata": "Q6378166",
        "wikipedia": "ja:勝沼ぶどう郷駅"
      }
    },
    {
      "id": "yamanashi_station_5980952096",
      "osmId": 5980952096,
      "osmType": "node",
      "prefectureId": "yamanashi",
      "type": "station",
      "subtype": "private",
      "name": "塩山",
      "nameKana": "えんざん",
      "nameEn": "Enzan",
      "operator": null,
      "network": null,
      "ref": "CO37",
      "latitude": 35.7054703,
      "longitude": 138.7341835,
      "countryCode": "jp",
      "rawTags": {
        "name": "塩山",
        "name:en": "Enzan",
        "name:ja": "塩山",
        "name:ja-Hira": "えんざん",
        "name:ja-Latn": "Enzan",
        "name:zh": "盐山",
        "public_transport": "station",
        "railway": "station",
        "ref": "CO37",
        "source": "KSJ2",
        "train": "yes",
        "wheelchair": "yes",
        "wikidata": "Q5381477",
        "wikipedia": "ja:塩山駅"
      }
    },
    {
      "id": "yamanashi_station_5980952103",
      "osmId": 5980952103,
      "osmType": "node",
      "prefectureId": "yamanashi",
      "type": "station",
      "subtype": "private",
      "name": "東山梨",
      "nameKana": null,
      "nameEn": "Higashi-Yamanashi",
      "operator": null,
      "network": null,
      "ref": "CO38",
      "latitude": 35.6941802,
      "longitude": 138.7027841,
      "countryCode": "jp",
      "rawTags": {
        "name": "東山梨",
        "name:en": "Higashi-Yamanashi",
        "name:ja": "東山梨",
        "name:zh": "东山梨",
        "public_transport": "station",
        "railway": "station",
        "ref": "CO38",
        "source": "KSJ2",
        "train": "yes",
        "wikidata": "Q5753900",
        "wikipedia": "ja:東山梨駅"
      }
    },
    {
      "id": "yamanashi_station_5980952160",
      "osmId": 5980952160,
      "osmType": "node",
      "prefectureId": "yamanashi",
      "type": "station",
      "subtype": "private",
      "name": "春日居町",
      "nameKana": null,
      "nameEn": "Kasugaicho",
      "operator": null,
      "network": null,
      "ref": "CO40",
      "latitude": 35.673473,
      "longitude": 138.6590816,
      "countryCode": "jp",
      "rawTags": {
        "name": "春日居町",
        "name:en": "Kasugaicho",
        "name:ja": "春日居町",
        "name:zh": "春日居町",
        "public_transport": "station",
        "railway": "station",
        "ref": "CO40",
        "source": "KSJ2",
        "train": "yes",
        "wheelchair": "no",
        "wikidata": "Q6374879",
        "wikipedia": "ja:春日居町駅"
      }
    },
    {
      "id": "yamanashi_station_5982846425",
      "osmId": 5982846425,
      "osmType": "node",
      "prefectureId": "yamanashi",
      "type": "station",
      "subtype": "private",
      "name": "甲斐大和",
      "nameKana": null,
      "nameEn": "Kai-Yamato",
      "operator": null,
      "network": null,
      "ref": "CO35",
      "latitude": 35.6395719,
      "longitude": 138.7810054,
      "countryCode": "jp",
      "rawTags": {
        "name": "甲斐大和",
        "name:en": "Kai-Yamato",
        "name:ja": "甲斐大和",
        "name:ja_rm": "Kai-Yamato",
        "name:ko": "가이야마토",
        "public_transport": "station",
        "railway": "station",
        "ref": "CO35",
        "source": "KSJ2",
        "train": "yes",
        "wikidata": "Q6347338",
        "wikipedia": "ja:甲斐大和駅"
      }
    },
    {
      "id": "yamanashi_station_5991086524",
      "osmId": 5991086524,
      "osmType": "node",
      "prefectureId": "yamanashi",
      "type": "station",
      "subtype": "private",
      "name": "初狩",
      "nameKana": "はつかり",
      "nameEn": "Hatsukari",
      "operator": null,
      "network": null,
      "ref": "CO33",
      "latitude": 35.5942257,
      "longitude": 138.8843295,
      "countryCode": "jp",
      "rawTags": {
        "name": "初狩",
        "name:en": "Hatsukari",
        "name:fr": "Hatsukari",
        "name:ja": "初狩",
        "name:ja-Hira": "はつかり",
        "name:ja-Latn": "Hatsukari",
        "name:zh": "初狩",
        "public_transport": "station",
        "railway": "station",
        "ref": "CO33",
        "train": "yes",
        "wikidata": "Q5681866",
        "wikipedia": "ja:初狩駅"
      }
    },
    {
      "id": "yamanashi_station_6000923728",
      "osmId": 6000923728,
      "osmType": "node",
      "prefectureId": "yamanashi",
      "type": "station",
      "subtype": "jr",
      "name": "鳥沢",
      "nameKana": "とりさわ",
      "nameEn": "Torisawa",
      "operator": "東日本旅客鉄道",
      "network": null,
      "ref": "JC30",
      "latitude": 35.60815,
      "longitude": 139.0031178,
      "countryCode": "jp",
      "rawTags": {
        "name": "鳥沢",
        "name:en": "Torisawa",
        "name:ja-Hira": "とりさわ",
        "name:ja-Latn": "Torisawa",
        "name:zh": "鸟泽",
        "operator": "東日本旅客鉄道",
        "platforms": "2",
        "public_transport": "station",
        "railway": "station",
        "ref": "JC30",
        "train": "yes",
        "wikidata": "Q7825827",
        "wikipedia": "ja:鳥沢駅"
      }
    },
    {
      "id": "yamanashi_station_6002079057",
      "osmId": 6002079057,
      "osmType": "node",
      "prefectureId": "yamanashi",
      "type": "station",
      "subtype": "jr",
      "name": "上野原",
      "nameKana": "うえのはら",
      "nameEn": "Uenohara",
      "operator": "JR東日本",
      "network": null,
      "ref": "JC27",
      "latitude": 35.6188935,
      "longitude": 139.1160455,
      "countryCode": "jp",
      "rawTags": {
        "name": "上野原",
        "name:en": "Uenohara",
        "name:fr": "Uenohara",
        "name:ja-Hira": "うえのはら",
        "name:ja-Latn": "Uenohara",
        "name:zh": "上野原",
        "operator": "JR東日本",
        "platforms": "2",
        "public_transport": "station",
        "railway": "station",
        "ref": "JC27",
        "train": "yes",
        "wikidata": "Q7877464",
        "wikipedia": "ja:上野原駅"
      }
    },
    {
      "id": "yamanashi_station_6002079147",
      "osmId": 6002079147,
      "osmType": "node",
      "prefectureId": "yamanashi",
      "type": "station",
      "subtype": "jr",
      "name": "四方津",
      "nameKana": "しおつ",
      "nameEn": "Shiotsu",
      "operator": "東日本旅客鉄道",
      "network": null,
      "ref": "JC28",
      "latitude": 35.6141608,
      "longitude": 139.0731591,
      "countryCode": "jp",
      "rawTags": {
        "name": "四方津",
        "name:en": "Shiotsu",
        "name:fr": "Shiotsu",
        "name:ja": "四方津",
        "name:ja-Hira": "しおつ",
        "name:ja-Latn": "Shiotsu",
        "name:ko": "시오쓰",
        "operator": "東日本旅客鉄道",
        "platforms": "2",
        "public_transport": "station",
        "railway": "station",
        "ref": "JC28",
        "train": "yes",
        "wikidata": "Q7497902",
        "wikipedia": "ja:四方津駅"
      }
    },
    {
      "id": "yamanashi_station_6036084477",
      "osmId": 6036084477,
      "osmType": "node",
      "prefectureId": "yamanashi",
      "type": "station",
      "subtype": "private",
      "name": "市ノ瀬",
      "nameKana": null,
      "nameEn": "Ichinose",
      "operator": null,
      "network": null,
      "ref": null,
      "latitude": 35.4621992,
      "longitude": 138.4821403,
      "countryCode": "jp",
      "rawTags": {
        "name": "市ノ瀬",
        "name:en": "Ichinose",
        "public_transport": "station",
        "railway": "station",
        "source": "GSImaps/std",
        "train": "yes",
        "wikidata": "Q11479975",
        "wikipedia": "ja:市ノ瀬駅"
      }
    },
    {
      "id": "yamanashi_station_6036084478",
      "osmId": 6036084478,
      "osmType": "node",
      "prefectureId": "yamanashi",
      "type": "station",
      "subtype": "private",
      "name": "久那土",
      "nameKana": null,
      "nameEn": "Kunado",
      "operator": null,
      "network": null,
      "ref": null,
      "latitude": 35.4813913,
      "longitude": 138.4677637,
      "countryCode": "jp",
      "rawTags": {
        "name": "久那土",
        "name:en": "Kunado",
        "public_transport": "station",
        "railway": "station",
        "source": "KSJ2",
        "train": "yes",
        "wikidata": "Q6444138",
        "wikipedia": "ja:久那土駅"
      }
    },
    {
      "id": "yamanashi_station_6036422952",
      "osmId": 6036422952,
      "osmType": "node",
      "prefectureId": "yamanashi",
      "type": "station",
      "subtype": "private",
      "name": "身延",
      "nameKana": null,
      "nameEn": "Minobu",
      "operator": null,
      "network": null,
      "ref": null,
      "latitude": 35.3614072,
      "longitude": 138.4531094,
      "countryCode": "jp",
      "rawTags": {
        "name": "身延",
        "name:en": "Minobu",
        "public_transport": "station",
        "railway": "station",
        "source": "KSJ2",
        "train": "yes",
        "wikidata": "Q5356755",
        "wikipedia": "ja:身延駅"
      }
    },
    {
      "id": "yamanashi_station_6036621596",
      "osmId": 6036621596,
      "osmType": "node",
      "prefectureId": "yamanashi",
      "type": "station",
      "subtype": "private",
      "name": "塩之沢",
      "nameKana": null,
      "nameEn": "Shionosawa",
      "operator": null,
      "network": null,
      "ref": null,
      "latitude": 35.3799355,
      "longitude": 138.4541877,
      "countryCode": "jp",
      "rawTags": {
        "name": "塩之沢",
        "name:en": "Shionosawa",
        "public_transport": "station",
        "railway": "station",
        "source": "KSJ2",
        "train": "yes",
        "wikidata": "Q5356207",
        "wikipedia": "ja:塩之沢駅"
      }
    },
    {
      "id": "yamanashi_station_6036621619",
      "osmId": 6036621619,
      "osmType": "node",
      "prefectureId": "yamanashi",
      "type": "station",
      "subtype": "private",
      "name": "波高島",
      "nameKana": null,
      "nameEn": "Hadakajima",
      "operator": null,
      "network": null,
      "ref": null,
      "latitude": 35.4184801,
      "longitude": 138.4595802,
      "countryCode": "jp",
      "rawTags": {
        "name": "波高島",
        "name:en": "Hadakajima",
        "public_transport": "station",
        "railway": "station",
        "source": "KSJ2",
        "train": "yes",
        "wikidata": "Q5355524",
        "wikipedia": "ja:波高島駅"
      }
    },
    {
      "id": "yamanashi_station_6036621631",
      "osmId": 6036621631,
      "osmType": "node",
      "prefectureId": "yamanashi",
      "type": "station",
      "subtype": "private",
      "name": "下部温泉",
      "nameKana": null,
      "nameEn": "Shimobe-onsen",
      "operator": null,
      "network": null,
      "ref": null,
      "latitude": 35.4255804,
      "longitude": 138.4722161,
      "countryCode": "jp",
      "rawTags": {
        "name": "下部温泉",
        "name:en": "Shimobe-onsen",
        "public_transport": "station",
        "railway": "station",
        "source": "KSJ2",
        "train": "yes",
        "wikidata": "Q7496943",
        "wikipedia": "ja:下部温泉駅"
      }
    },
    {
      "id": "yamanashi_station_6070965450",
      "osmId": 6070965450,
      "osmType": "node",
      "prefectureId": "yamanashi",
      "type": "station",
      "subtype": "private",
      "name": "甲斐常葉",
      "nameKana": null,
      "nameEn": "Kai-Tokiwa",
      "operator": null,
      "network": null,
      "ref": null,
      "latitude": 35.4449702,
      "longitude": 138.4769006,
      "countryCode": "jp",
      "rawTags": {
        "name": "甲斐常葉",
        "name:en": "Kai-Tokiwa",
        "public_transport": "station",
        "railway": "station",
        "source": "KSJ2",
        "train": "yes",
        "wikidata": "Q6347331",
        "wikipedia": "ja:甲斐常葉駅"
      }
    },
    {
      "id": "yamanashi_station_6074126215",
      "osmId": 6074126215,
      "osmType": "node",
      "prefectureId": "yamanashi",
      "type": "station",
      "subtype": "private",
      "name": "井出",
      "nameKana": null,
      "nameEn": "Ide",
      "operator": null,
      "network": null,
      "ref": null,
      "latitude": 35.2473649,
      "longitude": 138.4908923,
      "countryCode": "jp",
      "rawTags": {
        "name": "井出",
        "name:en": "Ide",
        "public_transport": "station",
        "railway": "station",
        "source": "KSJ2",
        "train": "yes",
        "wikidata": "Q5355744",
        "wikipedia": "ja:井出駅"
      }
    },
    {
      "id": "yamanashi_station_6074126216",
      "osmId": 6074126216,
      "osmType": "node",
      "prefectureId": "yamanashi",
      "type": "station",
      "subtype": "private",
      "name": "寄畑",
      "nameKana": null,
      "nameEn": "Yorhihata",
      "operator": null,
      "network": null,
      "ref": null,
      "latitude": 35.2644893,
      "longitude": 138.4750888,
      "countryCode": "jp",
      "rawTags": {
        "name": "寄畑",
        "name:en": "Yorhihata",
        "public_transport": "station",
        "railway": "station",
        "source": "KSJ2",
        "train": "yes",
        "wikidata": "Q5355769",
        "wikipedia": "ja:寄畑駅"
      }
    },
    {
      "id": "yamanashi_station_6074126217",
      "osmId": 6074126217,
      "osmType": "node",
      "prefectureId": "yamanashi",
      "type": "station",
      "subtype": "private",
      "name": "内船",
      "nameKana": null,
      "nameEn": "Utsubuna",
      "operator": null,
      "network": null,
      "ref": null,
      "latitude": 35.2819671,
      "longitude": 138.4649795,
      "countryCode": "jp",
      "rawTags": {
        "name": "内船",
        "name:en": "Utsubuna",
        "public_transport": "station",
        "railway": "station",
        "source": "KSJ2",
        "train": "yes",
        "wikidata": "Q7903273",
        "wikipedia": "ja:内船駅"
      }
    },
    {
      "id": "yamanashi_station_6074126222",
      "osmId": 6074126222,
      "osmType": "node",
      "prefectureId": "yamanashi",
      "type": "station",
      "subtype": "private",
      "name": "甲斐大島",
      "nameKana": null,
      "nameEn": "Kai-Oshima",
      "operator": null,
      "network": null,
      "ref": null,
      "latitude": 35.328396,
      "longitude": 138.4520808,
      "countryCode": "jp",
      "rawTags": {
        "name": "甲斐大島",
        "name:en": "Kai-Oshima",
        "public_transport": "station",
        "railway": "station",
        "source": "KSJ2",
        "train": "yes",
        "wikidata": "Q5355357",
        "wikipedia": "ja:甲斐大島駅"
      }
    },
    {
      "id": "yamanashi_station_6083859795",
      "osmId": 6083859795,
      "osmType": "node",
      "prefectureId": "yamanashi",
      "type": "station",
      "subtype": "private",
      "name": "十島",
      "nameKana": null,
      "nameEn": "Toshima",
      "operator": null,
      "network": null,
      "ref": null,
      "latitude": 35.2301734,
      "longitude": 138.5158302,
      "countryCode": "jp",
      "rawTags": {
        "name": "十島",
        "name:en": "Toshima",
        "name:ja": "十島",
        "name:ko": "도시마",
        "public_transport": "station",
        "railway": "station",
        "source": "KSJ2",
        "wikidata": "Q7862731",
        "wikipedia": "ja:十島駅"
      }
    },
    {
      "id": "yamanashi_bus_terminal_7686135952",
      "osmId": 7686135952,
      "osmType": "node",
      "prefectureId": "yamanashi",
      "type": "bus_terminal",
      "subtype": null,
      "name": "山梨交通",
      "nameKana": null,
      "nameEn": "Yamanashi Transportation Co., Transport",
      "operator": null,
      "network": null,
      "ref": null,
      "latitude": 35.6412136,
      "longitude": 138.571178,
      "countryCode": "jp",
      "rawTags": {
        "amenity": "bus_station",
        "bus": "yes",
        "name": "山梨交通",
        "name:en": "Yamanashi Transportation Co., Transport",
        "public_transport": "station"
      }
    },
    {
      "id": "yamanashi_station_8228782082",
      "osmId": 8228782082,
      "osmType": "node",
      "prefectureId": "yamanashi",
      "type": "station",
      "subtype": "private",
      "name": "禾生",
      "nameKana": "かせい",
      "nameEn": "Kasei",
      "operator": "富士山麓電気鉄道株式会社",
      "network": null,
      "ref": null,
      "latitude": 35.575108,
      "longitude": 138.929062,
      "countryCode": "jp",
      "rawTags": {
        "name": "禾生",
        "name:en": "Kasei",
        "name:ja": "禾生",
        "name:ja-Hira": "かせい",
        "name:ko": "가세이",
        "operator": "富士山麓電気鉄道株式会社",
        "public_transport": "station",
        "railway": "station",
        "wikidata": "Q6374100",
        "wikipedia": "ja:禾生駅"
      }
    },
    {
      "id": "yamanashi_station_8228791734",
      "osmId": 8228791734,
      "osmType": "node",
      "prefectureId": "yamanashi",
      "type": "station",
      "subtype": "private",
      "name": "東桂",
      "nameKana": "ひがしかつら",
      "nameEn": "Higashikatsura",
      "operator": null,
      "network": null,
      "ref": null,
      "latitude": 35.5364296,
      "longitude": 138.8708959,
      "countryCode": "jp",
      "rawTags": {
        "name": "東桂",
        "name:en": "Higashikatsura",
        "name:ja": "東桂",
        "name:ja_kana": "ひがしかつら",
        "name:ja_rm": "Higashikatsura",
        "name:ko": "히가시카쓰라",
        "public_transport": "station",
        "railway": "station",
        "wikidata": "Q5753640",
        "wikipedia": "ja:東桂駅"
      }
    },
    {
      "id": "yamanashi_station_8237778233",
      "osmId": 8237778233,
      "osmType": "node",
      "prefectureId": "yamanashi",
      "type": "station",
      "subtype": "private",
      "name": "谷村町",
      "nameKana": "やむらまち",
      "nameEn": "Yamuramachi",
      "operator": "富士山麓電気鉄道株式会社",
      "network": null,
      "ref": null,
      "latitude": 35.5505912,
      "longitude": 138.9046798,
      "countryCode": "jp",
      "rawTags": {
        "name": "谷村町",
        "name:en": "Yamuramachi",
        "name:ja": "谷村町",
        "name:ja-Hira": "やむらまち",
        "name:ko": "야무라마치",
        "operator": "富士山麓電気鉄道株式会社",
        "public_transport": "station",
        "railway": "station",
        "wikidata": "Q8013193",
        "wikipedia": "ja:谷村町駅"
      }
    },
    {
      "id": "yamanashi_station_8239591992",
      "osmId": 8239591992,
      "osmType": "node",
      "prefectureId": "yamanashi",
      "type": "station",
      "subtype": "private",
      "name": "上大月",
      "nameKana": "かみおおつき",
      "nameEn": "Kamiotsuki",
      "operator": "富士山麓電気鉄道株式会社",
      "network": null,
      "ref": "FJ02",
      "latitude": 35.6093303,
      "longitude": 138.9379864,
      "countryCode": "jp",
      "rawTags": {
        "name": "上大月",
        "name:en": "Kamiotsuki",
        "name:ja": "上大月",
        "name:ja_kana": "かみおおつき",
        "name:ja_rm": "Kamiotsuki",
        "name:ko": "가미오쓰키",
        "operator": "富士山麓電気鉄道株式会社",
        "public_transport": "station",
        "railway": "station",
        "ref": "FJ02",
        "train": "yes",
        "wikidata": "Q8139880",
        "wikipedia": "ja:上大月駅"
      }
    },
    {
      "id": "yamanashi_station_8239606540",
      "osmId": 8239606540,
      "osmType": "node",
      "prefectureId": "yamanashi",
      "type": "station",
      "subtype": "private",
      "name": "赤坂",
      "nameKana": "あかさか",
      "nameEn": "Akasaka",
      "operator": "富士山麓電気鉄道株式会社",
      "network": null,
      "ref": null,
      "latitude": 35.5661434,
      "longitude": 138.9161572,
      "countryCode": "jp",
      "rawTags": {
        "name": "赤坂",
        "name:en": "Akasaka",
        "name:ja": "赤坂",
        "name:ja-Hira": "あかさか",
        "name:ko": "아카사카",
        "operator": "富士山麓電気鉄道株式会社",
        "public_transport": "station",
        "railway": "station",
        "train": "yes",
        "wikidata": "Q4700316",
        "wikipedia": "ja:赤坂駅 (山梨県)"
      }
    },
    {
      "id": "yamanashi_station_8239606541",
      "osmId": 8239606541,
      "osmType": "node",
      "prefectureId": "yamanashi",
      "type": "station",
      "subtype": "private",
      "name": "田野倉",
      "nameKana": "たのくら",
      "nameEn": "Tanokura",
      "operator": "富士山麓電気鉄道株式会社",
      "network": null,
      "ref": "FJ03",
      "latitude": 35.5932147,
      "longitude": 138.9312956,
      "countryCode": "jp",
      "rawTags": {
        "name": "田野倉",
        "name:en": "Tanokura",
        "name:ja": "田野倉",
        "name:ja_kana": "たのくら",
        "name:ja_rm": "Tanokura",
        "name:ko": "다노쿠라",
        "operator": "富士山麓電気鉄道株式会社",
        "public_transport": "station",
        "railway": "station",
        "ref": "FJ03",
        "train": "yes",
        "wikidata": "Q7683727",
        "wikipedia": "ja:田野倉駅"
      }
    },
    {
      "id": "yamanashi_station_8241759516",
      "osmId": 8241759516,
      "osmType": "node",
      "prefectureId": "yamanashi",
      "type": "station",
      "subtype": "private",
      "name": "都留市",
      "nameKana": "つるし",
      "nameEn": "Tsurushi",
      "operator": "富士山麓電気鉄道株式会社",
      "network": null,
      "ref": null,
      "latitude": 35.5570571,
      "longitude": 138.9075261,
      "countryCode": "jp",
      "rawTags": {
        "name": "都留市",
        "name:en": "Tsurushi",
        "name:ja": "都留市",
        "name:ja-Hira": "つるし",
        "name:ko": "쓰루시",
        "operator": "富士山麓電気鉄道株式会社",
        "public_transport": "station",
        "railway": "station",
        "train": "yes",
        "wikidata": "Q7850306",
        "wikipedia": "ja:都留市駅"
      }
    },
    {
      "id": "yamanashi_station_8241789860",
      "osmId": 8241789860,
      "osmType": "node",
      "prefectureId": "yamanashi",
      "type": "station",
      "subtype": "private",
      "name": "葭池温泉前",
      "nameKana": "よしいけおんせんまえ",
      "nameEn": "Yoshiikeonsenmae",
      "operator": "富士山麓電気鉄道株式会社",
      "network": null,
      "ref": null,
      "latitude": 35.5019506,
      "longitude": 138.8119668,
      "countryCode": "jp",
      "rawTags": {
        "alt_name:ko": "요시이케온센마에",
        "name": "葭池温泉前",
        "name:en": "Yoshiikeonsenmae",
        "name:ja": "葭池温泉前",
        "name:ja-Hira": "よしいけおんせんまえ",
        "name:ja_rm": "Yoshiikeonsenmae",
        "name:ko": "요시이케온천앞",
        "operator": "富士山麓電気鉄道株式会社",
        "public_transport": "station",
        "railway": "station",
        "wikidata": "Q8013211",
        "wikipedia": "ja:葭池温泉前駅"
      }
    },
    {
      "id": "yamanashi_station_8241789861",
      "osmId": 8241789861,
      "osmType": "node",
      "prefectureId": "yamanashi",
      "type": "station",
      "subtype": "private",
      "name": "下吉田",
      "nameKana": "しもよしだ",
      "nameEn": "Shimoyoshida",
      "operator": "富士山麓電気鉄道株式会社",
      "network": null,
      "ref": null,
      "latitude": 35.4979775,
      "longitude": 138.8036172,
      "countryCode": "jp",
      "rawTags": {
        "name": "下吉田",
        "name:en": "Shimoyoshida",
        "name:ja": "下吉田",
        "name:ja-Hira": "しもよしだ",
        "name:ja_rm": "Shimoyoshida",
        "name:ko": "시모요시다",
        "operator": "富士山麓電気鉄道株式会社",
        "public_transport": "station",
        "railway": "station",
        "train": "yes",
        "wikidata": "Q7497026",
        "wikipedia": "ja:下吉田駅"
      }
    },
    {
      "id": "yamanashi_station_8241789864",
      "osmId": 8241789864,
      "osmType": "node",
      "prefectureId": "yamanashi",
      "type": "station",
      "subtype": "private",
      "name": "月江寺",
      "nameKana": "げっこうじ",
      "nameEn": "Gekkoji",
      "operator": null,
      "network": null,
      "ref": null,
      "latitude": 35.4932001,
      "longitude": 138.7981097,
      "countryCode": "jp",
      "rawTags": {
        "name": "月江寺",
        "name:en": "Gekkoji",
        "name:ja": "月江寺",
        "name:ja-Hira": "げっこうじ",
        "name:ko": "겟코지",
        "public_transport": "station",
        "railway": "station",
        "wikidata": "Q5530322",
        "wikipedia": "ja:月江寺駅"
      }
    },
    {
      "id": "yamanashi_station_8241789865",
      "osmId": 8241789865,
      "osmType": "node",
      "prefectureId": "yamanashi",
      "type": "station",
      "subtype": "private",
      "name": "富士急ハイランド",
      "nameKana": "ふじきゅうはいらんど",
      "nameEn": "Fujikyu Highland",
      "operator": "富士山麓電気鉄道株式会社",
      "network": null,
      "ref": null,
      "latitude": 35.4893684,
      "longitude": 138.7819442,
      "countryCode": "jp",
      "rawTags": {
        "name": "富士急ハイランド",
        "name:en": "Fujikyu Highland",
        "name:ja": "富士急ハイランド",
        "name:ja-Hira": "ふじきゅうはいらんど",
        "name:ko": "후지큐하이랜드",
        "operator": "富士山麓電気鉄道株式会社",
        "public_transport": "station",
        "railway": "station",
        "train": "yes",
        "wheelchair": "yes",
        "wikidata": "Q843037",
        "wikipedia": "ja:富士急ハイランド駅"
      }
    },
    {
      "id": "yamanashi_station_8241789866",
      "osmId": 8241789866,
      "osmType": "node",
      "prefectureId": "yamanashi",
      "type": "station",
      "subtype": "private",
      "name": "河口湖",
      "nameKana": null,
      "nameEn": "Kawaguchiko",
      "operator": null,
      "network": null,
      "ref": "FJ18",
      "latitude": 35.4980327,
      "longitude": 138.7689798,
      "countryCode": "jp",
      "rawTags": {
        "name": "河口湖",
        "name:en": "Kawaguchiko",
        "name:fr": "Kawaguchiko",
        "name:ja": "河口湖",
        "name:ko": "가와구치코",
        "public_transport": "station",
        "railway": "station",
        "ref": "FJ18",
        "wikidata": "Q6379504",
        "wikipedia": "ja:河口湖駅"
      }
    },
    {
      "id": "yamanashi_station_8241802218",
      "osmId": 8241802218,
      "osmType": "node",
      "prefectureId": "yamanashi",
      "type": "station",
      "subtype": "private",
      "name": "都留文科大学前",
      "nameKana": "つるぶんかだいがくまえ",
      "nameEn": "Tsurubunkadaigakumae",
      "operator": "富士山麓電気鉄道株式会社",
      "network": null,
      "ref": null,
      "latitude": 35.5425045,
      "longitude": 138.8965302,
      "countryCode": "jp",
      "rawTags": {
        "alt_name:ko": "쓰루분카다이가쿠마에",
        "name": "都留文科大学前",
        "name:en": "Tsurubunkadaigakumae",
        "name:ja": "都留文科大学前",
        "name:ja-Hira": "つるぶんかだいがくまえ",
        "name:ko": "쓰루문과대학앞",
        "operator": "富士山麓電気鉄道株式会社",
        "public_transport": "station",
        "railway": "station",
        "source": "GSImaps/seamlessphoto;survey",
        "wikidata": "Q7850252",
        "wikipedia": "ja:都留文科大学前駅"
      }
    },
    {
      "id": "yamanashi_station_8241802219",
      "osmId": 8241802219,
      "osmType": "node",
      "prefectureId": "yamanashi",
      "type": "station",
      "subtype": "private",
      "name": "十日市場",
      "nameKana": "とおかいちば",
      "nameEn": "Tokaichiba",
      "operator": null,
      "network": null,
      "ref": null,
      "latitude": 35.5388986,
      "longitude": 138.8875113,
      "countryCode": "jp",
      "rawTags": {
        "name": "十日市場",
        "name:en": "Tokaichiba",
        "name:ja": "十日市場",
        "name:ja-Hira": "とおかいちば",
        "name:ja-Latn": "Tokaichiba",
        "name:ja_kana": "とおかいちば",
        "name:ja_rm": "Tokaichiba",
        "name:ko": "도카이치바",
        "public_transport": "station",
        "railway": "station",
        "wikidata": "Q7862683",
        "wikipedia": "ja:十日市場駅 (山梨県)"
      }
    },
    {
      "id": "yamanashi_station_8241802220",
      "osmId": 8241802220,
      "osmType": "node",
      "prefectureId": "yamanashi",
      "type": "station",
      "subtype": "private",
      "name": "三つ峠",
      "nameKana": "みつとうげ",
      "nameEn": "Mitsutouge",
      "operator": null,
      "network": null,
      "ref": null,
      "latitude": 35.5241802,
      "longitude": 138.8453597,
      "countryCode": "jp",
      "rawTags": {
        "name": "三つ峠",
        "name:en": "Mitsutouge",
        "name:ja": "三つ峠",
        "name:ja-Hira": "みつとうげ",
        "name:ko": "미쓰토게",
        "public_transport": "station",
        "railway": "station",
        "wikidata": "Q6883395",
        "wikipedia": "ja:三つ峠駅"
      }
    },
    {
      "id": "yamanashi_station_8241802222",
      "osmId": 8241802222,
      "osmType": "node",
      "prefectureId": "yamanashi",
      "type": "station",
      "subtype": "private",
      "name": "寿",
      "nameKana": "ことぶき",
      "nameEn": "Kotobuki",
      "operator": "富士山麓電気鉄道株式会社",
      "network": null,
      "ref": null,
      "latitude": 35.5082238,
      "longitude": 138.8252867,
      "countryCode": "jp",
      "rawTags": {
        "name": "寿",
        "name:en": "Kotobuki",
        "name:ja": "寿",
        "name:ja_kana": "ことぶき",
        "name:ja_rm": "Kotobuki",
        "name:ko": "고토부키",
        "operator": "富士山麓電気鉄道株式会社",
        "public_transport": "station",
        "railway": "station",
        "wikidata": "Q6434150",
        "wikipedia": "ja:寿駅"
      }
    },
    {
      "id": "yamanashi_station_9198462043",
      "osmId": 9198462043,
      "osmType": "node",
      "prefectureId": "yamanashi",
      "type": "station",
      "subtype": "private",
      "name": "山梨県駅、仮称",
      "nameKana": null,
      "nameEn": "Yamanashi Prefecture station (TBD)",
      "operator": null,
      "network": null,
      "ref": null,
      "latitude": 35.6055264,
      "longitude": 138.5624302,
      "countryCode": "jp",
      "rawTags": {
        "name": "山梨県駅、仮称",
        "name:en": "Yamanashi Prefecture station (TBD)",
        "name:ja": "山梨県駅、仮称",
        "public_transport": "station",
        "railway": "station",
        "wikidata": "Q106837471",
        "wikipedia": "ja:山梨県駅"
      }
    },
    {
      "id": "yamanashi_station_9938276625",
      "osmId": 9938276625,
      "osmType": "node",
      "prefectureId": "yamanashi",
      "type": "station",
      "subtype": "private",
      "name": "穴山",
      "nameKana": null,
      "nameEn": "Anayama",
      "operator": null,
      "network": null,
      "ref": null,
      "latitude": 35.7511531,
      "longitude": 138.414278,
      "countryCode": "jp",
      "rawTags": {
        "name": "穴山",
        "name:en": "Anayama",
        "public_transport": "station",
        "railway": "station",
        "source": "KSJ2",
        "train": "yes",
        "wikidata": "Q4752462",
        "wikipedia": "ja:穴山駅"
      }
    },
    {
      "id": "yamanashi_ferry_terminal_12107540388",
      "osmId": 12107540388,
      "osmType": "node",
      "prefectureId": "yamanashi",
      "type": "ferry_terminal",
      "subtype": null,
      "name": "Swan Boat House",
      "nameKana": null,
      "nameEn": null,
      "operator": null,
      "network": null,
      "ref": null,
      "latitude": 35.408175,
      "longitude": 138.8765251,
      "countryCode": "jp",
      "rawTags": {
        "alt_name": "Asahigaoka Pier",
        "amenity": "ferry_terminal",
        "check_date": "2024-08-13",
        "ferry": "yes",
        "name": "Swan Boat House",
        "tourism": "yes"
      }
    },
    {
      "id": "yamanashi_bus_terminal_13066531081",
      "osmId": 13066531081,
      "osmType": "node",
      "prefectureId": "yamanashi",
      "type": "bus_terminal",
      "subtype": null,
      "name": "富士山駅",
      "nameKana": null,
      "nameEn": "Mount Fuji Station",
      "operator": null,
      "network": null,
      "ref": null,
      "latitude": 35.483725,
      "longitude": 138.7951353,
      "countryCode": "jp",
      "rawTags": {
        "amenity": "bus_station",
        "name": "富士山駅",
        "name:en": "Mount Fuji Station"
      }
    },
    {
      "id": "yamanashi_bus_terminal_205019699",
      "osmId": 205019699,
      "osmType": "way",
      "prefectureId": "yamanashi",
      "type": "bus_terminal",
      "subtype": null,
      "name": "富士急旭日丘バスターミナル",
      "nameKana": null,
      "nameEn": "Fujikyu Asahigaoka Bus Terminal",
      "operator": null,
      "network": null,
      "ref": null,
      "latitude": 35.4069304,
      "longitude": 138.8758433,
      "countryCode": "jp",
      "rawTags": {
        "amenity": "bus_station",
        "building": "yes",
        "bus": "yes",
        "name": "富士急旭日丘バスターミナル",
        "name:en": "Fujikyu Asahigaoka Bus Terminal",
        "name:fr": "Terminal de bus de Fujikyu Asahigaoka",
        "public_transport": "station",
        "wheelchair": "limited"
      }
    },
    {
      "id": "yamanashi_station_226739377",
      "osmId": 226739377,
      "osmType": "way",
      "prefectureId": "yamanashi",
      "type": "station",
      "subtype": "private",
      "name": "甲府",
      "nameKana": "こうふ",
      "nameEn": "Kofu",
      "operator": null,
      "network": null,
      "ref": "CO43",
      "latitude": 35.6673683,
      "longitude": 138.5690583,
      "countryCode": "jp",
      "rawTags": {
        "building": "train_station",
        "layer": "2",
        "level": "0;1",
        "name": "甲府",
        "name:en": "Kofu",
        "name:ja": "甲府駅",
        "name:ja-Hira": "こうふ",
        "name:ja-Latn": "Kōfu",
        "public_transport": "station",
        "railway": "station",
        "ref": "CO43",
        "source": "KSJ2",
        "train": "yes",
        "website": "https://www.jreast.co.jp/estation/station/info.aspx?StationCd=671",
        "wikidata": "Q1066072",
        "wikipedia": "ja:甲府駅"
      }
    },
    {
      "id": "yamanashi_station_691052457",
      "osmId": 691052457,
      "osmType": "way",
      "prefectureId": "yamanashi",
      "type": "station",
      "subtype": "private",
      "name": "市川大門駅",
      "nameKana": null,
      "nameEn": null,
      "operator": null,
      "network": null,
      "ref": null,
      "latitude": 35.560622,
      "longitude": 138.4926969,
      "countryCode": "jp",
      "rawTags": {
        "building": "train_station",
        "name": "市川大門駅",
        "public_transport": "station",
        "railway": "station",
        "train": "yes"
      }
    },
    {
      "id": "yamanashi_airport_1305844890",
      "osmId": 1305844890,
      "osmType": "way",
      "prefectureId": "yamanashi",
      "type": "airport",
      "subtype": "domestic",
      "name": "Futaba",
      "nameKana": null,
      "nameEn": null,
      "operator": null,
      "network": null,
      "ref": null,
      "latitude": 35.6819409,
      "longitude": 138.4831838,
      "countryCode": "jp",
      "rawTags": {
        "aeroway": "aerodrome",
        "name": "Futaba",
        "name:ja": "双葉滑空場",
        "wikidata": "Q38267014",
        "wikipedia": "ja:双葉滑空場"
      }
    }
  ]
}